{"type":"FeatureCollection","features":[{"type":"Feature","properties":{},"geometry":{"type":"Polygon","coordinates":[[[54.390697,24.482594],[54.390718,24.482472],[54.39058,24.482459],[54.390515,24.482509],[54.390498,24.482633],[54.390632,24.482645],[54.390697,24.482594]]]}},{"type":"Feature","properties":{},"geometry":{"type":"Polygon","coordinates":[[[54.390998,24.482671],[54.391035,24.482607],[54.390942,24.482565],[54.390877,24.482615],[54.39076,24.482822],[54.390846,24.482867],[54.390912,24.482816],[54.390996,24.482673],[54.390882,24.482878],[54.390963,24.482917],[54.391028,24.482867],[54.391149,24.48266],[54.391062,24.48262],[54.390998,24.482671]]]}},{"type":"Feature","properties":{},"geometry":{"type":"Polygon","coordinates":[[[54.390518,24.482654],[54.390453,24.482705],[54.390396,24.482785],[54.390645,24.482923],[54.39071,24.482873],[54.390765,24.482792],[54.390518,24.482654]]]}},{"type":"Feature","properties":{},"geometry":{"type":"Polygon","coordinates":[[[54.391056,24.482942],[54.390991,24.482993],[54.390932,24.483075],[54.391173,24.483218],[54.39125,24.483153],[54.39121,24.48322],[54.391438,24.483333],[54.391503,24.483283],[54.39158,24.48316],[54.39149,24.483096],[54.391525,24.483037],[54.391546,24.483048],[54.391564,24.483034],[54.391602,24.483053],[54.391667,24.483003],[54.391742,24.482883],[54.391509,24.482769],[54.391458,24.48281],[54.391462,24.482801],[54.391195,24.48268],[54.39113,24.482731],[54.39109,24.4828],[54.391183,24.482844],[54.391125,24.482889],[54.391085,24.482953],[54.39113,24.482976],[54.391182,24.482935],[54.391317,24.482996],[54.391361,24.482963],[54.391292,24.48308],[54.391056,24.482942]]]}},{"type":"Feature","properties":{},"geometry":{"type":"Polygon","coordinates":[[[54.390062,24.482824],[54.389997,24.482755],[54.389842,24.482875],[54.389907,24.482944],[54.390062,24.482824]]]}},{"type":"Feature","properties":{},"geometry":{"type":"Polygon","coordinates":[[[54.392196,24.483293],[54.392261,24.483243],[54.392319,24.48314],[54.392267,24.483114],[54.392253,24.483125],[54.392281,24.483077],[54.392174,24.483027],[54.39214,24.483053],[54.392042,24.483006],[54.391977,24.483056],[54.391956,24.483094],[54.392052,24.48314],[54.392091,24.48311],[54.392081,24.483129],[54.392187,24.483177],[54.392201,24.483167],[54.392142,24.483269],[54.392196,24.483293]]]}},{"type":"Feature","properties":{},"geometry":{"type":"Polygon","coordinates":[[[54.392476,24.48318],[54.392379,24.483134],[54.392314,24.483185],[54.392217,24.483362],[54.39231,24.483405],[54.392375,24.483354],[54.392476,24.48318]]]}},{"type":"Feature","properties":{},"geometry":{"type":"Polygon","coordinates":[[[54.391546,24.483507],[54.391612,24.483457],[54.391627,24.483427],[54.391532,24.483387],[54.391467,24.483437],[54.391451,24.483467],[54.391546,24.483507]]]}},{"type":"Feature","properties":{},"geometry":{"type":"Polygon","coordinates":[[[54.390949,24.483615],[54.391155,24.483761],[54.39122,24.483711],[54.391408,24.483498],[54.391224,24.483358],[54.390949,24.483615]]]}},{"type":"Feature","properties":{},"geometry":{"type":"Polygon","coordinates":[[[54.391259,24.483947],[54.391411,24.48382],[54.391274,24.483685],[54.391121,24.483811],[54.391259,24.483947]]]}},{"type":"Feature","properties":{},"geometry":{"type":"Polygon","coordinates":[[[54.390734,24.484613],[54.39089,24.484485],[54.390771,24.484369],[54.390615,24.484497],[54.390734,24.484613]]]}},{"type":"Feature","properties":{},"geometry":{"type":"Polygon","coordinates":[[[54.392306,24.489029],[54.392526,24.489116],[54.392633,24.489189],[54.392805,24.489382],[54.393174,24.489234],[54.393191,24.489338],[54.393681,24.489274],[54.393295,24.489581],[54.393313,24.489733],[54.393237,24.48969],[54.392995,24.489698],[54.392914,24.489761],[54.392818,24.490149],[54.392741,24.490284],[54.392349,24.490475],[54.392143,24.490511],[54.391935,24.490511],[54.391736,24.490465],[54.391654,24.490528],[54.391639,24.490565],[54.391653,24.490636],[54.391618,24.490663],[54.39157,24.490773],[54.391642,24.490842],[54.391861,24.490885],[54.392221,24.490996],[54.392303,24.490933],[54.392422,24.490933],[54.392488,24.49106],[54.392903,24.491006],[54.393219,24.491193],[54.393301,24.49113],[54.393345,24.491072],[54.393419,24.491158],[54.393512,24.491212],[54.393618,24.491237],[54.393707,24.491232],[54.393398,24.491608],[54.39345,24.491753],[54.393787,24.491985],[54.39383,24.491951],[54.395053,24.490483],[54.394882,24.49037],[54.394497,24.490409],[54.394352,24.490468],[54.394309,24.490502],[54.394055,24.49081],[54.394011,24.490704],[54.393948,24.490637],[54.394669,24.490078],[54.394659,24.489991],[54.394745,24.489924],[54.394704,24.489573],[54.394603,24.489582],[54.394592,24.489484],[54.39441,24.489501],[54.393905,24.489893],[54.393898,24.489853],[54.394585,24.489319],[54.394579,24.489263],[54.394664,24.489197],[54.394622,24.488843],[54.39452,24.488853],[54.394503,24.488755],[54.395185,24.488219],[54.395111,24.488144],[54.395209,24.488065],[54.395036,24.487889],[54.394884,24.48767],[54.39537,24.487249],[54.395338,24.487219],[54.395256,24.487186],[54.395144,24.487174],[54.395019,24.487192],[54.394708,24.487433],[54.39462,24.487343],[54.394571,24.487381],[54.394555,24.487364],[54.394304,24.487565],[54.394405,24.487668],[54.394372,24.487693],[54.394275,24.4876],[54.39403,24.487806],[54.394048,24.487824],[54.394001,24.487864],[54.39412,24.487977],[54.39407,24.488022],[54.394109,24.488059],[54.394068,24.488095],[54.39419,24.488209],[54.394271,24.488146],[54.394448,24.488345],[54.393847,24.488825],[54.394025,24.489007],[54.393799,24.489182],[54.39375,24.488869],[54.393172,24.488945],[54.393098,24.488906],[54.393043,24.488846],[54.393017,24.488786],[54.39301,24.488722],[54.393024,24.488658],[54.393056,24.488603],[54.3931,24.488581],[54.393626,24.488535],[54.393708,24.488472],[54.393649,24.487917],[54.392872,24.487985],[54.392791,24.488048],[54.392828,24.488404],[54.392633,24.488646],[54.392483,24.488575],[54.392314,24.488534],[54.39223,24.488609],[54.392215,24.488605],[54.392134,24.488668],[54.392043,24.489003],[54.392306,24.489029]]]}},{"type":"Feature","properties":{},"geometry":{"type":"Polygon","coordinates":[[[54.392103,24.491214],[54.392145,24.491541],[54.392437,24.49151],[54.392502,24.49146],[54.392493,24.491385],[54.39283,24.49135],[54.392896,24.4913],[54.392869,24.491091],[54.392169,24.491164],[54.392103,24.491214]]]}},{"type":"Feature","properties":{},"geometry":{"type":"Polygon","coordinates":[[[54.392963,24.492093],[54.39299,24.491892],[54.392934,24.491532],[54.39246,24.491593],[54.392395,24.491644],[54.392481,24.492197],[54.392898,24.492143],[54.392963,24.492093]]]}},{"type":"Feature","properties":{},"geometry":{"type":"Polygon","coordinates":[[[54.39287,24.492786],[54.392808,24.492401],[54.392226,24.492479],[54.392161,24.492529],[54.392223,24.492915],[54.392805,24.492837],[54.39287,24.492786]]]}},{"type":"Feature","properties":{},"geometry":{"type":"Polygon","coordinates":[[[54.390693,24.492868],[54.390587,24.492771],[54.390334,24.492992],[54.39044,24.493089],[54.390693,24.492868]]]}},{"type":"Feature","properties":{},"geometry":{"type":"Polygon","coordinates":[[[54.390121,24.493761],[54.389311,24.493854],[54.389246,24.493905],[54.389296,24.494259],[54.390105,24.494165],[54.39017,24.494115],[54.390121,24.493761]]]}},{"type":"Feature","properties":{},"geometry":{"type":"Polygon","coordinates":[[[54.392676,24.496131],[54.392732,24.496088],[54.393591,24.496003],[54.393656,24.495953],[54.3936,24.495527],[54.393674,24.496059],[54.393799,24.496044],[54.394014,24.495861],[54.39422,24.495837],[54.394285,24.495786],[54.3942,24.495176],[54.393632,24.495242],[54.393567,24.495292],[54.393571,24.495316],[54.392676,24.495443],[54.392611,24.495493],[54.392676,24.496131]]]}},{"type":"Feature","properties":{},"geometry":{"type":"Polygon","coordinates":[[[54.390444,24.496395],[54.390501,24.49635],[54.390503,24.496382],[54.390578,24.496379],[54.390643,24.496328],[54.39063,24.496099],[54.390576,24.495677],[54.390109,24.495729],[54.390044,24.49578],[54.390048,24.495887],[54.390175,24.495877],[54.390193,24.496028],[54.390147,24.496033],[54.390082,24.496083],[54.390091,24.496158],[54.390108,24.496156],[54.39014,24.496414],[54.390444,24.496395]],[[54.390492,24.496195],[54.390496,24.49627],[54.390394,24.496273],[54.390448,24.496231],[54.390439,24.496159],[54.390449,24.496197],[54.390492,24.496195]]]}},{"type":"Feature","properties":{},"geometry":{"type":"Polygon","coordinates":[[[54.391356,24.49707],[54.391431,24.497071],[54.391476,24.497036],[54.391478,24.497068],[54.391598,24.497063],[54.391663,24.497013],[54.391661,24.496974],[54.391541,24.496979],[54.391496,24.497013],[54.391497,24.496987],[54.391422,24.496985],[54.391357,24.497035],[54.391356,24.49707]]]}},{"type":"Feature","properties":{},"geometry":{"type":"Polygon","coordinates":[[[54.391662,24.49708],[54.391607,24.49709],[54.391542,24.49714],[54.39155,24.497178],[54.391605,24.497168],[54.39167,24.497118],[54.391662,24.49708]]]}},{"type":"Feature","properties":{},"geometry":{"type":"Polygon","coordinates":[[[54.391167,24.497228],[54.391165,24.497292],[54.391278,24.497294],[54.391343,24.497244],[54.391345,24.497181],[54.391262,24.497178],[54.391304,24.497146],[54.391309,24.497052],[54.391186,24.49705],[54.391121,24.497101],[54.391119,24.497195],[54.391208,24.497196],[54.391167,24.497228]]]}},{"type":"Feature","properties":{},"geometry":{"type":"Polygon","coordinates":[[[54.393355,24.498117],[54.393313,24.498116],[54.393248,24.498167],[54.393245,24.498247],[54.393287,24.498248],[54.393352,24.498198],[54.393355,24.498117]]]}},{"type":"Feature","properties":{},"geometry":{"type":"Polygon","coordinates":[[[54.390753,24.498627],[54.390846,24.498683],[54.391262,24.498664],[54.391913,24.49816],[54.391881,24.497941],[54.391505,24.497815],[54.391368,24.497883],[54.390942,24.498213],[54.390929,24.498107],[54.389896,24.498215],[54.389831,24.498265],[54.389876,24.498619],[54.390739,24.498529],[54.390753,24.498627]]]}},{"type":"Feature","properties":{},"geometry":{"type":"Polygon","coordinates":[[[54.391889,24.500727],[54.391623,24.500751],[54.391558,24.500801],[54.391595,24.501049],[54.391856,24.50102],[54.391921,24.500969],[54.391889,24.500727]]]}},{"type":"Feature","properties":{},"geometry":{"type":"Polygon","coordinates":[[[54.390209,24.502594],[54.390286,24.503192],[54.391038,24.503128],[54.391157,24.503036],[54.391108,24.502598],[54.391299,24.502573],[54.391418,24.50248],[54.39098,24.498843],[54.389877,24.498968],[54.389758,24.49906],[54.390182,24.502386],[54.389868,24.502417],[54.389771,24.502493],[54.38979,24.502642],[54.390209,24.502594]]]}},{"type":"Feature","properties":{},"geometry":{"type":"Polygon","coordinates":[[[54.392034,24.503733],[54.392126,24.50372],[54.392191,24.50367],[54.392183,24.503621],[54.392091,24.503633],[54.392026,24.503684],[54.392034,24.503733]]]}},{"type":"Feature","properties":{},"geometry":{"type":"Polygon","coordinates":[[[54.392554,24.503762],[54.392463,24.503763],[54.392397,24.503813],[54.392398,24.503862],[54.392489,24.503861],[54.392554,24.503811],[54.392554,24.503762]]]}},{"type":"Feature","properties":{},"geometry":{"type":"Polygon","coordinates":[[[54.392274,24.503831],[54.392268,24.503729],[54.392105,24.503737],[54.39204,24.503787],[54.392046,24.50389],[54.392209,24.503881],[54.392274,24.503831]]]}},{"type":"Feature","properties":{},"geometry":{"type":"Polygon","coordinates":[[[54.392558,24.503881],[54.392347,24.503906],[54.392282,24.503956],[54.392314,24.504177],[54.392525,24.504152],[54.39259,24.504102],[54.392558,24.503881]]]}},{"type":"Feature","properties":{},"geometry":{"type":"Polygon","coordinates":[[[54.392147,24.504394],[54.392157,24.504482],[54.392264,24.504472],[54.392329,24.504421],[54.392272,24.503917],[54.392164,24.503927],[54.392106,24.503972],[54.392104,24.503938],[54.392054,24.50394],[54.391988,24.503991],[54.392,24.504183],[54.392051,24.50418],[54.392116,24.50413],[54.392127,24.504226],[54.39209,24.504227],[54.392025,24.504278],[54.392033,24.504446],[54.392082,24.504444],[54.392147,24.504394]]]}},{"type":"Feature","properties":{},"geometry":{"type":"Polygon","coordinates":[[[54.392332,24.504457],[54.392439,24.504451],[54.392504,24.504401],[54.3925,24.504343],[54.392592,24.504285],[54.39258,24.504249],[54.392496,24.50428],[54.392488,24.504165],[54.392381,24.504171],[54.392316,24.504221],[54.392332,24.504457]]]}},{"type":"Feature","properties":{},"geometry":{"type":"Polygon","coordinates":[[[54.39262,24.504452],[54.392177,24.504496],[54.392112,24.504547],[54.392145,24.504822],[54.392588,24.504778],[54.392653,24.504727],[54.39262,24.504452]]]}},{"type":"Feature","properties":{},"geometry":{"type":"Polygon","coordinates":[[[54.392228,24.504858],[54.392173,24.504863],[54.392108,24.504913],[54.392116,24.504993],[54.392171,24.504989],[54.392236,24.504938],[54.392228,24.504858]]]}},{"type":"Feature","properties":{},"geometry":{"type":"Polygon","coordinates":[[[54.392257,24.505244],[54.392369,24.505241],[54.392434,24.505191],[54.392433,24.505123],[54.392527,24.505113],[54.392592,24.505063],[54.392563,24.504815],[54.392452,24.504825],[54.392387,24.504876],[54.392412,24.505081],[54.392319,24.505083],[54.392267,24.505124],[54.392266,24.505103],[54.392208,24.505104],[54.392143,24.505155],[54.392146,24.505264],[54.392204,24.505263],[54.392256,24.505222],[54.392257,24.505244]]]}},{"type":"Feature","properties":{},"geometry":{"type":"Polygon","coordinates":[[[54.392737,24.505136],[54.392522,24.505149],[54.392457,24.505199],[54.392493,24.505699],[54.392708,24.505686],[54.392773,24.505636],[54.392737,24.505136]]]}},{"type":"Feature","properties":{},"geometry":{"type":"Polygon","coordinates":[[[54.389993,24.505205],[54.389795,24.505218],[54.38973,24.505268],[54.389777,24.505862],[54.389991,24.505847],[54.390056,24.505797],[54.390029,24.505456],[54.390013,24.505457],[54.389993,24.505205]]]}},{"type":"Feature","properties":{},"geometry":{"type":"Polygon","coordinates":[[[54.391711,24.506906],[54.3918,24.506897],[54.391865,24.506847],[54.391859,24.506801],[54.39177,24.50681],[54.391705,24.50686],[54.391711,24.506906]]]}},{"type":"Feature","properties":{},"geometry":{"type":"Polygon","coordinates":[[[54.391922,24.506955],[54.391936,24.50701],[54.392002,24.506996],[54.392067,24.506945],[54.39206,24.506917],[54.392098,24.506888],[54.392088,24.506846],[54.391978,24.506869],[54.391919,24.506915],[54.391916,24.506892],[54.39188,24.506896],[54.391814,24.506947],[54.391823,24.507008],[54.391859,24.507004],[54.391922,24.506955]]]}},{"type":"Feature","properties":{},"geometry":{"type":"Polygon","coordinates":[[[54.392715,24.506783],[54.39253,24.506794],[54.392465,24.506845],[54.392491,24.507187],[54.392676,24.507175],[54.392741,24.507125],[54.392715,24.506783]]]}},{"type":"Feature","properties":{},"geometry":{"type":"Polygon","coordinates":[[[54.39194,24.507053],[54.391814,24.507055],[54.391749,24.507105],[54.391751,24.507194],[54.391877,24.507192],[54.391942,24.507142],[54.39194,24.507053]]]}},{"type":"Feature","properties":{},"geometry":{"type":"Polygon","coordinates":[[[54.392985,24.507152],[54.392904,24.50716],[54.392839,24.507211],[54.392846,24.507265],[54.392927,24.507256],[54.392992,24.507205],[54.392985,24.507152]]]}},{"type":"Feature","properties":{},"geometry":{"type":"Polygon","coordinates":[[[54.391934,24.507327],[54.391531,24.507352],[54.391466,24.507402],[54.391476,24.507541],[54.391879,24.507516],[54.391944,24.507466],[54.391934,24.507327]]]}},{"type":"Feature","properties":{},"geometry":{"type":"Polygon","coordinates":[[[54.39118,24.507431],[54.391047,24.507429],[54.390982,24.50748],[54.390981,24.50756],[54.391114,24.507562],[54.391179,24.507511],[54.39118,24.507431]]]}},{"type":"Feature","properties":{},"geometry":{"type":"Polygon","coordinates":[[[54.393037,24.508776],[54.393151,24.508784],[54.393216,24.508734],[54.393217,24.5087],[54.39297,24.508709],[54.392905,24.508759],[54.392905,24.50879],[54.393023,24.508787],[54.393037,24.508776]]]}},{"type":"Feature","properties":{},"geometry":{"type":"Polygon","coordinates":[[[54.393091,24.509737],[54.393021,24.509696],[54.392956,24.509747],[54.392927,24.509788],[54.392998,24.509828],[54.393063,24.509778],[54.393091,24.509737]]]}},{"type":"Feature","properties":{},"geometry":{"type":"Polygon","coordinates":[[[54.40438,24.481364],[54.404445,24.481313],[54.404282,24.481036],[54.403673,24.48131],[54.403608,24.48136],[54.403851,24.481634],[54.40438,24.481364]]]}},{"type":"Feature","properties":{},"geometry":{"type":"Polygon","coordinates":[[[54.403255,24.483046],[54.403244,24.483017],[54.403079,24.482706],[54.402754,24.48227],[54.402445,24.482395],[54.402362,24.482355],[54.402377,24.482242],[54.402291,24.482238],[54.402182,24.482322],[54.401313,24.483238],[54.401313,24.483355],[54.401355,24.483418],[54.401529,24.483459],[54.401727,24.483374],[54.402042,24.483289],[54.402462,24.4833],[54.402987,24.48348],[54.403095,24.483396],[54.403027,24.483198],[54.403146,24.48313],[54.403255,24.483046]]]}},{"type":"Feature","properties":{},"geometry":{"type":"Polygon","coordinates":[[[54.403886,24.485851],[54.404147,24.485609],[54.404367,24.485274],[54.404472,24.48503],[54.404542,24.48481],[54.40454,24.484515],[54.403751,24.484451],[54.403686,24.484502],[54.403554,24.484948],[54.403461,24.485124],[54.403274,24.485315],[54.403886,24.485851]]]}},{"type":"Feature","properties":{},"geometry":{"type":"Polygon","coordinates":[[[54.400255,24.486667],[54.400104,24.486843],[54.400571,24.487172],[54.400689,24.487209],[54.400801,24.487167],[54.400866,24.487117],[54.401207,24.486363],[54.400743,24.486123],[54.400678,24.486174],[54.400566,24.486352],[54.400255,24.486667]]]}},{"type":"Feature","properties":{},"geometry":{"type":"Polygon","coordinates":[[[54.404408,24.486649],[54.40406,24.486285],[54.404023,24.48626],[54.403971,24.486254],[54.403234,24.486607],[54.403072,24.486733],[54.403281,24.487286],[54.403315,24.48732],[54.403367,24.487334],[54.403605,24.487249],[54.403959,24.487059],[54.40439,24.486736],[54.404417,24.486697],[54.404408,24.486649]],[[54.403891,24.486779],[54.403623,24.486912],[54.40357,24.486764],[54.403784,24.486647],[54.403891,24.486779]]]}},{"type":"Feature","properties":{},"geometry":{"type":"Polygon","coordinates":[[[54.401144,24.487765],[54.400111,24.487303],[54.399543,24.486934],[54.398968,24.486502],[54.398903,24.486553],[54.397669,24.487902],[54.398809,24.488756],[54.40013,24.48945],[54.400901,24.489764],[54.401692,24.489934],[54.402535,24.489994],[54.4026,24.489943],[54.40288,24.489596],[54.402625,24.488136],[54.402288,24.488086],[54.401773,24.487981],[54.401144,24.487765]]]}},{"type":"Feature","properties":{},"geometry":{"type":"Polygon","coordinates":[[[54.400337,24.490744],[54.400402,24.490694],[54.400362,24.490428],[54.400058,24.490467],[54.399993,24.490517],[54.400033,24.490783],[54.400337,24.490744]]]}},{"type":"Feature","properties":{},"geometry":{"type":"Polygon","coordinates":[[[54.393149,24.492688],[54.392971,24.492893],[54.393212,24.493067],[54.393254,24.493034],[54.393349,24.493102],[54.393688,24.492839],[54.393749,24.492879],[54.393846,24.492803],[54.393917,24.49285],[54.394752,24.492202],[54.394791,24.492154],[54.395132,24.491889],[54.395234,24.491772],[54.395139,24.491703],[54.395182,24.491654],[54.395153,24.491633],[54.395386,24.491452],[54.395487,24.491335],[54.395392,24.491267],[54.395435,24.491218],[54.395317,24.491133],[54.395424,24.49105],[54.395626,24.490818],[54.395387,24.490647],[54.394655,24.491214],[54.394454,24.491446],[54.394561,24.491523],[54.39434,24.491694],[54.394162,24.491899],[54.394277,24.491983],[54.394097,24.492122],[54.393984,24.49204],[54.393149,24.492688]]]}},{"type":"Feature","properties":{},"geometry":{"type":"Polygon","coordinates":[[[54.398624,24.49184],[54.398498,24.491854],[54.398433,24.491905],[54.398476,24.492226],[54.398602,24.492208],[54.398667,24.492158],[54.398624,24.49184]]]}},{"type":"Feature","properties":{},"geometry":{"type":"Polygon","coordinates":[[[54.399095,24.49242],[54.399082,24.49232],[54.398848,24.492349],[54.398825,24.492216],[54.398753,24.492225],[54.398688,24.492276],[54.398716,24.492511],[54.39903,24.492471],[54.399095,24.49242]]]}},{"type":"Feature","properties":{},"geometry":{"type":"Polygon","coordinates":[[[54.398602,24.492224],[54.398525,24.492233],[54.39846,24.492283],[54.398505,24.492612],[54.398581,24.492604],[54.398647,24.492553],[54.398602,24.492224]]]}},{"type":"Feature","properties":{},"geometry":{"type":"Polygon","coordinates":[[[54.396062,24.492332],[54.395653,24.492258],[54.395588,24.492308],[54.395523,24.492607],[54.395932,24.492682],[54.395997,24.492631],[54.396062,24.492332]]]}},{"type":"Feature","properties":{},"geometry":{"type":"Polygon","coordinates":[[[54.400649,24.492935],[54.399918,24.49302],[54.399853,24.493071],[54.399908,24.493456],[54.400638,24.493371],[54.400704,24.493321],[54.400649,24.492935]]]}},{"type":"Feature","properties":{},"geometry":{"type":"Polygon","coordinates":[[[54.402425,24.494971],[54.402524,24.494961],[54.403255,24.494394],[54.40327,24.494402],[54.403046,24.494754],[54.403153,24.49481],[54.403177,24.494791],[54.403235,24.494822],[54.403196,24.494884],[54.403279,24.494927],[54.403853,24.494481],[54.40398,24.494548],[54.404045,24.494498],[54.404185,24.494278],[54.404124,24.494246],[54.404554,24.493571],[54.404527,24.493557],[54.404581,24.493471],[54.404418,24.493385],[54.404339,24.493457],[54.404296,24.493434],[54.404047,24.493458],[54.403982,24.493508],[54.40395,24.493564],[54.403873,24.493527],[54.403708,24.493544],[54.403703,24.493509],[54.403359,24.493544],[54.403294,24.493595],[54.403298,24.493624],[54.403273,24.493627],[54.403208,24.493677],[54.403222,24.493791],[54.402176,24.494603],[54.402227,24.495022],[54.402346,24.49501],[54.402423,24.49495],[54.402425,24.494971]]]}},{"type":"Feature","properties":{},"geometry":{"type":"Polygon","coordinates":[[[54.393522,24.49449],[54.393515,24.494441],[54.393367,24.494459],[54.393245,24.494541],[54.393279,24.494781],[54.393548,24.494749],[54.393613,24.494698],[54.393582,24.494482],[54.393522,24.49449]]]}},{"type":"Feature","properties":{},"geometry":{"type":"Polygon","coordinates":[[[54.402635,24.498838],[54.402619,24.498967],[54.402638,24.499078],[54.402674,24.499119],[54.401474,24.500051],[54.401367,24.500159],[54.401328,24.500224],[54.401384,24.50026],[54.401408,24.500294],[54.401422,24.500339],[54.401414,24.500398],[54.401579,24.500423],[54.401725,24.500406],[54.401841,24.500364],[54.403411,24.499157],[54.403515,24.499023],[54.403464,24.498982],[54.403434,24.49893],[54.403429,24.498854],[54.403492,24.498763],[54.403653,24.49863],[54.403643,24.498609],[54.403845,24.498526],[54.404068,24.498379],[54.404149,24.498291],[54.404172,24.498239],[54.404153,24.498207],[54.404167,24.498192],[54.404086,24.498134],[54.404135,24.498077],[54.404106,24.498066],[54.404185,24.498004],[54.404222,24.498085],[54.404599,24.497783],[54.405002,24.4973],[54.405251,24.496952],[54.405413,24.496686],[54.405411,24.496392],[54.404485,24.49605],[54.404349,24.496155],[54.404244,24.496445],[54.403888,24.496721],[54.403691,24.497217],[54.403731,24.497231],[54.403667,24.49728],[54.403495,24.497697],[54.403678,24.497759],[54.403494,24.497902],[54.403658,24.498227],[54.403208,24.498413],[54.403016,24.498458],[54.402743,24.498657],[54.402635,24.498838]]]}},{"type":"Feature","properties":{},"geometry":{"type":"Polygon","coordinates":[[[54.394542,24.496821],[54.394477,24.496872],[54.394245,24.497156],[54.394325,24.497441],[54.394576,24.497558],[54.394704,24.497493],[54.394885,24.497348],[54.394874,24.497274],[54.394898,24.497239],[54.394997,24.497172],[54.39503,24.497114],[54.394542,24.496821]]]}},{"type":"Feature","properties":{},"geometry":{"type":"Polygon","coordinates":[[[54.396129,24.498519],[54.396073,24.498517],[54.396008,24.498568],[54.396005,24.498633],[54.396062,24.498635],[54.396127,24.498585],[54.396129,24.498519]]]}},{"type":"Feature","properties":{},"geometry":{"type":"Polygon","coordinates":[[[54.393466,24.49866],[54.393401,24.49871],[54.393556,24.499715],[54.395305,24.499522],[54.39537,24.499471],[54.39526,24.498664],[54.395136,24.498542],[54.393466,24.49866]]]}},{"type":"Feature","properties":{},"geometry":{"type":"Polygon","coordinates":[[[54.403154,24.499593],[54.403093,24.499605],[54.402497,24.500068],[54.402483,24.500095],[54.402491,24.500131],[54.402558,24.500217],[54.402652,24.500265],[54.402673,24.500261],[54.402744,24.500206],[54.403038,24.500041],[54.403224,24.499898],[54.403354,24.500037],[54.403527,24.500138],[54.403475,24.500188],[54.403502,24.500224],[54.403473,24.500246],[54.403486,24.500569],[54.403514,24.500571],[54.403538,24.500596],[54.403513,24.500624],[54.403544,24.500669],[54.403587,24.500692],[54.403647,24.500697],[54.40374,24.500677],[54.404069,24.500421],[54.40409,24.500433],[54.404053,24.500506],[54.404058,24.500609],[54.404099,24.500654],[54.404136,24.500657],[54.404223,24.50062],[54.404298,24.500562],[54.404317,24.500574],[54.40462,24.500339],[54.404677,24.500374],[54.404666,24.500419],[54.404787,24.50044],[54.404813,24.50042],[54.404907,24.500429],[54.404991,24.500403],[54.405358,24.500119],[54.405581,24.500014],[54.405662,24.499949],[54.405928,24.49974],[54.406255,24.499347],[54.406373,24.499138],[54.406474,24.49889],[54.406529,24.498602],[54.406545,24.49833],[54.406522,24.498107],[54.406444,24.497802],[54.405643,24.497652],[54.405557,24.497719],[54.405704,24.497919],[54.405785,24.498087],[54.405836,24.498358],[54.405844,24.498576],[54.405833,24.498781],[54.405795,24.498934],[54.405704,24.499102],[54.405626,24.499205],[54.405367,24.499437],[54.405053,24.499607],[54.404746,24.499696],[54.40449,24.499725],[54.404403,24.499792],[54.404399,24.500096],[54.404331,24.500149],[54.404329,24.499803],[54.404345,24.49978],[54.404306,24.499735],[54.404826,24.499332],[54.404965,24.499285],[54.405252,24.499057],[54.405358,24.498901],[54.40544,24.498736],[54.405445,24.498549],[54.405429,24.498461],[54.405388,24.498458],[54.405412,24.498398],[54.405332,24.498066],[54.405283,24.498019],[54.405209,24.498001],[54.405129,24.498028],[54.404555,24.498474],[54.404514,24.498526],[54.404525,24.498588],[54.404589,24.498739],[54.404591,24.498782],[54.404451,24.498802],[54.404327,24.498776],[54.404234,24.498809],[54.403496,24.499365],[54.403154,24.499593]]]}},{"type":"Feature","properties":{},"geometry":{"type":"Polygon","coordinates":[[[54.395534,24.499827],[54.395419,24.499844],[54.395354,24.499894],[54.395382,24.500048],[54.395497,24.500031],[54.395562,24.49998],[54.395534,24.499827]]]}},{"type":"Feature","properties":{},"geometry":{"type":"Polygon","coordinates":[[[54.395273,24.500002],[54.395241,24.500009],[54.395176,24.500059],[54.395199,24.500163],[54.395231,24.500158],[54.395296,24.500107],[54.395273,24.500002]]]}},{"type":"Feature","properties":{},"geometry":{"type":"Polygon","coordinates":[[[54.394937,24.500444],[54.394916,24.50033],[54.394869,24.500337],[54.394804,24.500387],[54.394824,24.500501],[54.394871,24.500494],[54.394937,24.500444]]]}},{"type":"Feature","properties":{},"geometry":{"type":"Polygon","coordinates":[[[54.395488,24.500472],[54.394922,24.50055],[54.394857,24.500601],[54.394999,24.501449],[54.395565,24.501371],[54.39563,24.50132],[54.395488,24.500472]]]}},{"type":"Feature","properties":{},"geometry":{"type":"Polygon","coordinates":[[[54.395747,24.501897],[54.395661,24.501895],[54.395596,24.501945],[54.395593,24.502048],[54.395679,24.50205],[54.395744,24.502],[54.395747,24.501897]]]}},{"type":"Feature","properties":{},"geometry":{"type":"Polygon","coordinates":[[[54.395873,24.502153],[54.395441,24.502211],[54.395376,24.502262],[54.395427,24.50257],[54.395859,24.502511],[54.395924,24.502461],[54.395873,24.502153]]]}},{"type":"Feature","properties":{},"geometry":{"type":"Polygon","coordinates":[[[54.397473,24.504684],[54.397401,24.504687],[54.397336,24.504738],[54.397342,24.504839],[54.397414,24.504835],[54.397479,24.504785],[54.397473,24.504684]]]}},{"type":"Feature","properties":{},"geometry":{"type":"Polygon","coordinates":[[[54.393252,24.509323],[54.393317,24.509416],[54.393222,24.509484],[54.393245,24.509515],[54.393096,24.509587],[54.393031,24.509637],[54.393078,24.509719],[54.393132,24.50969],[54.393222,24.509838],[54.39356,24.509666],[54.393621,24.50961],[54.39373,24.509554],[54.393889,24.50943],[54.393853,24.509371],[54.393754,24.509438],[54.393603,24.509191],[54.393658,24.509149],[54.393655,24.509094],[54.393604,24.509096],[54.393369,24.509224],[54.393252,24.509323]],[[54.393329,24.509513],[54.393419,24.509464],[54.393432,24.509484],[54.393322,24.50954],[54.393338,24.509528],[54.393329,24.509513]]]}},{"type":"Feature","properties":{},"geometry":{"type":"Polygon","coordinates":[[[54.394018,24.509606],[54.393913,24.509679],[54.393946,24.509728],[54.394052,24.509655],[54.394018,24.509606]]]}},{"type":"Feature","properties":{},"geometry":{"type":"Polygon","coordinates":[[[54.394108,24.509903],[54.394173,24.509852],[54.394128,24.509765],[54.394068,24.509791],[54.394119,24.509751],[54.394058,24.50966],[54.393952,24.509734],[54.394011,24.509822],[54.393966,24.509857],[54.394012,24.509944],[54.394108,24.509903]]]}},{"type":"Feature","properties":{},"geometry":{"type":"Polygon","coordinates":[[[54.393911,24.50995],[54.393869,24.509955],[54.393803,24.510006],[54.393809,24.510041],[54.393851,24.510036],[54.393916,24.509985],[54.393911,24.50995]]]}},{"type":"Feature","properties":{},"geometry":{"type":"Polygon","coordinates":[[[54.394195,24.509998],[54.394163,24.509938],[54.393848,24.510074],[54.393783,24.510125],[54.393814,24.510184],[54.39413,24.510048],[54.394195,24.509998]]]}},{"type":"Feature","properties":{},"geometry":{"type":"Polygon","coordinates":[[[54.406259,24.480145],[54.406324,24.480095],[54.406263,24.479999],[54.40643,24.479895],[54.406373,24.479805],[54.406268,24.479861],[54.406252,24.479835],[54.406281,24.479812],[54.406176,24.479648],[54.405927,24.479779],[54.405862,24.47983],[54.40591,24.479905],[54.405776,24.479976],[54.405711,24.480026],[54.40574,24.480073],[54.405672,24.480125],[54.405735,24.480224],[54.405751,24.480215],[54.40584,24.480356],[54.406259,24.480145]]]}},{"type":"Feature","properties":{},"geometry":{"type":"Polygon","coordinates":[[[54.406836,24.48],[54.406771,24.479935],[54.406614,24.480062],[54.406678,24.480127],[54.406836,24.48]]]}},{"type":"Feature","properties":{},"geometry":{"type":"Polygon","coordinates":[[[54.406338,24.480299],[54.406313,24.480352],[54.406258,24.48041],[54.406039,24.480579],[54.406071,24.480619],[54.406154,24.480563],[54.406106,24.480604],[54.406149,24.480647],[54.406191,24.480614],[54.406372,24.480792],[54.406583,24.480618],[54.406426,24.480464],[54.406479,24.480403],[54.406462,24.480393],[54.406523,24.480297],[54.406404,24.480249],[54.406338,24.480299]]]}},{"type":"Feature","properties":{},"geometry":{"type":"Polygon","coordinates":[[[54.405748,24.480415],[54.405607,24.480502],[54.405634,24.480548],[54.405775,24.48046],[54.405748,24.480415]]]}},{"type":"Feature","properties":{},"geometry":{"type":"Polygon","coordinates":[[[54.405303,24.480811],[54.405324,24.480835],[54.405508,24.480697],[54.405367,24.480537],[54.405263,24.480613],[54.405173,24.48051],[54.405027,24.480617],[54.404982,24.480566],[54.404686,24.480786],[54.404882,24.481009],[54.405055,24.480897],[54.405064,24.480908],[54.405237,24.480778],[54.40528,24.480828],[54.405303,24.480811]]]}},{"type":"Feature","properties":{},"geometry":{"type":"Polygon","coordinates":[[[54.404697,24.481102],[54.40464,24.481125],[54.404575,24.481176],[54.404593,24.48121],[54.404714,24.481136],[54.404697,24.481102]]]}},{"type":"Feature","properties":{},"geometry":{"type":"Polygon","coordinates":[[[54.405419,24.481909],[54.405398,24.481892],[54.40491,24.482271],[54.404802,24.482376],[54.404774,24.482498],[54.4048,24.482638],[54.404848,24.482722],[54.404876,24.482712],[54.404929,24.482818],[54.405164,24.482703],[54.405363,24.482548],[54.405392,24.482575],[54.405633,24.482425],[54.406456,24.481804],[54.406244,24.481517],[54.406178,24.481406],[54.406001,24.481509],[54.405812,24.481656],[54.405621,24.481752],[54.405419,24.481909]]]}},{"type":"Feature","properties":{},"geometry":{"type":"Polygon","coordinates":[[[54.406559,24.482512],[54.40655,24.482498],[54.406473,24.48254],[54.406525,24.4825],[54.406485,24.482446],[54.406042,24.48272],[54.406078,24.482777],[54.406312,24.48265],[54.406643,24.483154],[54.406867,24.48302],[54.406874,24.483031],[54.407064,24.482959],[54.407605,24.482539],[54.407647,24.482408],[54.407249,24.481963],[54.406707,24.482383],[54.406559,24.482512]]]}},{"type":"Feature","properties":{},"geometry":{"type":"Polygon","coordinates":[[[54.405554,24.484923],[54.405619,24.484873],[54.405743,24.48448],[54.405189,24.484413],[54.405638,24.484421],[54.405703,24.48437],[54.405703,24.483852],[54.405455,24.483133],[54.405126,24.483265],[54.405061,24.483315],[54.405244,24.483933],[54.404939,24.484017],[54.404874,24.484067],[54.404928,24.484409],[54.404995,24.48441],[54.404952,24.484443],[54.404874,24.484785],[54.405554,24.484923]]]}},{"type":"Feature","properties":{},"geometry":{"type":"Polygon","coordinates":[[[54.406818,24.485672],[54.406859,24.48561],[54.406754,24.485552],[54.406689,24.485602],[54.406648,24.485663],[54.406753,24.485722],[54.406818,24.485672]]]}},{"type":"Feature","properties":{},"geometry":{"type":"Polygon","coordinates":[[[54.405636,24.488091],[54.405983,24.487822],[54.406127,24.487642],[54.405832,24.487429],[54.405485,24.487698],[54.405339,24.487871],[54.405636,24.488091]]]}},{"type":"Feature","properties":{},"geometry":{"type":"Polygon","coordinates":[[[54.407533,24.488332],[54.407598,24.488281],[54.407318,24.487873],[54.406497,24.488337],[54.406432,24.488388],[54.406711,24.488796],[54.407533,24.488332]]]}},{"type":"Feature","properties":{},"geometry":{"type":"Polygon","coordinates":[[[54.407021,24.490271],[54.406961,24.490292],[54.406896,24.490343],[54.406924,24.490423],[54.406989,24.490402],[54.407054,24.490352],[54.407021,24.490271]]]}},{"type":"Feature","properties":{},"geometry":{"type":"Polygon","coordinates":[[[54.406476,24.49296],[54.406379,24.492879],[54.406184,24.493057],[54.406281,24.493139],[54.406476,24.49296]]]}},{"type":"Feature","properties":{},"geometry":{"type":"Polygon","coordinates":[[[54.406247,24.492254],[54.405376,24.492715],[54.405307,24.492769],[54.405272,24.493053],[54.406131,24.493782],[54.406527,24.493456],[54.405951,24.492978],[54.406315,24.492642],[54.40616,24.492534],[54.406285,24.492475],[54.406355,24.492421],[54.406247,24.492254]]]}},{"type":"Feature","properties":{},"geometry":{"type":"Polygon","coordinates":[[[54.4066,24.495316],[54.406598,24.495288],[54.406472,24.495298],[54.406407,24.495348],[54.40641,24.49537],[54.406529,24.495367],[54.406421,24.495456],[54.406531,24.495563],[54.406672,24.495447],[54.406565,24.495343],[54.4066,24.495316]]]}},{"type":"Feature","properties":{},"geometry":{"type":"Polygon","coordinates":[[[54.406395,24.495503],[54.406246,24.495595],[54.4063,24.495683],[54.406448,24.495591],[54.406395,24.495503]]]}},{"type":"Feature","properties":{},"geometry":{"type":"Polygon","coordinates":[[[54.406481,24.495854],[54.406546,24.495803],[54.406617,24.495665],[54.406485,24.495609],[54.406449,24.495637],[54.406414,24.495622],[54.406349,24.495673],[54.406296,24.495775],[54.406481,24.495854]]]}},{"type":"Feature","properties":{},"geometry":{"type":"Polygon","coordinates":[[[54.406297,24.495754],[54.40627,24.495738],[54.406205,24.495789],[54.406159,24.495854],[54.406186,24.495869],[54.406251,24.495819],[54.406297,24.495754]]]}},{"type":"Feature","properties":{},"geometry":{"type":"Polygon","coordinates":[[[54.406137,24.496086],[54.406176,24.496093],[54.406241,24.496042],[54.406239,24.496021],[54.406202,24.496007],[54.40619,24.495968],[54.406167,24.495971],[54.406102,24.496021],[54.406108,24.496061],[54.406137,24.496086]]]}},{"type":"Feature","properties":{},"geometry":{"type":"Polygon","coordinates":[[[54.40632,24.496243],[54.4064,24.496166],[54.406327,24.496131],[54.406247,24.496208],[54.40632,24.496243]]]}},{"type":"Feature","properties":{},"geometry":{"type":"Polygon","coordinates":[[[54.405361,24.497335],[54.405505,24.497297],[54.405599,24.497246],[54.405891,24.497021],[54.405912,24.497044],[54.406044,24.496945],[54.406021,24.49692],[54.406973,24.496181],[54.407093,24.49627],[54.407751,24.496328],[54.407184,24.496768],[54.407136,24.496768],[54.407031,24.49685],[54.407014,24.496758],[54.406722,24.496827],[54.406677,24.496862],[54.406656,24.496773],[54.406329,24.496853],[54.406264,24.496904],[54.406367,24.497274],[54.406617,24.497208],[54.406575,24.497252],[54.406572,24.497287],[54.406578,24.497329],[54.406646,24.497428],[54.40675,24.497514],[54.406838,24.497563],[54.407026,24.497638],[54.407159,24.497657],[54.407288,24.497641],[54.407758,24.497285],[54.407835,24.497296],[54.407752,24.497498],[54.408167,24.497729],[54.408988,24.497339],[54.40953,24.496918],[54.409385,24.496689],[54.408698,24.496996],[54.40838,24.496868],[54.408157,24.497041],[54.408198,24.496943],[54.4089,24.496399],[54.408932,24.496347],[54.408922,24.496284],[54.408891,24.496233],[54.408809,24.496152],[54.408693,24.496072],[54.408481,24.495984],[54.408504,24.495925],[54.408263,24.495794],[54.408522,24.495414],[54.40869,24.495503],[54.40899,24.495552],[54.40935,24.495532],[54.409693,24.495439],[54.409964,24.495229],[54.409867,24.495048],[54.409653,24.494565],[54.40954,24.494014],[54.409518,24.493451],[54.409564,24.493205],[54.409532,24.493029],[54.409064,24.493135],[54.408549,24.493307],[54.408054,24.493578],[54.407631,24.493885],[54.4062,24.494995],[54.405926,24.495318],[54.405942,24.495328],[54.405918,24.49536],[54.406159,24.495521],[54.407396,24.494561],[54.407483,24.494533],[54.408202,24.49497],[54.408261,24.495168],[54.408384,24.49532],[54.408118,24.495712],[54.406894,24.495031],[54.406813,24.495094],[54.406634,24.495587],[54.406536,24.496128],[54.405335,24.49706],[54.405229,24.497196],[54.405221,24.497263],[54.405265,24.497325],[54.405361,24.497335]]]}},{"type":"Feature","properties":{},"geometry":{"type":"Polygon","coordinates":[[[54.405735,24.497338],[54.405675,24.497599],[54.405935,24.497645],[54.406053,24.497539],[54.406089,24.497391],[54.405991,24.497375],[54.406007,24.497326],[54.4058,24.497287],[54.405735,24.497338]]]}},{"type":"Feature","properties":{},"geometry":{"type":"Polygon","coordinates":[[[54.406525,24.504539],[54.406432,24.504537],[54.406367,24.504587],[54.406363,24.50473],[54.406458,24.504732],[54.406523,24.504681],[54.406525,24.504539]]]}},{"type":"Feature","properties":{},"geometry":{"type":"Polygon","coordinates":[[[54.406184,24.50457],[54.406088,24.504593],[54.406023,24.504643],[54.406076,24.504809],[54.406168,24.504789],[54.406233,24.504739],[54.406184,24.50457]]]}},{"type":"Feature","properties":{},"geometry":{"type":"Polygon","coordinates":[[[54.405832,24.506162],[54.406105,24.506384],[54.406702,24.505922],[54.406793,24.505817],[54.406828,24.505695],[54.406787,24.505553],[54.406674,24.505453],[54.406579,24.505526],[54.406626,24.50548],[54.406344,24.50524],[54.406017,24.505545],[54.406273,24.505763],[54.406078,24.505915],[54.405832,24.506162]]]}},{"type":"Feature","properties":{},"geometry":{"type":"Polygon","coordinates":[[[54.405586,24.505474],[54.405385,24.505424],[54.40532,24.505475],[54.405226,24.50579],[54.405427,24.505839],[54.405492,24.505789],[54.405586,24.505474]]]}},{"type":"Feature","properties":{},"geometry":{"type":"Polygon","coordinates":[[[54.405475,24.505923],[54.405179,24.505828],[54.405114,24.505879],[54.404998,24.506176],[54.405294,24.506271],[54.405359,24.506221],[54.405475,24.505923]]]}},{"type":"Feature","properties":{},"geometry":{"type":"Polygon","coordinates":[[[54.405345,24.506365],[54.405066,24.506279],[54.405001,24.506329],[54.404908,24.506578],[54.405187,24.506664],[54.405252,24.506613],[54.405345,24.506365]]]}},{"type":"Feature","properties":{},"geometry":{"type":"Polygon","coordinates":[[[54.405237,24.506716],[54.404948,24.50662],[54.404883,24.50667],[54.404741,24.507069],[54.404997,24.507162],[54.405062,24.507112],[54.405237,24.506716]]]}},{"type":"Feature","properties":{},"geometry":{"type":"Polygon","coordinates":[[[54.404437,24.507235],[54.404339,24.507313],[54.404432,24.507404],[54.40453,24.507326],[54.404437,24.507235]]]}},{"type":"Feature","properties":{},"geometry":{"type":"Polygon","coordinates":[[[54.405855,24.507079],[54.405593,24.506955],[54.405529,24.506966],[54.404879,24.507471],[54.404247,24.508571],[54.404342,24.508635],[54.404706,24.508573],[54.405356,24.508068],[54.405862,24.507159],[54.405855,24.507079]]]}},{"type":"Feature","properties":{},"geometry":{"type":"Polygon","coordinates":[[[54.405461,24.50938],[54.40536,24.509458],[54.405231,24.509371],[54.404716,24.509771],[54.40459,24.509939],[54.404738,24.510083],[54.404807,24.51003],[54.404903,24.510094],[54.405418,24.509695],[54.405564,24.509482],[54.4056,24.509518],[54.406121,24.509114],[54.406232,24.508999],[54.406175,24.508943],[54.406377,24.508786],[54.406489,24.508672],[54.406395,24.508579],[54.406645,24.508385],[54.406757,24.508271],[54.406367,24.507886],[54.405846,24.50829],[54.405728,24.508397],[54.405829,24.508496],[54.40546,24.508798],[54.405524,24.508861],[54.405204,24.509126],[54.405461,24.50938]]]}},{"type":"Feature","properties":{},"geometry":{"type":"Polygon","coordinates":[[[54.406299,24.509036],[54.406193,24.509131],[54.406278,24.509196],[54.406384,24.509101],[54.406299,24.509036]]]}},{"type":"Feature","properties":{},"geometry":{"type":"Polygon","coordinates":[[[54.410459,24.480131],[54.410593,24.480014],[54.410443,24.479885],[54.410309,24.480002],[54.410459,24.480131]]]}},{"type":"Feature","properties":{},"geometry":{"type":"Polygon","coordinates":[[[54.409403,24.482883],[54.409307,24.482887],[54.409242,24.482937],[54.409246,24.483052],[54.409343,24.483048],[54.409408,24.482998],[54.409403,24.482883]]]}},{"type":"Feature","properties":{},"geometry":{"type":"Polygon","coordinates":[[[54.408014,24.485376],[54.408075,24.485342],[54.408142,24.485429],[54.409038,24.484742],[54.408793,24.48444],[54.408584,24.484581],[54.407782,24.4852],[54.407795,24.485265],[54.408014,24.485376]]]}},{"type":"Feature","properties":{},"geometry":{"type":"Polygon","coordinates":[[[54.407336,24.485327],[54.407262,24.485263],[54.406902,24.485601],[54.406977,24.485664],[54.407336,24.485327]]]}},{"type":"Feature","properties":{},"geometry":{"type":"Polygon","coordinates":[[[54.409042,24.485617],[54.409001,24.485574],[54.408857,24.485686],[54.408898,24.485729],[54.409042,24.485617]]]}},{"type":"Feature","properties":{},"geometry":{"type":"Polygon","coordinates":[[[54.409162,24.485662],[54.409136,24.485626],[54.408957,24.485743],[54.409064,24.485896],[54.409158,24.485834],[54.409176,24.485966],[54.409256,24.486094],[54.409343,24.48617],[54.409484,24.48618],[54.409566,24.486156],[54.40979,24.485963],[54.409839,24.485877],[54.410363,24.486778],[54.410722,24.48661],[54.410863,24.4865],[54.410364,24.485622],[54.410402,24.485593],[54.410413,24.48552],[54.410404,24.485468],[54.410388,24.485446],[54.410328,24.485453],[54.410408,24.485386],[54.410837,24.485214],[54.410978,24.485104],[54.410804,24.484786],[54.409836,24.485253],[54.409773,24.485301],[54.409673,24.485244],[54.409543,24.485345],[54.409423,24.4854],[54.409196,24.485592],[54.40916,24.485686],[54.409159,24.485769],[54.409112,24.485702],[54.409162,24.485662]]]}},{"type":"Feature","properties":{},"geometry":{"type":"Polygon","coordinates":[[[54.4077,24.485931],[54.407665,24.485905],[54.407889,24.48568],[54.407828,24.485631],[54.407808,24.485646],[54.407564,24.485445],[54.407218,24.485714],[54.407031,24.485908],[54.407091,24.485955],[54.40711,24.48594],[54.407109,24.485954],[54.407351,24.486148],[54.407519,24.486018],[54.407492,24.486048],[54.40754,24.486085],[54.4077,24.485931]]]}},{"type":"Feature","properties":{},"geometry":{"type":"Polygon","coordinates":[[[54.409247,24.487364],[54.408863,24.487662],[54.408269,24.488061],[54.408572,24.488544],[54.409446,24.488108],[54.409511,24.488057],[54.40936,24.487784],[54.408633,24.48819],[54.408596,24.488133],[54.409298,24.48774],[54.409363,24.48769],[54.409247,24.487364]]]}},{"type":"Feature","properties":{},"geometry":{"type":"Polygon","coordinates":[[[54.407118,24.489253],[54.40757,24.488987],[54.407579,24.488999],[54.40802,24.488719],[54.407768,24.488343],[54.407326,24.488589],[54.407309,24.488565],[54.406903,24.488795],[54.406838,24.488845],[54.407118,24.489253]]]}},{"type":"Feature","properties":{},"geometry":{"type":"Polygon","coordinates":[[[54.409268,24.491263],[54.409272,24.491156],[54.409037,24.491149],[54.408996,24.491181],[54.408959,24.49118],[54.408893,24.49123],[54.408882,24.491345],[54.408943,24.491347],[54.408942,24.491373],[54.409154,24.491379],[54.409219,24.491329],[54.40922,24.4913],[54.409268,24.491263]]]}},{"type":"Feature","properties":{},"geometry":{"type":"Polygon","coordinates":[[[54.410488,24.496072],[54.410337,24.495938],[54.409612,24.496505],[54.409712,24.49662],[54.409636,24.496679],[54.409745,24.49682],[54.409909,24.496717],[54.410083,24.496582],[54.410118,24.496629],[54.410342,24.496524],[54.410775,24.496187],[54.410614,24.495998],[54.410488,24.496072]]]}},{"type":"Feature","properties":{},"geometry":{"type":"Polygon","coordinates":[[[54.408787,24.49865],[54.408771,24.49871],[54.408808,24.498825],[54.408849,24.498829],[54.408914,24.498778],[54.408924,24.498611],[54.408908,24.498608],[54.409046,24.498585],[54.409383,24.498324],[54.409415,24.497947],[54.409165,24.497863],[54.40899,24.49793],[54.408654,24.498191],[54.408656,24.498651],[54.408822,24.498623],[54.408787,24.49865]]]}},{"type":"Feature","properties":{},"geometry":{"type":"Polygon","coordinates":[[[54.408814,24.49924],[54.408728,24.499605],[54.409085,24.4997],[54.409276,24.499552],[54.409382,24.499166],[54.409435,24.498769],[54.408993,24.498738],[54.408802,24.498886],[54.408814,24.49924]]]}},{"type":"Feature","properties":{},"geometry":{"type":"Polygon","coordinates":[[[54.409871,24.500412],[54.409926,24.500296],[54.409975,24.49974],[54.410012,24.49951],[54.409978,24.499439],[54.4099,24.49938],[54.409787,24.499363],[54.409615,24.499373],[54.409483,24.499469],[54.409284,24.50009],[54.409235,24.500304],[54.409276,24.500432],[54.409368,24.500498],[54.409548,24.500529],[54.409681,24.500527],[54.409806,24.500463],[54.409871,24.500412]]]}},{"type":"Feature","properties":{},"geometry":{"type":"Polygon","coordinates":[[[54.407989,24.500958],[54.407988,24.501004],[54.40796,24.501063],[54.407998,24.501095],[54.408063,24.501044],[54.408114,24.500971],[54.408147,24.500887],[54.408085,24.500876],[54.407989,24.500958]]]}},{"type":"Feature","properties":{},"geometry":{"type":"Polygon","coordinates":[[[54.409545,24.501851],[54.409584,24.501746],[54.40961,24.501599],[54.409605,24.501431],[54.408723,24.501471],[54.408658,24.501521],[54.408614,24.501849],[54.408687,24.502001],[54.408955,24.502013],[54.409274,24.502003],[54.409365,24.501973],[54.409545,24.501851]]]}},{"type":"Feature","properties":{},"geometry":{"type":"Polygon","coordinates":[[[54.410544,24.501523],[54.410437,24.50152],[54.409847,24.501981],[54.409846,24.50223],[54.409946,24.502232],[54.410026,24.502169],[54.41008,24.50217],[54.410568,24.501791],[54.410573,24.501566],[54.410542,24.501564],[54.410544,24.501523]]]}},{"type":"Feature","properties":{},"geometry":{"type":"Polygon","coordinates":[[[54.407631,24.502453],[54.408049,24.502627],[54.408114,24.502577],[54.408295,24.5021],[54.408422,24.501858],[54.408025,24.50174],[54.40796,24.501791],[54.407631,24.502453]]]}},{"type":"Feature","properties":{},"geometry":{"type":"Polygon","coordinates":[[[54.40745,24.502442],[54.407442,24.502488],[54.407486,24.502498],[54.407551,24.502448],[54.407608,24.502389],[54.407648,24.502313],[54.407586,24.50231],[54.40745,24.502442]]]}},{"type":"Feature","properties":{},"geometry":{"type":"Polygon","coordinates":[[[54.407261,24.502944],[54.40724,24.502926],[54.407174,24.502976],[54.407051,24.503127],[54.407114,24.503163],[54.407335,24.502994],[54.407403,24.502885],[54.407345,24.502871],[54.407261,24.502944]]]}},{"type":"Feature","properties":{},"geometry":{"type":"Polygon","coordinates":[[[54.406943,24.503344],[54.40688,24.503364],[54.406815,24.503414],[54.406852,24.503535],[54.406932,24.503518],[54.406997,24.503468],[54.406943,24.503344]]]}},{"type":"Feature","properties":{},"geometry":{"type":"Polygon","coordinates":[[[54.407134,24.50368],[54.407036,24.503648],[54.406971,24.503699],[54.40692,24.503856],[54.407009,24.503879],[54.407074,24.503829],[54.407134,24.50368]]]}},{"type":"Feature","properties":{},"geometry":{"type":"Polygon","coordinates":[[[54.408295,24.504943],[54.40859,24.505281],[54.409349,24.504692],[54.40961,24.504393],[54.409495,24.504295],[54.410053,24.503863],[54.40972,24.503497],[54.409061,24.504005],[54.40919,24.504147],[54.4085,24.504682],[54.408295,24.504943]]]}},{"type":"Feature","properties":{},"geometry":{"type":"Polygon","coordinates":[[[54.408028,24.505741],[54.407866,24.505725],[54.407801,24.505775],[54.407803,24.505869],[54.407968,24.505893],[54.408033,24.505842],[54.408028,24.505741]]]}},{"type":"Feature","properties":{},"geometry":{"type":"Polygon","coordinates":[[[54.409407,24.506226],[54.409522,24.506164],[54.409672,24.506021],[54.409717,24.505908],[54.409719,24.505787],[54.40968,24.50568],[54.409606,24.50559],[54.409506,24.505526],[54.409388,24.505493],[54.409265,24.505495],[54.409148,24.505532],[54.40905,24.505601],[54.408985,24.505651],[54.408916,24.505744],[54.408882,24.505852],[54.408889,24.505972],[54.40894,24.506084],[54.409029,24.506174],[54.409146,24.506231],[54.409277,24.506249],[54.409407,24.506226]]]}},{"type":"Feature","properties":{},"geometry":{"type":"Polygon","coordinates":[[[54.407102,24.50741],[54.407158,24.507362],[54.407179,24.50738],[54.407333,24.507251],[54.407013,24.50695],[54.407336,24.506699],[54.407629,24.506391],[54.407472,24.506231],[54.407244,24.506239],[54.406512,24.506807],[54.406296,24.507031],[54.406604,24.507267],[54.406633,24.507245],[54.406967,24.507554],[54.40712,24.507428],[54.407102,24.50741]]]}},{"type":"Feature","properties":{},"geometry":{"type":"Polygon","coordinates":[[[54.406644,24.507341],[54.406536,24.50742],[54.406656,24.507571],[54.406764,24.507492],[54.406644,24.507341]]]}},{"type":"Feature","properties":{},"geometry":{"type":"Polygon","coordinates":[[[54.409222,24.507563],[54.409583,24.507925],[54.409709,24.507832],[54.409692,24.507556],[54.409481,24.507344],[54.409222,24.507563]]]}},{"type":"Feature","properties":{},"geometry":{"type":"Polygon","coordinates":[[[54.407201,24.507774],[54.407167,24.507749],[54.407072,24.507832],[54.407106,24.507858],[54.407201,24.507774]]]}},{"type":"Feature","properties":{},"geometry":{"type":"Polygon","coordinates":[[[54.410332,24.507855],[54.410313,24.507789],[54.410247,24.507805],[54.410204,24.507719],[54.410122,24.507721],[54.40999,24.507756],[54.409791,24.50791],[54.40976,24.507988],[54.409789,24.50803],[54.409861,24.50807],[54.409908,24.508054],[54.410045,24.508049],[54.410332,24.507855]]]}},{"type":"Feature","properties":{},"geometry":{"type":"Polygon","coordinates":[[[54.408877,24.507857],[54.408812,24.507908],[54.408814,24.507946],[54.408781,24.507971],[54.408786,24.508077],[54.408825,24.508076],[54.408918,24.507994],[54.408925,24.507856],[54.408877,24.507857]]]}},{"type":"Feature","properties":{},"geometry":{"type":"Polygon","coordinates":[[[54.40932,24.508159],[54.409278,24.508116],[54.409123,24.50824],[54.409166,24.508283],[54.40932,24.508159]]]}},{"type":"Feature","properties":{},"geometry":{"type":"Polygon","coordinates":[[[54.409334,24.508542],[54.409273,24.508456],[54.40922,24.508487],[54.409158,24.5084],[54.408949,24.508535],[54.408992,24.508596],[54.408922,24.508658],[54.408937,24.50868],[54.408904,24.508705],[54.408935,24.508748],[54.408969,24.508728],[54.408992,24.508761],[54.409334,24.508542]]]}},{"type":"Feature","properties":{},"geometry":{"type":"Polygon","coordinates":[[[54.407587,24.508811],[54.407457,24.508912],[54.407485,24.508941],[54.407615,24.508841],[54.407587,24.508811]]]}},{"type":"Feature","properties":{},"geometry":{"type":"Polygon","coordinates":[[[54.407708,24.508969],[54.407591,24.509063],[54.407747,24.509216],[54.407864,24.509122],[54.407708,24.508969]]]}},{"type":"Feature","properties":{},"geometry":{"type":"Polygon","coordinates":[[[54.406926,24.510197],[54.407446,24.509794],[54.407571,24.509667],[54.407784,24.509501],[54.4079,24.509383],[54.407538,24.50905],[54.407255,24.509269],[54.40717,24.509197],[54.407064,24.509288],[54.407136,24.509349],[54.406827,24.509589],[54.406811,24.509574],[54.406131,24.51011],[54.406494,24.510442],[54.406879,24.510154],[54.406926,24.510197]]]}},{"type":"Feature","properties":{},"geometry":{"type":"Polygon","coordinates":[[[54.41019,24.509994],[54.410005,24.509826],[54.409597,24.510188],[54.409782,24.510357],[54.41019,24.509994]]]}},{"type":"Feature","properties":{},"geometry":{"type":"Polygon","coordinates":[[[54.411242,24.482059],[54.411484,24.481839],[54.411116,24.48152],[54.410878,24.481736],[54.410959,24.481807],[54.411062,24.481719],[54.411133,24.481781],[54.411104,24.481808],[54.411149,24.481847],[54.411178,24.481824],[54.411256,24.481891],[54.411157,24.481986],[54.411242,24.482059]]]}},{"type":"Feature","properties":{},"geometry":{"type":"Polygon","coordinates":[[[54.410945,24.481801],[54.410906,24.481767],[54.410811,24.481846],[54.410851,24.48188],[54.410945,24.481801]]]}},{"type":"Feature","properties":{},"geometry":{"type":"Polygon","coordinates":[[[54.412563,24.482207],[54.412739,24.481932],[54.412378,24.481741],[54.412313,24.481792],[54.412137,24.482066],[54.412497,24.482258],[54.412563,24.482207]]]}},{"type":"Feature","properties":{},"geometry":{"type":"Polygon","coordinates":[[[54.41143,24.482077],[54.411398,24.482052],[54.411255,24.482183],[54.411286,24.482208],[54.41143,24.482077]]]}},{"type":"Feature","properties":{},"geometry":{"type":"Polygon","coordinates":[[[54.410832,24.485218],[54.410658,24.485326],[54.410709,24.485404],[54.410882,24.485296],[54.410832,24.485218]]]}},{"type":"Feature","properties":{},"geometry":{"type":"Polygon","coordinates":[[[54.411432,24.48566],[54.411406,24.485668],[54.411468,24.48562],[54.411454,24.485589],[54.41135,24.48563],[54.411285,24.48568],[54.411299,24.485711],[54.411367,24.485685],[54.41131,24.485729],[54.411348,24.485826],[54.411406,24.485807],[54.411471,24.485757],[54.411432,24.48566]]]}},{"type":"Feature","properties":{},"geometry":{"type":"Polygon","coordinates":[[[54.413488,24.487622],[54.413485,24.487552],[54.413516,24.487528],[54.413513,24.487454],[54.413378,24.487459],[54.4134,24.487443],[54.413388,24.487195],[54.413283,24.487199],[54.413246,24.487228],[54.413107,24.487233],[54.413042,24.487284],[54.413119,24.487502],[54.4132,24.487499],[54.41318,24.487515],[54.413191,24.48776],[54.413459,24.48775],[54.413524,24.4877],[54.413521,24.487621],[54.413488,24.487622]]]}},{"type":"Feature","properties":{},"geometry":{"type":"Polygon","coordinates":[[[54.4131,24.487731],[54.413046,24.487541],[54.412959,24.487562],[54.412894,24.487612],[54.412948,24.487802],[54.413035,24.487781],[54.4131,24.487731]]]}},{"type":"Feature","properties":{},"geometry":{"type":"Polygon","coordinates":[[[54.413587,24.48789],[54.413519,24.487893],[54.413454,24.487943],[54.413457,24.488005],[54.413525,24.488002],[54.41359,24.487952],[54.413587,24.48789]]]}},{"type":"Feature","properties":{},"geometry":{"type":"Polygon","coordinates":[[[54.415638,24.48802],[54.415686,24.488019],[54.415751,24.487968],[54.415745,24.487766],[54.415616,24.487771],[54.415674,24.487726],[54.415671,24.487682],[54.415613,24.487685],[54.415548,24.487735],[54.41555,24.487771],[54.415123,24.487771],[54.415058,24.487822],[54.415058,24.487866],[54.415122,24.487866],[54.415122,24.488264],[54.415305,24.488263],[54.41537,24.488213],[54.41537,24.488012],[54.415554,24.488012],[54.415579,24.487992],[54.415637,24.487991],[54.415638,24.48802]]]}},{"type":"Feature","properties":{},"geometry":{"type":"Polygon","coordinates":[[[54.414791,24.488528],[54.414914,24.488525],[54.414979,24.488475],[54.414976,24.488355],[54.414934,24.488356],[54.414968,24.48833],[54.414972,24.488235],[54.414839,24.488231],[54.414774,24.488282],[54.414771,24.488377],[54.414827,24.488378],[54.414787,24.488409],[54.414791,24.488528]]]}},{"type":"Feature","properties":{},"geometry":{"type":"Polygon","coordinates":[[[54.415371,24.488446],[54.415436,24.488383],[54.415503,24.488381],[54.415568,24.48833],[54.415566,24.488292],[54.415472,24.488296],[54.415435,24.488325],[54.415435,24.488313],[54.415318,24.488314],[54.415253,24.488365],[54.415254,24.488448],[54.415371,24.488446]]]}},{"type":"Feature","properties":{},"geometry":{"type":"Polygon","coordinates":[[[54.415366,24.488535],[54.415431,24.488484],[54.415432,24.488438],[54.415412,24.488438],[54.415347,24.488488],[54.415346,24.488534],[54.415366,24.488535]]]}},{"type":"Feature","properties":{},"geometry":{"type":"Polygon","coordinates":[[[54.4154,24.488743],[54.41548,24.488741],[54.415545,24.48869],[54.415543,24.488642],[54.415463,24.488644],[54.415398,24.488694],[54.4154,24.488743]]]}},{"type":"Feature","properties":{},"geometry":{"type":"Polygon","coordinates":[[[54.410862,24.48833],[54.410551,24.488356],[54.410486,24.488411],[54.410422,24.488416],[54.410357,24.488471],[54.410138,24.488492],[54.410073,24.488543],[54.410118,24.488978],[54.410585,24.488938],[54.41065,24.488887],[54.410643,24.488812],[54.41084,24.488795],[54.410905,24.488745],[54.410862,24.48833]]]}},{"type":"Feature","properties":{},"geometry":{"type":"Polygon","coordinates":[[[54.411262,24.488859],[54.411174,24.48887],[54.411109,24.48892],[54.411082,24.488982],[54.411133,24.489049],[54.411244,24.489046],[54.41136,24.4892],[54.411196,24.489303],[54.411249,24.489386],[54.411951,24.488997],[54.411992,24.489077],[54.411491,24.489354],[54.411425,24.489405],[54.41152,24.489558],[54.411584,24.489533],[54.411648,24.489644],[54.411907,24.489693],[54.41189,24.489769],[54.412055,24.489806],[54.41212,24.489755],[54.412272,24.489179],[54.412346,24.489181],[54.412428,24.489141],[54.412737,24.48973],[54.412891,24.489651],[54.412956,24.4896],[54.412934,24.489566],[54.413071,24.489505],[54.413136,24.489455],[54.413167,24.489384],[54.413196,24.489398],[54.413261,24.489348],[54.413305,24.489173],[54.412664,24.488959],[54.412815,24.488988],[54.413424,24.488898],[54.413489,24.488848],[54.413445,24.488556],[54.412861,24.488626],[54.412817,24.488588],[54.412683,24.488658],[54.412608,24.488595],[54.412673,24.488545],[54.412558,24.488398],[54.412675,24.488035],[54.412904,24.488151],[54.412969,24.488101],[54.413104,24.487954],[54.412745,24.487759],[54.412516,24.487718],[54.412242,24.487705],[54.412177,24.487756],[54.412199,24.487975],[54.412304,24.487984],[54.412339,24.487957],[54.412412,24.487963],[54.412284,24.488493],[54.412268,24.488496],[54.412,24.488017],[54.412118,24.487994],[54.412183,24.487944],[54.412157,24.487708],[54.411868,24.487782],[54.411582,24.487957],[54.411349,24.488181],[54.411506,24.488292],[54.411724,24.488116],[54.411963,24.488524],[54.411896,24.488716],[54.411214,24.488505],[54.411149,24.488556],[54.411106,24.488651],[54.411291,24.488718],[54.411262,24.488859]],[[54.411998,24.489374],[54.411974,24.489493],[54.411834,24.489464],[54.411757,24.48936],[54.4119,24.489279],[54.411897,24.489352],[54.411998,24.489374]],[[54.412998,24.489257],[54.41296,24.48936],[54.412888,24.489394],[54.412827,24.489256],[54.412845,24.489209],[54.412998,24.489257]]]}},{"type":"Feature","properties":{},"geometry":{"type":"Polygon","coordinates":[[[54.410557,24.489197],[54.410609,24.489666],[54.410761,24.489652],[54.410826,24.489601],[54.410762,24.489025],[54.410204,24.489076],[54.410139,24.489126],[54.410151,24.489234],[54.410557,24.489197]]]}},{"type":"Feature","properties":{},"geometry":{"type":"Polygon","coordinates":[[[54.410884,24.489736],[54.410835,24.489739],[54.41077,24.48979],[54.410774,24.489832],[54.410823,24.489829],[54.410888,24.489778],[54.410884,24.489736]]]}},{"type":"Feature","properties":{},"geometry":{"type":"Polygon","coordinates":[[[54.410261,24.49014],[54.41082,24.490085],[54.410885,24.490035],[54.41087,24.489907],[54.41051,24.489942],[54.410508,24.489927],[54.410457,24.489932],[54.410405,24.48949],[54.410256,24.489504],[54.410191,24.489555],[54.410261,24.49014]]]}},{"type":"Feature","properties":{},"geometry":{"type":"Polygon","coordinates":[[[54.412502,24.490007],[54.412498,24.489945],[54.412428,24.489949],[54.412363,24.489999],[54.412367,24.490062],[54.412437,24.490058],[54.412502,24.490007]]]}},{"type":"Feature","properties":{},"geometry":{"type":"Polygon","coordinates":[[[54.411148,24.490662],[54.411052,24.490661],[54.410987,24.490711],[54.410986,24.490764],[54.411082,24.490765],[54.411147,24.490714],[54.411148,24.490662]]]}},{"type":"Feature","properties":{},"geometry":{"type":"Polygon","coordinates":[[[54.411158,24.491],[54.411223,24.490949],[54.411224,24.490795],[54.411155,24.490795],[54.411089,24.490846],[54.411083,24.491001],[54.411158,24.491]]]}},{"type":"Feature","properties":{},"geometry":{"type":"Polygon","coordinates":[[[54.412859,24.49069],[54.412851,24.491183],[54.41333,24.491189],[54.413395,24.491138],[54.413397,24.490975],[54.413113,24.490971],[54.413115,24.490861],[54.413345,24.490864],[54.413411,24.490814],[54.413413,24.490645],[54.412924,24.490639],[54.412859,24.49069]]]}},{"type":"Feature","properties":{},"geometry":{"type":"Polygon","coordinates":[[[54.410351,24.490868],[54.410347,24.49108],[54.410634,24.491084],[54.410699,24.491033],[54.410706,24.490766],[54.4106,24.490766],[54.410538,24.490814],[54.410416,24.490817],[54.410351,24.490868]]]}},{"type":"Feature","properties":{},"geometry":{"type":"Polygon","coordinates":[[[54.412875,24.491187],[54.412829,24.491185],[54.412764,24.491236],[54.412763,24.491275],[54.412808,24.491276],[54.412874,24.491226],[54.412875,24.491187]]]}},{"type":"Feature","properties":{},"geometry":{"type":"Polygon","coordinates":[[[54.411219,24.491503],[54.411222,24.491426],[54.411185,24.491424],[54.41112,24.491475],[54.411116,24.491552],[54.411153,24.491553],[54.411219,24.491503]]]}},{"type":"Feature","properties":{},"geometry":{"type":"Polygon","coordinates":[[[54.41083,24.491311],[54.410457,24.491298],[54.410392,24.491349],[54.410379,24.491673],[54.410751,24.491686],[54.410816,24.491635],[54.41083,24.491311]]]}},{"type":"Feature","properties":{},"geometry":{"type":"Polygon","coordinates":[[[54.411931,24.491223],[54.411435,24.491191],[54.41137,24.491241],[54.411299,24.49215],[54.411795,24.492182],[54.41186,24.492132],[54.411931,24.491223]]]}},{"type":"Feature","properties":{},"geometry":{"type":"Polygon","coordinates":[[[54.41212,24.491779],[54.412185,24.491729],[54.412186,24.491699],[54.412108,24.491697],[54.412043,24.491747],[54.412042,24.491777],[54.41212,24.491779]]]}},{"type":"Feature","properties":{},"geometry":{"type":"Polygon","coordinates":[[[54.411709,24.492296],[54.411581,24.492292],[54.411516,24.492343],[54.411513,24.49243],[54.411641,24.492434],[54.411706,24.492383],[54.411709,24.492296]]]}},{"type":"Feature","properties":{},"geometry":{"type":"Polygon","coordinates":[[[54.412155,24.492461],[54.411973,24.492459],[54.411908,24.49251],[54.411907,24.492607],[54.412089,24.492609],[54.412154,24.492558],[54.412155,24.492461]]]}},{"type":"Feature","properties":{},"geometry":{"type":"Polygon","coordinates":[[[54.415103,24.496914],[54.41501,24.49686],[54.414945,24.49691],[54.414834,24.497068],[54.414927,24.497122],[54.414992,24.497071],[54.415103,24.496914]]]}},{"type":"Feature","properties":{},"geometry":{"type":"Polygon","coordinates":[[[54.412125,24.498673],[54.41202,24.498061],[54.412041,24.498045],[54.41181,24.4975],[54.411496,24.497386],[54.411403,24.497422],[54.411338,24.497472],[54.411634,24.498233],[54.411759,24.498962],[54.411878,24.498953],[54.411943,24.498902],[54.412125,24.498673]]]}},{"type":"Feature","properties":{},"geometry":{"type":"Polygon","coordinates":[[[54.410559,24.497759],[54.410545,24.498921],[54.410683,24.499068],[54.410927,24.499079],[54.410993,24.499029],[54.410985,24.497515],[54.410798,24.49756],[54.410559,24.497759]]]}},{"type":"Feature","properties":{},"geometry":{"type":"Polygon","coordinates":[[[54.41317,24.503099],[54.41329,24.502809],[54.413379,24.502328],[54.412899,24.502033],[54.412741,24.501881],[54.412655,24.501769],[54.412574,24.501625],[54.412526,24.501486],[54.411982,24.501472],[54.411819,24.501599],[54.411855,24.501799],[54.411902,24.501933],[54.411975,24.502116],[54.412059,24.502273],[54.412211,24.50248],[54.412467,24.502782],[54.412712,24.502946],[54.41285,24.503099],[54.412935,24.503245],[54.413007,24.503225],[54.41317,24.503099]]]}},{"type":"Feature","properties":{},"geometry":{"type":"Polygon","coordinates":[[[54.411529,24.502276],[54.411392,24.502399],[54.411605,24.502572],[54.411742,24.502449],[54.411529,24.502276]]]}},{"type":"Feature","properties":{},"geometry":{"type":"Polygon","coordinates":[[[54.411291,24.502915],[54.411356,24.502864],[54.411354,24.502702],[54.411224,24.502679],[54.411155,24.502628],[54.411149,24.502248],[54.410947,24.502245],[54.410882,24.502295],[54.410848,24.502889],[54.411291,24.502915]]]}},{"type":"Feature","properties":{},"geometry":{"type":"Polygon","coordinates":[[[54.411512,24.502535],[54.411463,24.502535],[54.411398,24.502585],[54.411395,24.502708],[54.411444,24.502709],[54.411509,24.502659],[54.411512,24.502535]]]}},{"type":"Feature","properties":{},"geometry":{"type":"Polygon","coordinates":[[[54.411796,24.502509],[54.411629,24.502616],[54.41179,24.502855],[54.411957,24.502748],[54.411796,24.502509]]]}},{"type":"Feature","properties":{},"geometry":{"type":"Polygon","coordinates":[[[54.411657,24.50276],[54.411573,24.502795],[54.411507,24.502846],[54.411584,24.502997],[54.411668,24.502962],[54.411733,24.502911],[54.411657,24.50276]]]}},{"type":"Feature","properties":{},"geometry":{"type":"Polygon","coordinates":[[[54.414459,24.504614],[54.415022,24.504167],[54.414826,24.504005],[54.414432,24.504313],[54.414312,24.504214],[54.413824,24.504592],[54.413665,24.50475],[54.413843,24.504902],[54.414343,24.504514],[54.414459,24.504614]]]}},{"type":"Feature","properties":{},"geometry":{"type":"Polygon","coordinates":[[[54.414983,24.50461],[54.41533,24.504341],[54.415507,24.504192],[54.415408,24.504111],[54.415448,24.50408],[54.415408,24.504032],[54.415357,24.504069],[54.415349,24.504062],[54.415424,24.504009],[54.415415,24.503972],[54.415356,24.503984],[54.415291,24.504035],[54.415293,24.504045],[54.414964,24.5043],[54.414806,24.504457],[54.414983,24.50461]]]}},{"type":"Feature","properties":{},"geometry":{"type":"Polygon","coordinates":[[[54.410705,24.504046],[54.410233,24.503968],[54.409718,24.504368],[54.409686,24.504526],[54.410158,24.504604],[54.410673,24.504204],[54.410705,24.504046]]]}},{"type":"Feature","properties":{},"geometry":{"type":"Polygon","coordinates":[[[54.414343,24.505248],[54.414868,24.50483],[54.414671,24.504668],[54.414325,24.504938],[54.414166,24.505095],[54.414343,24.505248]]]}},{"type":"Feature","properties":{},"geometry":{"type":"Polygon","coordinates":[[[54.414947,24.505371],[54.415213,24.505165],[54.415248,24.505206],[54.415377,24.50511],[54.415342,24.505069],[54.415255,24.505132],[54.415428,24.504987],[54.415414,24.504975],[54.415806,24.50466],[54.41561,24.504498],[54.415344,24.504704],[54.415188,24.50486],[54.414928,24.505061],[54.414769,24.505218],[54.414947,24.505371]]]}},{"type":"Feature","properties":{},"geometry":{"type":"Polygon","coordinates":[[[54.410708,24.506843],[54.410773,24.506792],[54.410797,24.506728],[54.410732,24.506708],[54.410747,24.506615],[54.410678,24.506576],[54.410546,24.50654],[54.410371,24.50656],[54.410233,24.506661],[54.410233,24.506711],[54.41027,24.50678],[54.410318,24.50679],[54.410437,24.506853],[54.410523,24.506858],[54.410708,24.506843]]]}},{"type":"Feature","properties":{},"geometry":{"type":"Polygon","coordinates":[[[54.411043,24.506943],[54.410977,24.506911],[54.410917,24.506958],[54.410847,24.506938],[54.410728,24.507044],[54.410667,24.507157],[54.410661,24.507317],[54.410704,24.50739],[54.410758,24.507399],[54.410839,24.507377],[54.410904,24.507326],[54.410922,24.507285],[54.41101,24.507189],[54.411043,24.506943]]]}},{"type":"Feature","properties":{},"geometry":{"type":"Polygon","coordinates":[[[54.410964,24.508601],[54.410813,24.508596],[54.410747,24.508647],[54.410744,24.508747],[54.411032,24.508756],[54.411097,24.508706],[54.4111,24.508608],[54.410964,24.508612],[54.410964,24.508601]]]}},{"type":"Feature","properties":{},"geometry":{"type":"Polygon","coordinates":[[[54.411703,24.508958],[54.41158,24.508954],[54.411515,24.509004],[54.411506,24.509213],[54.411629,24.509217],[54.411694,24.509167],[54.411703,24.508958]]]}},{"type":"Feature","properties":{},"geometry":{"type":"Polygon","coordinates":[[[54.41076,24.509063],[54.410698,24.509064],[54.410633,24.509115],[54.410635,24.509211],[54.410697,24.50921],[54.410762,24.50916],[54.41076,24.509063]]]}},{"type":"Feature","properties":{},"geometry":{"type":"Polygon","coordinates":[[[54.411241,24.509386],[54.411411,24.509391],[54.411477,24.50934],[54.411487,24.508984],[54.411248,24.508984],[54.411183,24.509034],[54.411169,24.50936],[54.411222,24.509362],[54.411243,24.509346],[54.411241,24.509386]]]}},{"type":"Feature","properties":{},"geometry":{"type":"Polygon","coordinates":[[[54.411171,24.509148],[54.411123,24.509147],[54.411058,24.509198],[54.411057,24.50927],[54.411105,24.50927],[54.41117,24.50922],[54.411171,24.509148]]]}},{"type":"Feature","properties":{},"geometry":{"type":"Polygon","coordinates":[[[54.411678,24.509265],[54.41156,24.509263],[54.411494,24.509313],[54.41149,24.50953],[54.411608,24.509532],[54.411673,24.509482],[54.411678,24.509265]]]}},{"type":"Feature","properties":{},"geometry":{"type":"Polygon","coordinates":[[[54.410662,24.509594],[54.410999,24.509575],[54.411383,24.509574],[54.411448,24.509523],[54.411445,24.509433],[54.41105,24.509452],[54.411049,24.50944],[54.410723,24.509449],[54.410658,24.5095],[54.410662,24.509594]]]}},{"type":"Feature","properties":{},"geometry":{"type":"Polygon","coordinates":[[[54.411355,24.509641],[54.411256,24.509681],[54.411191,24.509731],[54.411268,24.509888],[54.411367,24.509848],[54.411432,24.509798],[54.411355,24.509641]]]}},{"type":"Feature","properties":{},"geometry":{"type":"Polygon","coordinates":[[[54.418573,24.481898],[54.418529,24.481901],[54.418464,24.481951],[54.418465,24.481973],[54.418509,24.481971],[54.418575,24.48192],[54.418573,24.481898]]]}},{"type":"Feature","properties":{},"geometry":{"type":"Polygon","coordinates":[[[54.419127,24.482596],[54.419136,24.482537],[54.419107,24.482533],[54.41914,24.482508],[54.419127,24.482629],[54.419172,24.482633],[54.419126,24.482669],[54.419106,24.482801],[54.419219,24.482815],[54.41918,24.482845],[54.419175,24.482879],[54.418873,24.482852],[54.418848,24.482871],[54.418851,24.482817],[54.418763,24.482813],[54.418698,24.482863],[54.418691,24.482973],[54.41878,24.482977],[54.418801,24.48296],[54.418792,24.483045],[54.419124,24.483075],[54.419189,24.483025],[54.419194,24.482981],[54.419486,24.483012],[54.419551,24.482961],[54.419568,24.482829],[54.419459,24.482818],[54.419494,24.482791],[54.419514,24.482659],[54.419468,24.482653],[54.419598,24.482572],[54.419626,24.482289],[54.419661,24.482279],[54.419658,24.482291],[54.419772,24.482312],[54.419808,24.482283],[54.419789,24.482445],[54.420126,24.482477],[54.420182,24.482434],[54.420174,24.48249],[54.420496,24.482529],[54.42056,24.48248],[54.420551,24.482537],[54.420833,24.482573],[54.420606,24.482548],[54.420541,24.482599],[54.42054,24.482616],[54.420522,24.482744],[54.420558,24.482748],[54.420513,24.482783],[54.420496,24.482905],[54.420806,24.482941],[54.420871,24.48289],[54.420888,24.482769],[54.420847,24.482764],[54.420895,24.482727],[54.420916,24.482582],[54.420862,24.482576],[54.420926,24.482526],[54.420945,24.482404],[54.420905,24.482399],[54.420954,24.482361],[54.420967,24.48224],[54.420657,24.482212],[54.420592,24.482262],[54.420578,24.482383],[54.420607,24.482385],[54.42057,24.482414],[54.42058,24.482347],[54.420552,24.482343],[54.420578,24.482324],[54.420588,24.482262],[54.42027,24.482219],[54.42021,24.482265],[54.420215,24.482222],[54.420177,24.482218],[54.420207,24.482195],[54.420228,24.482064],[54.42012,24.482051],[54.420155,24.482024],[54.420171,24.481889],[54.419851,24.481856],[54.419786,24.481907],[54.419772,24.48202],[54.419674,24.482022],[54.419609,24.482073],[54.419611,24.482151],[54.419593,24.482178],[54.419586,24.482153],[54.419557,24.482149],[54.4196,24.482116],[54.419618,24.481986],[54.419294,24.481947],[54.419229,24.481998],[54.41921,24.482129],[54.419233,24.482131],[54.41919,24.482164],[54.419162,24.482359],[54.419316,24.482377],[54.419305,24.482402],[54.419212,24.482394],[54.419152,24.48244],[54.419163,24.482372],[54.418842,24.482331],[54.418777,24.482381],[54.418756,24.482515],[54.418785,24.482519],[54.418752,24.482544],[54.41876,24.48248],[54.418736,24.482477],[54.418765,24.482454],[54.418784,24.482322],[54.41846,24.482285],[54.418395,24.482335],[54.418377,24.482468],[54.418403,24.482471],[54.418368,24.482497],[54.418352,24.482631],[54.418678,24.482664],[54.418744,24.482606],[54.419062,24.482646],[54.419127,24.482596]],[[54.4198,24.482179],[54.4198,24.482144],[54.419835,24.482117],[54.419821,24.482204],[54.419854,24.482208],[54.419836,24.482222],[54.419762,24.482208],[54.4198,24.482179]],[[54.419837,24.482106],[54.419836,24.482048],[54.41987,24.482052],[54.419842,24.482074],[54.419837,24.482106]],[[54.420223,24.482335],[54.4202,24.482353],[54.420202,24.482332],[54.420223,24.482335]]]}},{"type":"Feature","properties":{},"geometry":{"type":"Polygon","coordinates":[[[54.418296,24.483033],[54.418621,24.483046],[54.418686,24.482995],[54.418692,24.482873],[54.418676,24.482873],[54.418708,24.482848],[54.418722,24.482713],[54.418396,24.482685],[54.418331,24.482736],[54.418317,24.482871],[54.418349,24.482874],[54.418301,24.482911],[54.418296,24.483033]]]}},{"type":"Feature","properties":{},"geometry":{"type":"Polygon","coordinates":[[[54.417324,24.487723],[54.417238,24.487724],[54.417173,24.487774],[54.417174,24.48782],[54.417259,24.487819],[54.417325,24.487769],[54.417324,24.487723]]]}},{"type":"Feature","properties":{},"geometry":{"type":"Polygon","coordinates":[[[54.415887,24.487747],[54.415855,24.487746],[54.41579,24.487797],[54.415788,24.487841],[54.41582,24.487842],[54.415885,24.487791],[54.415887,24.487747]]]}},{"type":"Feature","properties":{},"geometry":{"type":"Polygon","coordinates":[[[54.416244,24.487954],[54.416231,24.487955],[54.416262,24.487931],[54.416254,24.487801],[54.416088,24.48781],[54.416103,24.487769],[54.415997,24.487765],[54.415932,24.487816],[54.415931,24.487845],[54.415957,24.487846],[54.415932,24.487865],[54.41594,24.487995],[54.415965,24.487993],[54.415943,24.488011],[54.415945,24.488067],[54.41618,24.488061],[54.416245,24.48801],[54.416244,24.487954]]]}},{"type":"Feature","properties":{},"geometry":{"type":"Polygon","coordinates":[[[54.41627,24.488075],[54.416286,24.488357],[54.41641,24.488351],[54.416414,24.488415],[54.416461,24.488413],[54.416526,24.488363],[54.416522,24.488295],[54.416505,24.488295],[54.416504,24.488278],[54.416526,24.488268],[54.416526,24.488293],[54.41656,24.488294],[54.416534,24.488314],[54.416531,24.488378],[54.416585,24.488381],[54.416641,24.488338],[54.416641,24.488355],[54.416683,24.488355],[54.416749,24.488305],[54.416746,24.488148],[54.416684,24.488162],[54.416684,24.488149],[54.416649,24.488149],[54.416669,24.488133],[54.416665,24.488042],[54.416637,24.488043],[54.416666,24.48802],[54.416665,24.487971],[54.416611,24.487972],[54.416595,24.487985],[54.416443,24.487975],[54.416382,24.488022],[54.416335,24.488024],[54.41627,24.488075]]]}},{"type":"Feature","properties":{},"geometry":{"type":"Polygon","coordinates":[[[54.415631,24.488435],[54.415696,24.488385],[54.415695,24.488336],[54.415682,24.488336],[54.415714,24.488311],[54.41571,24.4882],[54.415648,24.488202],[54.415583,24.488252],[54.415586,24.48835],[54.415536,24.488388],[54.415537,24.488437],[54.415631,24.488435]]]}},{"type":"Feature","properties":{},"geometry":{"type":"Polygon","coordinates":[[[54.416462,24.488544],[54.416527,24.488493],[54.416528,24.48842],[54.416348,24.488417],[54.416349,24.488388],[54.416274,24.488387],[54.416276,24.488277],[54.416236,24.488277],[54.416171,24.488327],[54.41617,24.48835],[54.416146,24.488352],[54.416081,24.488403],[54.416084,24.488439],[54.416125,24.488436],[54.416169,24.488402],[54.416167,24.488539],[54.416462,24.488544]]]}},{"type":"Feature","properties":{},"geometry":{"type":"Polygon","coordinates":[[[54.416629,24.48853],[54.416694,24.488479],[54.416688,24.488435],[54.416723,24.488408],[54.416725,24.488369],[54.416695,24.488368],[54.41663,24.488418],[54.416629,24.488451],[54.416586,24.488484],[54.416584,24.488528],[54.416629,24.48853]]]}},{"type":"Feature","properties":{},"geometry":{"type":"Polygon","coordinates":[[[54.416252,24.488881],[54.416223,24.488882],[54.416158,24.488932],[54.416162,24.48904],[54.416192,24.489039],[54.416257,24.488988],[54.416252,24.488881]]]}},{"type":"Feature","properties":{},"geometry":{"type":"Polygon","coordinates":[[[54.416058,24.48884],[54.415999,24.488841],[54.415934,24.488892],[54.415941,24.489092],[54.416,24.48909],[54.416065,24.48904],[54.416058,24.48884]]]}},{"type":"Feature","properties":{},"geometry":{"type":"Polygon","coordinates":[[[54.415679,24.488851],[54.41562,24.488852],[54.415555,24.488902],[54.415558,24.489102],[54.415617,24.489101],[54.415683,24.489051],[54.415679,24.488851]]]}},{"type":"Feature","properties":{},"geometry":{"type":"Polygon","coordinates":[[[54.415873,24.489095],[54.415774,24.489101],[54.415719,24.489105],[54.415654,24.489156],[54.415657,24.489197],[54.415754,24.489192],[54.415719,24.48922],[54.415717,24.4893],[54.415767,24.489301],[54.415833,24.489251],[54.415835,24.489171],[54.415876,24.489139],[54.415873,24.489095]]]}},{"type":"Feature","properties":{},"geometry":{"type":"Polygon","coordinates":[[[54.416267,24.489502],[54.415416,24.489523],[54.415351,24.489574],[54.415356,24.489727],[54.416227,24.489706],[54.416292,24.489655],[54.41629,24.489586],[54.416269,24.489586],[54.416267,24.489502]]]}},{"type":"Feature","properties":{},"geometry":{"type":"Polygon","coordinates":[[[54.41724,24.501685],[54.417098,24.501808],[54.417154,24.501869],[54.41713,24.501921],[54.417059,24.501949],[54.416994,24.501999],[54.417189,24.50214],[54.41747,24.501885],[54.41724,24.501685]]]}},{"type":"Feature","properties":{},"geometry":{"type":"Polygon","coordinates":[[[54.416572,24.501928],[54.416507,24.501979],[54.416508,24.502025],[54.416693,24.502015],[54.416751,24.50197],[54.416755,24.501985],[54.4168,24.501973],[54.416865,24.501923],[54.41685,24.501875],[54.416805,24.501887],[54.416757,24.501924],[54.416682,24.501917],[54.416668,24.501927],[54.416572,24.501928]]]}},{"type":"Feature","properties":{},"geometry":{"type":"Polygon","coordinates":[[[54.41759,24.502323],[54.417483,24.502401],[54.417512,24.502438],[54.417619,24.50236],[54.41759,24.502323]]]}},{"type":"Feature","properties":{},"geometry":{"type":"Polygon","coordinates":[[[54.417932,24.502489],[54.417885,24.502453],[54.417796,24.502529],[54.417843,24.502565],[54.417932,24.502489]]]}},{"type":"Feature","properties":{},"geometry":{"type":"Polygon","coordinates":[[[54.415526,24.502419],[54.415501,24.502417],[54.415436,24.502467],[54.415431,24.502527],[54.415457,24.502528],[54.415522,24.502478],[54.415526,24.502419]]]}},{"type":"Feature","properties":{},"geometry":{"type":"Polygon","coordinates":[[[54.417504,24.502442],[54.417421,24.502442],[54.417356,24.502492],[54.417356,24.502607],[54.417435,24.502612],[54.4175,24.502562],[54.417504,24.502442]]]}},{"type":"Feature","properties":{},"geometry":{"type":"Polygon","coordinates":[[[54.416995,24.502628],[54.416892,24.50263],[54.416827,24.50268],[54.416828,24.502705],[54.416931,24.502702],[54.416996,24.502652],[54.416995,24.502628]]]}},{"type":"Feature","properties":{},"geometry":{"type":"Polygon","coordinates":[[[54.415468,24.502603],[54.41539,24.502607],[54.415325,24.502658],[54.415329,24.502732],[54.415401,24.502732],[54.415466,24.502682],[54.415468,24.502603]]]}},{"type":"Feature","properties":{},"geometry":{"type":"Polygon","coordinates":[[[54.417408,24.502771],[54.417402,24.50271],[54.417344,24.502715],[54.417301,24.502748],[54.417299,24.502712],[54.417054,24.502723],[54.417054,24.502707],[54.416945,24.502702],[54.41688,24.502753],[54.416877,24.502813],[54.416994,24.502812],[54.416995,24.502844],[54.417237,24.502836],[54.417282,24.502801],[54.417284,24.502826],[54.417343,24.502821],[54.417408,24.502771]]]}},{"type":"Feature","properties":{},"geometry":{"type":"Polygon","coordinates":[[[54.415338,24.502889],[54.415397,24.502883],[54.415374,24.502901],[54.415382,24.502951],[54.41544,24.502943],[54.415505,24.502893],[54.415499,24.502858],[54.415549,24.502863],[54.415614,24.502812],[54.415618,24.502785],[54.415565,24.502779],[54.4155,24.50283],[54.415497,24.502848],[54.415442,24.50285],[54.415465,24.502832],[54.415458,24.502778],[54.415396,24.502784],[54.415331,24.502835],[54.415338,24.502889]]]}},{"type":"Feature","properties":{},"geometry":{"type":"Polygon","coordinates":[[[54.415815,24.502783],[54.415689,24.502779],[54.415624,24.502829],[54.41562,24.502907],[54.415746,24.502912],[54.415811,24.502861],[54.415815,24.502783]]]}},{"type":"Feature","properties":{},"geometry":{"type":"Polygon","coordinates":[[[54.4172,24.503149],[54.417307,24.503153],[54.417372,24.503102],[54.417374,24.50306],[54.417267,24.503056],[54.417202,24.503106],[54.4172,24.503149]]]}},{"type":"Feature","properties":{},"geometry":{"type":"Polygon","coordinates":[[[54.417526,24.503139],[54.417465,24.503137],[54.4174,24.503187],[54.417396,24.503277],[54.417458,24.503279],[54.417491,24.503254],[54.417492,24.50328],[54.41754,24.503279],[54.417605,24.503229],[54.417604,24.503168],[54.417556,24.503169],[54.417524,24.503193],[54.417526,24.503139]]]}},{"type":"Feature","properties":{},"geometry":{"type":"Polygon","coordinates":[[[54.415728,24.503421],[54.415635,24.503418],[54.415569,24.503469],[54.415567,24.503524],[54.415661,24.503527],[54.415726,24.503477],[54.415728,24.503421]]]}},{"type":"Feature","properties":{},"geometry":{"type":"Polygon","coordinates":[[[54.415852,24.503558],[54.415809,24.503559],[54.415744,24.503609],[54.415747,24.503692],[54.41579,24.503691],[54.415855,24.50364],[54.415852,24.503558]]]}},{"type":"Feature","properties":{},"geometry":{"type":"Polygon","coordinates":[[[54.417698,24.50357],[54.417664,24.503569],[54.417599,24.503619],[54.417591,24.503836],[54.417625,24.503837],[54.41769,24.503787],[54.417698,24.50357]]]}},{"type":"Feature","properties":{},"geometry":{"type":"Polygon","coordinates":[[[54.415683,24.504083],[54.41564,24.504033],[54.415503,24.504134],[54.415547,24.504184],[54.415683,24.504083]]]}},{"type":"Feature","properties":{},"geometry":{"type":"Polygon","coordinates":[[[54.415589,24.504503],[54.415988,24.504182],[54.415792,24.50402],[54.41557,24.504193],[54.415411,24.50435],[54.415589,24.504503]]]}},{"type":"Feature","properties":{},"geometry":{"type":"Polygon","coordinates":[[[54.41549,24.504472],[54.415441,24.504421],[54.415331,24.504508],[54.41538,24.504558],[54.41549,24.504472]]]}},{"type":"Feature","properties":{},"geometry":{"type":"Polygon","coordinates":[[[54.415784,24.50493],[54.415672,24.505016],[54.415729,24.505077],[54.415841,24.50499],[54.415784,24.50493]]]}},{"type":"Feature","properties":{},"geometry":{"type":"Polygon","coordinates":[[[54.418934,24.480077],[54.418939,24.480052],[54.418873,24.480042],[54.418808,24.480093],[54.418802,24.480129],[54.418878,24.480129],[54.418877,24.480182],[54.418914,24.480182],[54.41898,24.480132],[54.418981,24.480071],[54.418934,24.480077]]]}},{"type":"Feature","properties":{},"geometry":{"type":"Polygon","coordinates":[[[54.420656,24.480304],[54.42066,24.480236],[54.420569,24.480232],[54.420504,24.480283],[54.420497,24.480414],[54.420836,24.480439],[54.420901,24.480388],[54.420903,24.480342],[54.420695,24.480334],[54.420696,24.480302],[54.420656,24.480304]]]}},{"type":"Feature","properties":{},"geometry":{"type":"Polygon","coordinates":[[[54.419993,24.480828],[54.419929,24.480822],[54.419864,24.480873],[54.419858,24.480927],[54.419922,24.480933],[54.419987,24.480883],[54.419993,24.480828]]]}},{"type":"Feature","properties":{},"geometry":{"type":"Polygon","coordinates":[[[54.418485,24.481881],[54.418668,24.481875],[54.418733,24.481824],[54.41873,24.481743],[54.418675,24.481744],[54.418674,24.48173],[54.418814,24.481746],[54.41888,24.481695],[54.418898,24.481561],[54.418579,24.481524],[54.418513,24.481575],[54.418495,24.481709],[54.418516,24.481712],[54.418478,24.481741],[54.418485,24.481881]]]}},{"type":"Feature","properties":{},"geometry":{"type":"Polygon","coordinates":[[[54.419322,24.48163],[54.418982,24.481589],[54.418917,24.481639],[54.418895,24.481793],[54.419235,24.481834],[54.4193,24.481784],[54.419322,24.48163]]]}},{"type":"Feature","properties":{},"geometry":{"type":"Polygon","coordinates":[[[54.419748,24.48167],[54.419421,24.481631],[54.419356,24.481682],[54.419336,24.481818],[54.419663,24.481857],[54.419728,24.481807],[54.419748,24.48167]]]}},{"type":"Feature","properties":{},"geometry":{"type":"Polygon","coordinates":[[[54.42007,24.481706],[54.420005,24.481756],[54.419998,24.481819],[54.420135,24.481822],[54.4202,24.481772],[54.420202,24.48172],[54.42007,24.481706]]]}},{"type":"Feature","properties":{},"geometry":{"type":"Polygon","coordinates":[[[54.418868,24.481775],[54.418826,24.48177],[54.418761,24.48182],[54.418748,24.4819],[54.41879,24.481906],[54.418855,24.481855],[54.418868,24.481775]]]}},{"type":"Feature","properties":{},"geometry":{"type":"Polygon","coordinates":[[[54.420621,24.481788],[54.420283,24.481748],[54.420218,24.481798],[54.420194,24.481961],[54.420532,24.482001],[54.420597,24.481951],[54.420621,24.481788]]]}},{"type":"Feature","properties":{},"geometry":{"type":"Polygon","coordinates":[[[54.420612,24.482144],[54.420922,24.482185],[54.420987,24.482135],[54.421007,24.482012],[54.420974,24.482007],[54.421032,24.481962],[54.42104,24.48183],[54.420715,24.481813],[54.42065,24.481864],[54.420642,24.481996],[54.420662,24.481997],[54.420632,24.482021],[54.420612,24.482144]]]}},{"type":"Feature","properties":{},"geometry":{"type":"Polygon","coordinates":[[[54.418837,24.481991],[54.418801,24.481985],[54.418735,24.482035],[54.41872,24.482106],[54.418756,24.482112],[54.418821,24.482062],[54.418837,24.481991]]]}},{"type":"Feature","properties":{},"geometry":{"type":"Polygon","coordinates":[[[54.420468,24.48202],[54.420378,24.481999],[54.420312,24.48205],[54.420288,24.482139],[54.420379,24.48216],[54.420444,24.482109],[54.420468,24.48202]]]}},{"type":"Feature","properties":{},"geometry":{"type":"Polygon","coordinates":[[[54.41841,24.482262],[54.418732,24.482302],[54.418798,24.482252],[54.418812,24.482159],[54.419131,24.482194],[54.419196,24.482143],[54.419207,24.482064],[54.418884,24.482029],[54.418819,24.482079],[54.418813,24.482124],[54.418494,24.482084],[54.418429,24.482135],[54.41841,24.482262]]]}},{"type":"Feature","properties":{},"geometry":{"type":"Polygon","coordinates":[[[54.419607,24.483065],[54.419595,24.483185],[54.419919,24.483213],[54.419984,24.483163],[54.419997,24.483043],[54.419976,24.483041],[54.420003,24.48302],[54.420016,24.482917],[54.420038,24.48292],[54.420103,24.48287],[54.420123,24.482738],[54.4201,24.482735],[54.420157,24.482699],[54.420129,24.482721],[54.420121,24.482788],[54.420449,24.482821],[54.420514,24.482771],[54.420522,24.482703],[54.420498,24.482701],[54.420531,24.482676],[54.420545,24.482545],[54.420223,24.482516],[54.420169,24.482559],[54.420176,24.482499],[54.41984,24.482465],[54.419774,24.482516],[54.419751,24.482711],[54.419781,24.482714],[54.419737,24.482749],[54.419721,24.482853],[54.4197,24.48285],[54.419635,24.482901],[54.419617,24.483035],[54.419642,24.483038],[54.419607,24.483065]]]}},{"type":"Feature","properties":{},"geometry":{"type":"Polygon","coordinates":[[[54.419055,24.482687],[54.418957,24.482661],[54.418892,24.482711],[54.418864,24.482797],[54.418961,24.482824],[54.419026,24.482773],[54.419055,24.482687]]]}},{"type":"Feature","properties":{},"geometry":{"type":"Polygon","coordinates":[[[54.420388,24.482858],[54.4203,24.48283],[54.420235,24.48288],[54.4202,24.482971],[54.420289,24.482999],[54.420354,24.482948],[54.420388,24.482858]]]}},{"type":"Feature","properties":{},"geometry":{"type":"Polygon","coordinates":[[[54.420442,24.483302],[54.420761,24.483328],[54.420826,24.483278],[54.420839,24.483149],[54.420809,24.483147],[54.420835,24.483127],[54.420852,24.483007],[54.420544,24.48297],[54.420479,24.48302],[54.420461,24.48314],[54.420493,24.483144],[54.420455,24.483173],[54.420442,24.483302]]]}},{"type":"Feature","properties":{},"geometry":{"type":"Polygon","coordinates":[[[54.420432,24.483032],[54.420094,24.483],[54.420029,24.483051],[54.42001,24.483213],[54.420349,24.483244],[54.420414,24.483194],[54.420432,24.483032]]]}},{"type":"Feature","properties":{},"geometry":{"type":"Polygon","coordinates":[[[54.419266,24.489357],[54.419368,24.489354],[54.419417,24.489316],[54.419419,24.489354],[54.419477,24.489351],[54.419542,24.4893],[54.41954,24.489259],[54.419482,24.489262],[54.419433,24.4893],[54.419432,24.489265],[54.41933,24.489268],[54.419265,24.489318],[54.419266,24.489357]]]}},{"type":"Feature","properties":{},"geometry":{"type":"Polygon","coordinates":[[[54.419694,24.489265],[54.419591,24.489266],[54.419526,24.489317],[54.419527,24.48937],[54.41963,24.489369],[54.419695,24.489319],[54.419694,24.489265]]]}},{"type":"Feature","properties":{},"geometry":{"type":"Polygon","coordinates":[[[54.419077,24.489301],[54.418987,24.489305],[54.418922,24.489355],[54.418929,24.489479],[54.419018,24.489476],[54.419083,24.489425],[54.419077,24.489301]]]}},{"type":"Feature","properties":{},"geometry":{"type":"Polygon","coordinates":[[[54.419661,24.489381],[54.419557,24.489378],[54.419492,24.489429],[54.419489,24.489531],[54.419593,24.489534],[54.419658,24.489483],[54.419661,24.489381]]]}},{"type":"Feature","properties":{},"geometry":{"type":"Polygon","coordinates":[[[54.419183,24.489537],[54.419157,24.48954],[54.419091,24.48959],[54.419101,24.489662],[54.419127,24.48966],[54.419193,24.489609],[54.419183,24.489537]]]}},{"type":"Feature","properties":{},"geometry":{"type":"Polygon","coordinates":[[[54.419684,24.489774],[54.419563,24.489776],[54.419498,24.489827],[54.419499,24.489872],[54.41962,24.489869],[54.419685,24.489819],[54.419684,24.489774]]]}},{"type":"Feature","properties":{},"geometry":{"type":"Polygon","coordinates":[[[54.419597,24.490343],[54.419662,24.490293],[54.419659,24.490172],[54.419611,24.490173],[54.419546,24.490224],[54.419547,24.490276],[54.419506,24.490308],[54.419513,24.490348],[54.419597,24.490343]]]}},{"type":"Feature","properties":{},"geometry":{"type":"Polygon","coordinates":[[[54.419432,24.490181],[54.419381,24.490183],[54.419316,24.490234],[54.419322,24.490355],[54.419373,24.490354],[54.419438,24.490303],[54.419432,24.490181]]]}},{"type":"Feature","properties":{},"geometry":{"type":"Polygon","coordinates":[[[54.419314,24.490275],[54.419239,24.490277],[54.419174,24.490327],[54.419175,24.490361],[54.41925,24.490359],[54.419315,24.490309],[54.419314,24.490275]]]}},{"type":"Feature","properties":{},"geometry":{"type":"Polygon","coordinates":[[[54.418376,24.5023],[54.418174,24.502378],[54.418109,24.502429],[54.418153,24.502522],[54.418355,24.502443],[54.41842,24.502393],[54.418376,24.5023]]]}}]}