{"type":"FeatureCollection","features":[{"type":"Feature","properties":{},"geometry":{"type":"Polygon","coordinates":[[[54.39083,24.48258],[54.39085,24.482458],[54.390713,24.482444],[54.39058,24.482459],[54.390563,24.482582],[54.390697,24.482594],[54.39083,24.48258]]]}},{"type":"Feature","properties":{},"geometry":{"type":"Polygon","coordinates":[[[54.39126,24.482831],[54.391191,24.482839],[54.39115,24.482902],[54.391195,24.482925],[54.39131,24.482913],[54.391382,24.482946],[54.391408,24.482943],[54.391359,24.483027],[54.391189,24.482928],[54.391056,24.482942],[54.390997,24.483025],[54.391238,24.483168],[54.391279,24.483163],[54.391503,24.483283],[54.391636,24.483268],[54.391712,24.483146],[54.391623,24.483082],[54.391671,24.483002],[54.3918,24.482989],[54.391875,24.482869],[54.391642,24.482755],[54.391547,24.482766],[54.391327,24.482666],[54.391266,24.482673],[54.391281,24.482646],[54.391195,24.482606],[54.391158,24.48261],[54.391168,24.482593],[54.391074,24.482551],[54.390942,24.482565],[54.39084,24.482745],[54.390651,24.48264],[54.390518,24.482654],[54.390461,24.482735],[54.39071,24.482873],[54.390843,24.482859],[54.390882,24.482801],[54.390912,24.482816],[54.390956,24.482811],[54.390947,24.482828],[54.391028,24.482867],[54.391161,24.482852],[54.391207,24.482774],[54.391256,24.482798],[54.391247,24.482816],[54.39126,24.482831]]]}},{"type":"Feature","properties":{},"geometry":{"type":"Polygon","coordinates":[[[54.390195,24.48281],[54.39013,24.482741],[54.389997,24.482755],[54.389907,24.482825],[54.389972,24.482894],[54.390105,24.48288],[54.390195,24.48281]]]}},{"type":"Feature","properties":{},"geometry":{"type":"Polygon","coordinates":[[[54.392323,24.483236],[54.392282,24.483312],[54.392375,24.483354],[54.392508,24.48334],[54.392609,24.483166],[54.392512,24.48312],[54.392452,24.483127],[54.392391,24.483101],[54.392413,24.483063],[54.392307,24.483013],[54.392237,24.48302],[54.392175,24.482992],[54.392042,24.483006],[54.392022,24.483043],[54.392118,24.483089],[54.39216,24.483085],[54.39226,24.483126],[54.392207,24.483218],[54.392261,24.483243],[54.392323,24.483236]]]}},{"type":"Feature","properties":{},"geometry":{"type":"Polygon","coordinates":[[[54.391612,24.483457],[54.391744,24.483443],[54.39176,24.483413],[54.391664,24.483373],[54.391532,24.483387],[54.391516,24.483417],[54.391612,24.483457]]]}},{"type":"Feature","properties":{},"geometry":{"type":"Polygon","coordinates":[[[54.391372,24.483674],[54.391433,24.483605],[54.391408,24.483585],[54.391457,24.48358],[54.391541,24.483484],[54.391357,24.483344],[54.391224,24.483358],[54.391015,24.483564],[54.39122,24.483711],[54.391247,24.483708],[54.391186,24.48376],[54.391324,24.483896],[54.391457,24.483882],[54.391544,24.483806],[54.391406,24.483671],[54.391372,24.483674]]]}},{"type":"Feature","properties":{},"geometry":{"type":"Polygon","coordinates":[[[54.390799,24.484563],[54.390932,24.484549],[54.391023,24.484471],[54.390904,24.484355],[54.390771,24.484369],[54.39068,24.484447],[54.390799,24.484563]]]}},{"type":"Feature","properties":{},"geometry":{"type":"Polygon","coordinates":[[[54.392463,24.488988],[54.392656,24.489084],[54.392839,24.489252],[54.392886,24.489319],[54.393052,24.489301],[54.393263,24.489217],[54.393272,24.489275],[54.393969,24.489188],[54.393916,24.488852],[54.393332,24.488924],[54.393264,24.488888],[54.393209,24.488829],[54.393183,24.488768],[54.393176,24.488704],[54.39319,24.488641],[54.393223,24.488583],[54.393272,24.488537],[54.393341,24.488504],[54.393874,24.488454],[54.393815,24.487899],[54.392872,24.487985],[54.392909,24.488341],[54.392711,24.488587],[54.392555,24.488528],[54.39248,24.488516],[54.392314,24.488534],[54.392301,24.488596],[54.392215,24.488605],[54.392125,24.48894],[54.392304,24.488949],[54.392463,24.488988]]]}},{"type":"Feature","properties":{},"geometry":{"type":"Polygon","coordinates":[[[54.392303,24.490933],[54.392469,24.490916],[54.392509,24.490881],[54.39257,24.490997],[54.39299,24.490946],[54.393301,24.49113],[54.393468,24.49111],[54.393566,24.49117],[54.393672,24.491195],[54.393757,24.491191],[54.393441,24.491575],[54.393494,24.491719],[54.39383,24.491951],[54.393919,24.491942],[54.395142,24.490474],[54.394971,24.490361],[54.394744,24.490375],[54.394497,24.490409],[54.394352,24.490468],[54.394138,24.490728],[54.394049,24.490615],[54.393953,24.490562],[54.393845,24.490539],[54.3939,24.490533],[54.394006,24.490476],[54.394144,24.4903],[54.394057,24.489796],[54.393679,24.489829],[54.393403,24.489672],[54.392995,24.489698],[54.392899,24.490086],[54.392856,24.490178],[54.392774,24.490277],[54.392729,24.490281],[54.392598,24.490361],[54.392349,24.490475],[54.392242,24.490494],[54.392101,24.490494],[54.391902,24.490447],[54.391736,24.490465],[54.391721,24.490502],[54.391735,24.490577],[54.3917,24.4906],[54.391651,24.49071],[54.391724,24.490779],[54.391942,24.490822],[54.392303,24.490933]]]}},{"type":"Feature","properties":{},"geometry":{"type":"Polygon","coordinates":[[[54.393002,24.491077],[54.392169,24.491164],[54.39221,24.49149],[54.392635,24.491446],[54.39262,24.491328],[54.393028,24.491286],[54.393002,24.491077]]]}},{"type":"Feature","properties":{},"geometry":{"type":"Polygon","coordinates":[[[54.39246,24.491593],[54.392547,24.492146],[54.393096,24.492078],[54.393123,24.491878],[54.393066,24.491518],[54.39246,24.491593]]]}},{"type":"Feature","properties":{},"geometry":{"type":"Polygon","coordinates":[[[54.392226,24.492479],[54.392288,24.492864],[54.393003,24.492772],[54.392941,24.492387],[54.392226,24.492479]]]}},{"type":"Feature","properties":{},"geometry":{"type":"Polygon","coordinates":[[[54.390826,24.492853],[54.39072,24.492757],[54.390587,24.492771],[54.390399,24.492942],[54.390505,24.493039],[54.390638,24.493024],[54.390826,24.492853]]]}},{"type":"Feature","properties":{},"geometry":{"type":"Polygon","coordinates":[[[54.389361,24.494209],[54.390303,24.494101],[54.390254,24.493746],[54.389311,24.493854],[54.389361,24.494209]]]}},{"type":"Feature","properties":{},"geometry":{"type":"Polygon","coordinates":[[[54.392741,24.49608],[54.392874,24.496066],[54.392928,24.496025],[54.393731,24.495945],[54.393739,24.496008],[54.393997,24.49598],[54.394202,24.495797],[54.394418,24.495772],[54.394333,24.495162],[54.393632,24.495242],[54.393642,24.495308],[54.392676,24.495443],[54.392741,24.49608]]]}},{"type":"Feature","properties":{},"geometry":{"type":"Polygon","coordinates":[[[54.390205,24.496364],[54.390775,24.496314],[54.390762,24.496085],[54.3907,24.496088],[54.39076,24.496082],[54.390708,24.495662],[54.390109,24.495729],[54.390113,24.495837],[54.39024,24.495832],[54.390264,24.49602],[54.390147,24.496033],[54.390156,24.496107],[54.390173,24.496106],[54.390205,24.496364]],[[54.390509,24.496225],[54.390561,24.496219],[54.390564,24.496258],[54.390522,24.496259],[54.390509,24.496225]]]}},{"type":"Feature","properties":{},"geometry":{"type":"Polygon","coordinates":[[[54.391796,24.496998],[54.391794,24.496959],[54.391422,24.496985],[54.391421,24.497019],[54.391796,24.496998]]]}},{"type":"Feature","properties":{},"geometry":{"type":"Polygon","coordinates":[[[54.391615,24.497128],[54.391802,24.497104],[54.391795,24.497066],[54.391607,24.49709],[54.391615,24.497128]]]}},{"type":"Feature","properties":{},"geometry":{"type":"Polygon","coordinates":[[[54.391186,24.49705],[54.391184,24.497144],[54.391436,24.497132],[54.391442,24.497038],[54.391186,24.49705]]]}},{"type":"Feature","properties":{},"geometry":{"type":"Polygon","coordinates":[[[54.391477,24.497166],[54.391232,24.497178],[54.39123,24.497241],[54.391475,24.49723],[54.391477,24.497166]]]}},{"type":"Feature","properties":{},"geometry":{"type":"Polygon","coordinates":[[[54.391404,24.498122],[54.391497,24.498179],[54.391913,24.49816],[54.393241,24.498018],[54.393209,24.4978],[54.392833,24.497674],[54.391505,24.497815],[54.391368,24.497883],[54.391404,24.498122]]]}},{"type":"Feature","properties":{},"geometry":{"type":"Polygon","coordinates":[[[54.393485,24.498184],[54.393487,24.498103],[54.393313,24.498116],[54.39331,24.498197],[54.393485,24.498184]]]}},{"type":"Feature","properties":{},"geometry":{"type":"Polygon","coordinates":[[[54.389941,24.498568],[54.391106,24.498447],[54.391062,24.498093],[54.389896,24.498215],[54.389941,24.498568]]]}},{"type":"Feature","properties":{},"geometry":{"type":"Polygon","coordinates":[[[54.391623,24.500751],[54.39166,24.500999],[54.392054,24.500955],[54.392021,24.500712],[54.391623,24.500751]]]}},{"type":"Feature","properties":{},"geometry":{"type":"Polygon","coordinates":[[[54.390331,24.502518],[54.390406,24.5031],[54.3914,24.50301],[54.391344,24.502496],[54.391662,24.502454],[54.391224,24.498817],[54.389877,24.498968],[54.390312,24.502371],[54.389868,24.502417],[54.389887,24.502566],[54.390331,24.502518]]]}},{"type":"Feature","properties":{},"geometry":{"type":"Polygon","coordinates":[[[54.392099,24.503682],[54.392324,24.503656],[54.392316,24.503606],[54.392091,24.503633],[54.392099,24.503682]]]}},{"type":"Feature","properties":{},"geometry":{"type":"Polygon","coordinates":[[[54.392463,24.503812],[54.392687,24.503797],[54.392687,24.503748],[54.392463,24.503763],[54.392463,24.503812]]]}},{"type":"Feature","properties":{},"geometry":{"type":"Polygon","coordinates":[[[54.392105,24.503737],[54.392111,24.503839],[54.392407,24.503817],[54.392401,24.503715],[54.392105,24.503737]]]}},{"type":"Feature","properties":{},"geometry":{"type":"Polygon","coordinates":[[[54.392186,24.504122],[54.392197,24.504216],[54.39209,24.504227],[54.392098,24.504395],[54.392217,24.504386],[54.392222,24.504432],[54.392637,24.504387],[54.39263,24.504292],[54.392725,24.504271],[54.392713,24.504235],[54.392627,24.504244],[54.392621,24.504151],[54.392435,24.504165],[54.39243,24.504121],[54.392723,24.504088],[54.392691,24.503867],[54.392054,24.50394],[54.392065,24.504132],[54.392186,24.504122]]]}},{"type":"Feature","properties":{},"geometry":{"type":"Polygon","coordinates":[[[54.39221,24.504771],[54.392786,24.504713],[54.392753,24.504438],[54.392177,24.504496],[54.39221,24.504771]]]}},{"type":"Feature","properties":{},"geometry":{"type":"Polygon","coordinates":[[[54.392181,24.504943],[54.392369,24.504924],[54.39236,24.504844],[54.392173,24.504863],[54.392181,24.504943]]]}},{"type":"Feature","properties":{},"geometry":{"type":"Polygon","coordinates":[[[54.392524,24.505181],[54.392558,24.505648],[54.392906,24.505621],[54.39287,24.505122],[54.392566,24.505144],[54.392564,24.505067],[54.392549,24.505067],[54.392725,24.505049],[54.392696,24.5048],[54.392452,24.504825],[54.392481,24.505069],[54.392208,24.505104],[54.392211,24.505213],[54.392524,24.505181]]]}},{"type":"Feature","properties":{},"geometry":{"type":"Polygon","coordinates":[[[54.389842,24.505811],[54.390189,24.505783],[54.390126,24.50519],[54.389795,24.505218],[54.389842,24.505811]]]}},{"type":"Feature","properties":{},"geometry":{"type":"Polygon","coordinates":[[[54.391776,24.506856],[54.391998,24.506832],[54.391992,24.506787],[54.39177,24.50681],[54.391776,24.506856]]]}},{"type":"Feature","properties":{},"geometry":{"type":"Polygon","coordinates":[[[54.391888,24.506957],[54.391997,24.506946],[54.392001,24.506959],[54.3922,24.506931],[54.392188,24.506882],[54.392231,24.506873],[54.392221,24.506832],[54.392088,24.506846],[54.391978,24.506869],[54.391982,24.506885],[54.39188,24.506896],[54.391888,24.506957]]]}},{"type":"Feature","properties":{},"geometry":{"type":"Polygon","coordinates":[[[54.392556,24.507137],[54.392874,24.507111],[54.392848,24.506768],[54.39253,24.506794],[54.392556,24.507137]]]}},{"type":"Feature","properties":{},"geometry":{"type":"Polygon","coordinates":[[[54.391816,24.507144],[54.392075,24.507128],[54.392073,24.507039],[54.391814,24.507055],[54.391816,24.507144]]]}},{"type":"Feature","properties":{},"geometry":{"type":"Polygon","coordinates":[[[54.392911,24.507214],[54.393125,24.507191],[54.393118,24.507138],[54.392904,24.50716],[54.392911,24.507214]]]}},{"type":"Feature","properties":{},"geometry":{"type":"Polygon","coordinates":[[[54.391541,24.50749],[54.392077,24.507452],[54.392067,24.507313],[54.391531,24.507352],[54.391541,24.50749]]]}},{"type":"Feature","properties":{},"geometry":{"type":"Polygon","coordinates":[[[54.391046,24.50751],[54.391312,24.507497],[54.391313,24.507416],[54.391047,24.507429],[54.391046,24.50751]]]}},{"type":"Feature","properties":{},"geometry":{"type":"Polygon","coordinates":[[[54.39297,24.508739],[54.393216,24.508734],[54.393349,24.50872],[54.39335,24.508686],[54.393236,24.508682],[54.39297,24.508709],[54.39297,24.508739]]]}},{"type":"Feature","properties":{},"geometry":{"type":"Polygon","coordinates":[[[54.393063,24.509778],[54.393196,24.509763],[54.393224,24.509722],[54.393153,24.509682],[54.393021,24.509696],[54.392992,24.509738],[54.393063,24.509778]]]}},{"type":"Feature","properties":{},"geometry":{"type":"Polygon","coordinates":[[[54.405389,24.480784],[54.405522,24.48077],[54.405641,24.480683],[54.405499,24.480523],[54.405351,24.480548],[54.405306,24.480496],[54.405173,24.48051],[54.405115,24.480552],[54.404982,24.480566],[54.404751,24.480736],[54.404947,24.480958],[54.40508,24.480944],[54.405353,24.480776],[54.405389,24.480784]]]}},{"type":"Feature","properties":{},"geometry":{"type":"Polygon","coordinates":[[[54.404658,24.48116],[54.40479,24.481145],[54.404847,24.481122],[54.404829,24.481088],[54.404697,24.481102],[54.40464,24.481125],[54.404658,24.48116]]]}},{"type":"Feature","properties":{},"geometry":{"type":"Polygon","coordinates":[[[54.404049,24.481569],[54.404578,24.481299],[54.404415,24.481022],[54.404282,24.481036],[54.403673,24.48131],[54.403917,24.481584],[54.404049,24.481569]]]}},{"type":"Feature","properties":{},"geometry":{"type":"Polygon","coordinates":[[[54.403095,24.483396],[54.403316,24.483372],[54.403242,24.483155],[54.403476,24.483023],[54.4033,24.482683],[54.402975,24.482246],[54.402754,24.48227],[54.402592,24.482336],[54.402598,24.482219],[54.402512,24.482215],[54.402291,24.482238],[54.401421,24.483154],[54.401422,24.483271],[54.401463,24.483334],[54.401638,24.483375],[54.401859,24.483351],[54.402057,24.483266],[54.402273,24.483208],[54.40257,24.483215],[54.403095,24.483396]]]}},{"type":"Feature","properties":{},"geometry":{"type":"Polygon","coordinates":[[[54.40362,24.484898],[54.403526,24.485074],[54.40334,24.485265],[54.403951,24.4858],[54.404084,24.485786],[54.40428,24.485595],[54.4045,24.485259],[54.404605,24.485016],[54.404675,24.484796],[54.404672,24.484501],[54.403884,24.484437],[54.403751,24.484451],[54.40362,24.484898]]]}},{"type":"Feature","properties":{},"geometry":{"type":"Polygon","coordinates":[[[54.40032,24.486616],[54.400169,24.486792],[54.400636,24.487122],[54.400754,24.487158],[54.400887,24.487144],[54.400999,24.487103],[54.40134,24.486348],[54.400876,24.486109],[54.400743,24.486123],[54.400631,24.486302],[54.40032,24.486616]]]}},{"type":"Feature","properties":{},"geometry":{"type":"Polygon","coordinates":[[[54.404749,24.486662],[54.40474,24.486614],[54.404392,24.48625],[54.404355,24.486224],[54.404303,24.486219],[54.403971,24.486254],[54.403234,24.486607],[54.403444,24.48716],[54.403478,24.487193],[54.40353,24.487207],[54.403862,24.487172],[54.404099,24.487088],[54.404454,24.486897],[54.404722,24.486701],[54.404749,24.486662]],[[54.404028,24.48662],[54.404072,24.486675],[54.403915,24.486765],[54.403886,24.486685],[54.404028,24.48662]]]}},{"type":"Feature","properties":{},"geometry":{"type":"Polygon","coordinates":[[[54.394555,24.487364],[54.394369,24.487515],[54.394513,24.487662],[54.394525,24.487661],[54.394504,24.487678],[54.394408,24.487586],[54.394275,24.4876],[54.394095,24.487756],[54.394113,24.487773],[54.394066,24.487813],[54.394198,24.487939],[54.394521,24.488303],[54.394661,24.488283],[54.394793,24.488419],[54.396354,24.488253],[54.396528,24.488229],[54.396745,24.488054],[54.396672,24.487978],[54.396769,24.4879],[54.396597,24.487723],[54.395169,24.487874],[54.394944,24.487551],[54.394986,24.48759],[54.396613,24.487418],[54.396997,24.487076],[54.396965,24.487046],[54.396883,24.487014],[54.396771,24.487001],[54.395019,24.487192],[54.39497,24.487235],[54.395012,24.487275],[54.394866,24.487404],[54.394906,24.48744],[54.394882,24.487462],[54.394753,24.487329],[54.39462,24.487343],[54.3946,24.487359],[54.394555,24.487364]]]}},{"type":"Feature","properties":{},"geometry":{"type":"Polygon","coordinates":[[[54.403013,24.489582],[54.402758,24.488122],[54.402421,24.488072],[54.401906,24.487967],[54.401277,24.487751],[54.400244,24.487289],[54.399676,24.48692],[54.399101,24.486488],[54.398968,24.486502],[54.397734,24.487851],[54.398874,24.488706],[54.400196,24.489399],[54.400966,24.489714],[54.401757,24.489883],[54.4026,24.489943],[54.402733,24.489929],[54.403013,24.489582]]]}},{"type":"Feature","properties":{},"geometry":{"type":"Polygon","coordinates":[[[54.396448,24.488649],[54.396346,24.488659],[54.396334,24.488561],[54.394327,24.488773],[54.394339,24.488872],[54.39419,24.488888],[54.394231,24.489235],[54.394384,24.48922],[54.394398,24.489338],[54.396411,24.489125],[54.396398,24.489013],[54.39649,24.489003],[54.396448,24.488649]]]}},{"type":"Feature","properties":{},"geometry":{"type":"Polygon","coordinates":[[[54.39653,24.489379],[54.396429,24.489388],[54.396418,24.48929],[54.39441,24.489501],[54.394421,24.489599],[54.394271,24.489615],[54.394312,24.489967],[54.394465,24.489952],[54.394481,24.490096],[54.396495,24.489884],[54.396479,24.48974],[54.396571,24.48973],[54.39653,24.489379]]]}},{"type":"Feature","properties":{},"geometry":{"type":"Polygon","coordinates":[[[54.400058,24.490467],[54.400098,24.490732],[54.400535,24.490679],[54.400494,24.490414],[54.400058,24.490467]]]}},{"type":"Feature","properties":{},"geometry":{"type":"Polygon","coordinates":[[[54.394949,24.49182],[54.394529,24.491865],[54.394426,24.491993],[54.393984,24.49204],[54.393805,24.492246],[54.394047,24.492419],[54.394123,24.492411],[54.394184,24.492454],[54.395644,24.492299],[54.395588,24.492557],[54.395997,24.492631],[54.39613,24.492617],[54.396195,24.492318],[54.395896,24.492264],[54.39599,24.492156],[54.395899,24.492091],[54.396456,24.492021],[54.396531,24.491927],[54.396456,24.491878],[54.39652,24.491797],[54.396446,24.491749],[54.396859,24.491705],[54.39696,24.491588],[54.396865,24.49152],[54.396908,24.491471],[54.39669,24.491314],[54.397112,24.491269],[54.397214,24.491152],[54.397119,24.491084],[54.397161,24.491034],[54.396936,24.490872],[54.39712,24.49066],[54.396881,24.490488],[54.395387,24.490647],[54.395185,24.490879],[54.395379,24.491018],[54.395186,24.491038],[54.395007,24.491243],[54.395249,24.491417],[54.395325,24.491409],[54.395354,24.49143],[54.394932,24.491475],[54.394754,24.49168],[54.394949,24.49182]]]}},{"type":"Feature","properties":{},"geometry":{"type":"Polygon","coordinates":[[[54.398541,24.492176],[54.3988,24.492144],[54.398757,24.491826],[54.398498,24.491854],[54.398541,24.492176]]]}},{"type":"Feature","properties":{},"geometry":{"type":"Polygon","coordinates":[[[54.399215,24.492306],[54.39898,24.492332],[54.398958,24.492201],[54.398753,24.492225],[54.398781,24.49246],[54.399228,24.492406],[54.399215,24.492306]]]}},{"type":"Feature","properties":{},"geometry":{"type":"Polygon","coordinates":[[[54.39857,24.492562],[54.398779,24.492539],[54.398735,24.49221],[54.398525,24.492233],[54.39857,24.492562]]]}},{"type":"Feature","properties":{},"geometry":{"type":"Polygon","coordinates":[[[54.399973,24.493406],[54.400836,24.493307],[54.400782,24.492921],[54.399918,24.49302],[54.399973,24.493406]]]}},{"type":"Feature","properties":{},"geometry":{"type":"Polygon","coordinates":[[[54.403832,24.494385],[54.404045,24.494498],[54.404178,24.494484],[54.404312,24.494273],[54.405752,24.49412],[54.406035,24.493676],[54.405951,24.493632],[54.405878,24.49364],[54.405874,24.493611],[54.405893,24.493581],[54.405869,24.493568],[54.405853,24.493439],[54.404683,24.493563],[54.40466,24.493543],[54.404714,24.493457],[54.404551,24.493371],[54.404418,24.493385],[54.404394,24.493423],[54.404047,24.493458],[54.404013,24.493517],[54.40384,24.49353],[54.403836,24.493495],[54.403359,24.493544],[54.403368,24.493617],[54.403273,24.493627],[54.403326,24.494059],[54.403286,24.494063],[54.403322,24.494353],[54.403622,24.494322],[54.403653,24.494365],[54.403701,24.49439],[54.403832,24.494385]]]}},{"type":"Feature","properties":{},"geometry":{"type":"Polygon","coordinates":[[[54.393654,24.494475],[54.393648,24.494427],[54.393367,24.494459],[54.393371,24.494483],[54.39331,24.49449],[54.393345,24.49473],[54.393746,24.494684],[54.393715,24.494468],[54.393654,24.494475]]]}},{"type":"Feature","properties":{},"geometry":{"type":"Polygon","coordinates":[[[54.405858,24.497569],[54.406,24.497594],[54.406133,24.49758],[54.406144,24.49753],[54.406186,24.497525],[54.406221,24.497376],[54.406124,24.497361],[54.406139,24.497312],[54.405933,24.497273],[54.405804,24.497287],[54.405753,24.497186],[54.405842,24.497177],[54.405888,24.497064],[54.406366,24.497013],[54.406371,24.497002],[54.406432,24.497223],[54.406565,24.497209],[54.406873,24.497128],[54.40687,24.497115],[54.407208,24.497068],[54.407344,24.497081],[54.407469,24.497068],[54.407468,24.497083],[54.408106,24.497162],[54.40839,24.497131],[54.408709,24.497309],[54.409815,24.497191],[54.410636,24.4968],[54.410491,24.496571],[54.409385,24.496689],[54.409172,24.496784],[54.40861,24.496843],[54.408632,24.496793],[54.408422,24.496722],[54.408111,24.496644],[54.407878,24.496616],[54.407491,24.496658],[54.407487,24.496731],[54.40735,24.496745],[54.407346,24.496722],[54.407014,24.496758],[54.4068,24.496808],[54.406789,24.496758],[54.406656,24.496773],[54.406445,24.496825],[54.406579,24.496505],[54.406377,24.496418],[54.40613,24.496444],[54.406229,24.496194],[54.405866,24.496075],[54.405119,24.496154],[54.404761,24.49602],[54.404485,24.49605],[54.404158,24.496949],[54.403928,24.497053],[54.404358,24.49798],[54.404634,24.49795],[54.404895,24.497731],[54.405671,24.497648],[54.405858,24.497569]]]}},{"type":"Feature","properties":{},"geometry":{"type":"Polygon","coordinates":[[[54.39431,24.497106],[54.39439,24.49739],[54.394641,24.497508],[54.394774,24.497494],[54.394902,24.497428],[54.395018,24.497334],[54.395007,24.49726],[54.39505,24.497197],[54.39513,24.497158],[54.395163,24.497099],[54.394675,24.496807],[54.394542,24.496821],[54.39431,24.497106]]]}},{"type":"Feature","properties":{},"geometry":{"type":"Polygon","coordinates":[[[54.402809,24.499041],[54.40277,24.499106],[54.402825,24.499141],[54.40285,24.499176],[54.402864,24.49922],[54.402856,24.499279],[54.403021,24.499304],[54.404061,24.499194],[54.404211,24.499253],[54.404316,24.499276],[54.403484,24.499365],[54.403448,24.499406],[54.403156,24.499591],[54.403093,24.499605],[54.40308,24.499633],[54.403087,24.499668],[54.403154,24.499754],[54.403248,24.499802],[54.403337,24.499793],[54.403476,24.499943],[54.403581,24.500013],[54.403698,24.500065],[54.403823,24.500099],[54.403952,24.500113],[54.404111,24.500109],[54.404135,24.500134],[54.404109,24.500161],[54.404113,24.500183],[54.404184,24.500229],[54.404243,24.500234],[54.404484,24.50021],[54.404483,24.500286],[54.404938,24.500248],[54.405387,24.500143],[54.405868,24.500091],[54.405954,24.500055],[54.406001,24.500014],[54.406049,24.500009],[54.406125,24.499918],[54.406687,24.499856],[54.406742,24.499816],[54.406749,24.499751],[54.406695,24.499679],[54.406644,24.499647],[54.406987,24.499611],[54.407044,24.499562],[54.407082,24.499432],[54.407111,24.499429],[54.407119,24.499314],[54.407071,24.499319],[54.407031,24.49922],[54.406968,24.499163],[54.406502,24.499204],[54.406577,24.499053],[54.40683,24.499014],[54.406902,24.498925],[54.406986,24.498854],[54.407053,24.498818],[54.407097,24.498769],[54.407114,24.498695],[54.407108,24.498618],[54.407064,24.498552],[54.406992,24.49852],[54.406708,24.49855],[54.406722,24.498311],[54.406699,24.498088],[54.406621,24.497783],[54.40582,24.497633],[54.405643,24.497652],[54.405791,24.497852],[54.405831,24.497935],[54.405209,24.498001],[54.405129,24.498028],[54.405089,24.49808],[54.4051,24.498143],[54.405047,24.498153],[54.404875,24.498333],[54.404851,24.498402],[54.404855,24.498473],[54.40483,24.498577],[54.40478,24.498658],[54.403668,24.498776],[54.403689,24.498711],[54.403713,24.498683],[54.403819,24.498613],[54.403796,24.498561],[54.404093,24.498445],[54.404234,24.498361],[54.404315,24.498273],[54.404338,24.498221],[54.404319,24.498189],[54.404333,24.498175],[54.404247,24.498112],[54.40421,24.498116],[54.404181,24.498099],[54.404255,24.498091],[54.404268,24.498063],[54.404215,24.498043],[54.404083,24.498057],[54.404072,24.498086],[54.403978,24.498096],[54.403208,24.498413],[54.403016,24.498458],[54.402864,24.498563],[54.402757,24.498744],[54.40274,24.498873],[54.402759,24.498984],[54.402809,24.499041]],[[54.40453,24.49963],[54.404809,24.499471],[54.404807,24.499454],[54.404852,24.499449],[54.404883,24.499422],[54.404884,24.499379],[54.404813,24.499285],[54.405141,24.49923],[54.405246,24.499194],[54.405705,24.499145],[54.405367,24.499437],[54.405072,24.499597],[54.404499,24.499657],[54.404503,24.499633],[54.40453,24.49963]],[[54.405682,24.498462],[54.405928,24.498436],[54.405929,24.498536],[54.405692,24.498561],[54.405682,24.498462]]]}},{"type":"Feature","properties":{},"geometry":{"type":"Polygon","coordinates":[[[54.396262,24.498505],[54.396073,24.498517],[54.39607,24.498583],[54.39626,24.49857],[54.396262,24.498505]]]}},{"type":"Feature","properties":{},"geometry":{"type":"Polygon","coordinates":[[[54.393466,24.49866],[54.393621,24.499665],[54.395503,24.499457],[54.395393,24.498649],[54.395269,24.498528],[54.393466,24.49866]]]}},{"type":"Feature","properties":{},"geometry":{"type":"Polygon","coordinates":[[[54.395447,24.499997],[54.395695,24.499966],[54.395667,24.499813],[54.395419,24.499844],[54.395447,24.499997]]]}},{"type":"Feature","properties":{},"geometry":{"type":"Polygon","coordinates":[[[54.395264,24.500113],[54.395429,24.500093],[54.395406,24.499988],[54.395241,24.500009],[54.395264,24.500113]]]}},{"type":"Feature","properties":{},"geometry":{"type":"Polygon","coordinates":[[[54.39489,24.500451],[54.395069,24.500429],[54.395049,24.500315],[54.394869,24.500337],[54.39489,24.500451]]]}},{"type":"Feature","properties":{},"geometry":{"type":"Polygon","coordinates":[[[54.394922,24.50055],[54.395064,24.501399],[54.395763,24.501306],[54.395621,24.500458],[54.394922,24.50055]]]}},{"type":"Feature","properties":{},"geometry":{"type":"Polygon","coordinates":[[[54.39588,24.501883],[54.395661,24.501895],[54.395658,24.501997],[54.395877,24.501985],[54.39588,24.501883]]]}},{"type":"Feature","properties":{},"geometry":{"type":"Polygon","coordinates":[[[54.395492,24.502519],[54.396057,24.502446],[54.396006,24.502138],[54.395441,24.502211],[54.395492,24.502519]]]}},{"type":"Feature","properties":{},"geometry":{"type":"Polygon","coordinates":[[[54.397407,24.504788],[54.397612,24.504771],[54.397606,24.50467],[54.397401,24.504687],[54.397407,24.504788]]]}},{"type":"Feature","properties":{},"geometry":{"type":"Polygon","coordinates":[[[54.404497,24.507354],[54.40463,24.50734],[54.404663,24.507312],[54.40457,24.507221],[54.404437,24.507235],[54.404404,24.507263],[54.404497,24.507354]]]}},{"type":"Feature","properties":{},"geometry":{"type":"Polygon","coordinates":[[[54.393404,24.509398],[54.393334,24.509406],[54.393287,24.509433],[54.393322,24.509481],[54.393096,24.509587],[54.393144,24.509669],[54.39321,24.509661],[54.393287,24.509787],[54.39342,24.509773],[54.393758,24.509602],[54.393746,24.509582],[54.393928,24.50949],[54.393899,24.509443],[54.393988,24.509434],[54.394022,24.509416],[54.393986,24.509357],[54.393855,24.50937],[54.393715,24.509143],[54.393791,24.509135],[54.393788,24.50908],[54.393604,24.509096],[54.393605,24.509121],[54.393563,24.509125],[54.393369,24.509224],[54.39338,24.509243],[54.393317,24.509272],[54.393404,24.509398]]]}},{"type":"Feature","properties":{},"geometry":{"type":"Polygon","coordinates":[[[54.394077,24.509894],[54.394209,24.50988],[54.394306,24.509838],[54.39426,24.509751],[54.394219,24.509756],[54.394252,24.509737],[54.394191,24.509646],[54.394171,24.509648],[54.394185,24.50964],[54.394151,24.509591],[54.394018,24.509606],[54.393978,24.509629],[54.394012,24.509678],[54.394031,24.509676],[54.394017,24.509683],[54.394078,24.509774],[54.394117,24.50977],[54.394031,24.509807],[54.394077,24.509894]]]}},{"type":"Feature","properties":{},"geometry":{"type":"Polygon","coordinates":[[[54.393874,24.509991],[54.394049,24.509971],[54.394043,24.509935],[54.393869,24.509955],[54.393874,24.509991]]]}},{"type":"Feature","properties":{},"geometry":{"type":"Polygon","coordinates":[[[54.394327,24.509984],[54.394296,24.509924],[54.394163,24.509938],[54.393848,24.510074],[54.393879,24.510134],[54.394012,24.51012],[54.394327,24.509984]]]}},{"type":"Feature","properties":{},"geometry":{"type":"Polygon","coordinates":[[[54.406456,24.480081],[54.406388,24.479973],[54.406563,24.479881],[54.406506,24.479791],[54.406407,24.479802],[54.406309,24.479634],[54.406176,24.479648],[54.405927,24.479779],[54.405983,24.479867],[54.405776,24.479976],[54.405813,24.480035],[54.405737,24.480075],[54.4058,24.480173],[54.40582,24.480171],[54.405905,24.480306],[54.406038,24.480292],[54.406456,24.480081]]]}},{"type":"Feature","properties":{},"geometry":{"type":"Polygon","coordinates":[[[54.406968,24.479985],[54.406904,24.479921],[54.406771,24.479935],[54.406679,24.480012],[54.406743,24.480076],[54.406876,24.480062],[54.406968,24.479985]]]}},{"type":"Feature","properties":{},"geometry":{"type":"Polygon","coordinates":[[[54.406404,24.480249],[54.406368,24.480322],[54.406349,24.480324],[54.406306,24.480383],[54.406104,24.480529],[54.406136,24.480569],[54.406181,24.480564],[54.406214,24.480596],[54.406282,24.480589],[54.406437,24.480741],[54.406569,24.480727],[54.406715,24.480604],[54.406548,24.480439],[54.406577,24.480436],[54.406612,24.480389],[54.406575,24.480367],[54.406617,24.480362],[54.406655,24.480282],[54.406536,24.480235],[54.406404,24.480249]]]}},{"type":"Feature","properties":{},"geometry":{"type":"Polygon","coordinates":[[[54.405699,24.480497],[54.405832,24.480483],[54.405907,24.480445],[54.40588,24.4804],[54.405748,24.480415],[54.405672,24.480452],[54.405699,24.480497]]]}},{"type":"Feature","properties":{},"geometry":{"type":"Polygon","coordinates":[[[54.405261,24.482119],[54.405287,24.48226],[54.405336,24.482344],[54.405367,24.48234],[54.405417,24.48244],[54.406413,24.482334],[54.406647,24.482218],[54.406618,24.482118],[54.406876,24.48209],[54.407116,24.48194],[54.407046,24.481864],[54.407224,24.481845],[54.407452,24.481699],[54.40724,24.481411],[54.407174,24.4813],[54.406178,24.481406],[54.406001,24.481509],[54.405923,24.481577],[54.405965,24.481626],[54.405846,24.481639],[54.405621,24.481752],[54.40558,24.481799],[54.405618,24.481869],[54.405398,24.481892],[54.40529,24.481997],[54.405261,24.482119]]]}},{"type":"Feature","properties":{},"geometry":{"type":"Polygon","coordinates":[[[54.406107,24.48267],[54.406143,24.482727],[54.406275,24.482713],[54.406407,24.482645],[54.406708,24.483103],[54.406841,24.483089],[54.407017,24.482993],[54.406682,24.482484],[54.406655,24.482487],[54.406618,24.482432],[54.406485,24.482446],[54.40631,24.482553],[54.406314,24.482564],[54.406107,24.48267]]]}},{"type":"Feature","properties":{},"geometry":{"type":"Polygon","coordinates":[[[54.405455,24.483133],[54.405126,24.483265],[54.405318,24.483913],[54.404939,24.484017],[54.404994,24.484359],[54.405703,24.48437],[54.405835,24.484356],[54.405836,24.483838],[54.405588,24.483118],[54.405455,24.483133]]]}},{"type":"Feature","properties":{},"geometry":{"type":"Polygon","coordinates":[[[54.405875,24.484466],[54.40515,24.484379],[54.405017,24.484393],[54.404939,24.484734],[54.405619,24.484873],[54.405752,24.484858],[54.405875,24.484466]]]}},{"type":"Feature","properties":{},"geometry":{"type":"Polygon","coordinates":[[[54.407469,24.485313],[54.407394,24.485249],[54.407262,24.485263],[54.406967,24.48555],[54.407042,24.485614],[54.407175,24.4856],[54.407469,24.485313]]]}},{"type":"Feature","properties":{},"geometry":{"type":"Polygon","coordinates":[[[54.406818,24.485672],[54.406951,24.485657],[54.406992,24.485596],[54.406887,24.485537],[54.406754,24.485552],[54.406713,24.485613],[54.406818,24.485672]]]}},{"type":"Feature","properties":{},"geometry":{"type":"Polygon","coordinates":[[[54.405983,24.487822],[54.406691,24.487747],[54.406835,24.487567],[54.40654,24.487354],[54.405832,24.487429],[54.405686,24.487602],[54.405983,24.487822]]]}},{"type":"Feature","properties":{},"geometry":{"type":"Polygon","coordinates":[[[54.407731,24.488267],[54.407451,24.487859],[54.407318,24.487873],[54.406497,24.488337],[54.406776,24.488745],[54.406909,24.488731],[54.407731,24.488267]]]}},{"type":"Feature","properties":{},"geometry":{"type":"Polygon","coordinates":[[[54.406989,24.490373],[54.407122,24.490359],[54.407187,24.490337],[54.407153,24.490257],[54.407021,24.490271],[54.406961,24.490292],[54.406989,24.490373]]]}},{"type":"Feature","properties":{},"geometry":{"type":"Polygon","coordinates":[[[54.406609,24.492946],[54.406512,24.492865],[54.406379,24.492879],[54.406249,24.493007],[54.406346,24.493088],[54.406479,24.493074],[54.406609,24.492946]]]}},{"type":"Feature","properties":{},"geometry":{"type":"Polygon","coordinates":[[[54.406247,24.492254],[54.405376,24.492715],[54.405341,24.492999],[54.4062,24.493728],[54.406342,24.493713],[54.406669,24.493441],[54.406092,24.492963],[54.406456,24.492627],[54.406284,24.492506],[54.406496,24.492406],[54.406389,24.492239],[54.406247,24.492254]]]}},{"type":"Feature","properties":{},"geometry":{"type":"Polygon","coordinates":[[[54.406512,24.495318],[54.406732,24.495302],[54.406731,24.495274],[54.40653,24.495292],[54.406549,24.495262],[54.406483,24.495226],[54.40635,24.49524],[54.406305,24.495308],[54.406371,24.495344],[54.406504,24.49533],[54.406512,24.495318]]]}},{"type":"Feature","properties":{},"geometry":{"type":"Polygon","coordinates":[[[54.406596,24.495512],[54.406724,24.495499],[54.406696,24.495628],[54.406618,24.495595],[54.406527,24.495604],[54.406581,24.495577],[54.406528,24.495489],[54.406395,24.495503],[54.406312,24.495545],[54.406365,24.495633],[54.406411,24.495628],[54.40637,24.495728],[54.40627,24.495738],[54.406224,24.495803],[54.406251,24.495819],[54.406384,24.495805],[54.406422,24.49575],[54.406546,24.495803],[54.406667,24.49579],[54.406613,24.496087],[54.406559,24.496192],[54.406567,24.496251],[54.406631,24.496295],[54.407376,24.496224],[54.407824,24.496263],[54.408207,24.49638],[54.408373,24.496362],[54.408395,24.496321],[54.408609,24.49641],[54.408791,24.496429],[54.410149,24.496287],[54.410069,24.496343],[54.410179,24.496484],[54.411064,24.49639],[54.411228,24.496286],[54.411181,24.496225],[54.411437,24.496198],[54.41157,24.496135],[54.412102,24.496069],[54.41215,24.496038],[54.412164,24.495976],[54.412088,24.495851],[54.41199,24.495769],[54.411859,24.495696],[54.411713,24.49564],[54.411593,24.495617],[54.409802,24.495799],[54.409841,24.49574],[54.409851,24.495637],[54.409818,24.495599],[54.409748,24.495584],[54.408413,24.495725],[54.408774,24.495194],[54.408961,24.495292],[54.409261,24.495341],[54.409621,24.495322],[54.410174,24.495263],[54.410517,24.49517],[54.410421,24.49499],[54.410033,24.495031],[54.409819,24.494548],[54.409751,24.494217],[54.410347,24.494154],[54.410421,24.49407],[54.410531,24.494058],[54.410801,24.493751],[54.411081,24.493507],[54.411577,24.493196],[54.412038,24.493047],[54.412483,24.492929],[54.412454,24.492719],[54.409532,24.493029],[54.409064,24.493135],[54.408549,24.493307],[54.407982,24.493622],[54.407631,24.493885],[54.407294,24.494291],[54.407536,24.494453],[54.408571,24.495082],[54.40819,24.495643],[54.40706,24.495013],[54.406894,24.495031],[54.406763,24.495392],[54.406695,24.495327],[54.406562,24.495341],[54.406486,24.495406],[54.406596,24.495512]]]}},{"type":"Feature","properties":{},"geometry":{"type":"Polygon","coordinates":[[[54.406335,24.495993],[54.406323,24.495954],[54.406167,24.495971],[54.406173,24.49601],[54.406202,24.496035],[54.406241,24.496042],[54.406373,24.496028],[54.406372,24.496007],[54.406335,24.495993]]]}},{"type":"Feature","properties":{},"geometry":{"type":"Polygon","coordinates":[[[54.406385,24.496193],[54.406518,24.496179],[54.406533,24.496152],[54.40646,24.496117],[54.406327,24.496131],[54.406312,24.496158],[54.406385,24.496193]]]}},{"type":"Feature","properties":{},"geometry":{"type":"Polygon","coordinates":[[[54.406917,24.503485],[54.40713,24.503453],[54.407076,24.50333],[54.40688,24.503364],[54.406917,24.503485]]]}},{"type":"Feature","properties":{},"geometry":{"type":"Polygon","coordinates":[[[54.406658,24.504525],[54.406432,24.504537],[54.406428,24.504679],[54.406656,24.504667],[54.406658,24.504525]]]}},{"type":"Feature","properties":{},"geometry":{"type":"Polygon","coordinates":[[[54.406141,24.504759],[54.406365,24.504724],[54.406317,24.504556],[54.406088,24.504593],[54.406141,24.504759]]]}},{"type":"Feature","properties":{},"geometry":{"type":"Polygon","coordinates":[[[54.406459,24.505725],[54.406702,24.505922],[54.407868,24.505798],[54.407868,24.505818],[54.408033,24.505842],[54.408166,24.505828],[54.408161,24.505727],[54.407989,24.505712],[54.40801,24.505687],[54.408045,24.505565],[54.408005,24.505424],[54.407891,24.505323],[54.406736,24.505446],[54.406477,24.505226],[54.406344,24.50524],[54.406082,24.505495],[54.406364,24.505735],[54.406459,24.505725]]]}},{"type":"Feature","properties":{},"geometry":{"type":"Polygon","coordinates":[[[54.405719,24.50546],[54.405518,24.50541],[54.405385,24.505424],[54.405291,24.505739],[54.405492,24.505789],[54.405625,24.505775],[54.405719,24.50546]]]}},{"type":"Feature","properties":{},"geometry":{"type":"Polygon","coordinates":[[[54.405607,24.505909],[54.405312,24.505814],[54.405179,24.505828],[54.405064,24.506126],[54.405359,24.506221],[54.405492,24.506207],[54.405607,24.505909]]]}},{"type":"Feature","properties":{},"geometry":{"type":"Polygon","coordinates":[[[54.405478,24.506351],[54.405199,24.506265],[54.405066,24.506279],[54.404973,24.506527],[54.405252,24.506613],[54.405385,24.506599],[54.405478,24.506351]]]}},{"type":"Feature","properties":{},"geometry":{"type":"Polygon","coordinates":[[[54.405369,24.506702],[54.405081,24.506605],[54.404948,24.50662],[54.404806,24.507019],[54.405062,24.507112],[54.405195,24.507097],[54.405369,24.506702]]]}},{"type":"Feature","properties":{},"geometry":{"type":"Polygon","coordinates":[[[54.407019,24.507514],[54.407125,24.507503],[54.407226,24.507416],[54.407208,24.507399],[54.407284,24.507334],[54.407337,24.507329],[54.407439,24.50724],[54.407189,24.507004],[54.407183,24.506937],[54.407052,24.506876],[54.407025,24.50685],[54.407002,24.506852],[54.406922,24.506814],[54.405529,24.506966],[54.404898,24.508066],[54.404993,24.508131],[54.406252,24.507997],[54.406502,24.508244],[54.406098,24.508287],[54.40598,24.508394],[54.406168,24.50858],[54.405842,24.508615],[54.405724,24.508722],[54.406121,24.509114],[54.406279,24.509097],[54.406344,24.509146],[54.406476,24.509131],[54.406517,24.509087],[54.4065,24.509074],[54.407183,24.509001],[54.407295,24.508886],[54.407114,24.508708],[54.407439,24.508674],[54.407551,24.508559],[54.407304,24.508315],[54.407708,24.508272],[54.407819,24.508158],[54.407429,24.507773],[54.407311,24.507785],[54.407334,24.50776],[54.4073,24.507735],[54.407167,24.507749],[54.407137,24.507782],[54.407163,24.507801],[54.406728,24.507847],[54.40695,24.50745],[54.407019,24.507514]]]}},{"type":"Feature","properties":{},"geometry":{"type":"Polygon","coordinates":[[[54.406311,24.509279],[54.406282,24.509259],[54.405231,24.509371],[54.405105,24.509539],[54.405253,24.509684],[54.405381,24.50967],[54.405418,24.509695],[54.406469,24.509583],[54.40665,24.50932],[54.406528,24.509256],[54.406311,24.509279]]]}},{"type":"Feature","properties":{},"geometry":{"type":"Polygon","coordinates":[[[54.410524,24.48008],[54.410656,24.480066],[54.410725,24.479999],[54.410575,24.479871],[54.410443,24.479885],[54.410374,24.479952],[54.410524,24.48008]]]}},{"type":"Feature","properties":{},"geometry":{"type":"Polygon","coordinates":[[[54.407183,24.482071],[54.407041,24.482137],[54.407181,24.482327],[54.407302,24.482429],[54.407416,24.48261],[54.408522,24.482492],[54.408712,24.482421],[54.408754,24.48229],[54.408356,24.481845],[54.407249,24.481963],[54.407183,24.482071]]]}},{"type":"Feature","properties":{},"geometry":{"type":"Polygon","coordinates":[[[54.409312,24.483001],[54.409541,24.482984],[54.409536,24.482869],[54.409307,24.482887],[54.409312,24.483001]]]}},{"type":"Feature","properties":{},"geometry":{"type":"Polygon","coordinates":[[[54.408711,24.484737],[54.408334,24.484777],[54.408129,24.484931],[54.408142,24.484996],[54.408361,24.485107],[54.408442,24.485098],[54.408489,24.48516],[54.409197,24.485084],[54.40931,24.485001],[54.409172,24.484846],[54.409537,24.484808],[54.409747,24.484667],[54.409502,24.484365],[54.408793,24.48444],[54.408584,24.484581],[54.408711,24.484737]]]}},{"type":"Feature","properties":{},"geometry":{"type":"Polygon","coordinates":[[[54.409484,24.48606],[54.409624,24.486071],[54.409912,24.48604],[54.409995,24.486016],[54.410076,24.485934],[54.410504,24.486668],[54.410792,24.486638],[54.411151,24.48647],[54.41065,24.485589],[54.41069,24.485563],[54.410701,24.48549],[54.410692,24.485437],[54.410676,24.485415],[54.410538,24.48543],[54.410538,24.485403],[54.41065,24.485391],[54.410692,24.485364],[54.410731,24.485288],[54.410774,24.485354],[54.410906,24.48534],[54.411015,24.485282],[54.410965,24.485204],[54.410932,24.485207],[54.411265,24.485074],[54.411092,24.484755],[54.410804,24.484786],[54.40991,24.485219],[54.409673,24.485244],[54.409599,24.48533],[54.409423,24.4854],[54.409337,24.485483],[54.4093,24.485577],[54.409299,24.485765],[54.409239,24.48568],[54.409295,24.485648],[54.409269,24.485612],[54.409146,24.485625],[54.409175,24.485602],[54.409134,24.485559],[54.409001,24.485574],[54.408922,24.485635],[54.408963,24.485678],[54.409065,24.485667],[54.409022,24.485692],[54.409129,24.485845],[54.409262,24.485831],[54.409307,24.485805],[54.409317,24.485856],[54.409397,24.485985],[54.409484,24.48606]]]}},{"type":"Feature","properties":{},"geometry":{"type":"Polygon","coordinates":[[[54.407564,24.485445],[54.407378,24.485639],[54.407438,24.485686],[54.407457,24.485684],[54.407698,24.485879],[54.408406,24.485804],[54.408598,24.485605],[54.408536,24.485556],[54.408502,24.485559],[54.408273,24.485369],[54.407564,24.485445]]]}},{"type":"Feature","properties":{},"geometry":{"type":"Polygon","coordinates":[[[54.407832,24.485917],[54.407784,24.48588],[54.407651,24.485895],[54.407557,24.485997],[54.407605,24.486034],[54.407738,24.48602],[54.407832,24.485917]]]}},{"type":"Feature","properties":{},"geometry":{"type":"Polygon","coordinates":[[[54.40938,24.48735],[54.409247,24.487364],[54.408884,24.487647],[54.408334,24.48801],[54.408637,24.488493],[54.40877,24.488479],[54.409643,24.488043],[54.409492,24.48777],[54.40936,24.487784],[54.408736,24.488132],[54.408723,24.488108],[54.409496,24.487676],[54.40938,24.48735]]]}},{"type":"Feature","properties":{},"geometry":{"type":"Polygon","coordinates":[[[54.411038,24.488731],[54.410995,24.488316],[54.410551,24.488356],[54.410556,24.488402],[54.410422,24.488416],[54.410427,24.488463],[54.410138,24.488492],[54.410183,24.488928],[54.410783,24.488873],[54.410771,24.488756],[54.411038,24.488731]]]}},{"type":"Feature","properties":{},"geometry":{"type":"Polygon","coordinates":[[[54.407777,24.488935],[54.408153,24.488705],[54.4079,24.488329],[54.407768,24.488343],[54.407367,24.488558],[54.407309,24.488565],[54.406903,24.488795],[54.407183,24.489203],[54.407316,24.489189],[54.407721,24.488959],[54.40771,24.488942],[54.407777,24.488935]]]}},{"type":"Feature","properties":{},"geometry":{"type":"Polygon","coordinates":[[[54.410622,24.489146],[54.410674,24.489615],[54.410959,24.489587],[54.410894,24.48901],[54.410204,24.489076],[54.410216,24.489184],[54.410622,24.489146]]]}},{"type":"Feature","properties":{},"geometry":{"type":"Polygon","coordinates":[[[54.410256,24.489504],[54.410326,24.49009],[54.411018,24.490021],[54.411003,24.489893],[54.410643,24.489928],[54.410641,24.489913],[54.41059,24.489918],[54.410538,24.489476],[54.410256,24.489504]]]}},{"type":"Feature","properties":{},"geometry":{"type":"Polygon","coordinates":[[[54.409401,24.491249],[54.409405,24.491142],[54.40917,24.491135],[54.409037,24.491149],[54.409037,24.491172],[54.408959,24.49118],[54.408947,24.491294],[54.409008,24.491296],[54.409007,24.491323],[54.409219,24.491329],[54.409352,24.491315],[54.409354,24.491254],[54.409401,24.491249]]]}},{"type":"Feature","properties":{},"geometry":{"type":"Polygon","coordinates":[[[54.407959,24.497276],[54.408051,24.497341],[54.408096,24.497352],[54.408228,24.497337],[54.408283,24.497306],[54.408238,24.497252],[54.408135,24.497221],[54.408002,24.497236],[54.407959,24.497276]]]}},{"type":"Feature","properties":{},"geometry":{"type":"Polygon","coordinates":[[[54.409851,24.49779],[54.409165,24.497863],[54.40899,24.49793],[54.408992,24.498391],[54.409678,24.498318],[54.410069,24.498251],[54.410101,24.497874],[54.409851,24.49779]]]}},{"type":"Feature","properties":{},"geometry":{"type":"Polygon","coordinates":[[[54.409349,24.50004],[54.4093,24.500253],[54.409341,24.500381],[54.409433,24.500448],[54.409613,24.500479],[54.409879,24.500462],[54.410004,24.500398],[54.410059,24.500282],[54.410108,24.499726],[54.410145,24.499496],[54.410111,24.499425],[54.410032,24.499366],[54.40992,24.499349],[54.409706,24.499363],[54.409772,24.499125],[54.409825,24.498727],[54.409383,24.498697],[54.40905,24.498732],[54.409057,24.498597],[54.408985,24.498586],[54.408852,24.4986],[54.408836,24.49866],[54.408874,24.498774],[54.408994,24.49877],[54.409005,24.499092],[54.408919,24.499457],[54.409276,24.499552],[54.409508,24.499527],[54.409349,24.50004]]]}},{"type":"Feature","properties":{},"geometry":{"type":"Polygon","coordinates":[[[54.408054,24.500908],[54.408053,24.500954],[54.408025,24.501013],[54.408063,24.501044],[54.408196,24.50103],[54.408247,24.500957],[54.408279,24.500873],[54.408218,24.500862],[54.408085,24.500876],[54.408054,24.500908]]]}},{"type":"Feature","properties":{},"geometry":{"type":"Polygon","coordinates":[[[54.409563,24.501908],[54.409678,24.501837],[54.409717,24.501732],[54.409743,24.501585],[54.409738,24.501417],[54.408723,24.501471],[54.408679,24.501799],[54.408752,24.50195],[54.409021,24.501962],[54.409472,24.501939],[54.409563,24.501908]]]}},{"type":"Feature","properties":{},"geometry":{"type":"Polygon","coordinates":[[[54.407684,24.502434],[54.407709,24.502408],[54.408114,24.502577],[54.408247,24.502563],[54.408428,24.502085],[54.408555,24.501843],[54.408158,24.501726],[54.408025,24.50174],[54.407747,24.502297],[54.407586,24.50231],[54.407515,24.502391],[54.407507,24.502438],[54.407551,24.502448],[54.407684,24.502434]]]}},{"type":"Feature","properties":{},"geometry":{"type":"Polygon","coordinates":[[[54.407345,24.502871],[54.407305,24.502919],[54.40724,24.502926],[54.407116,24.503077],[54.407179,24.503113],[54.407312,24.503099],[54.407442,24.502982],[54.407468,24.50298],[54.407536,24.502871],[54.407477,24.502856],[54.407345,24.502871]]]}},{"type":"Feature","properties":{},"geometry":{"type":"Polygon","coordinates":[[[54.409909,24.503972],[54.41096,24.50386],[54.411104,24.503751],[54.410772,24.503385],[54.40972,24.503497],[54.409576,24.503605],[54.409909,24.503972]]]}},{"type":"Feature","properties":{},"geometry":{"type":"Polygon","coordinates":[[[54.407267,24.503666],[54.407169,24.503634],[54.407036,24.503648],[54.406985,24.503805],[54.407074,24.503829],[54.407207,24.503815],[54.407267,24.503666]]]}},{"type":"Feature","properties":{},"geometry":{"type":"Polygon","coordinates":[[[54.411284,24.503856],[54.410233,24.503968],[54.410228,24.50399],[54.409259,24.504094],[54.409054,24.504354],[54.409349,24.504692],[54.410898,24.504527],[54.41116,24.504228],[54.411081,24.504161],[54.411724,24.504093],[54.411756,24.503934],[54.411284,24.503856]]]}},{"type":"Feature","properties":{},"geometry":{"type":"Polygon","coordinates":[[[54.409605,24.506161],[54.409719,24.5061],[54.409804,24.506007],[54.40985,24.505893],[54.409851,24.505773],[54.409813,24.505666],[54.409739,24.505576],[54.409638,24.505511],[54.409521,24.505479],[54.409265,24.505495],[54.409148,24.505532],[54.40905,24.505601],[54.408981,24.505693],[54.408947,24.505801],[54.408954,24.505922],[54.409005,24.506033],[54.409094,24.506123],[54.409211,24.50618],[54.409342,24.506198],[54.409605,24.506161]]]}},{"type":"Feature","properties":{},"geometry":{"type":"Polygon","coordinates":[[[54.407028,24.506464],[54.407336,24.506699],[54.40883,24.50654],[54.409123,24.506232],[54.408966,24.506072],[54.408738,24.506081],[54.407244,24.506239],[54.407028,24.506464]]]}},{"type":"Feature","properties":{},"geometry":{"type":"Polygon","coordinates":[[[54.409481,24.507344],[54.409287,24.507513],[54.409648,24.507874],[54.409781,24.50786],[54.409842,24.507818],[54.409825,24.507542],[54.409614,24.50733],[54.409481,24.507344]]]}},{"type":"Feature","properties":{},"geometry":{"type":"Polygon","coordinates":[[[54.410464,24.507841],[54.410446,24.507775],[54.410376,24.507783],[54.410337,24.507705],[54.410122,24.507721],[54.40999,24.507756],[54.409856,24.507859],[54.409825,24.507938],[54.409854,24.50798],[54.409927,24.508019],[54.410243,24.507984],[54.410464,24.507841]]]}},{"type":"Feature","properties":{},"geometry":{"type":"Polygon","coordinates":[[[54.40888,24.507917],[54.408846,24.507921],[54.408851,24.508027],[54.409023,24.508011],[54.409022,24.507983],[54.409051,24.50798],[54.409058,24.507841],[54.408877,24.507857],[54.40888,24.507917]]]}},{"type":"Feature","properties":{},"geometry":{"type":"Polygon","coordinates":[[[54.409453,24.508144],[54.409411,24.508102],[54.409278,24.508116],[54.409189,24.50819],[54.409231,24.508233],[54.409364,24.508218],[54.409453,24.508144]]]}},{"type":"Feature","properties":{},"geometry":{"type":"Polygon","coordinates":[[[54.40925,24.508661],[54.409234,24.508638],[54.409291,24.508632],[54.409467,24.508528],[54.409406,24.508442],[54.409336,24.50845],[54.40929,24.508386],[54.409158,24.5084],[54.409014,24.508484],[54.409061,24.50855],[54.408987,24.508608],[54.409005,24.508634],[54.408969,24.508655],[54.409,24.508698],[54.409045,24.508693],[54.409057,24.508711],[54.40919,24.508696],[54.40925,24.508661]]]}},{"type":"Feature","properties":{},"geometry":{"type":"Polygon","coordinates":[[[54.407747,24.508826],[54.40772,24.508797],[54.407587,24.508811],[54.407523,24.508861],[54.40755,24.50889],[54.407683,24.508876],[54.407747,24.508826]]]}},{"type":"Feature","properties":{},"geometry":{"type":"Polygon","coordinates":[[[54.407538,24.50905],[54.407416,24.509159],[54.407529,24.509265],[54.407399,24.509279],[54.407407,24.509271],[54.407302,24.509183],[54.40717,24.509197],[54.407129,24.509238],[54.407202,24.509299],[54.40706,24.509435],[54.407169,24.509536],[54.406811,24.509574],[54.406652,24.509706],[54.407014,24.510038],[54.408077,24.509925],[54.408242,24.509808],[54.408147,24.509719],[54.408509,24.509681],[54.408643,24.509544],[54.408515,24.509424],[54.408846,24.509388],[54.408962,24.50927],[54.4086,24.508937],[54.407899,24.509012],[54.407841,24.508955],[54.407708,24.508969],[54.407656,24.509013],[54.407679,24.509035],[54.407538,24.50905]]]}},{"type":"Feature","properties":{},"geometry":{"type":"Polygon","coordinates":[[[54.410323,24.50998],[54.410138,24.509811],[54.410005,24.509826],[54.409662,24.510138],[54.409847,24.510306],[54.40998,24.510292],[54.410323,24.50998]]]}},{"type":"Feature","properties":{},"geometry":{"type":"Polygon","coordinates":[[[54.411183,24.481717],[54.411198,24.48173],[54.411169,24.481758],[54.411214,24.481796],[54.411264,24.481791],[54.411321,24.481841],[54.411222,24.481936],[54.411307,24.482009],[54.411439,24.481994],[54.411617,24.481825],[54.411249,24.481506],[54.411116,24.48152],[54.410943,24.481686],[54.411022,24.481755],[54.410906,24.481767],[54.410876,24.481795],[54.410916,24.481829],[54.411048,24.481815],[54.411078,24.481787],[54.41104,24.481754],[54.411156,24.481742],[54.411183,24.481717]]]}},{"type":"Feature","properties":{},"geometry":{"type":"Polygon","coordinates":[[[54.412695,24.482193],[54.412871,24.481918],[54.412511,24.481727],[54.412378,24.481741],[54.412202,24.482016],[54.412563,24.482207],[54.412695,24.482193]]]}},{"type":"Feature","properties":{},"geometry":{"type":"Polygon","coordinates":[[[54.411563,24.482063],[54.411531,24.482038],[54.411398,24.482052],[54.41132,24.482132],[54.411351,24.482158],[54.411484,24.482143],[54.411563,24.482063]]]}},{"type":"Feature","properties":{},"geometry":{"type":"Polygon","coordinates":[[[54.411365,24.485661],[54.411497,24.485647],[54.411601,24.485606],[54.411587,24.485575],[54.411454,24.485589],[54.41135,24.48563],[54.411365,24.485661]]]}},{"type":"Feature","properties":{},"geometry":{"type":"Polygon","coordinates":[[[54.411414,24.485776],[54.411603,24.485743],[54.411565,24.485645],[54.411375,24.485678],[54.411414,24.485776]]]}},{"type":"Feature","properties":{},"geometry":{"type":"Polygon","coordinates":[[[54.413284,24.487218],[54.413107,24.487233],[54.413184,24.487452],[54.413533,24.487428],[54.413521,24.487181],[54.413283,24.487199],[54.413284,24.487218]]]}},{"type":"Feature","properties":{},"geometry":{"type":"Polygon","coordinates":[[[54.413245,24.487464],[54.413256,24.48771],[54.413657,24.487686],[54.413653,24.487607],[54.413621,24.487608],[54.413617,24.487517],[54.413649,24.487514],[54.413646,24.48744],[54.413245,24.487464]]]}},{"type":"Feature","properties":{},"geometry":{"type":"Polygon","coordinates":[[[54.412959,24.487562],[54.413014,24.487751],[54.413233,24.487716],[54.413179,24.487527],[54.412959,24.487562]]]}},{"type":"Feature","properties":{},"geometry":{"type":"Polygon","coordinates":[[[54.415615,24.487729],[54.415807,24.487712],[54.415804,24.487668],[54.415613,24.487685],[54.415615,24.487729]]]}},{"type":"Feature","properties":{},"geometry":{"type":"Polygon","coordinates":[[[54.413522,24.487954],[54.413723,24.487938],[54.41372,24.487876],[54.413519,24.487893],[54.413522,24.487954]]]}},{"type":"Feature","properties":{},"geometry":{"type":"Polygon","coordinates":[[[54.415884,24.487954],[54.415879,24.487791],[54.415997,24.487779],[54.415996,24.487795],[54.416102,24.487798],[54.416235,24.487784],[54.416236,24.487755],[54.416019,24.487763],[54.41602,24.487733],[54.415988,24.487732],[54.415854,24.487753],[54.415255,24.487757],[54.415123,24.487771],[54.415123,24.487815],[54.415187,24.487815],[54.415187,24.488213],[54.415503,24.488199],[54.415502,24.487961],[54.415703,24.487953],[54.415703,24.48797],[54.415884,24.487954]]]}},{"type":"Feature","properties":{},"geometry":{"type":"Polygon","coordinates":[[[54.415104,24.488221],[54.414839,24.488231],[54.414836,24.488326],[54.415101,24.488316],[54.415104,24.488221]]]}},{"type":"Feature","properties":{},"geometry":{"type":"Polygon","coordinates":[[[54.415568,24.48833],[54.415847,24.488297],[54.415843,24.488186],[54.415648,24.488202],[54.41565,24.48828],[54.415318,24.488314],[54.415319,24.488397],[54.415569,24.488382],[54.415568,24.48833]]]}},{"type":"Feature","properties":{},"geometry":{"type":"Polygon","coordinates":[[[54.415602,24.488387],[54.415829,24.488371],[54.415828,24.488322],[54.415601,24.488338],[54.415602,24.488387]]]}},{"type":"Feature","properties":{},"geometry":{"type":"Polygon","coordinates":[[[54.414856,24.488478],[54.415112,24.488461],[54.415108,24.488341],[54.414852,24.488358],[54.414856,24.488478]]]}},{"type":"Feature","properties":{},"geometry":{"type":"Polygon","coordinates":[[[54.415565,24.488424],[54.415412,24.488438],[54.415411,24.488484],[54.415564,24.48847],[54.415565,24.488424]]]}},{"type":"Feature","properties":{},"geometry":{"type":"Polygon","coordinates":[[[54.415465,24.488693],[54.415678,24.488676],[54.415676,24.488627],[54.415463,24.488644],[54.415465,24.488693]]]}},{"type":"Feature","properties":{},"geometry":{"type":"Polygon","coordinates":[[[54.411174,24.48887],[54.411147,24.488931],[54.411198,24.488999],[54.411309,24.488996],[54.411433,24.489161],[54.411262,24.489253],[54.411314,24.489336],[54.411447,24.489321],[54.41204,24.488993],[54.412063,24.489038],[54.411491,24.489354],[54.411585,24.489507],[54.411658,24.489499],[54.411713,24.489593],[54.411972,24.489642],[54.411955,24.489719],[54.41212,24.489755],[54.412253,24.489741],[54.412414,24.48913],[54.412508,24.48912],[54.412803,24.48968],[54.412935,24.489666],[54.413088,24.489586],[54.413056,24.489535],[54.413269,24.489441],[54.413313,24.489342],[54.413394,24.489334],[54.413437,24.489159],[54.412788,24.488942],[54.412789,24.48892],[54.41288,24.488938],[54.413621,24.488834],[54.413578,24.488541],[54.412992,24.48861],[54.41295,24.488574],[54.412817,24.488588],[54.412775,24.48861],[54.412728,24.488571],[54.412805,24.488531],[54.412691,24.488384],[54.41281,24.488012],[54.412969,24.488101],[54.413102,24.488086],[54.413236,24.487939],[54.412878,24.487744],[54.412649,24.487704],[54.412375,24.487691],[54.412157,24.487708],[54.411868,24.487782],[54.411582,24.487957],[54.411414,24.48813],[54.411571,24.488241],[54.411704,24.488227],[54.411825,24.488128],[54.412028,24.488474],[54.411956,24.488679],[54.411347,24.488491],[54.411214,24.488505],[54.411171,24.4886],[54.411356,24.488668],[54.411319,24.488851],[54.411174,24.48887]],[[54.412475,24.487922],[54.412358,24.488405],[54.412114,24.487969],[54.412315,24.487929],[54.412475,24.487922]],[[54.411883,24.489337],[54.411962,24.489291],[54.411962,24.489302],[54.412063,24.489323],[54.412034,24.489464],[54.411967,24.48945],[54.411883,24.489337]],[[54.413016,24.489333],[54.413003,24.489339],[54.41296,24.489242],[54.412982,24.489182],[54.413063,24.489207],[54.413016,24.489333]]]}},{"type":"Feature","properties":{},"geometry":{"type":"Polygon","coordinates":[[[54.410839,24.489782],[54.411021,24.489764],[54.411017,24.489722],[54.410835,24.489739],[54.410839,24.489782]]]}},{"type":"Feature","properties":{},"geometry":{"type":"Polygon","coordinates":[[[54.412432,24.490011],[54.412635,24.489993],[54.41263,24.48993],[54.412428,24.489949],[54.412432,24.490011]]]}},{"type":"Feature","properties":{},"geometry":{"type":"Polygon","coordinates":[[[54.411052,24.490661],[54.411051,24.490713],[54.41128,24.4907],[54.411281,24.490647],[54.411052,24.490661]]]}},{"type":"Feature","properties":{},"geometry":{"type":"Polygon","coordinates":[[[54.411354,24.490878],[54.411311,24.490879],[54.411357,24.490874],[54.411357,24.490781],[54.411155,24.490795],[54.411155,24.490888],[54.411198,24.490888],[54.411147,24.490894],[54.411148,24.490951],[54.411356,24.490935],[54.411354,24.490878]]]}},{"type":"Feature","properties":{},"geometry":{"type":"Polygon","coordinates":[[[54.413543,24.4908],[54.413546,24.490631],[54.413057,24.490625],[54.412924,24.490639],[54.412916,24.491132],[54.413395,24.491138],[54.413528,24.491124],[54.41353,24.490961],[54.413246,24.490957],[54.413248,24.490812],[54.413543,24.4908]]]}},{"type":"Feature","properties":{},"geometry":{"type":"Polygon","coordinates":[[[54.410599,24.490802],[54.410416,24.490817],[54.410413,24.49103],[54.410699,24.491033],[54.410832,24.491019],[54.410839,24.490752],[54.4106,24.490766],[54.410599,24.490802]]]}},{"type":"Feature","properties":{},"geometry":{"type":"Polygon","coordinates":[[[54.413008,24.491173],[54.412829,24.491185],[54.412828,24.491224],[54.413006,24.491212],[54.413008,24.491173]]]}},{"type":"Feature","properties":{},"geometry":{"type":"Polygon","coordinates":[[[54.411355,24.491412],[54.411185,24.491424],[54.411181,24.491501],[54.411351,24.491489],[54.411355,24.491412]]]}},{"type":"Feature","properties":{},"geometry":{"type":"Polygon","coordinates":[[[54.410949,24.491621],[54.410962,24.491297],[54.41059,24.491284],[54.410457,24.491298],[54.410444,24.491622],[54.410816,24.491635],[54.410949,24.491621]]]}},{"type":"Feature","properties":{},"geometry":{"type":"Polygon","coordinates":[[[54.412064,24.491209],[54.411568,24.491176],[54.411435,24.491191],[54.411364,24.492099],[54.41186,24.492132],[54.411992,24.492117],[54.412064,24.491209]]]}},{"type":"Feature","properties":{},"geometry":{"type":"Polygon","coordinates":[[[54.412319,24.491685],[54.412241,24.491683],[54.412108,24.491697],[54.412107,24.491726],[54.412318,24.491714],[54.412319,24.491685]]]}},{"type":"Feature","properties":{},"geometry":{"type":"Polygon","coordinates":[[[54.411841,24.492281],[54.411581,24.492292],[54.411578,24.49238],[54.411839,24.492369],[54.411841,24.492281]]]}},{"type":"Feature","properties":{},"geometry":{"type":"Polygon","coordinates":[[[54.411972,24.492557],[54.412287,24.492544],[54.412288,24.492446],[54.411973,24.492459],[54.411972,24.492557]]]}},{"type":"Feature","properties":{},"geometry":{"type":"Polygon","coordinates":[[[54.415125,24.497057],[54.415235,24.496899],[54.415143,24.496846],[54.41501,24.49686],[54.4149,24.497017],[54.414992,24.497071],[54.415125,24.497057]]]}},{"type":"Feature","properties":{},"geometry":{"type":"Polygon","coordinates":[[[54.412075,24.498888],[54.412258,24.498659],[54.412152,24.498039],[54.412174,24.49803],[54.411942,24.497486],[54.411629,24.497371],[54.411496,24.497386],[54.411403,24.497422],[54.411699,24.498182],[54.411825,24.498912],[54.412075,24.498888]]]}},{"type":"Feature","properties":{},"geometry":{"type":"Polygon","coordinates":[[[54.410624,24.497708],[54.41061,24.498871],[54.410748,24.499018],[54.410993,24.499029],[54.411125,24.499015],[54.411118,24.497501],[54.410985,24.497515],[54.410798,24.49756],[54.410624,24.497708]]]}},{"type":"Feature","properties":{},"geometry":{"type":"Polygon","coordinates":[[[54.411434,24.501414],[54.410437,24.50152],[54.410437,24.501592],[54.410335,24.501603],[54.410333,24.501852],[54.410433,24.501853],[54.411429,24.501747],[54.411428,24.5017],[54.411564,24.501685],[54.411569,24.50146],[54.411538,24.501458],[54.41154,24.501417],[54.411434,24.501414]]]}},{"type":"Feature","properties":{},"geometry":{"type":"Polygon","coordinates":[[[54.413013,24.502973],[54.413098,24.503119],[54.41343,24.503083],[54.413502,24.503064],[54.413622,24.502773],[54.413711,24.502293],[54.413231,24.501997],[54.413073,24.501846],[54.412987,24.501734],[54.412906,24.50159],[54.412858,24.501451],[54.412314,24.501437],[54.411982,24.501472],[54.412018,24.501673],[54.412065,24.501807],[54.412137,24.50199],[54.412222,24.502147],[54.412374,24.502354],[54.412629,24.502656],[54.412874,24.50282],[54.413013,24.502973]]]}},{"type":"Feature","properties":{},"geometry":{"type":"Polygon","coordinates":[[[54.411929,24.502494],[54.411803,24.502508],[54.411875,24.502435],[54.411661,24.502262],[54.411529,24.502276],[54.411457,24.502349],[54.41167,24.502522],[54.411796,24.502509],[54.411694,24.502566],[54.411855,24.502805],[54.411988,24.502791],[54.41209,24.502734],[54.411929,24.502494]]]}},{"type":"Feature","properties":{},"geometry":{"type":"Polygon","coordinates":[[[54.410947,24.502245],[54.410913,24.502838],[54.411356,24.502864],[54.411489,24.50285],[54.411486,24.502688],[54.411357,24.502665],[54.411288,24.502614],[54.411282,24.502234],[54.41108,24.50223],[54.410947,24.502245]]]}},{"type":"Feature","properties":{},"geometry":{"type":"Polygon","coordinates":[[[54.411645,24.502521],[54.411463,24.502535],[54.41146,24.502658],[54.411642,24.502645],[54.411645,24.502521]]]}},{"type":"Feature","properties":{},"geometry":{"type":"Polygon","coordinates":[[[54.411649,24.502947],[54.411782,24.502932],[54.411866,24.502897],[54.41179,24.502746],[54.411657,24.50276],[54.411573,24.502795],[54.411649,24.502947]]]}},{"type":"Feature","properties":{},"geometry":{"type":"Polygon","coordinates":[[[54.415769,24.504294],[54.415811,24.504331],[54.416265,24.504282],[54.416442,24.504134],[54.416246,24.503972],[54.416063,24.503992],[54.41602,24.503956],[54.415694,24.50399],[54.415611,24.503922],[54.414826,24.504005],[54.414667,24.504163],[54.41468,24.504175],[54.414312,24.504214],[54.414153,24.504371],[54.414331,24.504524],[54.415327,24.504418],[54.415431,24.50433],[54.415769,24.504294]]]}},{"type":"Feature","properties":{},"geometry":{"type":"Polygon","coordinates":[[[54.41469,24.504979],[54.415124,24.504932],[54.415073,24.504983],[54.415251,24.505136],[54.415293,24.505131],[54.415313,24.505155],[54.415446,24.505141],[54.41549,24.50511],[54.41587,24.50507],[54.416048,24.504921],[54.415879,24.504782],[54.416171,24.504751],[54.416349,24.504602],[54.416152,24.504441],[54.41561,24.504498],[54.415453,24.504654],[54.41538,24.504593],[54.414671,24.504668],[54.414513,24.504826],[54.41469,24.504979]],[[54.415529,24.504794],[54.415571,24.504759],[54.415603,24.504786],[54.415529,24.504794]]]}},{"type":"Feature","properties":{},"geometry":{"type":"Polygon","coordinates":[[[54.410906,24.506778],[54.41093,24.506714],[54.410865,24.506694],[54.41088,24.506601],[54.410811,24.506561],[54.410678,24.506525],[54.410371,24.50656],[54.410298,24.506611],[54.410298,24.506661],[54.410335,24.50673],[54.410383,24.506739],[54.410502,24.506803],[54.410588,24.506808],[54.410906,24.506778]]]}},{"type":"Feature","properties":{},"geometry":{"type":"Polygon","coordinates":[[[54.411143,24.507175],[54.411176,24.506929],[54.41111,24.506897],[54.410847,24.506938],[54.410793,24.506994],[54.410732,24.507106],[54.410726,24.507266],[54.410769,24.50734],[54.410823,24.507348],[54.410956,24.507334],[54.411037,24.507312],[54.411055,24.507271],[54.411143,24.507175]]]}},{"type":"Feature","properties":{},"geometry":{"type":"Polygon","coordinates":[[[54.410945,24.508582],[54.410813,24.508596],[54.410809,24.508696],[54.411097,24.508706],[54.41123,24.508692],[54.411233,24.508594],[54.410945,24.508582]]]}},{"type":"Feature","properties":{},"geometry":{"type":"Polygon","coordinates":[[[54.411248,24.508984],[54.411241,24.509135],[54.411123,24.509147],[54.411122,24.509219],[54.411238,24.509213],[54.411234,24.509309],[54.411307,24.509309],[54.411307,24.509336],[54.411558,24.509332],[54.411556,24.509419],[54.410856,24.509435],[54.410723,24.509449],[54.410727,24.509544],[54.411448,24.509523],[54.411581,24.509509],[54.41158,24.50948],[54.411806,24.509467],[54.41181,24.50925],[54.411611,24.509257],[54.411614,24.509164],[54.411827,24.509152],[54.411836,24.508944],[54.411713,24.50894],[54.41158,24.508954],[54.411579,24.508969],[54.411248,24.508984]]]}},{"type":"Feature","properties":{},"geometry":{"type":"Polygon","coordinates":[[[54.4107,24.509161],[54.410895,24.509146],[54.410893,24.509049],[54.410698,24.509064],[54.4107,24.509161]]]}},{"type":"Feature","properties":{},"geometry":{"type":"Polygon","coordinates":[[[54.411333,24.509838],[54.411466,24.509824],[54.411564,24.509784],[54.411488,24.509627],[54.411355,24.509641],[54.411256,24.509681],[54.411333,24.509838]]]}},{"type":"Feature","properties":{},"geometry":{"type":"Polygon","coordinates":[[[54.41853,24.481923],[54.418707,24.481906],[54.418706,24.481884],[54.418529,24.481901],[54.41853,24.481923]]]}},{"type":"Feature","properties":{},"geometry":{"type":"Polygon","coordinates":[[[54.419127,24.482596],[54.419243,24.482583],[54.419525,24.482609],[54.419658,24.482595],[54.419661,24.482565],[54.41973,24.482558],[54.419762,24.482247],[54.41987,24.482258],[54.419855,24.482394],[54.420242,24.482422],[54.420239,24.48244],[54.420561,24.482479],[54.420618,24.482473],[54.420616,24.482487],[54.420926,24.482526],[54.421059,24.482512],[54.421078,24.48239],[54.420767,24.48235],[54.420709,24.482356],[54.420712,24.482339],[54.420954,24.482361],[54.421087,24.482347],[54.4211,24.482226],[54.420789,24.482197],[54.420657,24.482212],[54.420654,24.482239],[54.420211,24.482194],[54.42034,24.482181],[54.420354,24.482089],[54.420444,24.482109],[54.420577,24.482095],[54.420601,24.482006],[54.42051,24.481985],[54.420378,24.481999],[54.420356,24.482077],[54.42036,24.48205],[54.42015,24.482023],[54.420288,24.48201],[54.420299,24.481916],[54.420597,24.481951],[54.420707,24.481939],[54.421032,24.481962],[54.421165,24.481948],[54.421173,24.481816],[54.420848,24.481799],[54.420748,24.48181],[54.420753,24.481774],[54.420416,24.481733],[54.420333,24.481742],[54.420335,24.481706],[54.420202,24.481692],[54.42007,24.481706],[54.420064,24.481769],[54.420281,24.481763],[54.420265,24.481871],[54.419984,24.481842],[54.419851,24.481856],[54.419834,24.481991],[54.420026,24.482011],[54.419745,24.482015],[54.419751,24.481971],[54.419427,24.481933],[54.419294,24.481947],[54.41928,24.482043],[54.419017,24.482014],[54.41896,24.482021],[54.418969,24.481977],[54.418933,24.48197],[54.418801,24.481985],[54.418785,24.482055],[54.41888,24.482055],[54.418874,24.482101],[54.418627,24.48207],[54.418494,24.482084],[54.418475,24.482211],[54.418798,24.482252],[54.41893,24.482237],[54.418949,24.482116],[54.419196,24.482143],[54.419252,24.482137],[54.419228,24.482308],[54.419407,24.482329],[54.419372,24.482333],[54.419367,24.482382],[54.419291,24.482386],[54.419296,24.482358],[54.418975,24.482316],[54.418914,24.482323],[54.418916,24.482308],[54.418593,24.482271],[54.41846,24.482285],[54.418442,24.482417],[54.418658,24.482442],[54.418566,24.482433],[54.418434,24.482447],[54.418417,24.482581],[54.418743,24.482614],[54.418876,24.482599],[54.41888,24.482565],[54.419127,24.482596]],[[54.4192,24.4825],[54.419199,24.482514],[54.418946,24.482482],[54.41889,24.482488],[54.418891,24.482474],[54.419142,24.482506],[54.4192,24.4825]],[[54.418822,24.482458],[54.418773,24.482453],[54.418824,24.482448],[54.418822,24.482458]],[[54.419657,24.482131],[54.419388,24.4821],[54.419332,24.482106],[54.419335,24.482085],[54.4196,24.482116],[54.419676,24.482108],[54.419657,24.482131]],[[54.419893,24.48211],[54.419892,24.482116],[54.419867,24.482112],[54.419893,24.48211]],[[54.419768,24.482191],[54.419933,24.48216],[54.420182,24.482192],[54.420011,24.482175],[54.419768,24.482191]],[[54.420372,24.482296],[54.420337,24.482299],[54.420338,24.482291],[54.420372,24.482296]],[[54.420645,24.482317],[54.420644,24.482324],[54.420611,24.48232],[54.420645,24.482317]]]}},{"type":"Feature","properties":{},"geometry":{"type":"Polygon","coordinates":[[[54.41876,24.482857],[54.418499,24.482847],[54.418366,24.482861],[54.418361,24.482982],[54.418686,24.482995],[54.418819,24.482981],[54.418821,24.482926],[54.418865,24.482925],[54.418857,24.482995],[54.419189,24.483025],[54.419322,24.483011],[54.41933,24.482938],[54.419551,24.482961],[54.419683,24.482947],[54.4197,24.482815],[54.419377,24.482781],[54.419245,24.482795],[54.419236,24.482859],[54.418982,24.48284],[54.418984,24.482803],[54.418843,24.482804],[54.418854,24.482699],[54.418529,24.482671],[54.418396,24.482685],[54.418382,24.482821],[54.418761,24.482843],[54.41876,24.482857]]]}},{"type":"Feature","properties":{},"geometry":{"type":"Polygon","coordinates":[[[54.417239,24.487769],[54.417457,24.487754],[54.417457,24.487709],[54.417238,24.487724],[54.417239,24.487769]]]}},{"type":"Feature","properties":{},"geometry":{"type":"Polygon","coordinates":[[[54.416006,24.487944],[54.416395,24.487917],[54.416387,24.487787],[54.415997,24.487814],[54.416006,24.487944]]]}},{"type":"Feature","properties":{},"geometry":{"type":"Polygon","coordinates":[[[54.41601,24.488017],[54.416378,24.487996],[54.416377,24.48794],[54.416008,24.487961],[54.41601,24.488017]]]}},{"type":"Feature","properties":{},"geometry":{"type":"Polygon","coordinates":[[[54.416234,24.488343],[54.416146,24.488352],[54.41615,24.488389],[54.416234,24.488381],[54.416232,24.488489],[54.416527,24.488493],[54.416826,24.488465],[54.416829,24.488421],[54.41666,24.488433],[54.416661,24.488406],[54.416481,24.488403],[54.416482,24.488374],[54.416407,24.488373],[54.416408,24.488304],[54.416475,24.488301],[54.416479,24.488365],[54.416659,24.488349],[54.416658,24.488329],[54.416881,24.48829],[54.416881,24.488234],[54.416636,24.488259],[54.416635,24.488244],[54.416883,24.488226],[54.416879,24.488134],[54.416736,24.488134],[54.416802,24.488119],[54.416798,24.488028],[54.416727,24.488032],[54.416727,24.488014],[54.416799,24.488006],[54.416798,24.487957],[54.416443,24.487975],[54.416442,24.488013],[54.416335,24.488024],[54.416349,24.488264],[54.416236,24.488277],[54.416234,24.488343]],[[54.416555,24.488126],[54.416555,24.488123],[54.416615,24.488121],[54.416555,24.488126]]]}},{"type":"Feature","properties":{},"geometry":{"type":"Polygon","coordinates":[[[54.416857,24.488355],[54.416695,24.488368],[54.416694,24.488407],[54.416856,24.488394],[54.416857,24.488355]]]}},{"type":"Feature","properties":{},"geometry":{"type":"Polygon","coordinates":[[[54.416227,24.488989],[54.41639,24.488974],[54.416385,24.488867],[54.416223,24.488882],[54.416227,24.488989]]]}},{"type":"Feature","properties":{},"geometry":{"type":"Polygon","coordinates":[[[54.416006,24.489041],[54.416198,24.489025],[54.416191,24.488825],[54.415999,24.488841],[54.416006,24.489041]]]}},{"type":"Feature","properties":{},"geometry":{"type":"Polygon","coordinates":[[[54.415624,24.489052],[54.415815,24.489037],[54.415811,24.488837],[54.41562,24.488852],[54.415624,24.489052]]]}},{"type":"Feature","properties":{},"geometry":{"type":"Polygon","coordinates":[[[54.416009,24.489124],[54.416006,24.489081],[54.415719,24.489105],[54.415722,24.489146],[54.416009,24.489124]]]}},{"type":"Feature","properties":{},"geometry":{"type":"Polygon","coordinates":[[[54.415965,24.489237],[54.415968,24.489156],[54.415784,24.489169],[54.415782,24.48925],[54.415965,24.489237]]]}},{"type":"Feature","properties":{},"geometry":{"type":"Polygon","coordinates":[[[54.415421,24.489677],[54.416292,24.489655],[54.416425,24.489641],[54.416422,24.489572],[54.416402,24.489572],[54.4164,24.489488],[54.415549,24.489509],[54.415416,24.489523],[54.415421,24.489677]]]}},{"type":"Feature","properties":{},"geometry":{"type":"Polygon","coordinates":[[[54.41724,24.501685],[54.417163,24.501757],[54.41722,24.501818],[54.417181,24.501902],[54.417059,24.501949],[54.417254,24.502089],[54.417387,24.502075],[54.417603,24.501871],[54.417373,24.501671],[54.41724,24.501685]]]}},{"type":"Feature","properties":{},"geometry":{"type":"Polygon","coordinates":[[[54.416891,24.50195],[54.41689,24.501927],[54.416998,24.501908],[54.416983,24.501861],[54.41685,24.501875],[54.416805,24.501887],[54.41681,24.501903],[54.416572,24.501928],[54.416574,24.501975],[54.416891,24.50195]]]}},{"type":"Feature","properties":{},"geometry":{"type":"Polygon","coordinates":[[[54.417577,24.502387],[54.41771,24.502373],[54.417752,24.502345],[54.417723,24.502309],[54.41759,24.502323],[54.417548,24.502351],[54.417577,24.502387]]]}},{"type":"Feature","properties":{},"geometry":{"type":"Polygon","coordinates":[[[54.417908,24.502514],[54.418041,24.5025],[54.418065,24.502475],[54.418018,24.502439],[54.417885,24.502453],[54.417861,24.502478],[54.417908,24.502514]]]}},{"type":"Feature","properties":{},"geometry":{"type":"Polygon","coordinates":[[[54.415659,24.502404],[54.415501,24.502417],[54.415496,24.502476],[54.415655,24.502464],[54.415659,24.502404]]]}},{"type":"Feature","properties":{},"geometry":{"type":"Polygon","coordinates":[[[54.417637,24.502428],[54.417421,24.502442],[54.417421,24.502556],[54.417633,24.502548],[54.417637,24.502428]]]}},{"type":"Feature","properties":{},"geometry":{"type":"Polygon","coordinates":[[[54.416893,24.502654],[54.417129,24.502638],[54.417128,24.502613],[54.416892,24.50263],[54.416893,24.502654]]]}},{"type":"Feature","properties":{},"geometry":{"type":"Polygon","coordinates":[[[54.415599,24.50263],[54.415538,24.502629],[54.415602,24.502622],[54.4156,24.502589],[54.41539,24.502607],[54.415392,24.50264],[54.41545,24.502638],[54.415395,24.502643],[54.415395,24.502682],[54.415598,24.502668],[54.415599,24.50263]]]}},{"type":"Feature","properties":{},"geometry":{"type":"Polygon","coordinates":[[[54.41706,24.502794],[54.417302,24.502785],[54.417541,24.502757],[54.417535,24.502696],[54.417187,24.502707],[54.417187,24.502693],[54.417078,24.502688],[54.416945,24.502702],[54.416942,24.502762],[54.417059,24.502766],[54.41706,24.502794]]]}},{"type":"Feature","properties":{},"geometry":{"type":"Polygon","coordinates":[[[54.415688,24.502805],[54.415685,24.502856],[54.415811,24.502861],[54.415944,24.502847],[54.415948,24.502769],[54.415698,24.502765],[54.415593,24.502776],[54.415591,24.502764],[54.415396,24.502784],[54.415403,24.502838],[54.415688,24.502805]]]}},{"type":"Feature","properties":{},"geometry":{"type":"Polygon","coordinates":[[[54.415447,24.502901],[54.415638,24.502879],[54.415629,24.502829],[54.415439,24.50285],[54.415447,24.502901]]]}},{"type":"Feature","properties":{},"geometry":{"type":"Polygon","coordinates":[[[54.417507,24.503046],[54.417267,24.503056],[54.417265,24.503098],[54.417505,24.503088],[54.417507,24.503046]]]}},{"type":"Feature","properties":{},"geometry":{"type":"Polygon","coordinates":[[[54.417738,24.503215],[54.417737,24.503154],[54.417658,24.503158],[54.417659,24.503125],[54.417465,24.503137],[54.417461,24.503227],[54.417738,24.503215]]]}},{"type":"Feature","properties":{},"geometry":{"type":"Polygon","coordinates":[[[54.415861,24.503407],[54.415635,24.503418],[54.415632,24.503473],[54.415859,24.503462],[54.415861,24.503407]]]}},{"type":"Feature","properties":{},"geometry":{"type":"Polygon","coordinates":[[[54.415813,24.503642],[54.415988,24.503626],[54.415985,24.503543],[54.415809,24.503559],[54.415813,24.503642]]]}},{"type":"Feature","properties":{},"geometry":{"type":"Polygon","coordinates":[[[54.41783,24.503556],[54.417664,24.503569],[54.417657,24.503786],[54.417823,24.503773],[54.41783,24.503556]]]}},{"type":"Feature","properties":{},"geometry":{"type":"Polygon","coordinates":[[[54.415445,24.504508],[54.415578,24.504494],[54.415623,24.504458],[54.415574,24.504407],[54.415441,24.504421],[54.415396,24.504457],[54.415445,24.504508]]]}},{"type":"Feature","properties":{},"geometry":{"type":"Polygon","coordinates":[[[54.419071,24.480038],[54.419006,24.480028],[54.418873,24.480042],[54.418867,24.480078],[54.418943,24.480086],[54.418942,24.480131],[54.419112,24.480118],[54.419114,24.480057],[54.419068,24.480057],[54.419071,24.480038]]]}},{"type":"Feature","properties":{},"geometry":{"type":"Polygon","coordinates":[[[54.420789,24.480287],[54.420793,24.480222],[54.420569,24.480232],[54.420562,24.480364],[54.420901,24.480388],[54.421034,24.480374],[54.421036,24.480328],[54.420827,24.48032],[54.420829,24.480288],[54.420789,24.480287]]]}},{"type":"Feature","properties":{},"geometry":{"type":"Polygon","coordinates":[[[54.420126,24.480814],[54.419929,24.480822],[54.419923,24.480877],[54.42012,24.480869],[54.420126,24.480814]]]}},{"type":"Feature","properties":{},"geometry":{"type":"Polygon","coordinates":[[[54.419554,24.481617],[54.419453,24.481628],[54.419455,24.481616],[54.419115,24.481575],[54.419026,24.481584],[54.419031,24.481546],[54.418711,24.48151],[54.418579,24.481524],[54.41856,24.481659],[54.418706,24.481675],[54.418544,24.481691],[54.41855,24.481831],[54.418818,24.481815],[54.418813,24.48185],[54.418988,24.481841],[54.419001,24.481761],[54.418864,24.481766],[54.418862,24.481728],[54.418807,24.48173],[54.418806,24.481687],[54.418968,24.481686],[54.41896,24.481742],[54.4193,24.481784],[54.419423,24.48177],[54.419728,24.481807],[54.419861,24.481793],[54.419881,24.481656],[54.419554,24.481617]]]}},{"type":"Feature","properties":{},"geometry":{"type":"Polygon","coordinates":[[[54.421119,24.482121],[54.421139,24.481998],[54.42083,24.481956],[54.420697,24.48197],[54.420677,24.482093],[54.420987,24.482135],[54.421119,24.482121]]]}},{"type":"Feature","properties":{},"geometry":{"type":"Polygon","coordinates":[[[54.4197,24.48285],[54.419682,24.482985],[54.419881,24.483007],[54.419805,24.483],[54.419673,24.483014],[54.41966,24.483134],[54.419984,24.483163],[54.420076,24.483153],[54.420075,24.483162],[54.420414,24.483194],[54.420514,24.483183],[54.420507,24.483251],[54.420826,24.483278],[54.420959,24.483263],[54.420972,24.483135],[54.42085,24.483125],[54.420968,24.483113],[54.420985,24.482993],[54.420677,24.482956],[54.420544,24.48297],[54.420537,24.483015],[54.420226,24.482986],[54.420137,24.482996],[54.420153,24.482872],[54.420119,24.482868],[54.420236,24.482855],[54.420253,24.482745],[54.420514,24.482771],[54.420574,24.482765],[54.420561,24.482854],[54.420871,24.48289],[54.421004,24.482876],[54.421021,24.482755],[54.420711,24.482719],[54.420651,24.482725],[54.420654,24.482701],[54.420895,24.482727],[54.421027,24.482713],[54.421049,24.482568],[54.420356,24.482502],[54.420306,24.482508],[54.420309,24.482485],[54.419972,24.482451],[54.41984,24.482465],[54.419816,24.482661],[54.420191,24.48269],[54.420188,24.482715],[54.419934,24.482684],[54.419802,24.482698],[54.419782,24.48283],[54.419832,24.482836],[54.4197,24.48285]],[[54.420017,24.483019],[54.420092,24.483011],[54.420091,24.483025],[54.420017,24.483019]],[[54.42032,24.482657],[54.420287,24.48266],[54.420288,24.482654],[54.42032,24.482657]],[[54.420434,24.482667],[54.42059,24.482669],[54.420588,24.482683],[54.420434,24.482667]],[[54.420652,24.483109],[54.420554,24.483119],[54.420556,24.483093],[54.420758,24.483118],[54.420652,24.483109]]]}},{"type":"Feature","properties":{},"geometry":{"type":"Polygon","coordinates":[[[54.418929,24.482747],[54.419026,24.482773],[54.419159,24.482759],[54.41918,24.482696],[54.419171,24.48275],[54.419494,24.482791],[54.419627,24.482777],[54.419647,24.482645],[54.419324,24.482604],[54.419191,24.482619],[54.419183,24.482672],[54.41909,24.482647],[54.418957,24.482661],[54.418929,24.482747]]]}},{"type":"Feature","properties":{},"geometry":{"type":"Polygon","coordinates":[[[54.420521,24.482844],[54.420432,24.482816],[54.4203,24.48283],[54.420265,24.48292],[54.420354,24.482948],[54.420486,24.482934],[54.420521,24.482844]]]}},{"type":"Feature","properties":{},"geometry":{"type":"Polygon","coordinates":[[[54.419591,24.489295],[54.419592,24.48932],[54.419828,24.489305],[54.419827,24.489251],[54.419673,24.489257],[54.419672,24.489245],[54.41933,24.489268],[54.419331,24.489307],[54.419591,24.489295]]]}},{"type":"Feature","properties":{},"geometry":{"type":"Polygon","coordinates":[[[54.418994,24.489429],[54.419216,24.489411],[54.41921,24.489287],[54.418987,24.489305],[54.418994,24.489429]]]}},{"type":"Feature","properties":{},"geometry":{"type":"Polygon","coordinates":[[[54.419794,24.489367],[54.419557,24.489378],[54.419554,24.489481],[54.419791,24.489469],[54.419794,24.489367]]]}},{"type":"Feature","properties":{},"geometry":{"type":"Polygon","coordinates":[[[54.419166,24.489612],[54.419325,24.489595],[54.419316,24.489523],[54.419157,24.48954],[54.419166,24.489612]]]}},{"type":"Feature","properties":{},"geometry":{"type":"Polygon","coordinates":[[[54.419564,24.489821],[54.419817,24.489805],[54.419816,24.489759],[54.419563,24.489776],[54.419564,24.489821]]]}},{"type":"Feature","properties":{},"geometry":{"type":"Polygon","coordinates":[[[54.419795,24.490279],[54.419792,24.490158],[54.419611,24.490173],[54.419613,24.490252],[54.419571,24.490258],[54.419579,24.490298],[54.419795,24.490279]]]}},{"type":"Feature","properties":{},"geometry":{"type":"Polygon","coordinates":[[[54.419571,24.490289],[54.419565,24.490167],[54.419381,24.490183],[54.419385,24.490262],[54.419239,24.490277],[54.41924,24.490311],[54.419571,24.490289]]]}},{"type":"Feature","properties":{},"geometry":{"type":"Polygon","coordinates":[[[54.418218,24.502471],[54.41835,24.502457],[54.418552,24.502379],[54.418509,24.502286],[54.418376,24.5023],[54.418174,24.502378],[54.418218,24.502471]]]}}]}