{"type":"FeatureCollection","features":[{"type":"Feature","properties":{},"geometry":{"type":"Polygon","coordinates":[[[54.390915,24.482555],[54.390935,24.482432],[54.390798,24.482419],[54.39058,24.482459],[54.390563,24.482582],[54.390697,24.482594],[54.390915,24.482555]]]}},{"type":"Feature","properties":{},"geometry":{"type":"Polygon","coordinates":[[[54.391191,24.482839],[54.39115,24.482902],[54.391184,24.482919],[54.391056,24.482942],[54.390997,24.483025],[54.391238,24.483168],[54.391281,24.48316],[54.391275,24.48317],[54.391503,24.483283],[54.39172,24.483243],[54.391797,24.48312],[54.391707,24.483056],[54.391749,24.482988],[54.391885,24.482963],[54.39196,24.482844],[54.391727,24.48273],[54.391643,24.482745],[54.391412,24.482641],[54.391348,24.482653],[54.391366,24.482621],[54.39128,24.482581],[54.391241,24.482588],[54.391253,24.482567],[54.391159,24.482525],[54.390942,24.482565],[54.390871,24.48269],[54.390736,24.482615],[54.390518,24.482654],[54.390461,24.482735],[54.39071,24.482873],[54.390928,24.482833],[54.390958,24.482808],[54.390947,24.482828],[54.391028,24.482867],[54.391251,24.482818],[54.391263,24.482826],[54.391191,24.482839]],[[54.391382,24.482946],[54.391409,24.482941],[54.391391,24.482971],[54.391284,24.482909],[54.391382,24.482946]]]}},{"type":"Feature","properties":{},"geometry":{"type":"Polygon","coordinates":[[[54.389972,24.482894],[54.39019,24.482854],[54.39028,24.482785],[54.390215,24.482715],[54.389997,24.482755],[54.389907,24.482825],[54.389972,24.482894]]]}},{"type":"Feature","properties":{},"geometry":{"type":"Polygon","coordinates":[[[54.392326,24.483231],[54.392282,24.483312],[54.392375,24.483354],[54.392593,24.483315],[54.392693,24.48314],[54.392597,24.483095],[54.392533,24.483106],[54.392476,24.483076],[54.392498,24.483037],[54.392391,24.482987],[54.39233,24.482999],[54.392259,24.482967],[54.392042,24.483006],[54.392022,24.483043],[54.392118,24.483089],[54.392155,24.483083],[54.39226,24.483125],[54.392207,24.483218],[54.392261,24.483243],[54.392326,24.483231]]]}},{"type":"Feature","properties":{},"geometry":{"type":"Polygon","coordinates":[[[54.391441,24.483319],[54.391224,24.483358],[54.391015,24.483564],[54.39122,24.483711],[54.39125,24.483705],[54.391186,24.48376],[54.391324,24.483896],[54.391542,24.483857],[54.391629,24.483781],[54.391491,24.483645],[54.391455,24.483652],[54.391518,24.483579],[54.391496,24.483562],[54.391542,24.483554],[54.391621,24.483455],[54.391829,24.483417],[54.391844,24.483387],[54.391749,24.483347],[54.391532,24.483387],[54.391441,24.483319]]]}},{"type":"Feature","properties":{},"geometry":{"type":"Polygon","coordinates":[[[54.390799,24.484563],[54.391016,24.484523],[54.391108,24.484445],[54.390989,24.48433],[54.390771,24.484369],[54.39068,24.484447],[54.390799,24.484563]]]}},{"type":"Feature","properties":{},"geometry":{"type":"Polygon","coordinates":[[[54.392839,24.489252],[54.392886,24.489319],[54.393158,24.489269],[54.393264,24.489227],[54.393272,24.489275],[54.394075,24.489157],[54.394022,24.48882],[54.393444,24.488895],[54.39337,24.488856],[54.393315,24.488797],[54.393289,24.488737],[54.393282,24.488672],[54.393296,24.488609],[54.393329,24.488551],[54.39339,24.488499],[54.393708,24.488472],[54.393979,24.488422],[54.393921,24.487868],[54.393144,24.487935],[54.392872,24.487985],[54.392909,24.488341],[54.392758,24.488528],[54.392586,24.488484],[54.392314,24.488534],[54.392303,24.488589],[54.392215,24.488605],[54.392125,24.48894],[54.392388,24.488966],[54.392538,24.489018],[54.392656,24.489084],[54.392839,24.489252]]]}},{"type":"Feature","properties":{},"geometry":{"type":"Polygon","coordinates":[[[54.392516,24.490895],[54.39257,24.490997],[54.392984,24.490943],[54.393301,24.49113],[54.39346,24.491101],[54.393566,24.49117],[54.393672,24.491195],[54.393757,24.491191],[54.393441,24.491575],[54.393494,24.491719],[54.39383,24.491951],[54.393975,24.491925],[54.395198,24.490457],[54.395027,24.490344],[54.3948,24.490358],[54.394497,24.490409],[54.394352,24.490468],[54.394188,24.490667],[54.394119,24.490594],[54.394023,24.490541],[54.393915,24.490518],[54.394006,24.490502],[54.394112,24.490444],[54.39425,24.490269],[54.394163,24.489764],[54.393785,24.489797],[54.393509,24.489641],[54.393267,24.489648],[54.392995,24.489698],[54.392899,24.490086],[54.392856,24.490178],[54.392777,24.490273],[54.392729,24.490281],[54.392598,24.490361],[54.392377,24.490462],[54.392207,24.490462],[54.392007,24.490416],[54.391736,24.490465],[54.391721,24.490502],[54.391735,24.490577],[54.3917,24.4906],[54.391651,24.49071],[54.391724,24.490779],[54.391942,24.490822],[54.392303,24.490933],[54.392516,24.490895]]]}},{"type":"Feature","properties":{},"geometry":{"type":"Polygon","coordinates":[[[54.393087,24.491051],[54.392386,24.491124],[54.392169,24.491164],[54.39221,24.49149],[54.392502,24.49146],[54.39272,24.49142],[54.392707,24.491319],[54.393113,24.49126],[54.393087,24.491051]]]}},{"type":"Feature","properties":{},"geometry":{"type":"Polygon","coordinates":[[[54.39246,24.491593],[54.392547,24.492146],[54.39318,24.492053],[54.393207,24.491853],[54.393151,24.491492],[54.39246,24.491593]]]}},{"type":"Feature","properties":{},"geometry":{"type":"Polygon","coordinates":[[[54.392226,24.492479],[54.392288,24.492864],[54.393088,24.492747],[54.393025,24.492361],[54.392226,24.492479]]]}},{"type":"Feature","properties":{},"geometry":{"type":"Polygon","coordinates":[[[54.39091,24.492828],[54.390804,24.492732],[54.390587,24.492771],[54.390399,24.492942],[54.390505,24.493039],[54.390723,24.492999],[54.39091,24.492828]]]}},{"type":"Feature","properties":{},"geometry":{"type":"Polygon","coordinates":[[[54.389361,24.494209],[54.39017,24.494115],[54.390388,24.494075],[54.390339,24.493721],[54.389529,24.493815],[54.389311,24.493854],[54.389361,24.494209]]]}},{"type":"Feature","properties":{},"geometry":{"type":"Polygon","coordinates":[[[54.392741,24.49608],[54.392958,24.496041],[54.392987,24.496019],[54.39373,24.49594],[54.393739,24.496008],[54.394081,24.495955],[54.394268,24.495788],[54.394503,24.495747],[54.394418,24.495137],[54.39385,24.495203],[54.393632,24.495242],[54.39364,24.495297],[54.392676,24.495443],[54.392741,24.49608]]]}},{"type":"Feature","properties":{},"geometry":{"type":"Polygon","coordinates":[[[54.390173,24.496106],[54.390205,24.496364],[54.390509,24.496344],[54.39086,24.496289],[54.390847,24.49606],[54.390818,24.496061],[54.390844,24.496057],[54.390793,24.495637],[54.390443,24.495673],[54.390109,24.495729],[54.390113,24.495837],[54.39024,24.495831],[54.390263,24.496012],[54.390147,24.496033],[54.390156,24.496107],[54.390173,24.496106]]]}},{"type":"Feature","properties":{},"geometry":{"type":"Polygon","coordinates":[[[54.391186,24.49705],[54.391184,24.497144],[54.391304,24.497146],[54.391521,24.497107],[54.391527,24.497015],[54.391663,24.497013],[54.391881,24.496973],[54.391879,24.496934],[54.391639,24.496946],[54.391422,24.496985],[54.391421,24.497011],[54.391186,24.49705]]]}},{"type":"Feature","properties":{},"geometry":{"type":"Polygon","coordinates":[[[54.391879,24.497041],[54.391607,24.49709],[54.391615,24.497128],[54.391887,24.497078],[54.391879,24.497041]]]}},{"type":"Feature","properties":{},"geometry":{"type":"Polygon","coordinates":[[[54.391562,24.497141],[54.39145,24.497138],[54.391232,24.497178],[54.39123,24.497241],[54.391343,24.497244],[54.39156,24.497205],[54.391562,24.497141]]]}},{"type":"Feature","properties":{},"geometry":{"type":"Polygon","coordinates":[[[54.391505,24.497815],[54.391368,24.497883],[54.391404,24.498122],[54.391497,24.498179],[54.391913,24.49816],[54.394088,24.497765],[54.394056,24.497546],[54.39368,24.497421],[54.391505,24.497815]]]}},{"type":"Feature","properties":{},"geometry":{"type":"Polygon","coordinates":[[[54.39357,24.498158],[54.393572,24.498078],[54.393313,24.498116],[54.39331,24.498197],[54.39357,24.498158]]]}},{"type":"Feature","properties":{},"geometry":{"type":"Polygon","coordinates":[[[54.389941,24.498568],[54.390974,24.498461],[54.391191,24.498422],[54.391147,24.498068],[54.390114,24.498175],[54.389896,24.498215],[54.389941,24.498568]]]}},{"type":"Feature","properties":{},"geometry":{"type":"Polygon","coordinates":[[[54.391623,24.500751],[54.39166,24.500999],[54.392139,24.50093],[54.392106,24.500687],[54.391841,24.500711],[54.391623,24.500751]]]}},{"type":"Feature","properties":{},"geometry":{"type":"Polygon","coordinates":[[[54.39033,24.502516],[54.390406,24.5031],[54.391157,24.503036],[54.391556,24.502963],[54.391501,24.502465],[54.391817,24.502408],[54.391379,24.498771],[54.390276,24.498895],[54.389877,24.498968],[54.390309,24.502346],[54.389868,24.502417],[54.389887,24.502566],[54.39033,24.502516]]]}},{"type":"Feature","properties":{},"geometry":{"type":"Polygon","coordinates":[[[54.392099,24.503682],[54.392409,24.50363],[54.392401,24.503581],[54.392091,24.503633],[54.392099,24.503682]]]}},{"type":"Feature","properties":{},"geometry":{"type":"Polygon","coordinates":[[[54.392485,24.503689],[54.392322,24.503698],[54.392105,24.503737],[54.392111,24.503839],[54.392274,24.503831],[54.392463,24.503797],[54.392463,24.503812],[54.392554,24.503811],[54.392772,24.503771],[54.392771,24.503722],[54.39268,24.503724],[54.39249,24.503758],[54.392485,24.503689]]]}},{"type":"Feature","properties":{},"geometry":{"type":"Polygon","coordinates":[[[54.392065,24.504132],[54.392186,24.504117],[54.392196,24.504208],[54.39209,24.504227],[54.392098,24.504395],[54.392216,24.504381],[54.392222,24.504432],[54.392721,24.504361],[54.392715,24.504269],[54.392809,24.504245],[54.392798,24.50421],[54.392712,24.504225],[54.392705,24.504126],[54.39252,24.504146],[54.392516,24.504111],[54.392808,24.504062],[54.392776,24.503841],[54.392271,24.503901],[54.392054,24.50394],[54.392065,24.504132]]]}},{"type":"Feature","properties":{},"geometry":{"type":"Polygon","coordinates":[[[54.39221,24.504771],[54.392653,24.504727],[54.39287,24.504688],[54.392837,24.504413],[54.392395,24.504457],[54.392177,24.504496],[54.39221,24.504771]]]}},{"type":"Feature","properties":{},"geometry":{"type":"Polygon","coordinates":[[[54.392181,24.504943],[54.392453,24.504899],[54.392445,24.504819],[54.392173,24.504863],[54.392181,24.504943]]]}},{"type":"Feature","properties":{},"geometry":{"type":"Polygon","coordinates":[[[54.392524,24.505174],[54.392558,24.505648],[54.392773,24.505636],[54.39299,24.505596],[54.392954,24.505096],[54.392651,24.505125],[54.392649,24.505053],[54.39281,24.505024],[54.39278,24.504775],[54.392452,24.504825],[54.39248,24.505054],[54.392208,24.505104],[54.392211,24.505213],[54.392524,24.505174]]]}},{"type":"Feature","properties":{},"geometry":{"type":"Polygon","coordinates":[[[54.390211,24.505165],[54.390012,24.505178],[54.389795,24.505218],[54.389842,24.505811],[54.390056,24.505797],[54.390274,24.505758],[54.390247,24.505417],[54.390231,24.505418],[54.390211,24.505165]]]}},{"type":"Feature","properties":{},"geometry":{"type":"Polygon","coordinates":[[[54.391776,24.506856],[54.392083,24.506807],[54.392077,24.506761],[54.39177,24.50681],[54.391776,24.506856]]]}},{"type":"Feature","properties":{},"geometry":{"type":"Polygon","coordinates":[[[54.391996,24.50694],[54.392001,24.506959],[54.392285,24.506906],[54.392272,24.506857],[54.392316,24.506848],[54.392305,24.506806],[54.39188,24.506896],[54.391888,24.506957],[54.391996,24.50694]]]}},{"type":"Feature","properties":{},"geometry":{"type":"Polygon","coordinates":[[[54.392556,24.507137],[54.392741,24.507125],[54.392959,24.507086],[54.392933,24.506743],[54.392747,24.506755],[54.39253,24.506794],[54.392556,24.507137]]]}},{"type":"Feature","properties":{},"geometry":{"type":"Polygon","coordinates":[[[54.391816,24.507144],[54.391942,24.507142],[54.392159,24.507102],[54.392157,24.507013],[54.392031,24.507016],[54.391814,24.507055],[54.391816,24.507144]]]}},{"type":"Feature","properties":{},"geometry":{"type":"Polygon","coordinates":[[[54.392911,24.507214],[54.39321,24.507166],[54.393203,24.507112],[54.392904,24.50716],[54.392911,24.507214]]]}},{"type":"Feature","properties":{},"geometry":{"type":"Polygon","coordinates":[[[54.391541,24.50749],[54.391944,24.507466],[54.392162,24.507426],[54.392152,24.507288],[54.391748,24.507312],[54.391531,24.507352],[54.391541,24.50749]]]}},{"type":"Feature","properties":{},"geometry":{"type":"Polygon","coordinates":[[[54.391046,24.50751],[54.391179,24.507511],[54.391397,24.507472],[54.391398,24.507391],[54.391264,24.50739],[54.391047,24.507429],[54.391046,24.50751]]]}},{"type":"Feature","properties":{},"geometry":{"type":"Polygon","coordinates":[[[54.393216,24.508734],[54.393433,24.508695],[54.393435,24.50866],[54.393187,24.508669],[54.39297,24.508709],[54.39297,24.508739],[54.393216,24.508734]]]}},{"type":"Feature","properties":{},"geometry":{"type":"Polygon","coordinates":[[[54.393287,24.509787],[54.393505,24.509748],[54.393842,24.509577],[54.39383,24.509557],[54.394012,24.509464],[54.393988,24.509424],[54.394107,24.509391],[54.39407,24.509331],[54.393945,24.509354],[54.393803,24.509123],[54.393875,24.509109],[54.393873,24.509054],[54.393604,24.509096],[54.393605,24.509118],[54.393563,24.509125],[54.393369,24.509224],[54.39338,24.509242],[54.393317,24.509272],[54.393401,24.509393],[54.393334,24.509406],[54.393287,24.509433],[54.393322,24.509481],[54.393096,24.509587],[54.393144,24.509669],[54.393211,24.509662],[54.393021,24.509696],[54.392992,24.509738],[54.393063,24.509778],[54.39326,24.509742],[54.393287,24.509787]]]}},{"type":"Feature","properties":{},"geometry":{"type":"Polygon","coordinates":[[[54.405726,24.480658],[54.405584,24.480498],[54.405437,24.480524],[54.40539,24.480471],[54.405173,24.48051],[54.405133,24.480539],[54.404982,24.480566],[54.404751,24.480736],[54.404947,24.480958],[54.405165,24.480919],[54.405393,24.480783],[54.405607,24.480745],[54.405726,24.480658]]]}},{"type":"Feature","properties":{},"geometry":{"type":"Polygon","coordinates":[[[54.404658,24.48116],[54.404875,24.48112],[54.404932,24.481097],[54.404914,24.481062],[54.404697,24.481102],[54.40464,24.481125],[54.404658,24.48116]]]}},{"type":"Feature","properties":{},"geometry":{"type":"Polygon","coordinates":[[[54.404134,24.481544],[54.404663,24.481274],[54.4045,24.480996],[54.404282,24.481036],[54.403673,24.48131],[54.403917,24.481584],[54.404134,24.481544]]]}},{"type":"Feature","properties":{},"geometry":{"type":"Polygon","coordinates":[[[54.403458,24.48333],[54.403383,24.483113],[54.403617,24.48298],[54.403441,24.482641],[54.403117,24.482204],[54.402726,24.482281],[54.402739,24.482176],[54.402653,24.482172],[54.402291,24.482238],[54.401421,24.483154],[54.401422,24.483271],[54.401463,24.483334],[54.401638,24.483375],[54.402,24.483309],[54.402259,24.483208],[54.40257,24.483215],[54.403095,24.483396],[54.403458,24.48333]]]}},{"type":"Feature","properties":{},"geometry":{"type":"Polygon","coordinates":[[[54.40596,24.48444],[54.405324,24.484364],[54.405703,24.48437],[54.40592,24.484331],[54.405921,24.483812],[54.405672,24.483093],[54.405455,24.483133],[54.405126,24.483265],[54.405318,24.483913],[54.404939,24.484017],[54.404994,24.484359],[54.405188,24.484362],[54.405017,24.484393],[54.404939,24.484734],[54.405619,24.484873],[54.405836,24.484833],[54.40596,24.48444]]]}},{"type":"Feature","properties":{},"geometry":{"type":"Polygon","coordinates":[[[54.40469,24.48499],[54.40476,24.484771],[54.404757,24.484475],[54.403968,24.484412],[54.403751,24.484451],[54.40362,24.484898],[54.403526,24.485074],[54.40334,24.485265],[54.403951,24.4858],[54.404169,24.485761],[54.404365,24.48557],[54.404584,24.485234],[54.40469,24.48499]]]}},{"type":"Feature","properties":{},"geometry":{"type":"Polygon","coordinates":[[[54.40032,24.486616],[54.400169,24.486792],[54.400636,24.487122],[54.400754,24.487158],[54.400971,24.487119],[54.401084,24.487077],[54.401425,24.486323],[54.40096,24.486084],[54.400743,24.486123],[54.400631,24.486302],[54.40032,24.486616]]]}},{"type":"Feature","properties":{},"geometry":{"type":"Polygon","coordinates":[[[54.404961,24.486598],[54.404952,24.486551],[54.404604,24.486186],[54.404567,24.486161],[54.404514,24.486155],[54.403971,24.486254],[54.403234,24.486607],[54.403444,24.48716],[54.403478,24.487193],[54.40353,24.487207],[54.404074,24.487109],[54.404311,24.487025],[54.404665,24.486834],[54.404933,24.486638],[54.404961,24.486598]]]}},{"type":"Feature","properties":{},"geometry":{"type":"Polygon","coordinates":[[[54.394095,24.487756],[54.394113,24.487773],[54.394066,24.487813],[54.394198,24.487939],[54.394521,24.488303],[54.394656,24.488278],[54.394793,24.488419],[54.397524,24.487931],[54.397741,24.487756],[54.397667,24.487681],[54.397765,24.487602],[54.397592,24.487425],[54.395254,24.487849],[54.395064,24.487576],[54.397651,24.487107],[54.398035,24.486766],[54.398003,24.486736],[54.397921,24.486703],[54.397809,24.486691],[54.397684,24.486708],[54.395019,24.487192],[54.39497,24.487235],[54.395012,24.487275],[54.394903,24.487371],[54.394838,24.487304],[54.394555,24.487364],[54.394369,24.487515],[54.394426,24.487573],[54.394275,24.4876],[54.394095,24.487756]]]}},{"type":"Feature","properties":{},"geometry":{"type":"Polygon","coordinates":[[[54.403098,24.489556],[54.402842,24.488097],[54.402506,24.488047],[54.401991,24.487942],[54.401362,24.487725],[54.400328,24.487264],[54.399761,24.486895],[54.399185,24.486463],[54.398968,24.486502],[54.397734,24.487851],[54.398874,24.488706],[54.400196,24.489399],[54.400966,24.489714],[54.401757,24.489883],[54.4026,24.489943],[54.402818,24.489904],[54.403098,24.489556]]]}},{"type":"Feature","properties":{},"geometry":{"type":"Polygon","coordinates":[[[54.397613,24.488301],[54.397511,24.488311],[54.397499,24.488212],[54.397318,24.48823],[54.394327,24.488773],[54.394338,24.488861],[54.39419,24.488888],[54.394231,24.489235],[54.394384,24.48922],[54.394398,24.489338],[54.394585,24.489319],[54.397576,24.488777],[54.397564,24.488671],[54.397655,24.488654],[54.397613,24.488301]]]}},{"type":"Feature","properties":{},"geometry":{"type":"Polygon","coordinates":[[[54.397695,24.48903],[54.397594,24.48904],[54.397583,24.488941],[54.397401,24.488958],[54.39441,24.489501],[54.394419,24.489588],[54.394271,24.489615],[54.394312,24.489967],[54.394465,24.489952],[54.394481,24.490096],[54.394669,24.490078],[54.39766,24.489536],[54.397645,24.489398],[54.397736,24.489382],[54.397695,24.48903]]]}},{"type":"Feature","properties":{},"geometry":{"type":"Polygon","coordinates":[[[54.400058,24.490467],[54.400098,24.490732],[54.40062,24.490654],[54.400579,24.490389],[54.400058,24.490467]]]}},{"type":"Feature","properties":{},"geometry":{"type":"Polygon","coordinates":[[[54.395363,24.491006],[54.395186,24.491038],[54.395007,24.491243],[54.395249,24.491417],[54.394932,24.491475],[54.394754,24.49168],[54.394914,24.491795],[54.394529,24.491865],[54.394457,24.491954],[54.393984,24.49204],[54.393805,24.492246],[54.394047,24.492419],[54.394117,24.492406],[54.394184,24.492454],[54.396976,24.491948],[54.397077,24.491831],[54.397021,24.491791],[54.397544,24.491696],[54.397619,24.491602],[54.397543,24.491552],[54.397607,24.491472],[54.397569,24.491447],[54.397961,24.491376],[54.398062,24.491259],[54.397967,24.49119],[54.39801,24.491141],[54.397827,24.491009],[54.398214,24.490939],[54.398315,24.490822],[54.39822,24.490754],[54.398263,24.490705],[54.398014,24.490525],[54.397929,24.490541],[54.398073,24.490374],[54.397834,24.490203],[54.395387,24.490647],[54.395185,24.490879],[54.395363,24.491006]]]}},{"type":"Feature","properties":{},"geometry":{"type":"Polygon","coordinates":[[[54.398541,24.492176],[54.398884,24.492118],[54.398842,24.491801],[54.398498,24.491854],[54.398541,24.492176]]]}},{"type":"Feature","properties":{},"geometry":{"type":"Polygon","coordinates":[[[54.398864,24.492514],[54.398855,24.492447],[54.399313,24.492381],[54.399299,24.492281],[54.399066,24.49231],[54.399043,24.492176],[54.398823,24.492212],[54.398819,24.492185],[54.398525,24.492233],[54.39857,24.492562],[54.398864,24.492514]]]}},{"type":"Feature","properties":{},"geometry":{"type":"Polygon","coordinates":[[[54.39628,24.492293],[54.395871,24.492218],[54.395653,24.492258],[54.395588,24.492557],[54.395997,24.492631],[54.396214,24.492592],[54.39628,24.492293]]]}},{"type":"Feature","properties":{},"geometry":{"type":"Polygon","coordinates":[[[54.399973,24.493406],[54.400704,24.493321],[54.400921,24.493281],[54.400867,24.492896],[54.400136,24.492981],[54.399918,24.49302],[54.399973,24.493406]]]}},{"type":"Feature","properties":{},"geometry":{"type":"Polygon","coordinates":[[[54.403701,24.49439],[54.403824,24.494381],[54.404045,24.494498],[54.404263,24.494458],[54.404401,24.49424],[54.406811,24.493803],[54.407001,24.493505],[54.407352,24.493425],[54.407301,24.493006],[54.406444,24.493153],[54.406363,24.493085],[54.406564,24.493049],[54.406693,24.492921],[54.406596,24.492839],[54.406379,24.492879],[54.406258,24.492998],[54.406183,24.492936],[54.406547,24.4926],[54.406374,24.492479],[54.406587,24.492379],[54.406479,24.492212],[54.406247,24.492254],[54.405376,24.492715],[54.405341,24.492999],[54.405685,24.493291],[54.404785,24.493454],[54.404799,24.493432],[54.404635,24.493346],[54.404418,24.493385],[54.404405,24.493405],[54.404047,24.493458],[54.404026,24.493494],[54.403925,24.493505],[54.403921,24.49347],[54.403577,24.493505],[54.403359,24.493544],[54.403367,24.49361],[54.403273,24.493627],[54.403326,24.494056],[54.403286,24.494063],[54.403322,24.494353],[54.403622,24.494322],[54.403653,24.494365],[54.403701,24.49439]]]}},{"type":"Feature","properties":{},"geometry":{"type":"Polygon","coordinates":[[[54.3938,24.494443],[54.393739,24.49445],[54.393732,24.494402],[54.393367,24.494459],[54.39337,24.494479],[54.39331,24.49449],[54.393345,24.49473],[54.393831,24.494659],[54.3938,24.494443]]]}},{"type":"Feature","properties":{},"geometry":{"type":"Polygon","coordinates":[[[54.40574,24.497548],[54.406,24.497594],[54.406218,24.497555],[54.406228,24.497507],[54.406271,24.4975],[54.406286,24.497437],[54.406518,24.497395],[54.406779,24.497285],[54.406718,24.497166],[54.406956,24.497094],[54.407139,24.497061],[54.407344,24.497081],[54.407469,24.497058],[54.407468,24.497083],[54.408106,24.497162],[54.408361,24.497115],[54.408709,24.497309],[54.410522,24.49698],[54.411342,24.496589],[54.411198,24.49636],[54.408852,24.496782],[54.408879,24.496719],[54.40867,24.496648],[54.408358,24.49657],[54.408125,24.496542],[54.407491,24.496658],[54.40749,24.496671],[54.407231,24.496718],[54.407427,24.496251],[54.407362,24.496223],[54.407824,24.496263],[54.408207,24.49638],[54.408429,24.496339],[54.408609,24.49641],[54.408791,24.496429],[54.410074,24.496201],[54.41015,24.496288],[54.410069,24.496343],[54.410179,24.496484],[54.411629,24.496221],[54.411793,24.496117],[54.411759,24.496073],[54.412002,24.496029],[54.412226,24.495924],[54.412142,24.495826],[54.414126,24.495466],[54.414194,24.495438],[54.414226,24.495387],[54.414216,24.495324],[54.41415,24.495234],[54.414052,24.495152],[54.413921,24.495079],[54.413775,24.495023],[54.413599,24.494998],[54.411421,24.49539],[54.411495,24.495334],[54.411556,24.495265],[54.411586,24.495218],[54.411601,24.495141],[54.411562,24.495077],[54.411442,24.495066],[54.408562,24.495589],[54.408815,24.495216],[54.408961,24.495292],[54.409261,24.495341],[54.409621,24.495322],[54.410527,24.495157],[54.41087,24.495065],[54.410774,24.494884],[54.410278,24.494974],[54.410127,24.494972],[54.409925,24.494516],[54.40985,24.494151],[54.409969,24.494074],[54.41019,24.493971],[54.41214,24.493617],[54.412214,24.493533],[54.412396,24.4935],[54.412665,24.493194],[54.412945,24.492949],[54.413441,24.492638],[54.413902,24.492489],[54.414347,24.492371],[54.414318,24.492161],[54.412372,24.492514],[54.412373,24.492421],[54.41219,24.49242],[54.411973,24.492459],[54.411972,24.492557],[54.412129,24.492558],[54.409532,24.493029],[54.409064,24.493135],[54.408549,24.493307],[54.407982,24.493622],[54.407631,24.493885],[54.407294,24.494291],[54.407536,24.494453],[54.408571,24.495082],[54.408235,24.495577],[54.407166,24.494981],[54.406894,24.495031],[54.406815,24.495249],[54.40661,24.495273],[54.406634,24.495237],[54.406567,24.4952],[54.40635,24.49524],[54.406305,24.495308],[54.406371,24.495344],[54.406804,24.495279],[54.406792,24.495313],[54.40678,24.495301],[54.406562,24.495341],[54.406486,24.495406],[54.406557,24.495474],[54.406395,24.495503],[54.406312,24.495545],[54.406365,24.495633],[54.406413,24.495624],[54.406363,24.495722],[54.40627,24.495738],[54.406224,24.495803],[54.406251,24.495819],[54.406473,24.495772],[54.406546,24.495803],[54.406668,24.495781],[54.406659,24.495831],[54.405255,24.496086],[54.404938,24.495967],[54.404485,24.49605],[54.404158,24.496949],[54.403928,24.497053],[54.404358,24.49798],[54.404811,24.497897],[54.405052,24.497701],[54.405092,24.497653],[54.405743,24.497535],[54.40574,24.497548]],[[54.406637,24.495505],[54.406728,24.495488],[54.406706,24.495571],[54.40659,24.49559],[54.406665,24.495552],[54.406637,24.495505]]]}},{"type":"Feature","properties":{},"geometry":{"type":"Polygon","coordinates":[[[54.39431,24.497106],[54.39439,24.49739],[54.394641,24.497508],[54.394859,24.497469],[54.394986,24.497403],[54.395103,24.497309],[54.395092,24.497234],[54.395135,24.497171],[54.395214,24.497133],[54.395248,24.497074],[54.39476,24.496782],[54.394542,24.496821],[54.39431,24.497106]]]}},{"type":"Feature","properties":{},"geometry":{"type":"Polygon","coordinates":[[[54.402864,24.498563],[54.402757,24.498744],[54.40274,24.498873],[54.402759,24.498984],[54.402809,24.499041],[54.40277,24.499106],[54.402825,24.499141],[54.40285,24.499176],[54.402864,24.49922],[54.402856,24.499279],[54.403021,24.499304],[54.403167,24.499287],[54.403981,24.499139],[54.403992,24.499162],[54.404175,24.499239],[54.403484,24.499365],[54.403448,24.499406],[54.403164,24.499587],[54.403093,24.499605],[54.40308,24.499633],[54.403115,24.499713],[54.403154,24.499754],[54.403248,24.499802],[54.403333,24.499787],[54.403476,24.499943],[54.403581,24.500013],[54.403698,24.500065],[54.403823,24.500099],[54.403952,24.500113],[54.404111,24.500109],[54.404135,24.500134],[54.404109,24.500161],[54.404113,24.500183],[54.404184,24.500229],[54.4043,24.50023],[54.404484,24.500196],[54.404483,24.500286],[54.404761,24.500267],[54.405051,24.500214],[54.405478,24.500119],[54.405632,24.500047],[54.406609,24.49987],[54.406696,24.499833],[54.406737,24.499797],[54.40679,24.499787],[54.406818,24.499745],[54.407429,24.499634],[54.407464,24.499616],[54.407493,24.499565],[54.407491,24.499529],[54.407419,24.499445],[54.407729,24.499389],[54.407785,24.499341],[54.407823,24.499213],[54.407853,24.499207],[54.407861,24.499092],[54.407812,24.499097],[54.407773,24.498998],[54.407742,24.498961],[54.407678,24.498936],[54.406642,24.499123],[54.406739,24.498898],[54.408009,24.498661],[54.408081,24.498572],[54.408165,24.498501],[54.408232,24.498466],[54.408277,24.498416],[54.408294,24.498342],[54.408287,24.498265],[54.408271,24.498241],[54.408337,24.498148],[54.408286,24.498107],[54.408257,24.498055],[54.408252,24.497979],[54.408132,24.497952],[54.408021,24.497951],[54.407322,24.498078],[54.407334,24.498049],[54.407253,24.497718],[54.407205,24.49767],[54.407131,24.497652],[54.406671,24.497736],[54.405933,24.497599],[54.405643,24.497652],[54.40581,24.497892],[54.405209,24.498001],[54.405129,24.498028],[54.405089,24.49808],[54.4051,24.498143],[54.405047,24.498153],[54.404875,24.498333],[54.404851,24.498402],[54.404842,24.498528],[54.403832,24.498711],[54.403847,24.498664],[54.403836,24.498641],[54.403925,24.498581],[54.403902,24.49853],[54.404199,24.498414],[54.404339,24.49833],[54.404421,24.498242],[54.404444,24.498189],[54.404425,24.498157],[54.404439,24.498143],[54.404353,24.498081],[54.40432,24.498087],[54.404297,24.498074],[54.40434,24.498066],[54.404353,24.498038],[54.4043,24.498017],[54.404083,24.498057],[54.404072,24.498079],[54.403978,24.498096],[54.403208,24.498413],[54.403016,24.498458],[54.402864,24.498563]],[[54.405264,24.499436],[54.40528,24.499402],[54.405586,24.499239],[54.405584,24.499225],[54.405636,24.499212],[54.405491,24.499342],[54.405277,24.499487],[54.404383,24.499649],[54.404334,24.499605],[54.405264,24.499436]],[[54.405634,24.499098],[54.40576,24.499076],[54.40566,24.49919],[54.405661,24.499147],[54.405634,24.499098]]]}},{"type":"Feature","properties":{},"geometry":{"type":"Polygon","coordinates":[[[54.396346,24.498479],[54.39629,24.498478],[54.396073,24.498517],[54.39607,24.498583],[54.396127,24.498585],[54.396344,24.498545],[54.396346,24.498479]]]}},{"type":"Feature","properties":{},"geometry":{"type":"Polygon","coordinates":[[[54.393683,24.49862],[54.393466,24.49866],[54.393621,24.499665],[54.39537,24.499471],[54.395587,24.499432],[54.395477,24.498624],[54.395353,24.498503],[54.393683,24.49862]]]}},{"type":"Feature","properties":{},"geometry":{"type":"Polygon","coordinates":[[[54.395497,24.49999],[54.39578,24.499941],[54.395752,24.499787],[54.395419,24.499844],[54.395443,24.499972],[54.395241,24.500009],[54.395264,24.500113],[54.395514,24.500068],[54.395497,24.49999]]]}},{"type":"Feature","properties":{},"geometry":{"type":"Polygon","coordinates":[[[54.39489,24.500451],[54.395154,24.500404],[54.395133,24.50029],[54.394869,24.500337],[54.39489,24.500451]]]}},{"type":"Feature","properties":{},"geometry":{"type":"Polygon","coordinates":[[[54.394922,24.50055],[54.395064,24.501399],[54.395847,24.501281],[54.395705,24.500433],[54.394922,24.50055]]]}},{"type":"Feature","properties":{},"geometry":{"type":"Polygon","coordinates":[[[54.395964,24.501858],[54.395879,24.501856],[54.395661,24.501895],[54.395658,24.501997],[54.395744,24.502],[54.395961,24.50196],[54.395964,24.501858]]]}},{"type":"Feature","properties":{},"geometry":{"type":"Polygon","coordinates":[[[54.395492,24.502519],[54.396141,24.502421],[54.396091,24.502113],[54.395441,24.502211],[54.395492,24.502519]]]}},{"type":"Feature","properties":{},"geometry":{"type":"Polygon","coordinates":[[[54.397407,24.504788],[54.397697,24.504745],[54.397691,24.504644],[54.397401,24.504687],[54.397407,24.504788]]]}},{"type":"Feature","properties":{},"geometry":{"type":"Polygon","coordinates":[[[54.404497,24.507354],[54.404715,24.507314],[54.404748,24.507286],[54.404654,24.507195],[54.404437,24.507235],[54.404404,24.507263],[54.404497,24.507354]]]}},{"type":"Feature","properties":{},"geometry":{"type":"Polygon","coordinates":[[[54.394276,24.509621],[54.394251,24.509625],[54.394269,24.509615],[54.394236,24.509566],[54.394018,24.509606],[54.393978,24.509629],[54.394012,24.509678],[54.394035,24.509673],[54.394017,24.509683],[54.394078,24.509774],[54.394296,24.509735],[54.394337,24.509712],[54.394276,24.509621]]]}},{"type":"Feature","properties":{},"geometry":{"type":"Polygon","coordinates":[[[54.394031,24.509807],[54.394077,24.509894],[54.394294,24.509854],[54.39439,24.509813],[54.394345,24.509726],[54.394128,24.509765],[54.394031,24.509807]]]}},{"type":"Feature","properties":{},"geometry":{"type":"Polygon","coordinates":[[[54.394128,24.50991],[54.393869,24.509955],[54.393874,24.509991],[54.394134,24.509946],[54.394128,24.50991]]]}},{"type":"Feature","properties":{},"geometry":{"type":"Polygon","coordinates":[[[54.394412,24.509959],[54.394381,24.509899],[54.394163,24.509938],[54.393848,24.510074],[54.393879,24.510134],[54.394097,24.510095],[54.394412,24.509959]]]}},{"type":"Feature","properties":{},"geometry":{"type":"Polygon","coordinates":[[[54.406541,24.480056],[54.406473,24.479948],[54.406647,24.479856],[54.40659,24.479766],[54.40647,24.479788],[54.406498,24.479773],[54.406394,24.479608],[54.406176,24.479648],[54.405927,24.479779],[54.405983,24.479867],[54.405776,24.479976],[54.405813,24.480035],[54.405737,24.480075],[54.4058,24.480173],[54.405819,24.48017],[54.405905,24.480306],[54.406123,24.480266],[54.406541,24.480056]]]}},{"type":"Feature","properties":{},"geometry":{"type":"Polygon","coordinates":[[[54.406743,24.480076],[54.40696,24.480037],[54.407053,24.47996],[54.406989,24.479896],[54.406771,24.479935],[54.406679,24.480012],[54.406743,24.480076]]]}},{"type":"Feature","properties":{},"geometry":{"type":"Polygon","coordinates":[[[54.406404,24.480249],[54.406369,24.480321],[54.406349,24.480324],[54.406307,24.480382],[54.406104,24.480529],[54.406136,24.480569],[54.406178,24.480561],[54.406214,24.480596],[54.406278,24.480585],[54.406437,24.480741],[54.406654,24.480702],[54.4068,24.480579],[54.406635,24.480416],[54.406662,24.480411],[54.406696,24.480364],[54.406663,24.480344],[54.406701,24.480337],[54.40674,24.480257],[54.406621,24.480209],[54.406404,24.480249]]]}},{"type":"Feature","properties":{},"geometry":{"type":"Polygon","coordinates":[[[54.405699,24.480497],[54.405917,24.480458],[54.405992,24.48042],[54.405965,24.480375],[54.405748,24.480415],[54.405672,24.480452],[54.405699,24.480497]]]}},{"type":"Feature","properties":{},"geometry":{"type":"Polygon","coordinates":[[[54.405261,24.482119],[54.405287,24.48226],[54.405336,24.482344],[54.405366,24.482338],[54.405417,24.48244],[54.407046,24.482144],[54.407181,24.482327],[54.407302,24.482429],[54.407416,24.48261],[54.409229,24.482281],[54.409418,24.48221],[54.40946,24.482079],[54.409062,24.481634],[54.407263,24.48196],[54.407259,24.481946],[54.407512,24.4819],[54.407752,24.48175],[54.407692,24.481686],[54.40786,24.481655],[54.408087,24.481508],[54.407875,24.481221],[54.40781,24.48111],[54.406178,24.481406],[54.406001,24.481509],[54.405923,24.481577],[54.405958,24.481619],[54.405846,24.481639],[54.405621,24.481752],[54.40558,24.481799],[54.405603,24.481855],[54.405398,24.481892],[54.40529,24.481997],[54.405261,24.482119]]]}},{"type":"Feature","properties":{},"geometry":{"type":"Polygon","coordinates":[[[54.406107,24.48267],[54.406143,24.482727],[54.40636,24.482688],[54.406416,24.482659],[54.406708,24.483103],[54.406925,24.483064],[54.407101,24.482968],[54.406767,24.482459],[54.406735,24.482465],[54.406703,24.482406],[54.406485,24.482446],[54.40631,24.482553],[54.406314,24.482564],[54.406107,24.48267]]]}},{"type":"Feature","properties":{},"geometry":{"type":"Polygon","coordinates":[[[54.406713,24.485613],[54.406818,24.485672],[54.407259,24.485574],[54.407554,24.485287],[54.407479,24.485224],[54.407262,24.485263],[54.406994,24.485524],[54.406972,24.485512],[54.406754,24.485552],[54.406713,24.485613]]]}},{"type":"Feature","properties":{},"geometry":{"type":"Polygon","coordinates":[[[54.405983,24.487822],[54.407143,24.487611],[54.407287,24.487432],[54.406992,24.487218],[54.405832,24.487429],[54.405686,24.487602],[54.405983,24.487822]]]}},{"type":"Feature","properties":{},"geometry":{"type":"Polygon","coordinates":[[[54.407815,24.488242],[54.407536,24.487833],[54.407318,24.487873],[54.406497,24.488337],[54.406776,24.488745],[54.406994,24.488706],[54.407815,24.488242]]]}},{"type":"Feature","properties":{},"geometry":{"type":"Polygon","coordinates":[[[54.408238,24.488679],[54.407985,24.488304],[54.407768,24.488343],[54.407379,24.488552],[54.407309,24.488565],[54.406903,24.488795],[54.407183,24.489203],[54.407401,24.489163],[54.407806,24.488933],[54.407798,24.488921],[54.407862,24.488909],[54.408238,24.488679]]]}},{"type":"Feature","properties":{},"geometry":{"type":"Polygon","coordinates":[[[54.406989,24.490373],[54.407272,24.490312],[54.407238,24.490231],[54.406961,24.490292],[54.406989,24.490373]]]}},{"type":"Feature","properties":{},"geometry":{"type":"Polygon","coordinates":[[[54.406917,24.503485],[54.407214,24.503428],[54.407161,24.503305],[54.40688,24.503364],[54.406917,24.503485]]]}},{"type":"Feature","properties":{},"geometry":{"type":"Polygon","coordinates":[[[54.406088,24.504593],[54.406141,24.504759],[54.40645,24.504699],[54.406445,24.50468],[54.406523,24.504681],[54.406741,24.504642],[54.406743,24.504499],[54.406649,24.504498],[54.406432,24.504537],[54.406429,24.504627],[54.406401,24.504531],[54.406088,24.504593]]]}},{"type":"Feature","properties":{},"geometry":{"type":"Polygon","coordinates":[[[54.406702,24.505922],[54.408696,24.50556],[54.408787,24.505455],[54.408822,24.505333],[54.408782,24.505191],[54.408668,24.505091],[54.406826,24.505425],[54.406562,24.5052],[54.406344,24.50524],[54.406082,24.505495],[54.406364,24.505735],[54.406452,24.505719],[54.406702,24.505922]]]}},{"type":"Feature","properties":{},"geometry":{"type":"Polygon","coordinates":[[[54.405803,24.505434],[54.405602,24.505385],[54.405385,24.505424],[54.405291,24.505739],[54.405492,24.505789],[54.40571,24.505749],[54.405803,24.505434]]]}},{"type":"Feature","properties":{},"geometry":{"type":"Polygon","coordinates":[[[54.405692,24.505884],[54.405397,24.505789],[54.405179,24.505828],[54.405064,24.506126],[54.405359,24.506221],[54.405577,24.506181],[54.405692,24.505884]]]}},{"type":"Feature","properties":{},"geometry":{"type":"Polygon","coordinates":[[[54.405562,24.506326],[54.405284,24.506239],[54.405066,24.506279],[54.404973,24.506527],[54.405152,24.506583],[54.404948,24.50662],[54.404806,24.507019],[54.405062,24.507112],[54.405279,24.507072],[54.405454,24.506676],[54.405261,24.506612],[54.405469,24.506574],[54.405562,24.506326]]]}},{"type":"Feature","properties":{},"geometry":{"type":"Polygon","coordinates":[[[54.40803,24.506684],[54.407861,24.506604],[54.409784,24.506255],[54.410076,24.505947],[54.409936,24.505804],[54.409936,24.505747],[54.409897,24.505641],[54.409824,24.505551],[54.409723,24.505486],[54.409605,24.505453],[54.409482,24.505456],[54.409265,24.505495],[54.409148,24.505532],[54.40905,24.505601],[54.408981,24.505693],[54.408947,24.505801],[54.408957,24.505929],[54.407244,24.506239],[54.407028,24.506464],[54.407272,24.50665],[54.405529,24.506966],[54.404898,24.508066],[54.404993,24.508131],[54.407532,24.507673],[54.408037,24.506764],[54.40803,24.506684]]]}},{"type":"Feature","properties":{},"geometry":{"type":"Polygon","coordinates":[[[54.407525,24.508859],[54.40755,24.50889],[54.407767,24.508851],[54.407828,24.508804],[54.407861,24.508798],[54.407973,24.508683],[54.407813,24.508526],[54.408117,24.508471],[54.408229,24.508356],[54.408008,24.508138],[54.408386,24.508069],[54.408497,24.507955],[54.408107,24.50757],[54.406367,24.507886],[54.406249,24.507993],[54.406476,24.508218],[54.406098,24.508287],[54.40598,24.508394],[54.406147,24.508559],[54.405842,24.508615],[54.405724,24.508722],[54.406121,24.509114],[54.406266,24.509087],[54.406344,24.509146],[54.406561,24.509106],[54.406602,24.509061],[54.406565,24.509033],[54.407525,24.508859]]]}},{"type":"Feature","properties":{},"geometry":{"type":"Polygon","coordinates":[[[54.40706,24.509435],[54.407144,24.509513],[54.406811,24.509574],[54.406652,24.509706],[54.407014,24.510038],[54.408755,24.509722],[54.40892,24.509606],[54.408849,24.509539],[54.409187,24.509478],[54.409321,24.509341],[54.409215,24.509242],[54.409524,24.509186],[54.40964,24.509067],[54.409278,24.508734],[54.407969,24.508972],[54.407926,24.50893],[54.407708,24.508969],[54.407656,24.509013],[54.40767,24.509026],[54.407538,24.50905],[54.407416,24.509159],[54.407507,24.509244],[54.40749,24.509247],[54.407387,24.509158],[54.407281,24.509177],[54.407321,24.50912],[54.407199,24.509055],[54.407001,24.509091],[54.406953,24.509059],[54.405231,24.509371],[54.405105,24.509539],[54.405253,24.509684],[54.40537,24.509663],[54.405418,24.509695],[54.407108,24.509388],[54.40706,24.509435]],[[54.407202,24.509299],[54.40719,24.509309],[54.407199,24.509297],[54.407202,24.509299]]]}},{"type":"Feature","properties":{},"geometry":{"type":"Polygon","coordinates":[[[54.410524,24.48008],[54.410741,24.480041],[54.41081,24.479974],[54.41066,24.479846],[54.410443,24.479885],[54.410374,24.479952],[54.410524,24.48008]]]}},{"type":"Feature","properties":{},"geometry":{"type":"Polygon","coordinates":[[[54.411163,24.481762],[54.411133,24.481736],[54.411193,24.481725],[54.411169,24.481758],[54.411214,24.481796],[54.41126,24.481788],[54.411321,24.481841],[54.411222,24.481936],[54.411307,24.482009],[54.411524,24.481969],[54.411702,24.481799],[54.411334,24.481481],[54.411116,24.48152],[54.410943,24.481686],[54.411014,24.481747],[54.410906,24.481767],[54.410876,24.481795],[54.410916,24.481829],[54.411133,24.48179],[54.411163,24.481762]]]}},{"type":"Feature","properties":{},"geometry":{"type":"Polygon","coordinates":[[[54.409312,24.483001],[54.409408,24.482998],[54.409625,24.482958],[54.409621,24.482844],[54.409524,24.482847],[54.409307,24.482887],[54.409312,24.483001]]]}},{"type":"Feature","properties":{},"geometry":{"type":"Polygon","coordinates":[[[54.408361,24.485107],[54.408438,24.485093],[54.408489,24.48516],[54.409649,24.484949],[54.409762,24.484866],[54.409645,24.484735],[54.409989,24.484672],[54.410198,24.484531],[54.409953,24.48423],[54.408793,24.48444],[54.408584,24.484581],[54.40869,24.484713],[54.408334,24.484777],[54.408129,24.484931],[54.408142,24.484996],[54.408361,24.485107]]]}},{"type":"Feature","properties":{},"geometry":{"type":"Polygon","coordinates":[[[54.409974,24.485189],[54.409673,24.485244],[54.409599,24.48533],[54.409423,24.4854],[54.409337,24.485483],[54.4093,24.485596],[54.409215,24.485612],[54.409259,24.485577],[54.409219,24.485534],[54.409001,24.485574],[54.408922,24.485635],[54.408963,24.485678],[54.409085,24.485656],[54.409022,24.485692],[54.409129,24.485845],[54.409308,24.485813],[54.409317,24.485856],[54.409397,24.485985],[54.409484,24.48606],[54.409624,24.486071],[54.410105,24.485982],[54.410504,24.486668],[54.410976,24.486583],[54.411335,24.486415],[54.410834,24.485534],[54.410873,24.485508],[54.410885,24.485435],[54.410875,24.485382],[54.410859,24.48536],[54.410721,24.485377],[54.410722,24.485357],[54.410991,24.485315],[54.4111,24.485257],[54.41105,24.485179],[54.411449,24.485019],[54.411275,24.4847],[54.410804,24.484786],[54.409974,24.485189]]]}},{"type":"Feature","properties":{},"geometry":{"type":"Polygon","coordinates":[[[54.407564,24.485445],[54.407378,24.485639],[54.407438,24.485686],[54.407459,24.485682],[54.407698,24.485879],[54.408858,24.485668],[54.40905,24.48547],[54.408988,24.485421],[54.408957,24.485426],[54.408725,24.485234],[54.407564,24.485445]]]}},{"type":"Feature","properties":{},"geometry":{"type":"Polygon","coordinates":[[[54.407823,24.485995],[54.407917,24.485892],[54.407869,24.485855],[54.407651,24.485895],[54.407557,24.485997],[54.407605,24.486034],[54.407823,24.485995]]]}},{"type":"Feature","properties":{},"geometry":{"type":"Polygon","coordinates":[[[54.409465,24.487325],[54.409247,24.487364],[54.408884,24.487647],[54.408334,24.48801],[54.408637,24.488493],[54.408854,24.488454],[54.409728,24.488018],[54.409577,24.487745],[54.40936,24.487784],[54.408808,24.488083],[54.409581,24.487651],[54.409465,24.487325]]]}},{"type":"Feature","properties":{},"geometry":{"type":"Polygon","coordinates":[[[54.410768,24.488317],[54.410551,24.488356],[54.410554,24.488392],[54.410422,24.488416],[54.410425,24.488446],[54.410138,24.488492],[54.410183,24.488928],[54.41065,24.488887],[54.410868,24.488848],[54.410858,24.488749],[54.411123,24.488705],[54.41108,24.48829],[54.410768,24.488317]]]}},{"type":"Feature","properties":{},"geometry":{"type":"Polygon","coordinates":[[[54.410622,24.489146],[54.410674,24.489615],[54.411044,24.489562],[54.410979,24.488985],[54.410422,24.489037],[54.410204,24.489076],[54.410216,24.489184],[54.410622,24.489146]]]}},{"type":"Feature","properties":{},"geometry":{"type":"Polygon","coordinates":[[[54.410256,24.489504],[54.410326,24.49009],[54.410885,24.490035],[54.411103,24.489995],[54.411087,24.489868],[54.410728,24.489903],[54.410726,24.489887],[54.410675,24.489892],[54.410622,24.48945],[54.410256,24.489504]]]}},{"type":"Feature","properties":{},"geometry":{"type":"Polygon","coordinates":[[[54.410416,24.490817],[54.410413,24.49103],[54.410699,24.491033],[54.410917,24.490994],[54.410924,24.490726],[54.410818,24.490726],[54.4106,24.490766],[54.410599,24.490784],[54.410416,24.490817]]]}},{"type":"Feature","properties":{},"geometry":{"type":"Polygon","coordinates":[[[54.409439,24.491232],[54.409486,24.491224],[54.409489,24.491116],[54.409255,24.49111],[54.409037,24.491149],[54.409037,24.491166],[54.408959,24.49118],[54.408947,24.491294],[54.409008,24.491296],[54.409007,24.491323],[54.409219,24.491329],[54.409437,24.491289],[54.409439,24.491232]]]}},{"type":"Feature","properties":{},"geometry":{"type":"Polygon","coordinates":[[[54.411047,24.491272],[54.410675,24.491259],[54.410457,24.491298],[54.410444,24.491622],[54.410816,24.491635],[54.411034,24.491596],[54.411047,24.491272]]]}},{"type":"Feature","properties":{},"geometry":{"type":"Polygon","coordinates":[[[54.408002,24.497236],[54.407959,24.497276],[54.408051,24.497341],[54.408096,24.497352],[54.408313,24.497312],[54.408368,24.49728],[54.408323,24.497227],[54.408219,24.497196],[54.408002,24.497236]]]}},{"type":"Feature","properties":{},"geometry":{"type":"Polygon","coordinates":[[[54.40899,24.49793],[54.408992,24.498391],[54.410507,24.49812],[54.410539,24.497743],[54.410289,24.497659],[54.409165,24.497863],[54.40899,24.49793]]]}},{"type":"Feature","properties":{},"geometry":{"type":"Polygon","coordinates":[[[54.409349,24.50004],[54.4093,24.500253],[54.409341,24.500381],[54.409433,24.500448],[54.409613,24.500479],[54.409746,24.500476],[54.409963,24.500437],[54.410088,24.500373],[54.410143,24.500257],[54.410193,24.499701],[54.410229,24.499471],[54.410195,24.4994],[54.410117,24.49934],[54.409944,24.499327],[54.41002,24.49905],[54.410073,24.498653],[54.409631,24.498622],[54.409134,24.498713],[54.409142,24.498571],[54.40907,24.49856],[54.408852,24.4986],[54.408836,24.49866],[54.408874,24.498774],[54.408994,24.498764],[54.409005,24.499092],[54.408919,24.499457],[54.409276,24.499552],[54.409515,24.499508],[54.409349,24.50004]]]}},{"type":"Feature","properties":{},"geometry":{"type":"Polygon","coordinates":[[[54.408085,24.500876],[54.408054,24.500908],[54.408053,24.500954],[54.408025,24.501013],[54.408063,24.501044],[54.408281,24.501005],[54.408332,24.500932],[54.408364,24.500847],[54.408302,24.500836],[54.408085,24.500876]]]}},{"type":"Feature","properties":{},"geometry":{"type":"Polygon","coordinates":[[[54.409762,24.501811],[54.409802,24.501707],[54.409828,24.50156],[54.409822,24.501391],[54.408941,24.501432],[54.408723,24.501471],[54.408679,24.501799],[54.408752,24.50195],[54.409021,24.501962],[54.409339,24.501953],[54.409556,24.501913],[54.409648,24.501883],[54.409762,24.501811]]]}},{"type":"Feature","properties":{},"geometry":{"type":"Polygon","coordinates":[[[54.408114,24.502577],[54.408332,24.502537],[54.408513,24.50206],[54.40864,24.501818],[54.408242,24.501701],[54.408025,24.50174],[54.407755,24.502279],[54.407586,24.50231],[54.407515,24.502391],[54.407507,24.502438],[54.407551,24.502448],[54.407728,24.502416],[54.408114,24.502577]]]}},{"type":"Feature","properties":{},"geometry":{"type":"Polygon","coordinates":[[[54.407345,24.502871],[54.40731,24.502913],[54.40724,24.502926],[54.407116,24.503077],[54.407179,24.503113],[54.407396,24.503073],[54.407524,24.50296],[54.407553,24.502954],[54.407621,24.502846],[54.407562,24.502831],[54.407345,24.502871]]]}},{"type":"Feature","properties":{},"geometry":{"type":"Polygon","coordinates":[[[54.407352,24.503641],[54.407254,24.503609],[54.407036,24.503648],[54.406985,24.503805],[54.407074,24.503829],[54.407291,24.503789],[54.407352,24.503641]]]}},{"type":"Feature","properties":{},"geometry":{"type":"Polygon","coordinates":[[[54.40825,24.505803],[54.408246,24.505702],[54.408084,24.505685],[54.407866,24.505725],[54.407868,24.505818],[54.408033,24.505842],[54.40825,24.505803]]]}},{"type":"Feature","properties":{},"geometry":{"type":"Polygon","coordinates":[[[54.409481,24.507344],[54.409287,24.507513],[54.409648,24.507874],[54.409865,24.507835],[54.409927,24.507793],[54.40991,24.507517],[54.409699,24.507305],[54.409481,24.507344]]]}},{"type":"Feature","properties":{},"geometry":{"type":"Polygon","coordinates":[[[54.410531,24.50775],[54.410463,24.507762],[54.410421,24.50768],[54.41034,24.507681],[54.40999,24.507756],[54.409856,24.507859],[54.409825,24.507938],[54.409854,24.50798],[54.409927,24.508019],[54.41011,24.507998],[54.410327,24.507959],[54.410549,24.507816],[54.410531,24.50775]]]}},{"type":"Feature","properties":{},"geometry":{"type":"Polygon","coordinates":[[[54.408877,24.507857],[54.40888,24.507915],[54.408846,24.507921],[54.408851,24.508027],[54.409108,24.507986],[54.409107,24.50796],[54.409136,24.507954],[54.409143,24.507816],[54.408877,24.507857]]]}},{"type":"Feature","properties":{},"geometry":{"type":"Polygon","coordinates":[[[54.409538,24.508119],[54.409495,24.508076],[54.409278,24.508116],[54.409189,24.50819],[54.409231,24.508233],[54.409449,24.508193],[54.409538,24.508119]]]}},{"type":"Feature","properties":{},"geometry":{"type":"Polygon","coordinates":[[[54.409275,24.508671],[54.409335,24.508635],[54.409321,24.508616],[54.409376,24.508606],[54.409552,24.508503],[54.40949,24.508417],[54.409424,24.508429],[54.409375,24.50836],[54.409158,24.5084],[54.409014,24.508484],[54.409061,24.50855],[54.408987,24.508608],[54.409005,24.508634],[54.408969,24.508655],[54.409,24.508698],[54.409042,24.50869],[54.409057,24.508711],[54.409275,24.508671]]]}},{"type":"Feature","properties":{},"geometry":{"type":"Polygon","coordinates":[[[54.410408,24.509955],[54.410223,24.509786],[54.410005,24.509826],[54.409662,24.510138],[54.409847,24.510306],[54.410064,24.510267],[54.410408,24.509955]]]}},{"type":"Feature","properties":{},"geometry":{"type":"Polygon","coordinates":[[[54.412956,24.481893],[54.412596,24.481702],[54.412378,24.481741],[54.412202,24.482016],[54.412563,24.482207],[54.41278,24.482168],[54.412956,24.481893]]]}},{"type":"Feature","properties":{},"geometry":{"type":"Polygon","coordinates":[[[54.411569,24.482118],[54.411647,24.482038],[54.411616,24.482013],[54.411398,24.482052],[54.41132,24.482132],[54.411351,24.482158],[54.411569,24.482118]]]}},{"type":"Feature","properties":{},"geometry":{"type":"Polygon","coordinates":[[[54.411365,24.485661],[54.411582,24.485621],[54.411686,24.48558],[54.411671,24.48555],[54.411454,24.485589],[54.41135,24.48563],[54.411365,24.485661]]]}},{"type":"Feature","properties":{},"geometry":{"type":"Polygon","coordinates":[[[54.411414,24.485776],[54.411688,24.485718],[54.41165,24.48562],[54.411375,24.485678],[54.411414,24.485776]]]}},{"type":"Feature","properties":{},"geometry":{"type":"Polygon","coordinates":[[[54.412962,24.487719],[54.412733,24.487678],[54.41246,24.487666],[54.412376,24.487681],[54.412375,24.487669],[54.411868,24.487782],[54.411582,24.487957],[54.411414,24.48813],[54.411571,24.488241],[54.411789,24.488202],[54.411843,24.488157],[54.412028,24.488474],[54.411972,24.488633],[54.411432,24.488466],[54.411214,24.488505],[54.411171,24.4886],[54.411356,24.488668],[54.41132,24.488843],[54.411174,24.48887],[54.411147,24.488931],[54.411198,24.488999],[54.411309,24.488996],[54.411433,24.489161],[54.411262,24.489253],[54.411314,24.489336],[54.411532,24.489296],[54.412048,24.48901],[54.412063,24.489038],[54.411491,24.489354],[54.411585,24.489507],[54.411656,24.489494],[54.411713,24.489593],[54.411972,24.489642],[54.411955,24.489719],[54.41212,24.489755],[54.412338,24.489716],[54.412496,24.489115],[54.412803,24.48968],[54.41302,24.489641],[54.413173,24.489561],[54.41314,24.48951],[54.413353,24.489415],[54.413394,24.489324],[54.413479,24.489308],[54.413522,24.489133],[54.412918,24.488932],[54.413706,24.488809],[54.413662,24.488516],[54.413078,24.488586],[54.413035,24.488548],[54.412855,24.488581],[54.412813,24.488545],[54.41289,24.488506],[54.412776,24.488358],[54.412877,24.488044],[54.412969,24.488101],[54.413186,24.488061],[54.413321,24.487914],[54.413022,24.48775],[54.413256,24.487706],[54.413524,24.4877],[54.413742,24.48766],[54.413738,24.487582],[54.413706,24.487583],[54.413702,24.487494],[54.413734,24.487489],[54.413731,24.487415],[54.413506,24.487423],[54.413617,24.487403],[54.413606,24.487156],[54.413501,24.48716],[54.413107,24.487233],[54.413184,24.487452],[54.413354,24.487445],[54.413245,24.487464],[54.413247,24.487505],[54.412959,24.487562],[54.413012,24.487745],[54.412962,24.487719]],[[54.412477,24.487914],[54.412388,24.488282],[54.412198,24.487944],[54.412477,24.487914]],[[54.412063,24.489323],[54.412044,24.489415],[54.411967,24.489312],[54.412063,24.489323]],[[54.41305,24.489203],[54.413063,24.489207],[54.413053,24.489235],[54.41305,24.489203]]]}},{"type":"Feature","properties":{},"geometry":{"type":"Polygon","coordinates":[[[54.415615,24.487729],[54.415674,24.487726],[54.415892,24.487686],[54.415889,24.487642],[54.415613,24.487685],[54.415615,24.487729]]]}},{"type":"Feature","properties":{},"geometry":{"type":"Polygon","coordinates":[[[54.413522,24.487954],[54.41359,24.487952],[54.413808,24.487912],[54.413805,24.487851],[54.413519,24.487893],[54.413522,24.487954]]]}},{"type":"Feature","properties":{},"geometry":{"type":"Polygon","coordinates":[[[54.41537,24.488213],[54.415587,24.488173],[54.415587,24.487961],[54.415702,24.487946],[54.415703,24.48797],[54.415751,24.487968],[54.415969,24.487929],[54.415964,24.487777],[54.415997,24.487771],[54.415996,24.487795],[54.416088,24.487798],[54.415997,24.487814],[54.416006,24.487944],[54.416135,24.487937],[54.416008,24.487961],[54.41601,24.488017],[54.416245,24.48801],[54.416463,24.487971],[54.416461,24.487915],[54.416331,24.487918],[54.41648,24.487891],[54.416472,24.487761],[54.416238,24.487774],[54.41632,24.487759],[54.416321,24.48773],[54.416215,24.487726],[54.416103,24.487746],[54.416104,24.487708],[54.416072,24.487707],[54.415836,24.487732],[54.41534,24.487732],[54.415123,24.487771],[54.415123,24.487815],[54.415187,24.487815],[54.415187,24.488195],[54.415057,24.488192],[54.414839,24.488231],[54.414836,24.488326],[54.414968,24.48833],[54.415186,24.488291],[54.415189,24.488213],[54.41537,24.488213]]]}},{"type":"Feature","properties":{},"geometry":{"type":"Polygon","coordinates":[[[54.415602,24.488366],[54.415602,24.488387],[54.415696,24.488385],[54.415914,24.488346],[54.415913,24.488297],[54.415819,24.488298],[54.415653,24.488328],[54.415653,24.488315],[54.415932,24.488272],[54.415928,24.488161],[54.415648,24.488202],[54.41565,24.488264],[54.415318,24.488314],[54.415319,24.488397],[54.415436,24.488396],[54.415602,24.488366]]]}},{"type":"Feature","properties":{},"geometry":{"type":"Polygon","coordinates":[[[54.414856,24.488478],[54.414979,24.488475],[54.415197,24.488435],[54.415193,24.488316],[54.41507,24.488319],[54.414852,24.488358],[54.414856,24.488478]]]}},{"type":"Feature","properties":{},"geometry":{"type":"Polygon","coordinates":[[[54.41565,24.488399],[54.41563,24.488398],[54.415412,24.488438],[54.415411,24.488484],[54.415649,24.488445],[54.41565,24.488399]]]}},{"type":"Feature","properties":{},"geometry":{"type":"Polygon","coordinates":[[[54.415465,24.488693],[54.415545,24.48869],[54.415763,24.488651],[54.415761,24.488602],[54.415463,24.488644],[54.415465,24.488693]]]}},{"type":"Feature","properties":{},"geometry":{"type":"Polygon","coordinates":[[[54.415624,24.489052],[54.4159,24.489012],[54.415896,24.488811],[54.41562,24.488852],[54.415624,24.489052]]]}},{"type":"Feature","properties":{},"geometry":{"type":"Polygon","coordinates":[[[54.411102,24.489696],[54.411053,24.4897],[54.410835,24.489739],[54.410839,24.489782],[54.411105,24.489739],[54.411102,24.489696]]]}},{"type":"Feature","properties":{},"geometry":{"type":"Polygon","coordinates":[[[54.412432,24.490011],[54.41272,24.489968],[54.412715,24.489905],[54.412428,24.489949],[54.412432,24.490011]]]}},{"type":"Feature","properties":{},"geometry":{"type":"Polygon","coordinates":[[[54.411051,24.490713],[54.411147,24.490714],[54.411365,24.490675],[54.411366,24.490622],[54.411269,24.490621],[54.411052,24.490661],[54.411051,24.490713]]]}},{"type":"Feature","properties":{},"geometry":{"type":"Polygon","coordinates":[[[54.41144,24.49091],[54.411439,24.490853],[54.411417,24.490853],[54.411442,24.490849],[54.411442,24.490756],[54.411372,24.490756],[54.411155,24.490795],[54.411155,24.490888],[54.411177,24.490888],[54.411147,24.490894],[54.411148,24.490951],[54.41144,24.49091]]]}},{"type":"Feature","properties":{},"geometry":{"type":"Polygon","coordinates":[[[54.413628,24.490774],[54.413631,24.490606],[54.413141,24.4906],[54.412924,24.490639],[54.412916,24.491132],[54.413395,24.491138],[54.413613,24.491099],[54.413615,24.490935],[54.413331,24.490932],[54.413332,24.490813],[54.413411,24.490814],[54.413628,24.490774]]]}},{"type":"Feature","properties":{},"geometry":{"type":"Polygon","coordinates":[[[54.413092,24.491147],[54.413047,24.491146],[54.412829,24.491185],[54.412828,24.491224],[54.413091,24.491186],[54.413092,24.491147]]]}},{"type":"Feature","properties":{},"geometry":{"type":"Polygon","coordinates":[[[54.412402,24.491689],[54.412403,24.49166],[54.412326,24.491658],[54.412108,24.491697],[54.412148,24.491183],[54.411652,24.491151],[54.411435,24.491191],[54.41142,24.491386],[54.411185,24.491424],[54.411181,24.491501],[54.411413,24.491467],[54.411364,24.492099],[54.41186,24.492132],[54.412077,24.492092],[54.412108,24.491698],[54.412107,24.491726],[54.412185,24.491729],[54.412402,24.491689]]]}},{"type":"Feature","properties":{},"geometry":{"type":"Polygon","coordinates":[[[54.411923,24.492344],[54.411926,24.492256],[54.411799,24.492253],[54.411581,24.492292],[54.411578,24.49238],[54.411706,24.492383],[54.411923,24.492344]]]}},{"type":"Feature","properties":{},"geometry":{"type":"Polygon","coordinates":[[[54.41532,24.496874],[54.415228,24.49682],[54.41501,24.49686],[54.4149,24.497017],[54.414992,24.497071],[54.415209,24.497032],[54.41532,24.496874]]]}},{"type":"Feature","properties":{},"geometry":{"type":"Polygon","coordinates":[[[54.41216,24.498863],[54.412343,24.498633],[54.412237,24.498014],[54.412259,24.498005],[54.412027,24.497461],[54.411713,24.497346],[54.411496,24.497386],[54.411403,24.497422],[54.411699,24.498182],[54.411825,24.498912],[54.41216,24.498863]]]}},{"type":"Feature","properties":{},"geometry":{"type":"Polygon","coordinates":[[[54.410624,24.497708],[54.41061,24.498871],[54.410748,24.499018],[54.410993,24.499029],[54.41121,24.498989],[54.411203,24.497476],[54.410798,24.49756],[54.410624,24.497708]]]}},{"type":"Feature","properties":{},"geometry":{"type":"Polygon","coordinates":[[[54.412629,24.502656],[54.412874,24.50282],[54.412944,24.502892],[54.413013,24.502973],[54.413098,24.503119],[54.413714,24.503],[54.413834,24.50271],[54.413923,24.502229],[54.413443,24.501934],[54.413284,24.501783],[54.413199,24.50167],[54.413118,24.501526],[54.41307,24.501387],[54.412526,24.501374],[54.412201,24.501433],[54.412205,24.50127],[54.412173,24.501268],[54.412175,24.501227],[54.412069,24.501224],[54.410437,24.50152],[54.410437,24.501584],[54.410335,24.501603],[54.410333,24.501852],[54.410433,24.501853],[54.411999,24.501569],[54.412018,24.501673],[54.412137,24.50199],[54.412222,24.502147],[54.412374,24.502354],[54.412629,24.502656]]]}},{"type":"Feature","properties":{},"geometry":{"type":"Polygon","coordinates":[[[54.411165,24.502205],[54.410947,24.502245],[54.410913,24.502838],[54.411356,24.502864],[54.411574,24.502825],[54.411573,24.502796],[54.411649,24.502947],[54.411866,24.502907],[54.411951,24.502872],[54.411912,24.502794],[54.412072,24.502765],[54.412175,24.502708],[54.412014,24.502469],[54.411796,24.502509],[54.411728,24.502546],[54.411729,24.502511],[54.411888,24.502483],[54.411959,24.50241],[54.411746,24.502236],[54.411529,24.502276],[54.411457,24.502349],[54.411645,24.502501],[54.411463,24.502535],[54.41146,24.502643],[54.411441,24.502639],[54.411372,24.502588],[54.411367,24.502209],[54.411165,24.502205]],[[54.411573,24.502795],[54.411571,24.502663],[54.411529,24.502655],[54.411727,24.502615],[54.411806,24.502733],[54.411657,24.50276],[54.411573,24.502795]]]}},{"type":"Feature","properties":{},"geometry":{"type":"Polygon","coordinates":[[[54.409909,24.503972],[54.411631,24.503659],[54.411775,24.503551],[54.411443,24.503184],[54.40972,24.503497],[54.409576,24.503605],[54.409909,24.503972]]]}},{"type":"Feature","properties":{},"geometry":{"type":"Polygon","coordinates":[[[54.411887,24.504231],[54.412144,24.503938],[54.412395,24.503892],[54.412427,24.503734],[54.411955,24.503656],[54.411847,24.503675],[54.411797,24.503633],[54.409259,24.504094],[54.409054,24.504354],[54.409349,24.504692],[54.411887,24.504231]]]}},{"type":"Feature","properties":{},"geometry":{"type":"Polygon","coordinates":[[[54.414331,24.504524],[54.415739,24.504268],[54.415811,24.504331],[54.416554,24.504196],[54.416732,24.504047],[54.416472,24.50382],[54.416226,24.503865],[54.416113,24.503772],[54.414826,24.504005],[54.414683,24.504146],[54.414312,24.504214],[54.414153,24.504371],[54.414331,24.504524]]]}},{"type":"Feature","properties":{},"geometry":{"type":"Polygon","coordinates":[[[54.41469,24.504979],[54.415164,24.504893],[54.415073,24.504983],[54.415251,24.505136],[54.415291,24.505129],[54.415313,24.505155],[54.415531,24.505116],[54.41559,24.505074],[54.416266,24.504952],[54.416443,24.504803],[54.416302,24.504686],[54.416517,24.504647],[54.416695,24.504499],[54.416498,24.504337],[54.414671,24.504668],[54.414513,24.504826],[54.41469,24.504979]]]}},{"type":"Feature","properties":{},"geometry":{"type":"Polygon","coordinates":[[[54.410991,24.506753],[54.411015,24.506688],[54.41095,24.506668],[54.410965,24.506575],[54.410895,24.506536],[54.410763,24.5065],[54.410589,24.506521],[54.410371,24.50656],[54.410298,24.506611],[54.410298,24.506661],[54.410335,24.50673],[54.410383,24.506739],[54.410502,24.506803],[54.410773,24.506792],[54.410991,24.506753]]]}},{"type":"Feature","properties":{},"geometry":{"type":"Polygon","coordinates":[[[54.411228,24.507149],[54.411261,24.506904],[54.411195,24.506872],[54.410847,24.506938],[54.410793,24.506994],[54.410732,24.507106],[54.410726,24.507266],[54.410769,24.50734],[54.410823,24.507348],[54.411041,24.507309],[54.411121,24.507287],[54.41114,24.507245],[54.411228,24.507149]]]}},{"type":"Feature","properties":{},"geometry":{"type":"Polygon","coordinates":[[[54.41103,24.508557],[54.410813,24.508596],[54.410809,24.508696],[54.411097,24.508706],[54.411315,24.508666],[54.411318,24.508569],[54.41103,24.508557]]]}},{"type":"Feature","properties":{},"geometry":{"type":"Polygon","coordinates":[[[54.411248,24.508984],[54.411242,24.509126],[54.411123,24.509147],[54.411122,24.509219],[54.411238,24.509208],[54.411234,24.509309],[54.411307,24.509308],[54.411307,24.509336],[54.411477,24.50934],[54.411558,24.509325],[54.411557,24.509396],[54.410941,24.50941],[54.410723,24.509449],[54.410727,24.509544],[54.411448,24.509523],[54.411891,24.509442],[54.411895,24.509225],[54.411777,24.509223],[54.411696,24.509238],[54.411698,24.509166],[54.411912,24.509127],[54.41192,24.508919],[54.411797,24.508914],[54.411639,24.508943],[54.411465,24.508945],[54.411248,24.508984]]]}},{"type":"Feature","properties":{},"geometry":{"type":"Polygon","coordinates":[[[54.4107,24.509161],[54.41098,24.50912],[54.410977,24.509024],[54.410698,24.509064],[54.4107,24.509161]]]}},{"type":"Feature","properties":{},"geometry":{"type":"Polygon","coordinates":[[[54.411333,24.509838],[54.411551,24.509798],[54.411649,24.509758],[54.411572,24.509602],[54.411355,24.509641],[54.411256,24.509681],[54.411333,24.509838]]]}},{"type":"Feature","properties":{},"geometry":{"type":"Polygon","coordinates":[[[54.418791,24.481859],[54.418746,24.481861],[54.418529,24.481901],[54.41853,24.481923],[54.418792,24.481881],[54.418791,24.481859]]]}},{"type":"Feature","properties":{},"geometry":{"type":"Polygon","coordinates":[[[54.41846,24.482285],[54.418442,24.482417],[54.418537,24.482428],[54.418434,24.482447],[54.418417,24.482581],[54.418743,24.482614],[54.418959,24.482574],[54.419127,24.482596],[54.419211,24.482581],[54.419338,24.482592],[54.418957,24.482661],[54.418933,24.482736],[54.418939,24.482673],[54.418613,24.482646],[54.418396,24.482685],[54.418382,24.482821],[54.418522,24.482832],[54.418366,24.482861],[54.418361,24.482982],[54.418686,24.482995],[54.418861,24.482963],[54.418857,24.482995],[54.419189,24.483025],[54.419407,24.482985],[54.419411,24.482947],[54.419551,24.482961],[54.419688,24.482936],[54.419682,24.482985],[54.419777,24.482995],[54.419673,24.483014],[54.41966,24.483134],[54.419984,24.483163],[54.420077,24.483146],[54.420075,24.483162],[54.420414,24.483194],[54.420514,24.483175],[54.420507,24.483251],[54.420826,24.483278],[54.421044,24.483238],[54.421056,24.48311],[54.420968,24.483103],[54.421053,24.483087],[54.42107,24.482967],[54.420761,24.48293],[54.420544,24.48297],[54.420542,24.482982],[54.420311,24.482961],[54.420221,24.482977],[54.420234,24.482846],[54.420298,24.482834],[54.420265,24.48292],[54.420354,24.482948],[54.420571,24.482909],[54.420591,24.482858],[54.420871,24.48289],[54.421089,24.482851],[54.421106,24.482729],[54.42097,24.482714],[54.421112,24.482688],[54.421134,24.482543],[54.420947,24.482522],[54.421144,24.482487],[54.421163,24.482365],[54.421029,24.482347],[54.421171,24.482322],[54.421185,24.482201],[54.420874,24.482172],[54.420686,24.482206],[54.420331,24.482172],[54.420425,24.482155],[54.420432,24.482107],[54.420661,24.48207],[54.420686,24.48198],[54.420595,24.48196],[54.420378,24.481999],[54.420373,24.482016],[54.420271,24.482003],[54.420372,24.481984],[54.42038,24.481925],[54.420597,24.481951],[54.420708,24.481931],[54.420707,24.481946],[54.420805,24.481951],[54.420697,24.48197],[54.420677,24.482093],[54.420987,24.482135],[54.421204,24.482096],[54.421224,24.481972],[54.421082,24.481953],[54.42125,24.481923],[54.421258,24.48179],[54.420933,24.481774],[54.420832,24.481792],[54.420838,24.481748],[54.420501,24.481708],[54.420418,24.481723],[54.42042,24.481681],[54.420287,24.481666],[54.42007,24.481706],[54.420064,24.481769],[54.4202,24.481772],[54.420282,24.481757],[54.42027,24.481837],[54.420068,24.481817],[54.419851,24.481856],[54.419841,24.481992],[54.419829,24.481994],[54.419836,24.481946],[54.419511,24.481908],[54.419294,24.481947],[54.419285,24.482009],[54.419102,24.481989],[54.419044,24.482],[54.419054,24.481952],[54.419018,24.481945],[54.418801,24.481985],[54.418785,24.482054],[54.418712,24.482045],[54.418494,24.482084],[54.418475,24.482211],[54.418798,24.482252],[54.419015,24.482212],[54.419028,24.482125],[54.419196,24.482143],[54.419253,24.482133],[54.419228,24.482308],[54.419398,24.482328],[54.41906,24.482291],[54.418998,24.482302],[54.419001,24.482283],[54.418678,24.482245],[54.41846,24.482285]],[[54.419172,24.482747],[54.41936,24.482774],[54.419245,24.482795],[54.419241,24.482826],[54.419067,24.482817],[54.419069,24.482778],[54.418928,24.482783],[54.418931,24.482748],[54.419026,24.482773],[54.419172,24.482747]],[[54.419871,24.482255],[54.419855,24.482394],[54.420191,24.482427],[54.420242,24.482418],[54.420239,24.48244],[54.420561,24.482479],[54.420619,24.482468],[54.420616,24.482487],[54.420809,24.482511],[54.420761,24.48252],[54.420762,24.482506],[54.420441,24.482477],[54.42039,24.482486],[54.420394,24.48246],[54.420057,24.482426],[54.41984,24.482465],[54.419816,24.482661],[54.41994,24.482673],[54.419802,24.482698],[54.419782,24.48283],[54.419799,24.482832],[54.419779,24.482836],[54.419785,24.482789],[54.419605,24.48277],[54.419711,24.482751],[54.419731,24.48262],[54.419574,24.4826],[54.419743,24.482569],[54.419745,24.482545],[54.419815,24.482532],[54.419843,24.48226],[54.419871,24.482255]],[[54.418832,24.48206],[54.418881,24.482051],[54.418879,24.482066],[54.418832,24.48206]],[[54.419904,24.482161],[54.419922,24.482158],[54.419996,24.482168],[54.419904,24.482161]],[[54.420332,24.482753],[54.420514,24.482771],[54.420574,24.48276],[54.420568,24.482806],[54.420517,24.482791],[54.420321,24.482826],[54.420332,24.482753]]]}},{"type":"Feature","properties":{},"geometry":{"type":"Polygon","coordinates":[[[54.417239,24.487769],[54.417325,24.487769],[54.417542,24.487729],[54.417542,24.487684],[54.417456,24.487685],[54.417238,24.487724],[54.417239,24.487769]]]}},{"type":"Feature","properties":{},"geometry":{"type":"Polygon","coordinates":[[[54.416234,24.488336],[54.416146,24.488352],[54.41615,24.488389],[54.416234,24.488377],[54.416232,24.488489],[54.416527,24.488493],[54.41665,24.488471],[54.416694,24.488479],[54.416911,24.48844],[54.416914,24.488396],[54.416745,24.488417],[54.416745,24.488404],[54.416941,24.488368],[54.416942,24.488329],[54.416695,24.488368],[54.416695,24.48838],[54.416566,24.488378],[54.416566,24.488355],[54.416966,24.488265],[54.416966,24.488209],[54.416924,24.488209],[54.416968,24.488201],[54.416964,24.488108],[54.416821,24.488108],[54.416886,24.488094],[54.416883,24.488003],[54.416812,24.488008],[54.416812,24.487994],[54.416884,24.487981],[54.416883,24.487932],[54.41666,24.487935],[54.416443,24.487975],[54.416442,24.488005],[54.416335,24.488024],[54.416348,24.488256],[54.416236,24.488277],[54.416234,24.488336]]]}},{"type":"Feature","properties":{},"geometry":{"type":"Polygon","coordinates":[[[54.416282,24.488984],[54.416474,24.488949],[54.41647,24.488841],[54.416278,24.488872],[54.416276,24.4888],[54.415999,24.488841],[54.416006,24.489041],[54.416283,24.489],[54.416282,24.488984]]]}},{"type":"Feature","properties":{},"geometry":{"type":"Polygon","coordinates":[[[54.416094,24.489099],[54.416091,24.489055],[54.415937,24.489066],[54.415719,24.489105],[54.415722,24.489146],[54.416094,24.489099]]]}},{"type":"Feature","properties":{},"geometry":{"type":"Polygon","coordinates":[[[54.416052,24.489131],[54.416002,24.48913],[54.415784,24.489169],[54.415782,24.48925],[54.41605,24.489212],[54.416052,24.489131]]]}},{"type":"Feature","properties":{},"geometry":{"type":"Polygon","coordinates":[[[54.415416,24.489523],[54.415421,24.489677],[54.416292,24.489655],[54.416509,24.489616],[54.416507,24.489546],[54.416487,24.489547],[54.416484,24.489462],[54.415634,24.489484],[54.415416,24.489523]]]}},{"type":"Feature","properties":{},"geometry":{"type":"Polygon","coordinates":[[[54.417059,24.501949],[54.417254,24.502089],[54.417471,24.50205],[54.417688,24.501846],[54.417457,24.501646],[54.41724,24.501685],[54.417163,24.501757],[54.41722,24.501818],[54.417181,24.501902],[54.417059,24.501949]]]}},{"type":"Feature","properties":{},"geometry":{"type":"Polygon","coordinates":[[[54.416976,24.501925],[54.416975,24.501906],[54.417082,24.501883],[54.417067,24.501836],[54.416572,24.501928],[54.416574,24.501975],[54.416976,24.501925]]]}},{"type":"Feature","properties":{},"geometry":{"type":"Polygon","coordinates":[[[54.417577,24.502387],[54.417795,24.502348],[54.417837,24.50232],[54.417807,24.502283],[54.41759,24.502323],[54.417548,24.502351],[54.417577,24.502387]]]}},{"type":"Feature","properties":{},"geometry":{"type":"Polygon","coordinates":[[[54.418149,24.502449],[54.418103,24.502413],[54.417885,24.502453],[54.417861,24.502478],[54.417908,24.502514],[54.418125,24.502475],[54.418149,24.502449]]]}},{"type":"Feature","properties":{},"geometry":{"type":"Polygon","coordinates":[[[54.415744,24.502379],[54.415718,24.502378],[54.415501,24.502417],[54.415496,24.502476],[54.415739,24.502438],[54.415744,24.502379]]]}},{"type":"Feature","properties":{},"geometry":{"type":"Polygon","coordinates":[[[54.417722,24.502402],[54.417638,24.502402],[54.417421,24.502442],[54.417421,24.502556],[54.4175,24.502562],[54.417718,24.502523],[54.417722,24.502402]]]}},{"type":"Feature","properties":{},"geometry":{"type":"Polygon","coordinates":[[[54.417213,24.502588],[54.41711,24.50259],[54.416892,24.50263],[54.416893,24.502654],[54.416996,24.502652],[54.417213,24.502613],[54.417213,24.502588]]]}},{"type":"Feature","properties":{},"geometry":{"type":"Polygon","coordinates":[[[54.415395,24.502682],[54.415466,24.502682],[54.415683,24.502643],[54.415683,24.502604],[54.415648,24.502604],[54.415687,24.502597],[54.415685,24.502564],[54.41539,24.502607],[54.415392,24.50264],[54.415419,24.502639],[54.415395,24.502643],[54.415395,24.502682]]]}},{"type":"Feature","properties":{},"geometry":{"type":"Polygon","coordinates":[[[54.417517,24.502683],[54.417517,24.502673],[54.417271,24.502682],[54.417272,24.502668],[54.417162,24.502663],[54.416945,24.502702],[54.416942,24.502762],[54.417059,24.502766],[54.41706,24.502794],[54.417302,24.502785],[54.417625,24.502731],[54.41762,24.502671],[54.417517,24.502683]]]}},{"type":"Feature","properties":{},"geometry":{"type":"Polygon","coordinates":[[[54.415688,24.502799],[54.415439,24.50285],[54.415447,24.502901],[54.415702,24.502857],[54.415811,24.502861],[54.416029,24.502822],[54.416032,24.502744],[54.415907,24.502739],[54.415834,24.502752],[54.415782,24.50274],[54.415678,24.502759],[54.415676,24.502739],[54.415396,24.502784],[54.415403,24.502838],[54.415688,24.502799]]]}},{"type":"Feature","properties":{},"geometry":{"type":"Polygon","coordinates":[[[54.417372,24.503102],[54.41759,24.503063],[54.417591,24.50302],[54.417484,24.503016],[54.417267,24.503056],[54.417265,24.503098],[54.417372,24.503102]]]}},{"type":"Feature","properties":{},"geometry":{"type":"Polygon","coordinates":[[[54.417744,24.503099],[54.417682,24.503097],[54.417465,24.503137],[54.417461,24.503227],[54.417605,24.503229],[54.417822,24.50319],[54.417821,24.503129],[54.417742,24.503135],[54.417744,24.503099]]]}},{"type":"Feature","properties":{},"geometry":{"type":"Polygon","coordinates":[[[54.415944,24.503437],[54.415946,24.503382],[54.415852,24.503379],[54.415635,24.503418],[54.415632,24.503473],[54.415726,24.503477],[54.415944,24.503437]]]}},{"type":"Feature","properties":{},"geometry":{"type":"Polygon","coordinates":[[[54.415813,24.503642],[54.416073,24.503601],[54.41607,24.503518],[54.415809,24.503559],[54.415813,24.503642]]]}},{"type":"Feature","properties":{},"geometry":{"type":"Polygon","coordinates":[[[54.417915,24.50353],[54.417664,24.503569],[54.417657,24.503786],[54.417908,24.503747],[54.417915,24.50353]]]}},{"type":"Feature","properties":{},"geometry":{"type":"Polygon","coordinates":[[[54.415445,24.504508],[54.415663,24.504469],[54.415708,24.504433],[54.415658,24.504382],[54.415441,24.504421],[54.415396,24.504457],[54.415445,24.504508]]]}},{"type":"Feature","properties":{},"geometry":{"type":"Polygon","coordinates":[[[54.419153,24.480032],[54.419156,24.480012],[54.419091,24.480003],[54.418873,24.480042],[54.418867,24.480078],[54.418943,24.480086],[54.418942,24.480131],[54.41898,24.480132],[54.419197,24.480092],[54.419199,24.480031],[54.419153,24.480032]]]}},{"type":"Feature","properties":{},"geometry":{"type":"Polygon","coordinates":[[[54.420874,24.480262],[54.420878,24.480197],[54.420787,24.480193],[54.420569,24.480232],[54.420562,24.480364],[54.420901,24.480388],[54.421119,24.480349],[54.421121,24.480302],[54.420912,24.480294],[54.420914,24.480263],[54.420874,24.480262]]]}},{"type":"Feature","properties":{},"geometry":{"type":"Polygon","coordinates":[[[54.420211,24.480789],[54.420147,24.480783],[54.419929,24.480822],[54.419923,24.480877],[54.419987,24.480883],[54.420204,24.480843],[54.420211,24.480789]]]}},{"type":"Feature","properties":{},"geometry":{"type":"Polygon","coordinates":[[[54.419965,24.48163],[54.419638,24.481592],[54.419537,24.48161],[54.41954,24.481591],[54.4192,24.481549],[54.419109,24.481566],[54.419116,24.481521],[54.418796,24.481485],[54.418579,24.481524],[54.41856,24.481659],[54.418658,24.48167],[54.418544,24.481691],[54.41855,24.481831],[54.41882,24.481809],[54.418813,24.48185],[54.418855,24.481855],[54.419072,24.481816],[54.419082,24.481757],[54.4193,24.481784],[54.419402,24.481765],[54.419728,24.481807],[54.419946,24.481767],[54.419965,24.48163]],[[54.418949,24.481748],[54.418947,24.481703],[54.418892,24.481705],[54.418892,24.481693],[54.418969,24.481679],[54.41896,24.481742],[54.418971,24.481744],[54.418949,24.481748]]]}},{"type":"Feature","properties":{},"geometry":{"type":"Polygon","coordinates":[[[54.419757,24.48922],[54.419547,24.489228],[54.41933,24.489268],[54.419331,24.489307],[54.419591,24.489292],[54.419592,24.48932],[54.419695,24.489319],[54.419913,24.489279],[54.419912,24.489226],[54.419758,24.489236],[54.419757,24.48922]]]}},{"type":"Feature","properties":{},"geometry":{"type":"Polygon","coordinates":[[[54.418994,24.489429],[54.419301,24.489386],[54.419294,24.489262],[54.418987,24.489305],[54.418994,24.489429]]]}},{"type":"Feature","properties":{},"geometry":{"type":"Polygon","coordinates":[[[54.419879,24.489341],[54.419774,24.489339],[54.419557,24.489378],[54.419554,24.489481],[54.419658,24.489483],[54.419876,24.489444],[54.419879,24.489341]]]}},{"type":"Feature","properties":{},"geometry":{"type":"Polygon","coordinates":[[[54.419166,24.489612],[54.41941,24.48957],[54.4194,24.489497],[54.419157,24.48954],[54.419166,24.489612]]]}},{"type":"Feature","properties":{},"geometry":{"type":"Polygon","coordinates":[[[54.419564,24.489821],[54.419685,24.489819],[54.419902,24.489779],[54.419901,24.489734],[54.41978,24.489737],[54.419563,24.489776],[54.419564,24.489821]]]}},{"type":"Feature","properties":{},"geometry":{"type":"Polygon","coordinates":[[[54.419386,24.490296],[54.419387,24.490305],[54.419438,24.490303],[54.419575,24.490278],[54.419579,24.490298],[54.419662,24.490293],[54.41988,24.490253],[54.419877,24.490133],[54.419651,24.490166],[54.41965,24.490142],[54.419599,24.490144],[54.419381,24.490183],[54.419384,24.49025],[54.419239,24.490277],[54.41924,24.490311],[54.419386,24.490296]]]}},{"type":"Feature","properties":{},"geometry":{"type":"Polygon","coordinates":[[[54.418218,24.502471],[54.418435,24.502432],[54.418637,24.502354],[54.418594,24.502261],[54.418376,24.5023],[54.418174,24.502378],[54.418218,24.502471]]]}}]}