{"type":"FeatureCollection","features":[{"type":"Feature","properties":{},"geometry":{"type":"Polygon","coordinates":[[[54.390697,24.482594],[54.390718,24.482472],[54.390519,24.482458],[54.390502,24.482581],[54.390697,24.482594]]]}},{"type":"Feature","properties":{},"geometry":{"type":"Polygon","coordinates":[[[54.391203,24.482824],[54.391194,24.48284],[54.391129,24.482838],[54.391089,24.482901],[54.391134,24.482924],[54.391195,24.482925],[54.391213,24.482896],[54.391345,24.482945],[54.391273,24.483069],[54.391056,24.482942],[54.390995,24.482941],[54.390936,24.483024],[54.391177,24.483167],[54.391215,24.483167],[54.391442,24.483282],[54.391503,24.483283],[54.39158,24.48316],[54.39149,24.483096],[54.39155,24.482996],[54.391667,24.483003],[54.391742,24.482883],[54.391509,24.482769],[54.391448,24.482769],[54.391436,24.48279],[54.391195,24.48268],[54.391137,24.48268],[54.391149,24.48266],[54.391062,24.48262],[54.391028,24.48262],[54.391035,24.482607],[54.390942,24.482565],[54.390881,24.482564],[54.390764,24.482771],[54.39085,24.482815],[54.390892,24.482816],[54.390885,24.482827],[54.390967,24.482866],[54.391028,24.482867],[54.391096,24.48275],[54.391195,24.482797],[54.391186,24.482815],[54.391203,24.482824]]]}},{"type":"Feature","properties":{},"geometry":{"type":"Polygon","coordinates":[[[54.390518,24.482654],[54.390457,24.482653],[54.3904,24.482734],[54.390649,24.482872],[54.39071,24.482873],[54.390765,24.482792],[54.390518,24.482654]]]}},{"type":"Feature","properties":{},"geometry":{"type":"Polygon","coordinates":[[[54.390062,24.482824],[54.389997,24.482755],[54.389936,24.482754],[54.389846,24.482824],[54.389911,24.482893],[54.389972,24.482894],[54.390062,24.482824]]]}},{"type":"Feature","properties":{},"geometry":{"type":"Polygon","coordinates":[[[54.392145,24.483217],[54.3922,24.483242],[54.392258,24.483243],[54.392221,24.483311],[54.392314,24.483354],[54.392375,24.483354],[54.392476,24.48318],[54.392379,24.483134],[54.392315,24.483138],[54.392259,24.483114],[54.392281,24.483077],[54.392174,24.483027],[54.392113,24.483026],[54.392107,24.483036],[54.392042,24.483006],[54.391981,24.483005],[54.39196,24.483042],[54.392056,24.483089],[54.392111,24.483089],[54.392198,24.483126],[54.392145,24.483217]]]}},{"type":"Feature","properties":{},"geometry":{"type":"Polygon","coordinates":[[[54.39155,24.483456],[54.391612,24.483457],[54.391627,24.483427],[54.391532,24.483387],[54.391471,24.483386],[54.391455,24.483416],[54.39155,24.483456]]]}},{"type":"Feature","properties":{},"geometry":{"type":"Polygon","coordinates":[[[54.391243,24.483684],[54.3913,24.483619],[54.391268,24.483593],[54.391324,24.483594],[54.391408,24.483498],[54.391224,24.483358],[54.391163,24.483357],[54.390953,24.483563],[54.391159,24.48371],[54.391182,24.48371],[54.391125,24.483759],[54.391263,24.483895],[54.391324,24.483896],[54.391411,24.48382],[54.391274,24.483685],[54.391243,24.483684]]]}},{"type":"Feature","properties":{},"geometry":{"type":"Polygon","coordinates":[[[54.390738,24.484562],[54.390799,24.484563],[54.39089,24.484485],[54.390771,24.484369],[54.39071,24.484368],[54.390618,24.484446],[54.390738,24.484562]]]}},{"type":"Feature","properties":{},"geometry":{"type":"Polygon","coordinates":[[[54.392311,24.488965],[54.392531,24.489052],[54.392638,24.489125],[54.392809,24.489318],[54.392886,24.489319],[54.393184,24.4892],[54.393195,24.489274],[54.393547,24.489239],[54.393557,24.489326],[54.394398,24.489338],[54.394585,24.489319],[54.394572,24.489206],[54.394664,24.489197],[54.394622,24.488843],[54.394519,24.488842],[54.394508,24.488755],[54.393667,24.488743],[54.393486,24.488761],[54.393498,24.488861],[54.393348,24.488876],[54.393353,24.48891],[54.393156,24.488936],[54.393098,24.488906],[54.393043,24.488846],[54.393017,24.488786],[54.39301,24.488722],[54.393024,24.488658],[54.393057,24.488601],[54.393106,24.488554],[54.393182,24.488518],[54.393708,24.488472],[54.393649,24.487917],[54.392796,24.487983],[54.392833,24.48834],[54.392598,24.488629],[54.392483,24.488575],[54.392314,24.488534],[54.392237,24.488533],[54.392222,24.488607],[54.392138,24.488604],[54.392048,24.488939],[54.392311,24.488965]]]}},{"type":"Feature","properties":{},"geometry":{"type":"Polygon","coordinates":[[[54.392303,24.490933],[54.392376,24.49087],[54.392427,24.49087],[54.392493,24.490996],[54.392923,24.490951],[54.393224,24.491129],[54.393301,24.49113],[54.393362,24.491049],[54.393423,24.491115],[54.393515,24.491169],[54.393621,24.491194],[54.393714,24.491193],[54.3934,24.491574],[54.393453,24.491719],[54.39371,24.491896],[54.39361,24.492022],[54.39363,24.492035],[54.393198,24.49203],[54.39302,24.492235],[54.393261,24.492408],[54.393351,24.492409],[54.393399,24.492444],[54.394184,24.492454],[54.394285,24.492338],[54.39419,24.492269],[54.394228,24.492226],[54.394583,24.492231],[54.394608,24.4922],[54.394752,24.492202],[54.394827,24.492108],[54.394752,24.492059],[54.394815,24.491978],[54.394669,24.491882],[54.395132,24.491889],[54.395234,24.491772],[54.395139,24.491703],[54.395182,24.491654],[54.394932,24.491475],[54.394235,24.491465],[54.394348,24.49133],[54.394453,24.491406],[54.394543,24.491407],[54.39459,24.491441],[54.395386,24.491452],[54.395487,24.491335],[54.395392,24.491267],[54.395435,24.491218],[54.395198,24.491047],[54.395424,24.49105],[54.395626,24.490818],[54.395387,24.490647],[54.394922,24.49064],[54.395053,24.490483],[54.394882,24.49037],[54.394614,24.490383],[54.394456,24.490408],[54.394311,24.490468],[54.394049,24.490787],[54.394011,24.490704],[54.393938,24.490627],[54.393842,24.490574],[54.393734,24.490551],[54.39384,24.490494],[54.393978,24.490318],[54.393938,24.490088],[54.394481,24.490096],[54.394669,24.490078],[54.394653,24.489933],[54.394745,24.489924],[54.394704,24.489573],[54.394602,24.489571],[54.394592,24.489484],[54.39375,24.489472],[54.393568,24.489489],[54.39358,24.489589],[54.39343,24.489604],[54.393454,24.489812],[54.393237,24.48969],[54.392918,24.489697],[54.392823,24.490085],[54.39278,24.490177],[54.392694,24.490281],[54.392653,24.49028],[54.392521,24.49036],[54.392273,24.490474],[54.392067,24.49051],[54.391931,24.49051],[54.391736,24.490465],[54.391659,24.490464],[54.391644,24.490501],[54.391658,24.490576],[54.391623,24.490599],[54.391575,24.490709],[54.391647,24.490778],[54.391866,24.490821],[54.392226,24.490932],[54.392303,24.490933]],[[54.393909,24.491856],[54.394025,24.491717],[54.3942,24.491842],[54.39429,24.491844],[54.394315,24.491862],[54.393909,24.491856]],[[54.394597,24.49103],[54.394644,24.490975],[54.394723,24.491032],[54.394597,24.49103]]]}},{"type":"Feature","properties":{},"geometry":{"type":"Polygon","coordinates":[[[54.392107,24.491163],[54.392148,24.491489],[54.392502,24.49146],[54.392488,24.491342],[54.392896,24.4913],[54.392869,24.491091],[54.392107,24.491163]]]}},{"type":"Feature","properties":{},"geometry":{"type":"Polygon","coordinates":[[[54.392963,24.492093],[54.39299,24.491892],[54.392934,24.491532],[54.392399,24.491592],[54.392485,24.492146],[54.392963,24.492093]]]}},{"type":"Feature","properties":{},"geometry":{"type":"Polygon","coordinates":[[[54.392165,24.492478],[54.392227,24.492863],[54.39287,24.492786],[54.392808,24.492401],[54.392165,24.492478]]]}},{"type":"Feature","properties":{},"geometry":{"type":"Polygon","coordinates":[[[54.390693,24.492868],[54.390587,24.492771],[54.390526,24.49277],[54.390338,24.492941],[54.390444,24.493038],[54.390505,24.493039],[54.390693,24.492868]]]}},{"type":"Feature","properties":{},"geometry":{"type":"Polygon","coordinates":[[[54.390121,24.493761],[54.38925,24.493853],[54.389299,24.494208],[54.39017,24.494115],[54.390121,24.493761]]]}},{"type":"Feature","properties":{},"geometry":{"type":"Polygon","coordinates":[[[54.39268,24.49608],[54.392741,24.49608],[54.392797,24.496038],[54.393656,24.495953],[54.393572,24.495316],[54.392614,24.495442],[54.39268,24.49608]]]}},{"type":"Feature","properties":{},"geometry":{"type":"Polygon","coordinates":[[[54.390643,24.496328],[54.39063,24.496099],[54.390598,24.496099],[54.390627,24.496096],[54.390576,24.495677],[54.390048,24.495729],[54.390052,24.495836],[54.39018,24.495835],[54.390203,24.496024],[54.390086,24.496032],[54.390095,24.496106],[54.390112,24.496107],[54.390144,24.496363],[54.390643,24.496328]],[[54.390453,24.496146],[54.390496,24.496146],[54.390503,24.49627],[54.39038,24.496271],[54.390376,24.496239],[54.390448,24.496231],[54.390434,24.496116],[54.390451,24.496114],[54.390453,24.496146]]]}},{"type":"Feature","properties":{},"geometry":{"type":"Polygon","coordinates":[[[54.391661,24.496974],[54.391361,24.496984],[54.39136,24.497018],[54.391663,24.497013],[54.391661,24.496974]]]}},{"type":"Feature","properties":{},"geometry":{"type":"Polygon","coordinates":[[[54.391662,24.49708],[54.391546,24.497089],[54.391554,24.497127],[54.39167,24.497118],[54.391662,24.49708]]]}},{"type":"Feature","properties":{},"geometry":{"type":"Polygon","coordinates":[[[54.391304,24.497146],[54.391309,24.497052],[54.391124,24.497049],[54.391123,24.497144],[54.391304,24.497146]]]}},{"type":"Feature","properties":{},"geometry":{"type":"Polygon","coordinates":[[[54.391345,24.497181],[54.391171,24.497177],[54.391169,24.49724],[54.391343,24.497244],[54.391345,24.497181]]]}},{"type":"Feature","properties":{},"geometry":{"type":"Polygon","coordinates":[[[54.389835,24.498214],[54.389879,24.498568],[54.390974,24.498461],[54.390937,24.498171],[54.391497,24.498179],[54.391913,24.49816],[54.391881,24.497941],[54.391505,24.497815],[54.390893,24.497807],[54.390756,24.497874],[54.390792,24.498114],[54.389835,24.498214]]]}},{"type":"Feature","properties":{},"geometry":{"type":"Polygon","coordinates":[[[54.393352,24.498198],[54.393355,24.498117],[54.393252,24.498115],[54.393249,24.498196],[54.393352,24.498198]]]}},{"type":"Feature","properties":{},"geometry":{"type":"Polygon","coordinates":[[[54.391889,24.500727],[54.391562,24.50075],[54.391599,24.500998],[54.391921,24.500969],[54.391889,24.500727]]]}},{"type":"Feature","properties":{},"geometry":{"type":"Polygon","coordinates":[[[54.389887,24.502566],[54.39022,24.502529],[54.390293,24.503098],[54.390406,24.5031],[54.391157,24.503036],[54.3911,24.502522],[54.391418,24.50248],[54.39098,24.498843],[54.390868,24.498842],[54.389765,24.498966],[54.3902,24.502373],[54.389776,24.502416],[54.389795,24.502565],[54.389887,24.502566]]]}},{"type":"Feature","properties":{},"geometry":{"type":"Polygon","coordinates":[[[54.392183,24.503621],[54.39203,24.503632],[54.392038,24.503682],[54.392191,24.50367],[54.392183,24.503621]]]}},{"type":"Feature","properties":{},"geometry":{"type":"Polygon","coordinates":[[[54.392554,24.503762],[54.392401,24.503762],[54.392402,24.503811],[54.392554,24.503811],[54.392554,24.503762]]]}},{"type":"Feature","properties":{},"geometry":{"type":"Polygon","coordinates":[[[54.392274,24.503831],[54.392268,24.503729],[54.392044,24.503736],[54.39205,24.503838],[54.392274,24.503831]]]}},{"type":"Feature","properties":{},"geometry":{"type":"Polygon","coordinates":[[[54.392558,24.503881],[54.392286,24.503905],[54.392318,24.504126],[54.39259,24.504102],[54.392558,24.503881]]]}},{"type":"Feature","properties":{},"geometry":{"type":"Polygon","coordinates":[[[54.392104,24.503938],[54.391992,24.503939],[54.392004,24.504132],[54.392116,24.50413],[54.392104,24.503938]]]}},{"type":"Feature","properties":{},"geometry":{"type":"Polygon","coordinates":[[[54.392037,24.504395],[54.392147,24.504393],[54.392141,24.50426],[54.392161,24.504431],[54.392329,24.504421],[54.392272,24.503917],[54.392103,24.503926],[54.392137,24.504225],[54.392029,24.504226],[54.392037,24.504395]]]}},{"type":"Feature","properties":{},"geometry":{"type":"Polygon","coordinates":[[[54.392497,24.504303],[54.392592,24.504285],[54.39258,24.504249],[54.392494,24.504255],[54.392488,24.504165],[54.39232,24.50417],[54.392336,24.504406],[54.392504,24.504401],[54.392497,24.504303]]]}},{"type":"Feature","properties":{},"geometry":{"type":"Polygon","coordinates":[[[54.392149,24.50477],[54.392653,24.504727],[54.39262,24.504452],[54.392116,24.504495],[54.392149,24.50477]]]}},{"type":"Feature","properties":{},"geometry":{"type":"Polygon","coordinates":[[[54.392228,24.504858],[54.392112,24.504862],[54.39212,24.504942],[54.392236,24.504938],[54.392228,24.504858]]]}},{"type":"Feature","properties":{},"geometry":{"type":"Polygon","coordinates":[[[54.392563,24.504815],[54.392391,24.504824],[54.392421,24.505073],[54.392592,24.505063],[54.392563,24.504815]]]}},{"type":"Feature","properties":{},"geometry":{"type":"Polygon","coordinates":[[[54.39215,24.505213],[54.392269,24.505212],[54.392268,24.505193],[54.392434,24.505191],[54.392431,24.505081],[54.392258,24.505083],[54.392258,24.505103],[54.392147,24.505104],[54.39215,24.505213]]]}},{"type":"Feature","properties":{},"geometry":{"type":"Polygon","coordinates":[[[54.392737,24.505136],[54.392461,24.505148],[54.392497,24.505647],[54.392773,24.505636],[54.392737,24.505136]]]}},{"type":"Feature","properties":{},"geometry":{"type":"Polygon","coordinates":[[[54.390056,24.505797],[54.389993,24.505205],[54.389733,24.505217],[54.38978,24.50581],[54.390056,24.505797]]]}},{"type":"Feature","properties":{},"geometry":{"type":"Polygon","coordinates":[[[54.391859,24.506801],[54.391709,24.506809],[54.391715,24.506855],[54.391865,24.506847],[54.391859,24.506801]]]}},{"type":"Feature","properties":{},"geometry":{"type":"Polygon","coordinates":[[[54.391917,24.506868],[54.39194,24.506958],[54.392067,24.506945],[54.392055,24.506897],[54.392098,24.506888],[54.392088,24.506846],[54.391917,24.506868]]]}},{"type":"Feature","properties":{},"geometry":{"type":"Polygon","coordinates":[[[54.391916,24.506892],[54.391818,24.506896],[54.391827,24.506957],[54.391924,24.506953],[54.391916,24.506892]]]}},{"type":"Feature","properties":{},"geometry":{"type":"Polygon","coordinates":[[[54.392715,24.506783],[54.392469,24.506794],[54.392495,24.507136],[54.392741,24.507125],[54.392715,24.506783]]]}},{"type":"Feature","properties":{},"geometry":{"type":"Polygon","coordinates":[[[54.39194,24.507053],[54.391753,24.507054],[54.391755,24.507143],[54.391942,24.507142],[54.39194,24.507053]]]}},{"type":"Feature","properties":{},"geometry":{"type":"Polygon","coordinates":[[[54.39285,24.507213],[54.392992,24.507205],[54.392985,24.507152],[54.392843,24.507159],[54.39285,24.507213]]]}},{"type":"Feature","properties":{},"geometry":{"type":"Polygon","coordinates":[[[54.39148,24.507489],[54.391944,24.507466],[54.391934,24.507327],[54.39147,24.507351],[54.39148,24.507489]]]}},{"type":"Feature","properties":{},"geometry":{"type":"Polygon","coordinates":[[[54.39118,24.507431],[54.390986,24.507428],[54.390985,24.507509],[54.391179,24.507511],[54.39118,24.507431]]]}},{"type":"Feature","properties":{},"geometry":{"type":"Polygon","coordinates":[[[54.393216,24.508734],[54.393217,24.5087],[54.393042,24.508695],[54.393042,24.508706],[54.392908,24.508708],[54.392909,24.508738],[54.393216,24.508734]]]}},{"type":"Feature","properties":{},"geometry":{"type":"Polygon","coordinates":[[[54.393091,24.509737],[54.393021,24.509696],[54.392959,24.509696],[54.392931,24.509737],[54.393002,24.509777],[54.393063,24.509778],[54.393091,24.509737]]]}},{"type":"Feature","properties":{},"geometry":{"type":"Polygon","coordinates":[[[54.403917,24.481584],[54.404445,24.481313],[54.404282,24.481036],[54.404221,24.481035],[54.403611,24.481309],[54.403855,24.481583],[54.403917,24.481584]]]}},{"type":"Feature","properties":{},"geometry":{"type":"Polygon","coordinates":[[[54.403255,24.483046],[54.403079,24.482706],[54.402754,24.48227],[54.402652,24.482268],[54.402397,24.482372],[54.402362,24.482355],[54.402377,24.482242],[54.402189,24.482237],[54.401319,24.483152],[54.40132,24.48327],[54.401361,24.483333],[54.401536,24.483373],[54.401638,24.483375],[54.401836,24.48329],[54.402147,24.483206],[54.402468,24.483214],[54.402993,24.483394],[54.403095,24.483396],[54.403021,24.483179],[54.403255,24.483046]]]}},{"type":"Feature","properties":{},"geometry":{"type":"Polygon","coordinates":[[[54.40389,24.4858],[54.403951,24.4858],[54.404147,24.485609],[54.404367,24.485274],[54.404472,24.48503],[54.404542,24.48481],[54.40454,24.484515],[54.40369,24.48445],[54.403558,24.484897],[54.403465,24.485073],[54.403278,24.485264],[54.40389,24.4858]]]}},{"type":"Feature","properties":{},"geometry":{"type":"Polygon","coordinates":[[[54.400259,24.486615],[54.400108,24.486791],[54.400575,24.487121],[54.400693,24.487157],[54.400754,24.487158],[54.400866,24.487117],[54.401207,24.486363],[54.400743,24.486123],[54.400682,24.486123],[54.40057,24.486301],[54.400259,24.486615]]]}},{"type":"Feature","properties":{},"geometry":{"type":"Polygon","coordinates":[[[54.404417,24.486697],[54.404408,24.486649],[54.40406,24.486285],[54.404023,24.48626],[54.403971,24.486254],[54.403818,24.486252],[54.403081,24.486605],[54.403291,24.487158],[54.403325,24.487191],[54.403377,24.487205],[54.40353,24.487207],[54.403767,24.487123],[54.404122,24.486933],[54.40439,24.486736],[54.404417,24.486697]],[[54.403554,24.486721],[54.403843,24.486579],[54.403919,24.486673],[54.4036,24.486848],[54.403554,24.486721]]]}},{"type":"Feature","properties":{},"geometry":{"type":"Polygon","coordinates":[[[54.394397,24.487717],[54.394275,24.4876],[54.394214,24.487599],[54.394034,24.487755],[54.394052,24.487772],[54.394005,24.487812],[54.394181,24.487989],[54.393892,24.488223],[54.394075,24.488409],[54.394793,24.488419],[54.394825,24.488393],[54.394968,24.488395],[54.395185,24.488219],[54.395111,24.488144],[54.395209,24.488065],[54.395036,24.487889],[54.394827,24.487588],[54.394986,24.48759],[54.39537,24.487249],[54.395338,24.487219],[54.395256,24.487186],[54.395144,24.487174],[54.394395,24.487164],[54.39427,24.487181],[54.39422,24.487225],[54.394262,24.487264],[54.394117,24.487394],[54.394156,24.48743],[54.394115,24.487467],[54.394237,24.48758],[54.394375,24.487582],[54.394463,24.487661],[54.394397,24.487717]]]}},{"type":"Feature","properties":{},"geometry":{"type":"Polygon","coordinates":[[[54.401144,24.487765],[54.400111,24.487303],[54.399543,24.486934],[54.398968,24.486502],[54.398907,24.486501],[54.397673,24.487851],[54.398813,24.488705],[54.400134,24.489399],[54.400905,24.489713],[54.401696,24.489882],[54.4026,24.489943],[54.40288,24.489596],[54.402625,24.488136],[54.402288,24.488086],[54.401773,24.487981],[54.401144,24.487765]]]}},{"type":"Feature","properties":{},"geometry":{"type":"Polygon","coordinates":[[[54.400402,24.490694],[54.400362,24.490428],[54.399996,24.490466],[54.400037,24.490731],[54.400402,24.490694]]]}},{"type":"Feature","properties":{},"geometry":{"type":"Polygon","coordinates":[[[54.398667,24.492158],[54.398624,24.49184],[54.398437,24.491853],[54.39848,24.492175],[54.398667,24.492158]]]}},{"type":"Feature","properties":{},"geometry":{"type":"Polygon","coordinates":[[[54.399082,24.49232],[54.398847,24.492341],[54.398825,24.492216],[54.398691,24.492224],[54.39872,24.49246],[54.399095,24.49242],[54.399082,24.49232]]]}},{"type":"Feature","properties":{},"geometry":{"type":"Polygon","coordinates":[[[54.398602,24.492224],[54.398464,24.492232],[54.398509,24.492561],[54.398647,24.492553],[54.398602,24.492224]]]}},{"type":"Feature","properties":{},"geometry":{"type":"Polygon","coordinates":[[[54.395997,24.492631],[54.396062,24.492332],[54.395592,24.492257],[54.395527,24.492556],[54.395997,24.492631]]]}},{"type":"Feature","properties":{},"geometry":{"type":"Polygon","coordinates":[[[54.400649,24.492935],[54.399857,24.493019],[54.399911,24.493405],[54.400704,24.493321],[54.400649,24.492935]]]}},{"type":"Feature","properties":{},"geometry":{"type":"Polygon","coordinates":[[[54.40326,24.494352],[54.403566,24.494328],[54.403592,24.494364],[54.40364,24.49439],[54.403774,24.494386],[54.403984,24.494497],[54.404045,24.494498],[54.404185,24.494278],[54.404124,24.494246],[54.404554,24.493571],[54.404527,24.493557],[54.404581,24.493471],[54.404418,24.493385],[54.404357,24.493384],[54.404318,24.493445],[54.404235,24.493433],[54.403986,24.493457],[54.40393,24.493554],[54.403873,24.493527],[54.403707,24.493537],[54.403703,24.493509],[54.403298,24.493543],[54.403307,24.493616],[54.403212,24.493626],[54.403218,24.493675],[54.402539,24.493666],[54.402438,24.493676],[54.402443,24.493715],[54.402242,24.493726],[54.402293,24.494145],[54.40318,24.494157],[54.403238,24.494169],[54.40326,24.494352]]]}},{"type":"Feature","properties":{},"geometry":{"type":"Polygon","coordinates":[[[54.393582,24.494482],[54.39352,24.494481],[54.393515,24.494441],[54.393306,24.494458],[54.393309,24.494482],[54.393249,24.49449],[54.393283,24.494729],[54.393613,24.494698],[54.393582,24.494482]]]}},{"type":"Feature","properties":{},"geometry":{"type":"Polygon","coordinates":[[[54.393678,24.496008],[54.393864,24.495994],[54.394069,24.495811],[54.394285,24.495786],[54.3942,24.495176],[54.393571,24.495241],[54.393678,24.496008]]]}},{"type":"Feature","properties":{},"geometry":{"type":"Polygon","coordinates":[[[54.403815,24.49728],[54.403532,24.497389],[54.403731,24.497781],[54.404142,24.497787],[54.40423,24.497978],[54.404358,24.49798],[54.404599,24.497783],[54.405002,24.4973],[54.405251,24.496952],[54.405413,24.496686],[54.405411,24.496392],[54.404485,24.49605],[54.404357,24.496048],[54.404297,24.496213],[54.403926,24.496208],[54.403729,24.496704],[54.403931,24.49677],[54.403705,24.496767],[54.403534,24.497184],[54.403815,24.49728]]]}},{"type":"Feature","properties":{},"geometry":{"type":"Polygon","coordinates":[[[54.394481,24.496821],[54.394249,24.497105],[54.394329,24.49739],[54.39458,24.497507],[54.394641,24.497508],[54.394769,24.497442],[54.394885,24.497348],[54.394874,24.497274],[54.394918,24.497211],[54.394997,24.497172],[54.39503,24.497114],[54.394542,24.496821],[54.394481,24.496821]]]}},{"type":"Feature","properties":{},"geometry":{"type":"Polygon","coordinates":[[[54.404135,24.498077],[54.404083,24.498057],[54.404021,24.498056],[54.404008,24.498084],[54.404061,24.498105],[54.404122,24.498105],[54.404135,24.498077]]]}},{"type":"Feature","properties":{},"geometry":{"type":"Polygon","coordinates":[[[54.403927,24.498463],[54.404068,24.498379],[54.404149,24.498291],[54.404172,24.498239],[54.404153,24.498207],[54.404167,24.498192],[54.404081,24.49813],[54.404036,24.498129],[54.403978,24.498096],[54.403901,24.498095],[54.403132,24.498412],[54.402902,24.498456],[54.40275,24.498561],[54.402643,24.498742],[54.402633,24.498818],[54.401842,24.498808],[54.401673,24.498849],[54.40156,24.498914],[54.401453,24.499022],[54.401414,24.499087],[54.401469,24.499123],[54.401494,24.499157],[54.401507,24.499202],[54.4015,24.499261],[54.401665,24.499286],[54.403021,24.499304],[54.403167,24.499287],[54.403283,24.499245],[54.403439,24.499127],[54.403452,24.499155],[54.403562,24.499205],[54.403805,24.499276],[54.40468,24.499299],[54.404893,24.499256],[54.405087,24.49919],[54.405252,24.499057],[54.405358,24.498901],[54.40544,24.498736],[54.405445,24.498549],[54.405429,24.498461],[54.405388,24.498458],[54.405412,24.498398],[54.405332,24.498066],[54.405283,24.498019],[54.405209,24.498001],[54.404668,24.497994],[54.404589,24.498021],[54.404548,24.498073],[54.404559,24.498135],[54.404623,24.498286],[54.404627,24.498384],[54.404654,24.498455],[54.404736,24.498492],[54.404716,24.498576],[54.404657,24.49867],[54.404613,24.498709],[54.404292,24.498704],[54.404196,24.49872],[54.404048,24.498796],[54.403888,24.498939],[54.403525,24.498934],[54.403457,24.498971],[54.403434,24.49893],[54.403429,24.498854],[54.403445,24.498825],[54.403547,24.498701],[54.403653,24.49863],[54.40363,24.498579],[54.403927,24.498463]]]}},{"type":"Feature","properties":{},"geometry":{"type":"Polygon","coordinates":[[[54.396129,24.498519],[54.396011,24.498516],[54.396009,24.498582],[54.396127,24.498585],[54.396129,24.498519]]]}},{"type":"Feature","properties":{},"geometry":{"type":"Polygon","coordinates":[[[54.393404,24.498659],[54.39356,24.499664],[54.39537,24.499471],[54.39526,24.498664],[54.395136,24.498542],[54.393404,24.498659]]]}},{"type":"Feature","properties":{},"geometry":{"type":"Polygon","coordinates":[[[54.402593,24.499746],[54.402687,24.499795],[54.403231,24.499802],[54.403362,24.499941],[54.403519,24.500035],[54.403521,24.500099],[54.40355,24.500101],[54.403574,24.500126],[54.403548,24.500154],[54.403552,24.500176],[54.403623,24.500221],[54.403682,24.500227],[54.404243,24.500234],[54.4043,24.50023],[54.404339,24.50021],[54.404402,24.500211],[54.404401,24.500285],[54.404761,24.500267],[54.405188,24.500172],[54.405667,24.499947],[54.405928,24.49974],[54.406255,24.499347],[54.406373,24.499138],[54.406474,24.49889],[54.406529,24.498602],[54.406545,24.49833],[54.406522,24.498107],[54.406444,24.497802],[54.405643,24.497652],[54.405562,24.49765],[54.405709,24.497851],[54.40579,24.498019],[54.405841,24.49829],[54.405849,24.498507],[54.405838,24.498712],[54.405801,24.498866],[54.405709,24.499034],[54.405631,24.499137],[54.40548,24.499277],[54.405239,24.499274],[54.405173,24.499298],[54.405127,24.499383],[54.405126,24.499463],[54.405077,24.49947],[54.405085,24.499544],[54.404972,24.499605],[54.404665,24.499695],[54.404408,24.499724],[54.404407,24.499797],[54.404337,24.499796],[54.404342,24.499763],[54.404325,24.499746],[54.404214,24.499702],[54.403947,24.499693],[54.403894,24.499653],[54.403777,24.499622],[54.403663,24.499621],[54.403563,24.499636],[54.403549,24.499625],[54.403592,24.4996],[54.403588,24.499579],[54.403634,24.499578],[54.403672,24.499531],[54.403644,24.499465],[54.403558,24.499379],[54.40351,24.499365],[54.402923,24.499357],[54.402887,24.499398],[54.402593,24.499585],[54.402532,24.499597],[54.402519,24.499625],[54.402526,24.499661],[54.402593,24.499746]]]}},{"type":"Feature","properties":{},"geometry":{"type":"Polygon","coordinates":[[[54.395386,24.499997],[54.395562,24.49998],[54.395534,24.499827],[54.395358,24.499843],[54.395386,24.499997]]]}},{"type":"Feature","properties":{},"geometry":{"type":"Polygon","coordinates":[[[54.395273,24.500002],[54.395179,24.500008],[54.395203,24.500112],[54.395296,24.500107],[54.395273,24.500002]]]}},{"type":"Feature","properties":{},"geometry":{"type":"Polygon","coordinates":[[[54.394937,24.500444],[54.394916,24.50033],[54.394808,24.500336],[54.394828,24.50045],[54.394937,24.500444]]]}},{"type":"Feature","properties":{},"geometry":{"type":"Polygon","coordinates":[[[54.395488,24.500472],[54.394861,24.50055],[54.395003,24.501398],[54.39563,24.50132],[54.395488,24.500472]]]}},{"type":"Feature","properties":{},"geometry":{"type":"Polygon","coordinates":[[[54.395747,24.501897],[54.3956,24.501894],[54.395597,24.501997],[54.395744,24.502],[54.395747,24.501897]]]}},{"type":"Feature","properties":{},"geometry":{"type":"Polygon","coordinates":[[[54.395873,24.502153],[54.39538,24.50221],[54.395431,24.502518],[54.395924,24.502461],[54.395873,24.502153]]]}},{"type":"Feature","properties":{},"geometry":{"type":"Polygon","coordinates":[[[54.397473,24.504684],[54.39734,24.504686],[54.397346,24.504787],[54.397479,24.504785],[54.397473,24.504684]]]}},{"type":"Feature","properties":{},"geometry":{"type":"Polygon","coordinates":[[[54.39332,24.509244],[54.393256,24.509271],[54.393373,24.509441],[54.393444,24.509446],[54.393325,24.509507],[54.393382,24.509472],[54.393334,24.509406],[54.393272,24.509405],[54.393226,24.509432],[54.393262,24.509482],[54.393035,24.509586],[54.393082,24.509668],[54.393151,24.509665],[54.393226,24.509786],[54.393287,24.509787],[54.393625,24.509616],[54.393613,24.509596],[54.393795,24.509504],[54.393578,24.509151],[54.393658,24.509149],[54.393655,24.509094],[54.393543,24.509095],[54.393544,24.509125],[54.393502,24.509124],[54.393307,24.509223],[54.39332,24.509244]]]}},{"type":"Feature","properties":{},"geometry":{"type":"Polygon","coordinates":[[[54.393853,24.509371],[54.393792,24.50937],[54.393757,24.509388],[54.393794,24.509447],[54.393855,24.509448],[54.393889,24.50943],[54.393853,24.509371]]]}},{"type":"Feature","properties":{},"geometry":{"type":"Polygon","coordinates":[[[54.394128,24.509765],[54.394095,24.509765],[54.394119,24.509751],[54.394058,24.50966],[54.394042,24.50966],[54.394052,24.509655],[54.394018,24.509606],[54.393957,24.509605],[54.393917,24.509628],[54.39395,24.509677],[54.393966,24.509677],[54.393956,24.509682],[54.394017,24.509773],[54.394045,24.509774],[54.39397,24.509806],[54.394015,24.509893],[54.394077,24.509894],[54.394173,24.509852],[54.394128,24.509765]]]}},{"type":"Feature","properties":{},"geometry":{"type":"Polygon","coordinates":[[[54.393911,24.50995],[54.393807,24.509954],[54.393813,24.50999],[54.393916,24.509985],[54.393911,24.50995]]]}},{"type":"Feature","properties":{},"geometry":{"type":"Polygon","coordinates":[[[54.394195,24.509998],[54.394163,24.509938],[54.394102,24.509937],[54.393787,24.510073],[54.393818,24.510133],[54.393879,24.510134],[54.394195,24.509998]]]}},{"type":"Feature","properties":{},"geometry":{"type":"Polygon","coordinates":[[[54.406324,24.480095],[54.406255,24.479987],[54.40643,24.479895],[54.406373,24.479805],[54.406312,24.479805],[54.406253,24.479836],[54.406281,24.479812],[54.406176,24.479648],[54.406115,24.479647],[54.405866,24.479778],[54.405922,24.479866],[54.405715,24.479975],[54.405752,24.480034],[54.405676,24.480074],[54.405738,24.480173],[54.40576,24.480173],[54.405844,24.480305],[54.405905,24.480306],[54.406324,24.480095]]]}},{"type":"Feature","properties":{},"geometry":{"type":"Polygon","coordinates":[[[54.406836,24.48],[54.406771,24.479935],[54.40671,24.479935],[54.406618,24.480011],[54.406682,24.480075],[54.406743,24.480076],[54.406836,24.48]]]}},{"type":"Feature","properties":{},"geometry":{"type":"Polygon","coordinates":[[[54.406342,24.480248],[54.406306,24.480324],[54.406288,24.480323],[54.406243,24.480384],[54.406043,24.480528],[54.406074,24.480568],[54.406126,24.480568],[54.406153,24.480595],[54.406222,24.48059],[54.406375,24.48074],[54.406437,24.480741],[54.406583,24.480618],[54.406412,24.48045],[54.406444,24.48045],[54.406479,24.480403],[54.406433,24.480376],[54.406484,24.480376],[54.406523,24.480297],[54.406404,24.480249],[54.406342,24.480248]],[[54.406224,24.480507],[54.406238,24.480497],[54.406247,24.480506],[54.406235,24.480516],[54.406224,24.480507]]]}},{"type":"Feature","properties":{},"geometry":{"type":"Polygon","coordinates":[[[54.405748,24.480415],[54.405686,24.480414],[54.405611,24.480451],[54.405638,24.480496],[54.405699,24.480497],[54.405775,24.48046],[54.405748,24.480415]]]}},{"type":"Feature","properties":{},"geometry":{"type":"Polygon","coordinates":[[[54.405221,24.480756],[54.405248,24.480736],[54.405284,24.480776],[54.405389,24.480784],[54.405508,24.480697],[54.405367,24.480537],[54.405305,24.480536],[54.405239,24.480585],[54.405173,24.48051],[54.405112,24.480509],[54.405002,24.480589],[54.404982,24.480566],[54.404921,24.480566],[54.40469,24.480735],[54.404886,24.480957],[54.404947,24.480958],[54.405002,24.480933],[54.405239,24.480777],[54.405221,24.480756]]]}},{"type":"Feature","properties":{},"geometry":{"type":"Polygon","coordinates":[[[54.404597,24.481159],[54.404658,24.48116],[54.404714,24.481136],[54.404697,24.481102],[54.404636,24.481101],[54.404579,24.481125],[54.404597,24.481159]]]}},{"type":"Feature","properties":{},"geometry":{"type":"Polygon","coordinates":[[[54.404803,24.482113],[54.404829,24.482254],[54.404877,24.482338],[54.40491,24.482338],[54.404958,24.482433],[54.405417,24.48244],[54.405651,24.482324],[54.405622,24.482223],[54.40559,24.482222],[54.405583,24.482192],[54.40588,24.482196],[54.40612,24.482046],[54.40603,24.481949],[54.406228,24.481951],[54.406456,24.481804],[54.406244,24.481517],[54.406178,24.481406],[54.40572,24.481399],[54.405542,24.481503],[54.405464,24.481571],[54.405518,24.481635],[54.405387,24.481633],[54.405162,24.481745],[54.405121,24.481793],[54.405143,24.481848],[54.405189,24.48189],[54.404939,24.481886],[54.404831,24.481991],[54.404803,24.482113]]]}},{"type":"Feature","properties":{},"geometry":{"type":"Polygon","coordinates":[[[54.406674,24.482064],[54.406532,24.48213],[54.406672,24.48232],[54.406792,24.482422],[54.406906,24.482603],[54.407416,24.48261],[54.407605,24.482539],[54.407647,24.482408],[54.407249,24.481963],[54.406739,24.481956],[54.406674,24.482064]]]}},{"type":"Feature","properties":{},"geometry":{"type":"Polygon","coordinates":[[[54.406143,24.482727],[54.406335,24.482628],[54.406647,24.483102],[54.406708,24.483103],[54.406884,24.483008],[54.40655,24.482498],[54.406524,24.482498],[54.406485,24.482446],[54.406424,24.482445],[54.406249,24.482552],[54.406257,24.482563],[54.406046,24.482669],[54.406081,24.482726],[54.406143,24.482727]]]}},{"type":"Feature","properties":{},"geometry":{"type":"Polygon","coordinates":[[[54.405394,24.483132],[54.405065,24.483264],[54.405257,24.483912],[54.404878,24.484016],[54.404932,24.484358],[54.405703,24.48437],[54.405703,24.483852],[54.405455,24.483133],[54.405394,24.483132]]]}},{"type":"Feature","properties":{},"geometry":{"type":"Polygon","coordinates":[[[54.405743,24.48448],[54.404956,24.484392],[54.404878,24.484733],[54.405558,24.484872],[54.405619,24.484873],[54.405743,24.48448]]]}},{"type":"Feature","properties":{},"geometry":{"type":"Polygon","coordinates":[[[54.406818,24.485672],[54.406859,24.48561],[54.406754,24.485552],[54.406693,24.485551],[54.406652,24.485612],[54.406757,24.485671],[54.406818,24.485672]]]}},{"type":"Feature","properties":{},"geometry":{"type":"Polygon","coordinates":[[[54.405657,24.487818],[54.405983,24.487822],[54.406127,24.487642],[54.405832,24.487429],[54.405505,24.487424],[54.405359,24.487598],[54.405657,24.487818]]]}},{"type":"Feature","properties":{},"geometry":{"type":"Polygon","coordinates":[[[54.407318,24.487873],[54.407257,24.487872],[54.406436,24.488337],[54.406715,24.488745],[54.406776,24.488745],[54.407598,24.488281],[54.407318,24.487873]]]}},{"type":"Feature","properties":{},"geometry":{"type":"Polygon","coordinates":[[[54.406928,24.490372],[54.406989,24.490373],[54.407054,24.490352],[54.407021,24.490271],[54.406959,24.49027],[54.4069,24.490291],[54.406928,24.490372]]]}},{"type":"Feature","properties":{},"geometry":{"type":"Polygon","coordinates":[[[54.406476,24.49296],[54.406379,24.492879],[54.406318,24.492878],[54.406188,24.493006],[54.406285,24.493087],[54.406346,24.493088],[54.406476,24.49296]]]}},{"type":"Feature","properties":{},"geometry":{"type":"Polygon","coordinates":[[[54.406182,24.492253],[54.405311,24.492714],[54.405276,24.492999],[54.406135,24.493727],[54.4062,24.493728],[54.406527,24.493456],[54.405951,24.492978],[54.406315,24.492642],[54.406142,24.492521],[54.406355,24.492421],[54.406247,24.492254],[54.406182,24.492253]]]}},{"type":"Feature","properties":{},"geometry":{"type":"Polygon","coordinates":[[[54.406417,24.495276],[54.40635,24.49524],[54.406289,24.495239],[54.406244,24.495307],[54.40631,24.495344],[54.406371,24.495344],[54.406417,24.495276]]]}},{"type":"Feature","properties":{},"geometry":{"type":"Polygon","coordinates":[[[54.4066,24.495316],[54.406598,24.495288],[54.406411,24.495297],[54.406414,24.495318],[54.4066,24.495316]]]}},{"type":"Feature","properties":{},"geometry":{"type":"Polygon","coordinates":[[[54.406535,24.495511],[54.406596,24.495512],[54.406663,24.495455],[54.406613,24.495663],[54.406485,24.495609],[54.406387,24.495622],[54.406448,24.495591],[54.406395,24.495503],[54.406334,24.495502],[54.40625,24.495544],[54.406304,24.495632],[54.406347,24.495633],[54.4063,24.495723],[54.406485,24.495802],[54.406546,24.495803],[54.40661,24.495678],[54.406576,24.495869],[54.405755,24.495857],[54.405643,24.495876],[54.405464,24.495966],[54.405354,24.49607],[54.4053,24.496175],[54.405325,24.496255],[54.405403,24.49628],[54.406663,24.496297],[54.406737,24.496292],[54.406836,24.496261],[54.407037,24.496363],[54.407253,24.496409],[54.408791,24.496429],[54.4089,24.496399],[54.408918,24.496381],[54.408932,24.49632],[54.408856,24.496195],[54.408693,24.496072],[54.408481,24.495984],[54.408504,24.495925],[54.408263,24.495794],[54.408633,24.49525],[54.408706,24.495289],[54.409006,24.495338],[54.409261,24.495341],[54.409621,24.495322],[54.409964,24.495229],[54.409867,24.495048],[54.409653,24.494565],[54.40954,24.494014],[54.409518,24.493451],[54.409564,24.493205],[54.409532,24.493029],[54.408186,24.493011],[54.407718,24.493117],[54.407203,24.493289],[54.406636,24.493604],[54.406285,24.493867],[54.406011,24.494189],[54.406046,24.494211],[54.405999,24.494274],[54.406241,24.494435],[54.407459,24.494452],[54.408275,24.494948],[54.408428,24.495142],[54.408465,24.495162],[54.408099,24.495702],[54.406894,24.495031],[54.406817,24.49503],[54.406668,24.495443],[54.406562,24.495341],[54.406501,24.49534],[54.406425,24.495405],[54.406535,24.495511]]]}},{"type":"Feature","properties":{},"geometry":{"type":"Polygon","coordinates":[[[54.406297,24.495754],[54.40627,24.495738],[54.406209,24.495738],[54.406163,24.495802],[54.40619,24.495818],[54.406251,24.495819],[54.406297,24.495754]]]}},{"type":"Feature","properties":{},"geometry":{"type":"Polygon","coordinates":[[[54.406371,24.497222],[54.406432,24.497223],[54.40674,24.497142],[54.406735,24.497121],[54.406805,24.497122],[54.407021,24.497065],[54.407638,24.497115],[54.407943,24.497159],[54.408199,24.497302],[54.408709,24.497309],[54.40953,24.496918],[54.409385,24.496689],[54.408875,24.496682],[54.408422,24.496885],[54.40838,24.496868],[54.408231,24.496866],[54.408244,24.496834],[54.408035,24.496764],[54.407724,24.496686],[54.407491,24.496658],[54.407312,24.496655],[54.407306,24.496765],[54.406861,24.496756],[54.406663,24.496803],[54.406656,24.496773],[54.406595,24.496772],[54.406268,24.496853],[54.406371,24.497222]]]}},{"type":"Feature","properties":{},"geometry":{"type":"Polygon","coordinates":[[[54.405962,24.496854],[54.405901,24.496854],[54.405836,24.496903],[54.405915,24.496992],[54.405977,24.496993],[54.406044,24.496945],[54.405962,24.496854]]]}},{"type":"Feature","properties":{},"geometry":{"type":"Polygon","coordinates":[[[54.405739,24.497287],[54.405679,24.497547],[54.406,24.497594],[54.406013,24.497539],[54.406053,24.497539],[54.406089,24.497391],[54.405991,24.497375],[54.406007,24.497326],[54.405739,24.497287]]]}},{"type":"Feature","properties":{},"geometry":{"type":"Polygon","coordinates":[[[54.406525,24.504539],[54.406371,24.504536],[54.406367,24.504679],[54.406523,24.504681],[54.406525,24.504539]]]}},{"type":"Feature","properties":{},"geometry":{"type":"Polygon","coordinates":[[[54.406184,24.50457],[54.406123,24.504569],[54.406027,24.504592],[54.40608,24.504758],[54.406233,24.504739],[54.406184,24.50457]]]}},{"type":"Feature","properties":{},"geometry":{"type":"Polygon","coordinates":[[[54.406141,24.505914],[54.406702,24.505922],[54.406793,24.505817],[54.406828,24.505695],[54.406787,24.505553],[54.406674,24.505453],[54.406593,24.505451],[54.406344,24.50524],[54.406283,24.505239],[54.406021,24.505494],[54.406044,24.505514],[54.405867,24.505692],[54.406141,24.505914]]]}},{"type":"Feature","properties":{},"geometry":{"type":"Polygon","coordinates":[[[54.405586,24.505474],[54.405385,24.505424],[54.405324,24.505423],[54.40523,24.505738],[54.405431,24.505788],[54.405492,24.505789],[54.405586,24.505474]]]}},{"type":"Feature","properties":{},"geometry":{"type":"Polygon","coordinates":[[[54.405475,24.505923],[54.405179,24.505828],[54.405118,24.505827],[54.405002,24.506125],[54.405298,24.50622],[54.405359,24.506221],[54.405475,24.505923]]]}},{"type":"Feature","properties":{},"geometry":{"type":"Polygon","coordinates":[[[54.405345,24.506365],[54.405066,24.506279],[54.405005,24.506278],[54.404912,24.506526],[54.405191,24.506613],[54.405252,24.506613],[54.405345,24.506365]]]}},{"type":"Feature","properties":{},"geometry":{"type":"Polygon","coordinates":[[[54.405133,24.506949],[54.405237,24.506716],[54.404948,24.50662],[54.404887,24.506619],[54.404745,24.507018],[54.404859,24.50706],[54.404286,24.508058],[54.404381,24.508122],[54.404993,24.508131],[54.405356,24.508068],[54.405862,24.507159],[54.405855,24.507079],[54.405593,24.506955],[54.405133,24.506949]]]}},{"type":"Feature","properties":{},"geometry":{"type":"Polygon","coordinates":[[[54.404436,24.507353],[54.404497,24.507354],[54.40453,24.507326],[54.404437,24.507235],[54.404376,24.507234],[54.404343,24.507262],[54.404436,24.507353]]]}},{"type":"Feature","properties":{},"geometry":{"type":"Polygon","coordinates":[[[54.405718,24.508613],[54.405353,24.508608],[54.405235,24.508715],[54.405631,24.509107],[54.406121,24.509114],[54.406232,24.508999],[54.406012,24.508782],[54.406377,24.508786],[54.406489,24.508672],[54.406191,24.508379],[54.406645,24.508385],[54.406757,24.508271],[54.406367,24.507886],[54.405877,24.507879],[54.405759,24.507986],[54.406063,24.508287],[54.405609,24.50828],[54.405491,24.508388],[54.405718,24.508613]]]}},{"type":"Feature","properties":{},"geometry":{"type":"Polygon","coordinates":[[[54.406282,24.509145],[54.406344,24.509146],[54.406384,24.509101],[54.406299,24.509036],[54.406237,24.509035],[54.406196,24.50908],[54.406282,24.509145]]]}},{"type":"Feature","properties":{},"geometry":{"type":"Polygon","coordinates":[[[54.404746,24.509364],[54.40462,24.509533],[54.404769,24.509677],[54.405418,24.509695],[54.405598,24.509432],[54.405477,24.509367],[54.404746,24.509364]]]}},{"type":"Feature","properties":{},"geometry":{"type":"Polygon","coordinates":[[[54.410463,24.480079],[54.410524,24.48008],[54.410593,24.480014],[54.410443,24.479885],[54.410381,24.479884],[54.410312,24.479951],[54.410463,24.480079]]]}},{"type":"Feature","properties":{},"geometry":{"type":"Polygon","coordinates":[[[54.409403,24.482883],[54.409245,24.482886],[54.40925,24.483],[54.409408,24.482998],[54.409403,24.482883]]]}},{"type":"Feature","properties":{},"geometry":{"type":"Polygon","coordinates":[[[54.408793,24.48444],[54.408467,24.484436],[54.408257,24.484577],[54.408503,24.484878],[54.408829,24.484883],[54.409038,24.484742],[54.408793,24.48444]]]}},{"type":"Feature","properties":{},"geometry":{"type":"Polygon","coordinates":[[[54.408602,24.485076],[54.408334,24.484777],[54.408008,24.484773],[54.407803,24.484927],[54.407816,24.484991],[54.408034,24.485102],[54.408123,24.485104],[54.408163,24.485155],[54.408489,24.48516],[54.408602,24.485076]]]}},{"type":"Feature","properties":{},"geometry":{"type":"Polygon","coordinates":[[[54.407042,24.485614],[54.407336,24.485327],[54.407262,24.485263],[54.4072,24.485263],[54.406906,24.48555],[54.406981,24.485613],[54.407042,24.485614]]]}},{"type":"Feature","properties":{},"geometry":{"type":"Polygon","coordinates":[[[54.409042,24.485617],[54.409001,24.485574],[54.40894,24.485573],[54.408861,24.485634],[54.408902,24.485677],[54.408963,24.485678],[54.409042,24.485617]]]}},{"type":"Feature","properties":{},"geometry":{"type":"Polygon","coordinates":[[[54.407052,24.485634],[54.407372,24.485874],[54.407698,24.485879],[54.407889,24.48568],[54.407828,24.485631],[54.407789,24.485631],[54.407564,24.485445],[54.407238,24.48544],[54.407052,24.485634]]]}},{"type":"Feature","properties":{},"geometry":{"type":"Polygon","coordinates":[[[54.409068,24.485844],[54.409129,24.485845],[54.409177,24.485817],[54.409185,24.485854],[54.409264,24.485983],[54.409352,24.486058],[54.409624,24.486071],[54.409707,24.486047],[54.40979,24.485963],[54.409837,24.485885],[54.409862,24.485792],[54.410372,24.486666],[54.410504,24.486668],[54.410863,24.4865],[54.410363,24.485619],[54.410402,24.485593],[54.410413,24.48552],[54.410404,24.485468],[54.410388,24.485446],[54.41025,24.485445],[54.41025,24.485424],[54.410362,24.485422],[54.410404,24.485395],[54.410434,24.485322],[54.410978,24.485104],[54.410804,24.484786],[54.410671,24.484784],[54.409699,24.485259],[54.409673,24.485244],[54.409541,24.485242],[54.409467,24.485328],[54.409291,24.485398],[54.409204,24.485481],[54.409168,24.485575],[54.409171,24.485786],[54.409107,24.485694],[54.409162,24.485662],[54.409136,24.485626],[54.409075,24.485625],[54.408961,24.485692],[54.409068,24.485844]]]}},{"type":"Feature","properties":{},"geometry":{"type":"Polygon","coordinates":[[[54.4077,24.485931],[54.407651,24.485895],[54.40759,24.485894],[54.407496,24.485996],[54.407544,24.486033],[54.407605,24.486034],[54.4077,24.485931]]]}},{"type":"Feature","properties":{},"geometry":{"type":"Polygon","coordinates":[[[54.409247,24.487364],[54.409186,24.487363],[54.408823,24.487646],[54.408273,24.488009],[54.408576,24.488493],[54.408637,24.488493],[54.409511,24.488057],[54.40936,24.487784],[54.409298,24.487784],[54.408615,24.488165],[54.40859,24.488122],[54.409363,24.48769],[54.409247,24.487364]]]}},{"type":"Feature","properties":{},"geometry":{"type":"Polygon","coordinates":[[[54.407405,24.488704],[54.407583,24.488948],[54.407644,24.488949],[54.40802,24.488719],[54.407768,24.488343],[54.407706,24.488342],[54.407302,24.488565],[54.407248,24.488564],[54.406842,24.488794],[54.407122,24.489202],[54.407183,24.489203],[54.407589,24.488973],[54.407405,24.488704]]]}},{"type":"Feature","properties":{},"geometry":{"type":"Polygon","coordinates":[[[54.409221,24.491262],[54.409268,24.491263],[54.409272,24.491156],[54.408976,24.491148],[54.408975,24.49118],[54.408897,24.491179],[54.408886,24.491294],[54.408947,24.491295],[54.408946,24.491322],[54.409219,24.491329],[54.409221,24.491262]]]}},{"type":"Feature","properties":{},"geometry":{"type":"Polygon","coordinates":[[[54.410401,24.495995],[54.410337,24.495938],[54.409929,24.495932],[54.409638,24.496163],[54.409742,24.496283],[54.409661,24.496337],[54.409771,24.496478],[54.410179,24.496484],[54.410343,24.49638],[54.410272,24.496288],[54.410552,24.496292],[54.410775,24.496187],[54.410614,24.495998],[54.410401,24.495995]]]}},{"type":"Feature","properties":{},"geometry":{"type":"Polygon","coordinates":[[[54.407898,24.497275],[54.40799,24.49734],[54.408096,24.497352],[54.408151,24.49732],[54.408105,24.497266],[54.408002,24.497236],[54.407941,24.497235],[54.407898,24.497275]]]}},{"type":"Feature","properties":{},"geometry":{"type":"Polygon","coordinates":[[[54.408849,24.497859],[54.408674,24.497926],[54.408676,24.498386],[54.408992,24.498391],[54.409383,24.498324],[54.409415,24.497947],[54.409165,24.497863],[54.408849,24.497859]]]}},{"type":"Feature","properties":{},"geometry":{"type":"Polygon","coordinates":[[[54.409382,24.499166],[54.409435,24.498769],[54.408918,24.498737],[54.408924,24.498611],[54.408791,24.498599],[54.408775,24.498659],[54.408815,24.498774],[54.408825,24.49909],[54.40874,24.499454],[54.409096,24.499549],[54.409276,24.499552],[54.409382,24.499166]]]}},{"type":"Feature","properties":{},"geometry":{"type":"Polygon","coordinates":[[[54.409926,24.500296],[54.409975,24.49974],[54.410012,24.49951],[54.409978,24.499439],[54.4099,24.49938],[54.409787,24.499363],[54.409554,24.499372],[54.409486,24.499418],[54.409436,24.499555],[54.409288,24.500039],[54.409238,24.500252],[54.40928,24.500381],[54.409372,24.500447],[54.409552,24.500478],[54.409746,24.500476],[54.409871,24.500412],[54.409926,24.500296]]]}},{"type":"Feature","properties":{},"geometry":{"type":"Polygon","coordinates":[[[54.407993,24.500907],[54.407992,24.500953],[54.407963,24.501012],[54.408002,24.501043],[54.408063,24.501044],[54.408114,24.500971],[54.408147,24.500887],[54.408024,24.500875],[54.407993,24.500907]]]}},{"type":"Feature","properties":{},"geometry":{"type":"Polygon","coordinates":[[[54.409979,24.501514],[54.409978,24.501598],[54.409876,24.501597],[54.409874,24.501845],[54.410433,24.501853],[54.410432,24.501791],[54.410568,24.501791],[54.410573,24.501566],[54.410542,24.501564],[54.410544,24.501523],[54.409979,24.501514]]]}},{"type":"Feature","properties":{},"geometry":{"type":"Polygon","coordinates":[[[54.409545,24.501851],[54.409584,24.501746],[54.40961,24.501599],[54.409605,24.501431],[54.408662,24.50147],[54.408618,24.501798],[54.408691,24.50195],[54.409021,24.501962],[54.409339,24.501953],[54.40943,24.501922],[54.409545,24.501851]]]}},{"type":"Feature","properties":{},"geometry":{"type":"Polygon","coordinates":[[[54.407635,24.502402],[54.408053,24.502576],[54.408114,24.502577],[54.408295,24.5021],[54.408422,24.501858],[54.408025,24.50174],[54.407964,24.501739],[54.407635,24.502402]]]}},{"type":"Feature","properties":{},"geometry":{"type":"Polygon","coordinates":[[[54.407454,24.502391],[54.407446,24.502437],[54.407551,24.502448],[54.407608,24.502389],[54.407648,24.502313],[54.407525,24.502309],[54.407454,24.502391]]]}},{"type":"Feature","properties":{},"geometry":{"type":"Polygon","coordinates":[[[54.407178,24.502925],[54.407055,24.503076],[54.407118,24.503112],[54.407179,24.503113],[54.40731,24.502996],[54.407335,24.502994],[54.407403,24.502885],[54.407283,24.50287],[54.407237,24.502926],[54.407178,24.502925]]]}},{"type":"Feature","properties":{},"geometry":{"type":"Polygon","coordinates":[[[54.406943,24.503344],[54.406882,24.503344],[54.406819,24.503363],[54.406856,24.503484],[54.406997,24.503468],[54.406943,24.503344]]]}},{"type":"Feature","properties":{},"geometry":{"type":"Polygon","coordinates":[[[54.410189,24.504198],[54.410673,24.504204],[54.410705,24.504046],[54.410233,24.503968],[54.409919,24.503964],[54.410053,24.503863],[54.40972,24.503497],[54.409236,24.50349],[54.409092,24.503599],[54.409424,24.503965],[54.409747,24.503969],[54.409717,24.50412],[54.410189,24.504198]]]}},{"type":"Feature","properties":{},"geometry":{"type":"Polygon","coordinates":[[[54.407134,24.50368],[54.407036,24.503648],[54.406975,24.503647],[54.406924,24.503805],[54.407074,24.503829],[54.407134,24.50368]]]}},{"type":"Feature","properties":{},"geometry":{"type":"Polygon","coordinates":[[[54.40961,24.504393],[54.409259,24.504094],[54.408545,24.504084],[54.40834,24.504344],[54.408635,24.504682],[54.409349,24.504692],[54.40961,24.504393]]]}},{"type":"Feature","properties":{},"geometry":{"type":"Polygon","coordinates":[[[54.408028,24.505741],[54.407805,24.505724],[54.407807,24.505818],[54.408033,24.505842],[54.408028,24.505741]]]}},{"type":"Feature","properties":{},"geometry":{"type":"Polygon","coordinates":[[[54.409472,24.506175],[54.409587,24.506114],[54.409672,24.506021],[54.409717,24.505908],[54.409719,24.505787],[54.40968,24.50568],[54.409606,24.50559],[54.409506,24.505526],[54.409388,24.505493],[54.409203,24.505494],[54.409087,24.505531],[54.408989,24.5056],[54.40892,24.505693],[54.408886,24.5058],[54.408893,24.505921],[54.408944,24.506033],[54.409033,24.506122],[54.40915,24.506179],[54.409342,24.506198],[54.409472,24.506175]]]}},{"type":"Feature","properties":{},"geometry":{"type":"Polygon","coordinates":[[[54.407336,24.506699],[54.407629,24.506391],[54.407472,24.506231],[54.406555,24.50623],[54.40634,24.506454],[54.406648,24.50669],[54.407336,24.506699]]]}},{"type":"Feature","properties":{},"geometry":{"type":"Polygon","coordinates":[[[54.407231,24.50734],[54.407333,24.507251],[54.406919,24.506861],[54.40687,24.506861],[54.406773,24.506948],[54.406806,24.506982],[54.4067,24.507073],[54.406734,24.50711],[54.406628,24.507196],[54.40697,24.507513],[54.407019,24.507514],[54.40712,24.507428],[54.407102,24.50741],[54.407185,24.507339],[54.407231,24.50734]]]}},{"type":"Feature","properties":{},"geometry":{"type":"Polygon","coordinates":[[[54.406644,24.507341],[54.406583,24.507341],[54.40654,24.507369],[54.406659,24.50752],[54.406721,24.507521],[54.406764,24.507492],[54.406644,24.507341]]]}},{"type":"Feature","properties":{},"geometry":{"type":"Polygon","coordinates":[[[54.409709,24.507832],[54.409692,24.507556],[54.409481,24.507344],[54.40942,24.507344],[54.409226,24.507512],[54.409587,24.507874],[54.409648,24.507874],[54.409709,24.507832]]]}},{"type":"Feature","properties":{},"geometry":{"type":"Polygon","coordinates":[[[54.407171,24.507807],[54.407201,24.507774],[54.407167,24.507749],[54.407106,24.507748],[54.407076,24.507781],[54.40711,24.507806],[54.407171,24.507807]]]}},{"type":"Feature","properties":{},"geometry":{"type":"Polygon","coordinates":[[[54.410313,24.507789],[54.41024,24.507791],[54.410204,24.507719],[54.410061,24.50772],[54.409928,24.507755],[54.409794,24.507859],[54.409764,24.507937],[54.409793,24.507979],[54.409865,24.508018],[54.41011,24.507998],[54.410332,24.507855],[54.410313,24.507789]]]}},{"type":"Feature","properties":{},"geometry":{"type":"Polygon","coordinates":[[[54.408925,24.507856],[54.408816,24.507857],[54.408819,24.507919],[54.408785,24.50792],[54.40879,24.508026],[54.40889,24.508025],[54.408889,24.507995],[54.408918,24.507994],[54.408914,24.507905],[54.408927,24.507904],[54.408925,24.507856]]]}},{"type":"Feature","properties":{},"geometry":{"type":"Polygon","coordinates":[[[54.40932,24.508159],[54.409278,24.508116],[54.409217,24.508115],[54.409127,24.508189],[54.40917,24.508232],[54.409231,24.508233],[54.40932,24.508159]]]}},{"type":"Feature","properties":{},"geometry":{"type":"Polygon","coordinates":[[[54.409117,24.508675],[54.409097,24.508646],[54.409158,24.508646],[54.409334,24.508542],[54.409273,24.508456],[54.409201,24.508462],[54.409158,24.5084],[54.409096,24.508399],[54.408953,24.508484],[54.408999,24.508549],[54.408925,24.508607],[54.408944,24.508633],[54.408908,24.508654],[54.408939,24.508697],[54.409057,24.508711],[54.409117,24.508675]]]}},{"type":"Feature","properties":{},"geometry":{"type":"Polygon","coordinates":[[[54.407615,24.508841],[54.407587,24.508811],[54.407526,24.50881],[54.407461,24.50886],[54.407489,24.50889],[54.40755,24.50889],[54.407615,24.508841]]]}},{"type":"Feature","properties":{},"geometry":{"type":"Polygon","coordinates":[[[54.407751,24.509165],[54.407812,24.509166],[54.407864,24.509122],[54.407708,24.508969],[54.407647,24.508968],[54.407595,24.509012],[54.407751,24.509165]]]}},{"type":"Feature","properties":{},"geometry":{"type":"Polygon","coordinates":[[[54.407038,24.509788],[54.407446,24.509794],[54.40758,24.509657],[54.407409,24.509496],[54.407784,24.509501],[54.4079,24.509383],[54.407538,24.50905],[54.407048,24.509043],[54.406926,24.509152],[54.407083,24.509298],[54.406711,24.509293],[54.406571,24.509428],[54.406726,24.509573],[54.406322,24.509567],[54.406162,24.5097],[54.406525,24.510031],[54.407014,24.510038],[54.407179,24.509921],[54.407038,24.509788]]]}},{"type":"Feature","properties":{},"geometry":{"type":"Polygon","coordinates":[[[54.41019,24.509994],[54.410005,24.509826],[54.409944,24.509825],[54.409601,24.510137],[54.409786,24.510306],[54.409847,24.510306],[54.41019,24.509994]]]}},{"type":"Feature","properties":{},"geometry":{"type":"Polygon","coordinates":[[[54.411245,24.482008],[54.411307,24.482009],[54.411484,24.481839],[54.411116,24.48152],[54.411055,24.481519],[54.410882,24.481685],[54.410962,24.481755],[54.411024,24.481756],[54.411092,24.481691],[54.411137,24.481729],[54.411108,24.481757],[54.411152,24.481795],[54.41121,24.481796],[54.41126,24.48184],[54.411161,24.481935],[54.411245,24.482008]]]}},{"type":"Feature","properties":{},"geometry":{"type":"Polygon","coordinates":[[[54.410854,24.481828],[54.410916,24.481829],[54.410945,24.481801],[54.410906,24.481767],[54.410844,24.481766],[54.410815,24.481794],[54.410854,24.481828]]]}},{"type":"Feature","properties":{},"geometry":{"type":"Polygon","coordinates":[[[54.412563,24.482207],[54.412739,24.481932],[54.412378,24.481741],[54.412317,24.48174],[54.412141,24.482015],[54.412501,24.482206],[54.412563,24.482207]]]}},{"type":"Feature","properties":{},"geometry":{"type":"Polygon","coordinates":[[[54.41143,24.482077],[54.411398,24.482052],[54.411337,24.482051],[54.411259,24.482131],[54.41129,24.482157],[54.411351,24.482158],[54.41143,24.482077]]]}},{"type":"Feature","properties":{},"geometry":{"type":"Polygon","coordinates":[[[54.410712,24.485353],[54.410774,24.485354],[54.410882,24.485296],[54.410832,24.485218],[54.410771,24.485217],[54.410662,24.485275],[54.410712,24.485353]]]}},{"type":"Feature","properties":{},"geometry":{"type":"Polygon","coordinates":[[[54.411468,24.48562],[54.411454,24.485589],[54.411393,24.485588],[54.411289,24.485629],[54.411303,24.48566],[54.411365,24.485661],[54.411468,24.48562]]]}},{"type":"Feature","properties":{},"geometry":{"type":"Polygon","coordinates":[[[54.411432,24.48566],[54.411371,24.485659],[54.411314,24.485677],[54.411352,24.485775],[54.411414,24.485776],[54.411471,24.485757],[54.411432,24.48566]]]}},{"type":"Feature","properties":{},"geometry":{"type":"Polygon","coordinates":[[[54.413046,24.487233],[54.413123,24.487451],[54.4134,24.487443],[54.413388,24.487195],[54.413222,24.487198],[54.413223,24.487226],[54.413046,24.487233]]]}},{"type":"Feature","properties":{},"geometry":{"type":"Polygon","coordinates":[[[54.413184,24.487464],[54.413195,24.487709],[54.413524,24.4877],[54.413521,24.487621],[54.413488,24.487621],[54.413484,24.487529],[54.413516,24.487528],[54.413513,24.487454],[54.413184,24.487464]]]}},{"type":"Feature","properties":{},"geometry":{"type":"Polygon","coordinates":[[[54.412898,24.487561],[54.412952,24.48775],[54.4131,24.487731],[54.413046,24.487541],[54.412898,24.487561]]]}},{"type":"Feature","properties":{},"geometry":{"type":"Polygon","coordinates":[[[54.413587,24.48789],[54.413458,24.487892],[54.413461,24.487953],[54.41359,24.487952],[54.413587,24.48789]]]}},{"type":"Feature","properties":{},"geometry":{"type":"Polygon","coordinates":[[[54.415641,24.487942],[54.415642,24.487969],[54.415751,24.487968],[54.415745,24.487766],[54.415061,24.48777],[54.415061,24.487814],[54.415126,24.487815],[54.415126,24.488212],[54.41537,24.488213],[54.41537,24.487962],[54.415619,24.487961],[54.415619,24.487942],[54.415641,24.487942]]]}},{"type":"Feature","properties":{},"geometry":{"type":"Polygon","coordinates":[[[54.414972,24.488235],[54.414778,24.48823],[54.414775,24.488325],[54.414968,24.48833],[54.414972,24.488235]]]}},{"type":"Feature","properties":{},"geometry":{"type":"Polygon","coordinates":[[[54.415566,24.488292],[54.415411,24.488295],[54.415412,24.488312],[54.415257,24.488313],[54.415258,24.488396],[54.415436,24.488396],[54.415435,24.488333],[54.415568,24.48833],[54.415566,24.488292]]]}},{"type":"Feature","properties":{},"geometry":{"type":"Polygon","coordinates":[[[54.414976,24.488355],[54.414791,24.488357],[54.414795,24.488477],[54.414979,24.488475],[54.414976,24.488355]]]}},{"type":"Feature","properties":{},"geometry":{"type":"Polygon","coordinates":[[[54.415432,24.488438],[54.415351,24.488437],[54.41535,24.488483],[54.415431,24.488484],[54.415432,24.488438]]]}},{"type":"Feature","properties":{},"geometry":{"type":"Polygon","coordinates":[[[54.415543,24.488642],[54.415402,24.488643],[54.415404,24.488692],[54.415545,24.48869],[54.415543,24.488642]]]}},{"type":"Feature","properties":{},"geometry":{"type":"Polygon","coordinates":[[[54.410495,24.488404],[54.41036,24.488415],[54.410366,24.488463],[54.410077,24.488491],[54.410122,24.488927],[54.41065,24.488887],[54.410638,24.488768],[54.410905,24.488745],[54.410862,24.48833],[54.41049,24.488356],[54.410495,24.488404]]]}},{"type":"Feature","properties":{},"geometry":{"type":"Polygon","coordinates":[[[54.411113,24.488869],[54.411086,24.48893],[54.411136,24.488998],[54.411249,24.488997],[54.411372,24.48916],[54.4112,24.489252],[54.411253,24.489335],[54.411314,24.489336],[54.411969,24.488973],[54.412002,24.489038],[54.411429,24.489353],[54.411524,24.489506],[54.411599,24.489502],[54.411652,24.489592],[54.411911,24.489641],[54.411894,24.489718],[54.412059,24.489755],[54.41212,24.489755],[54.412285,24.489128],[54.412411,24.48913],[54.412444,24.489114],[54.412741,24.489679],[54.412803,24.48968],[54.412956,24.4896],[54.412923,24.48955],[54.413136,24.489455],[54.413187,24.48934],[54.413261,24.489348],[54.413305,24.489173],[54.412655,24.488956],[54.412659,24.488906],[54.41288,24.488938],[54.413489,24.488848],[54.413445,24.488556],[54.412852,24.488619],[54.412817,24.488588],[54.412756,24.488587],[54.412659,24.488638],[54.412595,24.488585],[54.412673,24.488545],[54.412558,24.488398],[54.41269,24.487987],[54.412908,24.4881],[54.412969,24.488101],[54.413104,24.487954],[54.412745,24.487759],[54.412516,24.487718],[54.412181,24.487704],[54.412203,24.487924],[54.412369,24.487934],[54.412381,24.487909],[54.412416,24.487912],[54.412278,24.488483],[54.412263,24.488486],[54.411981,24.487983],[54.412183,24.487944],[54.412157,24.487708],[54.412096,24.487708],[54.411807,24.487782],[54.41152,24.487956],[54.411352,24.488129],[54.41151,24.48824],[54.411571,24.488241],[54.411747,24.488097],[54.411967,24.488473],[54.411883,24.488712],[54.411214,24.488505],[54.411153,24.488504],[54.411109,24.488599],[54.411295,24.488667],[54.411258,24.488851],[54.411113,24.488869]],[[54.412002,24.489323],[54.411967,24.489492],[54.411834,24.489464],[54.41175,24.489351],[54.411903,24.489264],[54.411901,24.489301],[54.412002,24.489323]],[[54.412955,24.489332],[54.412877,24.489369],[54.412827,24.489256],[54.412862,24.489162],[54.413002,24.489206],[54.412955,24.489332]]]}},{"type":"Feature","properties":{},"geometry":{"type":"Polygon","coordinates":[[[54.410155,24.489183],[54.410561,24.489152],[54.410613,24.489614],[54.410826,24.489601],[54.410762,24.489025],[54.410143,24.489075],[54.410155,24.489183]]]}},{"type":"Feature","properties":{},"geometry":{"type":"Polygon","coordinates":[[[54.410884,24.489736],[54.410774,24.489738],[54.410778,24.489781],[54.410888,24.489778],[54.410884,24.489736]]]}},{"type":"Feature","properties":{},"geometry":{"type":"Polygon","coordinates":[[[54.410405,24.48949],[54.410195,24.489504],[54.410265,24.490089],[54.410885,24.490035],[54.41087,24.489907],[54.410509,24.489936],[54.410457,24.489926],[54.410405,24.48949]]]}},{"type":"Feature","properties":{},"geometry":{"type":"Polygon","coordinates":[[[54.412502,24.490007],[54.412498,24.489945],[54.412367,24.489948],[54.412371,24.490011],[54.412502,24.490007]]]}},{"type":"Feature","properties":{},"geometry":{"type":"Polygon","coordinates":[[[54.411148,24.490662],[54.41099,24.49066],[54.41099,24.490712],[54.411147,24.490714],[54.411148,24.490662]]]}},{"type":"Feature","properties":{},"geometry":{"type":"Polygon","coordinates":[[[54.411224,24.490795],[54.411093,24.490794],[54.411093,24.490887],[54.411224,24.490888],[54.411224,24.490795]]]}},{"type":"Feature","properties":{},"geometry":{"type":"Polygon","coordinates":[[[54.413413,24.490645],[54.412863,24.490639],[54.412855,24.491131],[54.413395,24.491138],[54.413397,24.490975],[54.413113,24.490971],[54.413116,24.49081],[54.413411,24.490814],[54.413413,24.490645]]]}},{"type":"Feature","properties":{},"geometry":{"type":"Polygon","coordinates":[[[54.410355,24.490816],[54.410351,24.491029],[54.410699,24.491033],[54.410706,24.490766],[54.410539,24.490765],[54.410537,24.490812],[54.410355,24.490816]]]}},{"type":"Feature","properties":{},"geometry":{"type":"Polygon","coordinates":[[[54.411221,24.490892],[54.411085,24.490893],[54.411087,24.49095],[54.411223,24.490949],[54.411221,24.490892]]]}},{"type":"Feature","properties":{},"geometry":{"type":"Polygon","coordinates":[[[54.412875,24.491187],[54.412768,24.491184],[54.412767,24.491223],[54.412874,24.491226],[54.412875,24.491187]]]}},{"type":"Feature","properties":{},"geometry":{"type":"Polygon","coordinates":[[[54.411219,24.491503],[54.411222,24.491426],[54.411124,24.491424],[54.41112,24.4915],[54.411219,24.491503]]]}},{"type":"Feature","properties":{},"geometry":{"type":"Polygon","coordinates":[[[54.41083,24.491311],[54.410396,24.491297],[54.410383,24.491621],[54.410816,24.491635],[54.41083,24.491311]]]}},{"type":"Feature","properties":{},"geometry":{"type":"Polygon","coordinates":[[[54.411931,24.491223],[54.411374,24.49119],[54.411302,24.492099],[54.41186,24.492132],[54.411931,24.491223]]]}},{"type":"Feature","properties":{},"geometry":{"type":"Polygon","coordinates":[[[54.412186,24.491699],[54.412047,24.491696],[54.412046,24.491725],[54.412185,24.491729],[54.412186,24.491699]]]}},{"type":"Feature","properties":{},"geometry":{"type":"Polygon","coordinates":[[[54.411709,24.492296],[54.41152,24.492291],[54.411517,24.492379],[54.411706,24.492383],[54.411709,24.492296]]]}},{"type":"Feature","properties":{},"geometry":{"type":"Polygon","coordinates":[[[54.412155,24.492461],[54.411912,24.492458],[54.411911,24.492556],[54.412154,24.492558],[54.412155,24.492461]]]}},{"type":"Feature","properties":{},"geometry":{"type":"Polygon","coordinates":[[[54.415103,24.496914],[54.41501,24.49686],[54.414949,24.496859],[54.414838,24.497017],[54.414931,24.49707],[54.414992,24.497071],[54.415103,24.496914]]]}},{"type":"Feature","properties":{},"geometry":{"type":"Polygon","coordinates":[[[54.41181,24.4975],[54.411496,24.497386],[54.411435,24.497385],[54.411342,24.497421],[54.411637,24.498181],[54.411763,24.498911],[54.411943,24.498902],[54.412125,24.498673],[54.412019,24.498054],[54.412041,24.498045],[54.41181,24.4975]]]}},{"type":"Feature","properties":{},"geometry":{"type":"Polygon","coordinates":[[[54.410563,24.497708],[54.410549,24.49887],[54.410687,24.499017],[54.410993,24.499029],[54.410985,24.497515],[54.410924,24.497514],[54.410737,24.497559],[54.410563,24.497708]]]}},{"type":"Feature","properties":{},"geometry":{"type":"Polygon","coordinates":[[[54.41317,24.503099],[54.41329,24.502809],[54.413379,24.502328],[54.412899,24.502033],[54.412741,24.501881],[54.412655,24.501769],[54.412574,24.501625],[54.412526,24.501486],[54.411829,24.50147],[54.411865,24.501671],[54.411984,24.501988],[54.412069,24.502145],[54.412221,24.502352],[54.412476,24.502654],[54.412721,24.502818],[54.412791,24.50289],[54.41286,24.502971],[54.412945,24.503117],[54.413098,24.503119],[54.41317,24.503099]]]}},{"type":"Feature","properties":{},"geometry":{"type":"Polygon","coordinates":[[[54.411529,24.502276],[54.411467,24.502275],[54.411396,24.502348],[54.411609,24.502521],[54.41167,24.502522],[54.411742,24.502449],[54.411529,24.502276]]]}},{"type":"Feature","properties":{},"geometry":{"type":"Polygon","coordinates":[[[54.411356,24.502864],[54.411354,24.502702],[54.411224,24.502679],[54.411155,24.502628],[54.411149,24.502248],[54.410886,24.502244],[54.410852,24.502837],[54.411356,24.502864]]]}},{"type":"Feature","properties":{},"geometry":{"type":"Polygon","coordinates":[[[54.411512,24.502535],[54.411402,24.502534],[54.411399,24.502657],[54.411509,24.502659],[54.411512,24.502535]]]}},{"type":"Feature","properties":{},"geometry":{"type":"Polygon","coordinates":[[[54.411794,24.502804],[54.411855,24.502805],[54.411957,24.502748],[54.411796,24.502509],[54.411735,24.502508],[54.411633,24.502565],[54.411794,24.502804]]]}},{"type":"Feature","properties":{},"geometry":{"type":"Polygon","coordinates":[[[54.411657,24.50276],[54.411596,24.502759],[54.411511,24.502794],[54.411588,24.502946],[54.411649,24.502947],[54.411733,24.502911],[54.411657,24.50276]]]}},{"type":"Feature","properties":{},"geometry":{"type":"Polygon","coordinates":[[[54.415448,24.50408],[54.415408,24.504032],[54.415347,24.504031],[54.415327,24.504044],[54.415311,24.504031],[54.414985,24.504027],[54.414924,24.504087],[54.414826,24.504005],[54.414463,24.504001],[54.414305,24.504158],[54.414482,24.504311],[54.414844,24.504316],[54.414913,24.504258],[54.415003,24.504337],[54.41533,24.504341],[54.415476,24.504219],[54.415602,24.504328],[54.415811,24.504331],[54.415988,24.504182],[54.415792,24.50402],[54.415583,24.504018],[54.415452,24.504147],[54.415391,24.504097],[54.415422,24.504097],[54.415448,24.50408]]]}},{"type":"Feature","properties":{},"geometry":{"type":"Polygon","coordinates":[[[54.414508,24.504375],[54.414312,24.504214],[54.413853,24.504207],[54.413694,24.504365],[54.413872,24.504518],[54.414331,24.504524],[54.414508,24.504375]]]}},{"type":"Feature","properties":{},"geometry":{"type":"Polygon","coordinates":[[[54.414868,24.50483],[54.414671,24.504668],[54.414345,24.504664],[54.414186,24.504821],[54.414364,24.504974],[54.41469,24.504979],[54.414868,24.50483]]]}},{"type":"Feature","properties":{},"geometry":{"type":"Polygon","coordinates":[[[54.415252,24.505154],[54.415313,24.505155],[54.415377,24.50511],[54.41533,24.505069],[54.415428,24.504987],[54.415232,24.504826],[54.414946,24.504822],[54.414787,24.504979],[54.414965,24.505132],[54.415236,24.505136],[54.415252,24.505154]]]}},{"type":"Feature","properties":{},"geometry":{"type":"Polygon","coordinates":[[[54.410773,24.506792],[54.410797,24.506728],[54.410732,24.506708],[54.410747,24.506615],[54.410678,24.506576],[54.410546,24.50654],[54.410484,24.506539],[54.41031,24.506559],[54.410237,24.50661],[54.410237,24.50666],[54.410274,24.506729],[54.410322,24.506739],[54.410441,24.506802],[54.410588,24.506808],[54.410773,24.506792]]]}},{"type":"Feature","properties":{},"geometry":{"type":"Polygon","coordinates":[[[54.411043,24.506943],[54.410977,24.506911],[54.410916,24.506911],[54.410893,24.506951],[54.410786,24.506937],[54.410732,24.506993],[54.410671,24.507105],[54.410665,24.507265],[54.410708,24.507339],[54.410823,24.507348],[54.410904,24.507326],[54.410922,24.507285],[54.41101,24.507189],[54.411043,24.506943]]]}},{"type":"Feature","properties":{},"geometry":{"type":"Polygon","coordinates":[[[54.410751,24.508596],[54.410748,24.508696],[54.411097,24.508706],[54.4111,24.508608],[54.410751,24.508596]]]}},{"type":"Feature","properties":{},"geometry":{"type":"Polygon","coordinates":[[[54.411703,24.508958],[54.411519,24.508953],[54.41151,24.509161],[54.411694,24.509167],[54.411703,24.508958]]]}},{"type":"Feature","properties":{},"geometry":{"type":"Polygon","coordinates":[[[54.41076,24.509063],[54.410637,24.509064],[54.410639,24.50916],[54.410762,24.50916],[54.41076,24.509063]]]}},{"type":"Feature","properties":{},"geometry":{"type":"Polygon","coordinates":[[[54.411477,24.50934],[54.411487,24.508984],[54.411187,24.508983],[54.411173,24.509309],[54.411246,24.509311],[54.411245,24.509335],[54.411477,24.50934]]]}},{"type":"Feature","properties":{},"geometry":{"type":"Polygon","coordinates":[[[54.411171,24.509148],[54.411062,24.509147],[54.41106,24.509218],[54.41117,24.50922],[54.411171,24.509148]]]}},{"type":"Feature","properties":{},"geometry":{"type":"Polygon","coordinates":[[[54.411678,24.509265],[54.411498,24.509262],[54.411494,24.509479],[54.411673,24.509482],[54.411678,24.509265]]]}},{"type":"Feature","properties":{},"geometry":{"type":"Polygon","coordinates":[[[54.411448,24.509523],[54.411445,24.509433],[54.410662,24.509449],[54.410666,24.509543],[54.411448,24.509523]]]}},{"type":"Feature","properties":{},"geometry":{"type":"Polygon","coordinates":[[[54.411272,24.509837],[54.411333,24.509838],[54.411432,24.509798],[54.411355,24.509641],[54.411294,24.50964],[54.411195,24.50968],[54.411272,24.509837]]]}},{"type":"Feature","properties":{},"geometry":{"type":"Polygon","coordinates":[[[54.418573,24.481898],[54.418468,24.4819],[54.418469,24.481922],[54.418575,24.48192],[54.418573,24.481898]]]}},{"type":"Feature","properties":{},"geometry":{"type":"Polygon","coordinates":[[[54.419138,24.482506],[54.419135,24.482537],[54.418758,24.482495],[54.41876,24.48248],[54.418372,24.482446],[54.418356,24.48258],[54.418743,24.482614],[54.41875,24.482555],[54.419127,24.482596],[54.419133,24.482556],[54.419131,24.482578],[54.419525,24.482609],[54.419529,24.48257],[54.419598,24.482572],[54.419631,24.482239],[54.419809,24.482261],[54.419793,24.482393],[54.42018,24.482427],[54.420178,24.482439],[54.420926,24.482526],[54.420945,24.482404],[54.420578,24.482364],[54.42058,24.482347],[54.420205,24.482307],[54.420208,24.482281],[54.420578,24.482324],[54.420588,24.482262],[54.42027,24.482219],[54.419879,24.482189],[54.419817,24.482188],[54.419814,24.482218],[54.419635,24.4822],[54.419636,24.48219],[54.419722,24.482194],[54.419725,24.482178],[54.4198,24.482179],[54.4198,24.48213],[54.419701,24.482118],[54.419831,24.482116],[54.419825,24.482153],[54.420207,24.482195],[54.420228,24.482064],[54.419846,24.482022],[54.419836,24.482083],[54.419835,24.482019],[54.419613,24.482021],[54.419618,24.481986],[54.419233,24.481946],[54.419214,24.482077],[54.419598,24.482116],[54.419587,24.482178],[54.419586,24.482153],[54.4192,24.482113],[54.419207,24.482064],[54.418829,24.482028],[54.418837,24.481991],[54.418739,24.481984],[54.418724,24.482054],[54.418818,24.482062],[54.418812,24.482107],[54.41919,24.482143],[54.419166,24.482307],[54.419413,24.482336],[54.419311,24.482332],[54.419304,24.482402],[54.41916,24.482393],[54.419163,24.482372],[54.418784,24.482322],[54.418399,24.482284],[54.418381,24.482416],[54.419138,24.482506]],[[54.419613,24.482023],[54.419615,24.482111],[54.4196,24.482111],[54.419613,24.482023]]]}},{"type":"Feature","properties":{},"geometry":{"type":"Polygon","coordinates":[[[54.418695,24.482922],[54.418803,24.482926],[54.418796,24.482994],[54.419189,24.483025],[54.4192,24.48293],[54.419551,24.482961],[54.419568,24.482829],[54.419183,24.482794],[54.419173,24.482879],[54.418849,24.482852],[54.418851,24.482817],[54.418711,24.482812],[54.418722,24.482713],[54.418335,24.482684],[54.418321,24.48282],[54.4187,24.482848],[54.418695,24.482922]]]}},{"type":"Feature","properties":{},"geometry":{"type":"Polygon","coordinates":[[[54.418692,24.482873],[54.418305,24.48286],[54.418299,24.482982],[54.418686,24.482995],[54.418692,24.482873]]]}},{"type":"Feature","properties":{},"geometry":{"type":"Polygon","coordinates":[[[54.415671,24.487682],[54.415551,24.487684],[54.415554,24.487728],[54.415674,24.487726],[54.415671,24.487682]]]}},{"type":"Feature","properties":{},"geometry":{"type":"Polygon","coordinates":[[[54.417324,24.487723],[54.417177,24.487723],[54.417178,24.487769],[54.417325,24.487769],[54.417324,24.487723]]]}},{"type":"Feature","properties":{},"geometry":{"type":"Polygon","coordinates":[[[54.415887,24.487747],[54.415794,24.487745],[54.415792,24.487789],[54.415885,24.487791],[54.415887,24.487747]]]}},{"type":"Feature","properties":{},"geometry":{"type":"Polygon","coordinates":[[[54.416103,24.487769],[54.415936,24.487764],[54.415935,24.487794],[54.416102,24.487798],[54.416103,24.487769]]]}},{"type":"Feature","properties":{},"geometry":{"type":"Polygon","coordinates":[[[54.416254,24.487801],[54.415936,24.487813],[54.415944,24.487943],[54.416262,24.487931],[54.416254,24.487801]]]}},{"type":"Feature","properties":{},"geometry":{"type":"Polygon","coordinates":[[[54.416244,24.487954],[54.415947,24.48796],[54.415948,24.488016],[54.416245,24.48801],[54.416244,24.487954]]]}},{"type":"Feature","properties":{},"geometry":{"type":"Polygon","coordinates":[[[54.416665,24.488042],[54.416594,24.488042],[54.416595,24.488021],[54.416666,24.48802],[54.416665,24.487971],[54.416381,24.487974],[54.416381,24.48802],[54.416274,24.488023],[54.41629,24.488306],[54.416414,24.488304],[54.416418,24.488364],[54.416526,24.488363],[54.416501,24.488233],[54.41675,24.488241],[54.416746,24.488148],[54.416603,24.488148],[54.416603,24.488135],[54.416669,24.488133],[54.416665,24.488042]],[[54.416422,24.488137],[54.416421,24.488121],[54.416531,24.488123],[54.416554,24.488123],[54.416422,24.488137]],[[54.41653,24.488179],[54.416531,24.488178],[54.416531,24.488179],[54.41653,24.488179]]]}},{"type":"Feature","properties":{},"geometry":{"type":"Polygon","coordinates":[[[54.41571,24.4882],[54.415586,24.488201],[54.41559,24.488312],[54.415714,24.488311],[54.41571,24.4882]]]}},{"type":"Feature","properties":{},"geometry":{"type":"Polygon","coordinates":[[[54.416535,24.488327],[54.41665,24.48833],[54.416652,24.488304],[54.416749,24.488305],[54.416748,24.488248],[54.416644,24.488248],[54.416644,24.488266],[54.416538,24.488262],[54.416535,24.488327]]]}},{"type":"Feature","properties":{},"geometry":{"type":"Polygon","coordinates":[[[54.416527,24.488493],[54.416528,24.48842],[54.416348,24.488417],[54.416349,24.488388],[54.416274,24.488387],[54.416276,24.488277],[54.416174,24.488276],[54.416173,24.488349],[54.416084,24.488352],[54.416088,24.488388],[54.416172,24.488387],[54.41617,24.488488],[54.416527,24.488493]]]}},{"type":"Feature","properties":{},"geometry":{"type":"Polygon","coordinates":[[[54.415696,24.488385],[54.415695,24.488336],[54.41554,24.488337],[54.415541,24.488386],[54.415696,24.488385]]]}},{"type":"Feature","properties":{},"geometry":{"type":"Polygon","coordinates":[[[54.416725,24.488369],[54.416634,24.488367],[54.416632,24.488406],[54.416723,24.488408],[54.416725,24.488369]]]}},{"type":"Feature","properties":{},"geometry":{"type":"Polygon","coordinates":[[[54.416696,24.488436],[54.41659,24.488433],[54.416588,24.488477],[54.416694,24.488479],[54.416696,24.488436]]]}},{"type":"Feature","properties":{},"geometry":{"type":"Polygon","coordinates":[[[54.416252,24.488881],[54.416162,24.488881],[54.416166,24.488988],[54.416257,24.488988],[54.416252,24.488881]]]}},{"type":"Feature","properties":{},"geometry":{"type":"Polygon","coordinates":[[[54.416058,24.48884],[54.415938,24.48884],[54.415945,24.48904],[54.416065,24.48904],[54.416058,24.48884]]]}},{"type":"Feature","properties":{},"geometry":{"type":"Polygon","coordinates":[[[54.415679,24.488851],[54.415558,24.488851],[54.415562,24.489051],[54.415683,24.489051],[54.415679,24.488851]]]}},{"type":"Feature","properties":{},"geometry":{"type":"Polygon","coordinates":[[[54.415873,24.489095],[54.415658,24.489104],[54.41566,24.489146],[54.415876,24.489139],[54.415873,24.489095]]]}},{"type":"Feature","properties":{},"geometry":{"type":"Polygon","coordinates":[[[54.415835,24.489171],[54.415723,24.489168],[54.41572,24.489249],[54.415833,24.489251],[54.415835,24.489171]]]}},{"type":"Feature","properties":{},"geometry":{"type":"Polygon","coordinates":[[[54.415359,24.489676],[54.416292,24.489655],[54.41629,24.489586],[54.416269,24.489586],[54.416267,24.489502],[54.415355,24.489522],[54.415359,24.489676]]]}},{"type":"Feature","properties":{},"geometry":{"type":"Polygon","coordinates":[[[54.417179,24.501684],[54.417101,24.501757],[54.417158,24.501818],[54.41712,24.501901],[54.416998,24.501948],[54.417193,24.502088],[54.417254,24.502089],[54.41747,24.501885],[54.41724,24.501685],[54.417179,24.501684]]]}},{"type":"Feature","properties":{},"geometry":{"type":"Polygon","coordinates":[[[54.416758,24.501965],[54.416757,24.501928],[54.41682,24.501934],[54.416865,24.501923],[54.41685,24.501875],[54.416744,24.501886],[54.416754,24.501916],[54.416511,24.501927],[54.416512,24.501974],[54.416758,24.501965]]]}},{"type":"Feature","properties":{},"geometry":{"type":"Polygon","coordinates":[[[54.41759,24.502323],[54.417529,24.502322],[54.417487,24.50235],[54.417516,24.502387],[54.417577,24.502387],[54.417619,24.50236],[54.41759,24.502323]]]}},{"type":"Feature","properties":{},"geometry":{"type":"Polygon","coordinates":[[[54.417885,24.502453],[54.417824,24.502452],[54.4178,24.502477],[54.417847,24.502513],[54.417908,24.502514],[54.417932,24.502489],[54.417885,24.502453]]]}},{"type":"Feature","properties":{},"geometry":{"type":"Polygon","coordinates":[[[54.415526,24.502419],[54.41544,24.502416],[54.415435,24.502475],[54.415522,24.502478],[54.415526,24.502419]]]}},{"type":"Feature","properties":{},"geometry":{"type":"Polygon","coordinates":[[[54.417504,24.502442],[54.41736,24.502441],[54.41736,24.502556],[54.4175,24.502562],[54.417504,24.502442]]]}},{"type":"Feature","properties":{},"geometry":{"type":"Polygon","coordinates":[[[54.416995,24.502628],[54.416831,24.502629],[54.416831,24.502653],[54.416996,24.502652],[54.416995,24.502628]]]}},{"type":"Feature","properties":{},"geometry":{"type":"Polygon","coordinates":[[[54.415468,24.502603],[54.415329,24.502606],[54.415331,24.502639],[54.415469,24.502637],[54.415468,24.502603]]]}},{"type":"Feature","properties":{},"geometry":{"type":"Polygon","coordinates":[[[54.415466,24.502644],[54.415334,24.502643],[54.415333,24.502681],[54.415466,24.502682],[54.415466,24.502644]]]}},{"type":"Feature","properties":{},"geometry":{"type":"Polygon","coordinates":[[[54.417408,24.502771],[54.417402,24.50271],[54.417054,24.502718],[54.417054,24.502707],[54.416884,24.502702],[54.416881,24.502761],[54.416998,24.502766],[54.416999,24.502793],[54.417408,24.502771]]]}},{"type":"Feature","properties":{},"geometry":{"type":"Polygon","coordinates":[[[54.415618,24.502785],[54.415504,24.502779],[54.4155,24.502806],[54.415614,24.502812],[54.415618,24.502785]]]}},{"type":"Feature","properties":{},"geometry":{"type":"Polygon","coordinates":[[[54.415458,24.502778],[54.415335,24.502784],[54.415341,24.502837],[54.415465,24.502832],[54.415458,24.502778]]]}},{"type":"Feature","properties":{},"geometry":{"type":"Polygon","coordinates":[[[54.415815,24.502783],[54.415628,24.502778],[54.415624,24.502856],[54.415811,24.502861],[54.415815,24.502783]]]}},{"type":"Feature","properties":{},"geometry":{"type":"Polygon","coordinates":[[[54.415497,24.502843],[54.415378,24.50285],[54.415386,24.5029],[54.415505,24.502893],[54.415497,24.502843]]]}},{"type":"Feature","properties":{},"geometry":{"type":"Polygon","coordinates":[[[54.417372,24.503102],[54.417374,24.50306],[54.417206,24.503055],[54.417204,24.503097],[54.417372,24.503102]]]}},{"type":"Feature","properties":{},"geometry":{"type":"Polygon","coordinates":[[[54.417526,24.503139],[54.417404,24.503136],[54.4174,24.503226],[54.417605,24.503229],[54.417604,24.503168],[54.417525,24.503167],[54.417526,24.503139]]]}},{"type":"Feature","properties":{},"geometry":{"type":"Polygon","coordinates":[[[54.415728,24.503421],[54.415573,24.503417],[54.415571,24.503473],[54.415726,24.503477],[54.415728,24.503421]]]}},{"type":"Feature","properties":{},"geometry":{"type":"Polygon","coordinates":[[[54.415852,24.503558],[54.415748,24.503558],[54.415751,24.503641],[54.415855,24.50364],[54.415852,24.503558]]]}},{"type":"Feature","properties":{},"geometry":{"type":"Polygon","coordinates":[[[54.417698,24.50357],[54.417603,24.503568],[54.417595,24.503785],[54.41769,24.503787],[54.417698,24.50357]]]}},{"type":"Feature","properties":{},"geometry":{"type":"Polygon","coordinates":[[[54.415304,24.504021],[54.415424,24.504009],[54.415415,24.503972],[54.415295,24.503983],[54.415304,24.504021]]]}},{"type":"Feature","properties":{},"geometry":{"type":"Polygon","coordinates":[[[54.41561,24.504498],[54.41546,24.504496],[54.41549,24.504472],[54.415441,24.504421],[54.41538,24.504421],[54.415335,24.504456],[54.415373,24.504495],[54.415201,24.504652],[54.415379,24.504805],[54.415629,24.504809],[54.415806,24.50466],[54.41561,24.504498]]]}},{"type":"Feature","properties":{},"geometry":{"type":"Polygon","coordinates":[[[54.415784,24.50493],[54.415722,24.504929],[54.415676,24.504965],[54.415733,24.505026],[54.415794,24.505027],[54.415841,24.50499],[54.415784,24.50493]]]}},{"type":"Feature","properties":{},"geometry":{"type":"Polygon","coordinates":[[[54.418939,24.480052],[54.418812,24.480042],[54.418806,24.480077],[54.418882,24.480087],[54.418881,24.48013],[54.41898,24.480132],[54.418981,24.480071],[54.418935,24.48007],[54.418939,24.480052]]]}},{"type":"Feature","properties":{},"geometry":{"type":"Polygon","coordinates":[[[54.420657,24.480301],[54.42066,24.480236],[54.420508,24.480232],[54.420501,24.480363],[54.420901,24.480388],[54.420903,24.480342],[54.420695,24.480334],[54.420696,24.480302],[54.420657,24.480301]]]}},{"type":"Feature","properties":{},"geometry":{"type":"Polygon","coordinates":[[[54.419993,24.480828],[54.419868,24.480821],[54.419862,24.480876],[54.419987,24.480883],[54.419993,24.480828]]]}},{"type":"Feature","properties":{},"geometry":{"type":"Polygon","coordinates":[[[54.418898,24.481561],[54.418517,24.481523],[54.418499,24.481658],[54.41888,24.481695],[54.418898,24.481561]]]}},{"type":"Feature","properties":{},"geometry":{"type":"Polygon","coordinates":[[[54.419322,24.48163],[54.418921,24.481588],[54.418899,24.481741],[54.4193,24.481784],[54.419322,24.48163]]]}},{"type":"Feature","properties":{},"geometry":{"type":"Polygon","coordinates":[[[54.419748,24.48167],[54.41936,24.48163],[54.41934,24.481767],[54.419728,24.481807],[54.419748,24.48167]]]}},{"type":"Feature","properties":{},"geometry":{"type":"Polygon","coordinates":[[[54.420008,24.481705],[54.420002,24.481768],[54.4202,24.481772],[54.420202,24.48172],[54.420008,24.481705]]]}},{"type":"Feature","properties":{},"geometry":{"type":"Polygon","coordinates":[[[54.418733,24.481824],[54.41873,24.481743],[54.418674,24.481742],[54.418672,24.481686],[54.418482,24.48169],[54.418488,24.48183],[54.418733,24.481824]]]}},{"type":"Feature","properties":{},"geometry":{"type":"Polygon","coordinates":[[[54.418868,24.481775],[54.418765,24.481769],[54.418752,24.481849],[54.418855,24.481855],[54.418868,24.481775]]]}},{"type":"Feature","properties":{},"geometry":{"type":"Polygon","coordinates":[[[54.420621,24.481788],[54.420222,24.481747],[54.420198,24.48191],[54.420597,24.481951],[54.420621,24.481788]]]}},{"type":"Feature","properties":{},"geometry":{"type":"Polygon","coordinates":[[[54.42104,24.48183],[54.420654,24.481812],[54.420646,24.481945],[54.421032,24.481962],[54.42104,24.48183]]]}},{"type":"Feature","properties":{},"geometry":{"type":"Polygon","coordinates":[[[54.420171,24.481889],[54.41979,24.481855],[54.419773,24.48199],[54.420155,24.482024],[54.420171,24.481889]]]}},{"type":"Feature","properties":{},"geometry":{"type":"Polygon","coordinates":[[[54.420987,24.482135],[54.421007,24.482012],[54.420636,24.481969],[54.420616,24.482092],[54.420987,24.482135]]]}},{"type":"Feature","properties":{},"geometry":{"type":"Polygon","coordinates":[[[54.420468,24.48202],[54.420316,24.481998],[54.420292,24.482088],[54.420444,24.482109],[54.420468,24.48202]]]}},{"type":"Feature","properties":{},"geometry":{"type":"Polygon","coordinates":[[[54.418817,24.482124],[54.418433,24.482083],[54.418414,24.48221],[54.418798,24.482252],[54.418817,24.482124]]]}},{"type":"Feature","properties":{},"geometry":{"type":"Polygon","coordinates":[[[54.420967,24.48224],[54.420596,24.482211],[54.420582,24.482331],[54.420954,24.482361],[54.420967,24.48224]]]}},{"type":"Feature","properties":{},"geometry":{"type":"Polygon","coordinates":[[[54.420871,24.48289],[54.420888,24.482769],[54.420519,24.482732],[54.420522,24.482703],[54.420155,24.48267],[54.420158,24.482647],[54.420528,24.482676],[54.420525,24.482693],[54.420895,24.482727],[54.420916,24.482582],[54.420174,24.482516],[54.420176,24.482499],[54.419778,24.482464],[54.419755,24.48266],[54.42013,24.482694],[54.420124,24.482737],[54.420511,24.482771],[54.4205,24.482853],[54.420871,24.48289]],[[54.420543,24.482564],[54.420544,24.482564],[54.420539,24.4826],[54.420543,24.482564]]]}},{"type":"Feature","properties":{},"geometry":{"type":"Polygon","coordinates":[[[54.419514,24.482659],[54.41913,24.482618],[54.41911,24.48275],[54.419494,24.482791],[54.419514,24.482659]]]}},{"type":"Feature","properties":{},"geometry":{"type":"Polygon","coordinates":[[[54.419055,24.482687],[54.418957,24.482661],[54.418896,24.48266],[54.418868,24.482746],[54.418965,24.482773],[54.419026,24.482773],[54.419055,24.482687]]]}},{"type":"Feature","properties":{},"geometry":{"type":"Polygon","coordinates":[[[54.420123,24.482738],[54.41974,24.482697],[54.419721,24.482829],[54.420103,24.48287],[54.420123,24.482738]]]}},{"type":"Feature","properties":{},"geometry":{"type":"Polygon","coordinates":[[[54.420388,24.482858],[54.4203,24.48283],[54.420238,24.482829],[54.420204,24.48292],[54.420293,24.482948],[54.420354,24.482948],[54.420388,24.482858]]]}},{"type":"Feature","properties":{},"geometry":{"type":"Polygon","coordinates":[[[54.420021,24.482886],[54.419638,24.482849],[54.41962,24.482984],[54.420003,24.48302],[54.420021,24.482886]]]}},{"type":"Feature","properties":{},"geometry":{"type":"Polygon","coordinates":[[[54.420852,24.483007],[54.420483,24.482969],[54.420465,24.483089],[54.420835,24.483127],[54.420852,24.483007]]]}},{"type":"Feature","properties":{},"geometry":{"type":"Polygon","coordinates":[[[54.419984,24.483163],[54.419997,24.483043],[54.419611,24.483014],[54.419599,24.483133],[54.419984,24.483163]]]}},{"type":"Feature","properties":{},"geometry":{"type":"Polygon","coordinates":[[[54.420432,24.483032],[54.420032,24.482999],[54.420014,24.483161],[54.420414,24.483194],[54.420432,24.483032]]]}},{"type":"Feature","properties":{},"geometry":{"type":"Polygon","coordinates":[[[54.420839,24.483149],[54.420459,24.483122],[54.420446,24.48325],[54.420826,24.483278],[54.420839,24.483149]]]}},{"type":"Feature","properties":{},"geometry":{"type":"Polygon","coordinates":[[[54.41953,24.489319],[54.419695,24.489319],[54.419694,24.489265],[54.419269,24.489267],[54.41927,24.489306],[54.41953,24.489301],[54.41953,24.489319]]]}},{"type":"Feature","properties":{},"geometry":{"type":"Polygon","coordinates":[[[54.419077,24.489301],[54.418926,24.489304],[54.418932,24.489428],[54.419083,24.489425],[54.419077,24.489301]]]}},{"type":"Feature","properties":{},"geometry":{"type":"Polygon","coordinates":[[[54.419661,24.489381],[54.419496,24.489377],[54.419492,24.48948],[54.419658,24.489483],[54.419661,24.489381]]]}},{"type":"Feature","properties":{},"geometry":{"type":"Polygon","coordinates":[[[54.419183,24.489537],[54.419095,24.489539],[54.419105,24.489611],[54.419193,24.489609],[54.419183,24.489537]]]}},{"type":"Feature","properties":{},"geometry":{"type":"Polygon","coordinates":[[[54.419684,24.489774],[54.419502,24.489775],[54.419503,24.48982],[54.419685,24.489819],[54.419684,24.489774]]]}},{"type":"Feature","properties":{},"geometry":{"type":"Polygon","coordinates":[[[54.419517,24.490297],[54.419662,24.490293],[54.419659,24.490172],[54.41955,24.490172],[54.419552,24.490252],[54.41951,24.490257],[54.419517,24.490297]]]}},{"type":"Feature","properties":{},"geometry":{"type":"Polygon","coordinates":[[[54.419432,24.490181],[54.41932,24.490182],[54.419326,24.490304],[54.419438,24.490303],[54.419432,24.490181]]]}},{"type":"Feature","properties":{},"geometry":{"type":"Polygon","coordinates":[[[54.419314,24.490275],[54.419178,24.490276],[54.419179,24.49031],[54.419315,24.490309],[54.419314,24.490275]]]}},{"type":"Feature","properties":{},"geometry":{"type":"Polygon","coordinates":[[[54.418376,24.5023],[54.418315,24.502299],[54.418113,24.502378],[54.418156,24.50247],[54.418218,24.502471],[54.41842,24.502393],[54.418376,24.5023]]]}}]}