{"type":"FeatureCollection","features":[{"type":"Feature","properties":{},"geometry":{"type":"Polygon","coordinates":[[[54.390697,24.482594],[54.390718,24.482472],[54.3905,24.482454],[54.390483,24.482577],[54.390697,24.482594]]]}},{"type":"Feature","properties":{},"geometry":{"type":"Polygon","coordinates":[[[54.391174,24.482838],[54.39111,24.482834],[54.39107,24.482897],[54.391115,24.48292],[54.391195,24.482925],[54.391211,24.482899],[54.391325,24.482942],[54.391257,24.483059],[54.391056,24.482942],[54.390976,24.482938],[54.390917,24.48302],[54.391158,24.483163],[54.391195,24.483165],[54.391423,24.483278],[54.391503,24.483283],[54.39158,24.48316],[54.39149,24.483096],[54.391552,24.482994],[54.391667,24.483003],[54.391742,24.482883],[54.391509,24.482769],[54.391429,24.482765],[54.391419,24.482782],[54.391195,24.48268],[54.391139,24.482677],[54.391149,24.48266],[54.391062,24.48262],[54.391029,24.482618],[54.391035,24.482607],[54.390942,24.482565],[54.390862,24.48256],[54.390745,24.482767],[54.390831,24.482811],[54.390872,24.482814],[54.390866,24.482823],[54.390948,24.482862],[54.391028,24.482867],[54.391094,24.482754],[54.391176,24.482793],[54.391174,24.482838]]]}},{"type":"Feature","properties":{},"geometry":{"type":"Polygon","coordinates":[[[54.390518,24.482654],[54.390438,24.482649],[54.390381,24.48273],[54.39063,24.482868],[54.39071,24.482873],[54.390765,24.482792],[54.390518,24.482654]]]}},{"type":"Feature","properties":{},"geometry":{"type":"Polygon","coordinates":[[[54.389972,24.482894],[54.390062,24.482824],[54.389997,24.482755],[54.389917,24.48275],[54.389827,24.48282],[54.389892,24.482889],[54.389972,24.482894]]]}},{"type":"Feature","properties":{},"geometry":{"type":"Polygon","coordinates":[[[54.392126,24.483214],[54.392181,24.483238],[54.392238,24.483241],[54.392202,24.483307],[54.392295,24.48335],[54.392375,24.483354],[54.392476,24.48318],[54.392379,24.483134],[54.392299,24.48313],[54.392259,24.483114],[54.392281,24.483077],[54.392174,24.483027],[54.39209,24.483028],[54.392042,24.483006],[54.391962,24.483001],[54.391941,24.483038],[54.392037,24.483085],[54.392098,24.483088],[54.392179,24.483123],[54.392126,24.483214]]]}},{"type":"Feature","properties":{},"geometry":{"type":"Polygon","coordinates":[[[54.391532,24.483387],[54.391452,24.483382],[54.391436,24.483412],[54.391531,24.483452],[54.391612,24.483457],[54.391627,24.483427],[54.391532,24.483387]]]}},{"type":"Feature","properties":{},"geometry":{"type":"Polygon","coordinates":[[[54.391244,24.483683],[54.3913,24.483619],[54.391264,24.48359],[54.391324,24.483594],[54.391408,24.483498],[54.391224,24.483358],[54.391144,24.483353],[54.390934,24.483559],[54.39114,24.483706],[54.391162,24.483707],[54.391106,24.483756],[54.391244,24.483891],[54.391324,24.483896],[54.391411,24.48382],[54.391274,24.483685],[54.391244,24.483683]]]}},{"type":"Feature","properties":{},"geometry":{"type":"Polygon","coordinates":[[[54.390771,24.484369],[54.390691,24.484364],[54.390599,24.484442],[54.390719,24.484558],[54.390799,24.484563],[54.39089,24.484485],[54.390771,24.484369]]]}},{"type":"Feature","properties":{},"geometry":{"type":"Polygon","coordinates":[[[54.392363,24.488982],[54.392556,24.489078],[54.392739,24.489246],[54.392786,24.489313],[54.392886,24.489319],[54.393162,24.489208],[54.393172,24.489269],[54.394398,24.489338],[54.394585,24.489319],[54.394572,24.489206],[54.394664,24.489197],[54.394622,24.488843],[54.394518,24.488837],[54.394508,24.488755],[54.393407,24.488689],[54.393225,24.488707],[54.393237,24.488807],[54.393088,24.488822],[54.393098,24.488905],[54.393043,24.488846],[54.393017,24.488786],[54.39301,24.488722],[54.393024,24.488658],[54.393057,24.488601],[54.393106,24.488554],[54.393182,24.488518],[54.393708,24.488472],[54.393677,24.488184],[54.393852,24.488363],[54.394793,24.488419],[54.394833,24.488387],[54.394968,24.488395],[54.395185,24.488219],[54.395111,24.488144],[54.395209,24.488065],[54.395036,24.487889],[54.394822,24.487581],[54.394986,24.48759],[54.39537,24.487249],[54.395338,24.487219],[54.395256,24.487186],[54.395144,24.487174],[54.394163,24.487115],[54.394038,24.487133],[54.393988,24.487177],[54.39403,24.487216],[54.393885,24.487345],[54.393924,24.487382],[54.393883,24.487418],[54.394005,24.487532],[54.394329,24.487551],[54.394443,24.487658],[54.394386,24.487706],[54.394275,24.4876],[54.394195,24.487595],[54.394015,24.487751],[54.394033,24.487768],[54.393986,24.487809],[54.394049,24.487869],[54.393676,24.488171],[54.393649,24.487917],[54.393549,24.487911],[54.392772,24.487979],[54.392809,24.488335],[54.392578,24.48862],[54.392389,24.488546],[54.392214,24.488528],[54.392198,24.488604],[54.392115,24.488599],[54.392024,24.488934],[54.392203,24.488943],[54.392363,24.488982]]]}},{"type":"Feature","properties":{},"geometry":{"type":"Polygon","coordinates":[[[54.392303,24.490933],[54.392376,24.49087],[54.392406,24.49087],[54.392469,24.490991],[54.39257,24.490997],[54.392911,24.490953],[54.3932,24.491124],[54.393301,24.49113],[54.393356,24.491057],[54.393407,24.491112],[54.393499,24.491166],[54.393606,24.491191],[54.393699,24.491194],[54.393388,24.491572],[54.39344,24.491716],[54.393573,24.491808],[54.3935,24.491803],[54.393367,24.491971],[54.39342,24.492007],[54.392978,24.49198],[54.39299,24.491892],[54.392934,24.491532],[54.392853,24.491527],[54.39238,24.491588],[54.392466,24.492142],[54.392547,24.492146],[54.392843,24.492108],[54.392777,24.492184],[54.393018,24.492358],[54.393114,24.492363],[54.393155,24.492393],[54.394184,24.492454],[54.394285,24.492338],[54.39419,24.492269],[54.394233,24.49222],[54.394218,24.492209],[54.394583,24.492231],[54.394613,24.492194],[54.394752,24.492202],[54.394827,24.492108],[54.394752,24.492059],[54.394815,24.491978],[54.394662,24.491877],[54.393932,24.491829],[54.393963,24.491792],[54.39405,24.491797],[54.394091,24.491826],[54.395132,24.491889],[54.395234,24.491772],[54.395139,24.491703],[54.395182,24.491654],[54.394932,24.491475],[54.394261,24.491434],[54.394315,24.491369],[54.394344,24.49139],[54.395386,24.491452],[54.395487,24.491335],[54.395392,24.491267],[54.395435,24.491218],[54.395186,24.491038],[54.39462,24.491002],[54.395424,24.49105],[54.395626,24.490818],[54.395387,24.490647],[54.394939,24.49062],[54.395053,24.490483],[54.394882,24.49037],[54.394829,24.490367],[54.394443,24.490406],[54.394298,24.490465],[54.394043,24.490775],[54.394011,24.490704],[54.393938,24.490627],[54.393842,24.490574],[54.393734,24.490551],[54.39384,24.490494],[54.393978,24.490318],[54.393934,24.490063],[54.394481,24.490096],[54.394669,24.490078],[54.394653,24.489933],[54.394745,24.489924],[54.394704,24.489573],[54.394601,24.489567],[54.394592,24.489484],[54.39349,24.489418],[54.393308,24.489435],[54.393319,24.489535],[54.393169,24.489549],[54.393185,24.489687],[54.392895,24.489692],[54.392799,24.49008],[54.392756,24.490172],[54.39267,24.490278],[54.392629,24.490275],[54.392498,24.490355],[54.392249,24.490469],[54.392043,24.490505],[54.391909,24.490505],[54.391736,24.490465],[54.391635,24.490459],[54.391621,24.490496],[54.391635,24.490571],[54.391599,24.490594],[54.391551,24.490704],[54.391624,24.490773],[54.391842,24.490816],[54.392202,24.490927],[54.392303,24.490933]]]}},{"type":"Feature","properties":{},"geometry":{"type":"Polygon","coordinates":[[[54.392789,24.491086],[54.392088,24.491159],[54.392129,24.491485],[54.39221,24.49149],[54.392502,24.49146],[54.392488,24.491342],[54.392896,24.4913],[54.392869,24.491091],[54.392789,24.491086]]]}},{"type":"Feature","properties":{},"geometry":{"type":"Polygon","coordinates":[[[54.39287,24.492786],[54.392808,24.492401],[54.392728,24.492396],[54.392146,24.492474],[54.392208,24.49286],[54.392288,24.492864],[54.39287,24.492786]]]}},{"type":"Feature","properties":{},"geometry":{"type":"Polygon","coordinates":[[[54.390505,24.493039],[54.390693,24.492868],[54.390587,24.492771],[54.390507,24.492766],[54.390319,24.492937],[54.390425,24.493034],[54.390505,24.493039]]]}},{"type":"Feature","properties":{},"geometry":{"type":"Polygon","coordinates":[[[54.390121,24.493761],[54.390041,24.493756],[54.389231,24.493849],[54.38928,24.494204],[54.389361,24.494209],[54.39017,24.494115],[54.390121,24.493761]]]}},{"type":"Feature","properties":{},"geometry":{"type":"Polygon","coordinates":[[[54.392661,24.496076],[54.392741,24.49608],[54.392797,24.496038],[54.393652,24.495953],[54.393659,24.496004],[54.393864,24.495994],[54.394069,24.495811],[54.394285,24.495786],[54.3942,24.495176],[54.39412,24.495172],[54.393552,24.495237],[54.393563,24.495315],[54.393492,24.495311],[54.392595,24.495438],[54.392661,24.496076]]]}},{"type":"Feature","properties":{},"geometry":{"type":"Polygon","coordinates":[[[54.390205,24.496364],[54.390509,24.496344],[54.390508,24.496328],[54.390643,24.496328],[54.39063,24.496099],[54.390607,24.496098],[54.390627,24.496096],[54.390576,24.495677],[54.390495,24.495672],[54.390146,24.495707],[54.390147,24.495721],[54.390029,24.495725],[54.390033,24.495832],[54.390161,24.495835],[54.390184,24.496022],[54.390067,24.496028],[54.390076,24.496102],[54.390093,24.496103],[54.390125,24.496359],[54.390205,24.496364]],[[54.390484,24.496269],[54.39038,24.496267],[54.390376,24.496239],[54.390448,24.496231],[54.390437,24.496142],[54.390477,24.496144],[54.390484,24.496269]]]}},{"type":"Feature","properties":{},"geometry":{"type":"Polygon","coordinates":[[[54.391661,24.496974],[54.391342,24.49698],[54.391341,24.497014],[54.391663,24.497013],[54.391661,24.496974]]]}},{"type":"Feature","properties":{},"geometry":{"type":"Polygon","coordinates":[[[54.391662,24.49708],[54.391527,24.497085],[54.391535,24.497123],[54.39167,24.497118],[54.391662,24.49708]]]}},{"type":"Feature","properties":{},"geometry":{"type":"Polygon","coordinates":[[[54.391105,24.497045],[54.391104,24.49714],[54.391304,24.497146],[54.391309,24.497052],[54.391105,24.497045]]]}},{"type":"Feature","properties":{},"geometry":{"type":"Polygon","coordinates":[[[54.391343,24.497244],[54.391345,24.497181],[54.391152,24.497173],[54.39115,24.497236],[54.391343,24.497244]]]}},{"type":"Feature","properties":{},"geometry":{"type":"Polygon","coordinates":[[[54.389816,24.49821],[54.38986,24.498564],[54.389941,24.498568],[54.390974,24.498461],[54.390934,24.498145],[54.391497,24.498179],[54.391913,24.49816],[54.391881,24.497941],[54.391505,24.497815],[54.390703,24.497767],[54.390567,24.497835],[54.390602,24.498075],[54.390678,24.49812],[54.389816,24.49821]]]}},{"type":"Feature","properties":{},"geometry":{"type":"Polygon","coordinates":[[[54.393352,24.498198],[54.393355,24.498117],[54.393233,24.498111],[54.39323,24.498192],[54.393352,24.498198]]]}},{"type":"Feature","properties":{},"geometry":{"type":"Polygon","coordinates":[[[54.391543,24.500746],[54.39158,24.500994],[54.39166,24.500999],[54.391921,24.500969],[54.391889,24.500727],[54.391808,24.500722],[54.391543,24.500746]]]}},{"type":"Feature","properties":{},"geometry":{"type":"Polygon","coordinates":[[[54.389887,24.502566],[54.390187,24.502532],[54.390259,24.503091],[54.390406,24.5031],[54.391157,24.503036],[54.3911,24.502522],[54.391418,24.50248],[54.39098,24.498843],[54.390833,24.498834],[54.38973,24.498959],[54.390166,24.502368],[54.389748,24.50241],[54.389767,24.502559],[54.389887,24.502566]]]}},{"type":"Feature","properties":{},"geometry":{"type":"Polygon","coordinates":[[[54.392183,24.503621],[54.392011,24.503628],[54.392019,24.503678],[54.392191,24.50367],[54.392183,24.503621]]]}},{"type":"Feature","properties":{},"geometry":{"type":"Polygon","coordinates":[[[54.392554,24.503762],[54.392382,24.503758],[54.392383,24.503807],[54.392554,24.503811],[54.392554,24.503762]]]}},{"type":"Feature","properties":{},"geometry":{"type":"Polygon","coordinates":[[[54.392274,24.503831],[54.392268,24.503729],[54.392025,24.503732],[54.392031,24.503834],[54.392274,24.503831]]]}},{"type":"Feature","properties":{},"geometry":{"type":"Polygon","coordinates":[[[54.392086,24.503936],[54.391973,24.503935],[54.391985,24.504128],[54.392108,24.50413],[54.392118,24.504224],[54.39201,24.504223],[54.392018,24.504391],[54.392138,24.504394],[54.392142,24.504427],[54.392222,24.504432],[54.392329,24.504421],[54.392327,24.504403],[54.392504,24.504401],[54.392497,24.504302],[54.392592,24.504285],[54.39258,24.504249],[54.392493,24.504246],[54.392488,24.504165],[54.392301,24.504166],[54.392302,24.504177],[54.392281,24.503999],[54.392299,24.504122],[54.392379,24.504127],[54.39259,24.504102],[54.392558,24.503881],[54.392478,24.503876],[54.392267,24.503901],[54.392269,24.503917],[54.392084,24.503922],[54.392086,24.503936]]]}},{"type":"Feature","properties":{},"geometry":{"type":"Polygon","coordinates":[[[54.39262,24.504452],[54.39254,24.504447],[54.392097,24.504491],[54.39213,24.504766],[54.39221,24.504771],[54.392653,24.504727],[54.39262,24.504452]]]}},{"type":"Feature","properties":{},"geometry":{"type":"Polygon","coordinates":[[[54.392228,24.504858],[54.392093,24.504858],[54.392101,24.504938],[54.392236,24.504938],[54.392228,24.504858]]]}},{"type":"Feature","properties":{},"geometry":{"type":"Polygon","coordinates":[[[54.392563,24.504815],[54.392372,24.504821],[54.392402,24.505069],[54.392592,24.505063],[54.392563,24.504815]]]}},{"type":"Feature","properties":{},"geometry":{"type":"Polygon","coordinates":[[[54.392131,24.505209],[54.392269,24.505212],[54.392268,24.50519],[54.392434,24.505191],[54.392431,24.505081],[54.392239,24.505079],[54.392239,24.505102],[54.392128,24.5051],[54.392131,24.505209]]]}},{"type":"Feature","properties":{},"geometry":{"type":"Polygon","coordinates":[[[54.392737,24.505136],[54.392442,24.505144],[54.392478,24.505644],[54.392773,24.505636],[54.392737,24.505136]]]}},{"type":"Feature","properties":{},"geometry":{"type":"Polygon","coordinates":[[[54.389714,24.505213],[54.389761,24.505806],[54.390056,24.505797],[54.389993,24.505205],[54.389714,24.505213]]]}},{"type":"Feature","properties":{},"geometry":{"type":"Polygon","coordinates":[[[54.391859,24.506801],[54.39169,24.506805],[54.391696,24.506851],[54.391865,24.506847],[54.391859,24.506801]]]}},{"type":"Feature","properties":{},"geometry":{"type":"Polygon","coordinates":[[[54.392001,24.506959],[54.392067,24.506945],[54.392055,24.506897],[54.392098,24.506888],[54.392088,24.506846],[54.392008,24.506841],[54.391898,24.506864],[54.391905,24.506892],[54.391799,24.506892],[54.391808,24.506953],[54.392001,24.506959]]]}},{"type":"Feature","properties":{},"geometry":{"type":"Polygon","coordinates":[[[54.392715,24.506783],[54.39245,24.50679],[54.392476,24.507132],[54.392741,24.507125],[54.392715,24.506783]]]}},{"type":"Feature","properties":{},"geometry":{"type":"Polygon","coordinates":[[[54.39194,24.507053],[54.391734,24.50705],[54.391736,24.507139],[54.391942,24.507142],[54.39194,24.507053]]]}},{"type":"Feature","properties":{},"geometry":{"type":"Polygon","coordinates":[[[54.392985,24.507152],[54.392824,24.507156],[54.392831,24.507209],[54.392992,24.507205],[54.392985,24.507152]]]}},{"type":"Feature","properties":{},"geometry":{"type":"Polygon","coordinates":[[[54.391934,24.507327],[54.391451,24.507347],[54.391461,24.507485],[54.391944,24.507466],[54.391934,24.507327]]]}},{"type":"Feature","properties":{},"geometry":{"type":"Polygon","coordinates":[[[54.39118,24.507431],[54.390967,24.507424],[54.390966,24.507505],[54.391179,24.507511],[54.39118,24.507431]]]}},{"type":"Feature","properties":{},"geometry":{"type":"Polygon","coordinates":[[[54.393216,24.508734],[54.393217,24.5087],[54.393023,24.508692],[54.393023,24.508703],[54.392889,24.508704],[54.39289,24.508734],[54.393216,24.508734]]]}},{"type":"Feature","properties":{},"geometry":{"type":"Polygon","coordinates":[[[54.393063,24.509778],[54.393091,24.509737],[54.393021,24.509696],[54.39294,24.509692],[54.392912,24.509733],[54.392983,24.509773],[54.393063,24.509778]]]}},{"type":"Feature","properties":{},"geometry":{"type":"Polygon","coordinates":[[[54.403836,24.481579],[54.403917,24.481584],[54.404445,24.481313],[54.404282,24.481036],[54.404202,24.481031],[54.403592,24.481305],[54.403836,24.481579]]]}},{"type":"Feature","properties":{},"geometry":{"type":"Polygon","coordinates":[[[54.403255,24.483046],[54.403079,24.482706],[54.402754,24.48227],[54.40262,24.482262],[54.402375,24.482361],[54.402362,24.482355],[54.402377,24.482242],[54.402157,24.48223],[54.401288,24.483146],[54.401288,24.483263],[54.40133,24.483326],[54.401504,24.483367],[54.401638,24.483375],[54.401836,24.48329],[54.402151,24.483205],[54.402451,24.483212],[54.402961,24.483388],[54.403095,24.483396],[54.403021,24.483179],[54.403255,24.483046]]]}},{"type":"Feature","properties":{},"geometry":{"type":"Polygon","coordinates":[[[54.403871,24.485796],[54.403951,24.4858],[54.404147,24.485609],[54.404367,24.485274],[54.404472,24.48503],[54.404542,24.48481],[54.40454,24.484515],[54.403671,24.484447],[54.403539,24.484893],[54.403446,24.485069],[54.403259,24.48526],[54.403871,24.485796]]]}},{"type":"Feature","properties":{},"geometry":{"type":"Polygon","coordinates":[[[54.40024,24.486612],[54.400089,24.486787],[54.400556,24.487117],[54.400674,24.487154],[54.400754,24.487158],[54.400866,24.487117],[54.401207,24.486363],[54.400743,24.486123],[54.400663,24.486119],[54.400551,24.486297],[54.40024,24.486612]]]}},{"type":"Feature","properties":{},"geometry":{"type":"Polygon","coordinates":[[[54.404417,24.486697],[54.404408,24.486649],[54.40406,24.486285],[54.404023,24.48626],[54.403971,24.486254],[54.40377,24.486242],[54.403034,24.486595],[54.403243,24.487148],[54.403277,24.487181],[54.40333,24.487195],[54.40353,24.487207],[54.403767,24.487123],[54.404122,24.486933],[54.40439,24.486736],[54.404417,24.486697]],[[54.403554,24.486721],[54.403816,24.486594],[54.403872,24.486663],[54.40359,24.48682],[54.403554,24.486721]]]}},{"type":"Feature","properties":{},"geometry":{"type":"Polygon","coordinates":[[[54.401144,24.487765],[54.400111,24.487303],[54.399543,24.486934],[54.398968,24.486502],[54.398888,24.486498],[54.397654,24.487847],[54.398794,24.488701],[54.400115,24.489395],[54.400886,24.489709],[54.401677,24.489878],[54.4026,24.489943],[54.40288,24.489596],[54.402625,24.488136],[54.402288,24.488086],[54.401773,24.487981],[54.401144,24.487765]]]}},{"type":"Feature","properties":{},"geometry":{"type":"Polygon","coordinates":[[[54.400402,24.490694],[54.400362,24.490428],[54.400281,24.490423],[54.399977,24.490462],[54.400018,24.490727],[54.400098,24.490732],[54.400402,24.490694]]]}},{"type":"Feature","properties":{},"geometry":{"type":"Polygon","coordinates":[[[54.398667,24.492158],[54.398624,24.49184],[54.398418,24.49185],[54.398461,24.492171],[54.398541,24.492176],[54.398667,24.492158]]]}},{"type":"Feature","properties":{},"geometry":{"type":"Polygon","coordinates":[[[54.398825,24.492216],[54.398672,24.49222],[54.398701,24.492456],[54.398781,24.49246],[54.399095,24.49242],[54.399082,24.49232],[54.399002,24.492315],[54.398846,24.492334],[54.398825,24.492216]]]}},{"type":"Feature","properties":{},"geometry":{"type":"Polygon","coordinates":[[[54.398602,24.492224],[54.398445,24.492228],[54.39849,24.492557],[54.398647,24.492553],[54.398602,24.492224]]]}},{"type":"Feature","properties":{},"geometry":{"type":"Polygon","coordinates":[[[54.395997,24.492631],[54.396062,24.492332],[54.395573,24.492253],[54.395508,24.492552],[54.395997,24.492631]]]}},{"type":"Feature","properties":{},"geometry":{"type":"Polygon","coordinates":[[[54.400649,24.492935],[54.400569,24.49293],[54.399838,24.493016],[54.399892,24.493401],[54.399973,24.493406],[54.400704,24.493321],[54.400649,24.492935]]]}},{"type":"Feature","properties":{},"geometry":{"type":"Polygon","coordinates":[[[54.403322,24.494353],[54.403551,24.49433],[54.403573,24.49436],[54.403621,24.494386],[54.403768,24.494389],[54.403965,24.494493],[54.404045,24.494498],[54.404185,24.494278],[54.404124,24.494246],[54.404554,24.493571],[54.404527,24.493557],[54.404581,24.493471],[54.404418,24.493385],[54.404338,24.49338],[54.404302,24.493437],[54.404216,24.493429],[54.403967,24.493453],[54.403913,24.493546],[54.403873,24.493527],[54.403706,24.493531],[54.403703,24.493509],[54.403623,24.493505],[54.403279,24.493539],[54.403288,24.493612],[54.403193,24.493622],[54.403196,24.493646],[54.403126,24.493642],[54.403119,24.493652],[54.402215,24.493598],[54.402115,24.493608],[54.40212,24.493652],[54.401918,24.493659],[54.401969,24.494078],[54.40304,24.494142],[54.403007,24.494193],[54.40309,24.494237],[54.403229,24.494245],[54.403241,24.494348],[54.403322,24.494353]]]}},{"type":"Feature","properties":{},"geometry":{"type":"Polygon","coordinates":[[[54.39352,24.494478],[54.393515,24.494441],[54.393435,24.494437],[54.393287,24.494454],[54.39329,24.494478],[54.39323,24.494486],[54.393264,24.494726],[54.393345,24.49473],[54.393613,24.494698],[54.393582,24.494482],[54.39352,24.494478]]]}},{"type":"Feature","properties":{},"geometry":{"type":"Polygon","coordinates":[[[54.404358,24.49798],[54.404599,24.497783],[54.405002,24.4973],[54.405251,24.496952],[54.405413,24.496686],[54.405411,24.496392],[54.404485,24.49605],[54.404318,24.49604],[54.40426,24.4962],[54.403737,24.496168],[54.40354,24.496665],[54.40378,24.496744],[54.403516,24.496728],[54.403344,24.497144],[54.403629,24.497242],[54.403603,24.49724],[54.403343,24.49735],[54.403541,24.497741],[54.404101,24.497775],[54.404191,24.49797],[54.404358,24.49798]]]}},{"type":"Feature","properties":{},"geometry":{"type":"Polygon","coordinates":[[[54.394462,24.496817],[54.39423,24.497101],[54.39431,24.497386],[54.394561,24.497503],[54.394641,24.497508],[54.394769,24.497442],[54.394885,24.497348],[54.394874,24.497274],[54.394918,24.497211],[54.394997,24.497172],[54.39503,24.497114],[54.394542,24.496821],[54.394462,24.496817]]]}},{"type":"Feature","properties":{},"geometry":{"type":"Polygon","coordinates":[[[54.404122,24.498105],[54.404135,24.498077],[54.404083,24.498057],[54.404002,24.498052],[54.403989,24.49808],[54.404042,24.498101],[54.404122,24.498105]]]}},{"type":"Feature","properties":{},"geometry":{"type":"Polygon","coordinates":[[[54.403927,24.498463],[54.404068,24.498379],[54.404149,24.498291],[54.404172,24.498239],[54.404153,24.498207],[54.404167,24.498192],[54.404081,24.49813],[54.404032,24.498127],[54.403978,24.498096],[54.403878,24.49809],[54.403108,24.498407],[54.403058,24.498404],[54.402866,24.498449],[54.402715,24.498554],[54.402607,24.498735],[54.402601,24.498785],[54.401422,24.49872],[54.401253,24.498762],[54.40114,24.498826],[54.401033,24.498935],[54.400994,24.499],[54.401049,24.499035],[54.401074,24.49907],[54.401087,24.499114],[54.401079,24.499173],[54.401245,24.499198],[54.403021,24.499304],[54.403167,24.499287],[54.403283,24.499245],[54.403393,24.49917],[54.403637,24.499241],[54.40468,24.499299],[54.404893,24.499256],[54.405087,24.49919],[54.405252,24.499057],[54.405358,24.498901],[54.40544,24.498736],[54.405445,24.498549],[54.405429,24.498461],[54.405388,24.498458],[54.405412,24.498398],[54.405332,24.498066],[54.405283,24.498019],[54.405209,24.498001],[54.404501,24.497959],[54.404421,24.497986],[54.404381,24.498038],[54.404392,24.4981],[54.404455,24.498251],[54.40446,24.498349],[54.404487,24.49842],[54.404544,24.498456],[54.404705,24.498465],[54.404681,24.498568],[54.404622,24.498662],[54.404598,24.498683],[54.404028,24.498649],[54.403932,24.498665],[54.403784,24.498741],[54.4037,24.498805],[54.403601,24.498914],[54.403432,24.498904],[54.403429,24.498854],[54.403492,24.498763],[54.403547,24.498701],[54.403653,24.49863],[54.40363,24.498579],[54.403927,24.498463]]]}},{"type":"Feature","properties":{},"geometry":{"type":"Polygon","coordinates":[[[54.396127,24.498585],[54.396129,24.498519],[54.395992,24.498512],[54.39599,24.498578],[54.396127,24.498585]]]}},{"type":"Feature","properties":{},"geometry":{"type":"Polygon","coordinates":[[[54.395056,24.498538],[54.393385,24.498655],[54.393541,24.49966],[54.393621,24.499665],[54.39537,24.499471],[54.39526,24.498664],[54.395136,24.498542],[54.395056,24.498538]]]}},{"type":"Feature","properties":{},"geometry":{"type":"Polygon","coordinates":[[[54.40242,24.49971],[54.402514,24.499759],[54.403199,24.499799],[54.403343,24.499945],[54.403347,24.500063],[54.403376,24.500065],[54.4034,24.50009],[54.403375,24.500117],[54.403379,24.500139],[54.403449,24.500185],[54.404243,24.500234],[54.4043,24.50023],[54.404349,24.500194],[54.404377,24.500195],[54.404376,24.50028],[54.404483,24.500286],[54.404761,24.500267],[54.405188,24.500172],[54.405667,24.499947],[54.405928,24.49974],[54.406255,24.499347],[54.406373,24.499138],[54.406474,24.49889],[54.406529,24.498602],[54.406545,24.49833],[54.406522,24.498107],[54.406444,24.497802],[54.405643,24.497652],[54.405536,24.497645],[54.405684,24.497845],[54.405764,24.498014],[54.405815,24.498285],[54.405823,24.498502],[54.405813,24.498707],[54.405775,24.498861],[54.405684,24.499028],[54.405606,24.499131],[54.405465,24.499263],[54.405073,24.499239],[54.405007,24.499263],[54.404961,24.499348],[54.40496,24.499429],[54.404912,24.499436],[54.404921,24.499523],[54.404973,24.499526],[54.404983,24.499581],[54.404947,24.4996],[54.404774,24.49965],[54.404671,24.499644],[54.404658,24.499672],[54.404484,24.499676],[54.404422,24.499714],[54.404383,24.499718],[54.404382,24.499775],[54.404343,24.499772],[54.404286,24.499723],[54.404214,24.499702],[54.403933,24.499683],[54.403894,24.499653],[54.403777,24.499622],[54.403553,24.499622],[54.403592,24.4996],[54.403588,24.499578],[54.403649,24.499568],[54.403672,24.499531],[54.403644,24.499465],[54.403609,24.499427],[54.403558,24.499379],[54.40351,24.499365],[54.402749,24.499321],[54.402713,24.499362],[54.402419,24.499549],[54.402359,24.499561],[54.402345,24.499589],[54.402352,24.499624],[54.40242,24.49971]]]}},{"type":"Feature","properties":{},"geometry":{"type":"Polygon","coordinates":[[[54.395534,24.499827],[54.395454,24.499822],[54.395339,24.499839],[54.395367,24.499993],[54.395447,24.499997],[54.395562,24.49998],[54.395534,24.499827]]]}},{"type":"Feature","properties":{},"geometry":{"type":"Polygon","coordinates":[[[54.395273,24.500002],[54.39516,24.500004],[54.395184,24.500108],[54.395296,24.500107],[54.395273,24.500002]]]}},{"type":"Feature","properties":{},"geometry":{"type":"Polygon","coordinates":[[[54.394937,24.500444],[54.394916,24.50033],[54.394789,24.500332],[54.394809,24.500446],[54.394937,24.500444]]]}},{"type":"Feature","properties":{},"geometry":{"type":"Polygon","coordinates":[[[54.395488,24.500472],[54.395408,24.500467],[54.394842,24.500546],[54.394984,24.501394],[54.395064,24.501399],[54.39563,24.50132],[54.395488,24.500472]]]}},{"type":"Feature","properties":{},"geometry":{"type":"Polygon","coordinates":[[[54.395744,24.502],[54.395747,24.501897],[54.395581,24.50189],[54.395578,24.501993],[54.395744,24.502]]]}},{"type":"Feature","properties":{},"geometry":{"type":"Polygon","coordinates":[[[54.395873,24.502153],[54.395793,24.502148],[54.395361,24.502207],[54.395412,24.502515],[54.395492,24.502519],[54.395924,24.502461],[54.395873,24.502153]]]}},{"type":"Feature","properties":{},"geometry":{"type":"Polygon","coordinates":[[[54.397473,24.504684],[54.397321,24.504682],[54.397327,24.504783],[54.397479,24.504785],[54.397473,24.504684]]]}},{"type":"Feature","properties":{},"geometry":{"type":"Polygon","coordinates":[[[54.393302,24.509241],[54.393237,24.509267],[54.393332,24.509406],[54.393253,24.509401],[54.393207,24.509428],[54.393243,24.509478],[54.393016,24.509582],[54.393063,24.509664],[54.393137,24.509668],[54.393207,24.509783],[54.393287,24.509787],[54.393625,24.509616],[54.393613,24.509596],[54.393795,24.509504],[54.393578,24.509149],[54.393658,24.509149],[54.393655,24.509094],[54.393524,24.509091],[54.393526,24.509123],[54.393483,24.50912],[54.393288,24.509219],[54.393302,24.509241]],[[54.393377,24.509467],[54.393356,24.509437],[54.393425,24.509442],[54.393377,24.509467]]]}},{"type":"Feature","properties":{},"geometry":{"type":"Polygon","coordinates":[[[54.393853,24.509371],[54.393773,24.509366],[54.393738,24.509384],[54.393775,24.509443],[54.393855,24.509448],[54.393889,24.50943],[54.393853,24.509371]]]}},{"type":"Feature","properties":{},"geometry":{"type":"Polygon","coordinates":[[[54.394128,24.509765],[54.394097,24.509764],[54.394119,24.509751],[54.394058,24.50966],[54.394043,24.509659],[54.394052,24.509655],[54.394018,24.509606],[54.393938,24.509601],[54.393898,24.509624],[54.393931,24.509673],[54.393946,24.509674],[54.393937,24.509678],[54.393998,24.509769],[54.394024,24.509771],[54.393951,24.509802],[54.393996,24.509889],[54.394077,24.509894],[54.394173,24.509852],[54.394128,24.509765]]]}},{"type":"Feature","properties":{},"geometry":{"type":"Polygon","coordinates":[[[54.393911,24.50995],[54.393788,24.50995],[54.393794,24.509986],[54.393916,24.509985],[54.393911,24.50995]]]}},{"type":"Feature","properties":{},"geometry":{"type":"Polygon","coordinates":[[[54.393879,24.510134],[54.394195,24.509998],[54.394163,24.509938],[54.394083,24.509933],[54.393768,24.510069],[54.393799,24.510129],[54.393879,24.510134]]]}},{"type":"Feature","properties":{},"geometry":{"type":"Polygon","coordinates":[[[54.406324,24.480095],[54.406255,24.479987],[54.40643,24.479895],[54.406373,24.479805],[54.406278,24.479808],[54.406176,24.479648],[54.406096,24.479643],[54.405847,24.479774],[54.405903,24.479862],[54.405696,24.479971],[54.405733,24.48003],[54.405657,24.48007],[54.405719,24.480169],[54.405742,24.48017],[54.405825,24.480301],[54.405905,24.480306],[54.406324,24.480095]]]}},{"type":"Feature","properties":{},"geometry":{"type":"Polygon","coordinates":[[[54.406743,24.480076],[54.406836,24.48],[54.406771,24.479935],[54.406691,24.479931],[54.406599,24.480007],[54.406663,24.480071],[54.406743,24.480076]]]}},{"type":"Feature","properties":{},"geometry":{"type":"Polygon","coordinates":[[[54.406024,24.480524],[54.406055,24.480564],[54.406109,24.480567],[54.406134,24.480592],[54.406214,24.480596],[54.406356,24.480737],[54.406437,24.480741],[54.406583,24.480618],[54.40641,24.480448],[54.406444,24.48045],[54.406479,24.480403],[54.406429,24.480373],[54.406484,24.480376],[54.406523,24.480297],[54.406404,24.480249],[54.406323,24.480244],[54.406286,24.48032],[54.406269,24.480319],[54.406224,24.480381],[54.406024,24.480524]]]}},{"type":"Feature","properties":{},"geometry":{"type":"Polygon","coordinates":[[[54.405748,24.480415],[54.405667,24.48041],[54.405592,24.480447],[54.405619,24.480492],[54.405699,24.480497],[54.405775,24.48046],[54.405748,24.480415]]]}},{"type":"Feature","properties":{},"geometry":{"type":"Polygon","coordinates":[[[54.405221,24.480756],[54.405239,24.480743],[54.405265,24.480772],[54.405389,24.480784],[54.405508,24.480697],[54.405367,24.480537],[54.405286,24.480532],[54.405229,24.480574],[54.405173,24.48051],[54.405093,24.480505],[54.404993,24.480578],[54.404982,24.480566],[54.404902,24.480562],[54.404671,24.480731],[54.404867,24.480954],[54.404947,24.480958],[54.405002,24.480933],[54.405239,24.480777],[54.405221,24.480756]]]}},{"type":"Feature","properties":{},"geometry":{"type":"Polygon","coordinates":[[[54.404697,24.481102],[54.404617,24.481097],[54.40456,24.481121],[54.404578,24.481155],[54.404658,24.48116],[54.404714,24.481136],[54.404697,24.481102]]]}},{"type":"Feature","properties":{},"geometry":{"type":"Polygon","coordinates":[[[54.40466,24.482083],[54.404686,24.482224],[54.404735,24.482308],[54.404769,24.48231],[54.404816,24.482404],[54.405417,24.48244],[54.405651,24.482324],[54.405622,24.482223],[54.405589,24.482221],[54.40558,24.482178],[54.40588,24.482196],[54.40612,24.482046],[54.406021,24.481939],[54.406228,24.481951],[54.406456,24.481804],[54.406244,24.481517],[54.406178,24.481406],[54.405577,24.48137],[54.4054,24.481473],[54.405322,24.481541],[54.405382,24.481611],[54.405245,24.481603],[54.40502,24.481716],[54.404979,24.481763],[54.405,24.481818],[54.40506,24.481872],[54.404797,24.481857],[54.404689,24.481962],[54.40466,24.482083]]]}},{"type":"Feature","properties":{},"geometry":{"type":"Polygon","coordinates":[[[54.406516,24.482031],[54.406374,24.482097],[54.406514,24.482287],[54.406634,24.482389],[54.406748,24.48257],[54.407416,24.48261],[54.407605,24.482539],[54.407647,24.482408],[54.407249,24.481963],[54.406581,24.481923],[54.406516,24.482031]]]}},{"type":"Feature","properties":{},"geometry":{"type":"Polygon","coordinates":[[[54.406708,24.483103],[54.406884,24.483008],[54.40655,24.482498],[54.406523,24.482497],[54.406485,24.482446],[54.406405,24.482441],[54.40623,24.482549],[54.406238,24.482559],[54.406027,24.482665],[54.406062,24.482722],[54.406143,24.482727],[54.406323,24.482635],[54.406628,24.483099],[54.406708,24.483103]]]}},{"type":"Feature","properties":{},"geometry":{"type":"Polygon","coordinates":[[[54.405375,24.483128],[54.405046,24.48326],[54.405238,24.483908],[54.404859,24.484012],[54.404913,24.484354],[54.405703,24.48437],[54.405703,24.483852],[54.405455,24.483133],[54.405375,24.483128]]]}},{"type":"Feature","properties":{},"geometry":{"type":"Polygon","coordinates":[[[54.405619,24.484873],[54.405743,24.48448],[54.404937,24.484388],[54.404859,24.484729],[54.405539,24.484868],[54.405619,24.484873]]]}},{"type":"Feature","properties":{},"geometry":{"type":"Polygon","coordinates":[[[54.406738,24.485667],[54.406818,24.485672],[54.406859,24.48561],[54.406754,24.485552],[54.406674,24.485547],[54.406633,24.485608],[54.406738,24.485667]]]}},{"type":"Feature","properties":{},"geometry":{"type":"Polygon","coordinates":[[[54.405832,24.487429],[54.405404,24.487403],[54.405258,24.487577],[54.405555,24.487797],[54.405983,24.487822],[54.406127,24.487642],[54.405832,24.487429]]]}},{"type":"Feature","properties":{},"geometry":{"type":"Polygon","coordinates":[[[54.407598,24.488281],[54.407318,24.487873],[54.407238,24.487868],[54.406417,24.488333],[54.406696,24.488741],[54.406776,24.488745],[54.407598,24.488281]]]}},{"type":"Feature","properties":{},"geometry":{"type":"Polygon","coordinates":[[[54.406346,24.493088],[54.406476,24.49296],[54.406379,24.492879],[54.406299,24.492874],[54.406169,24.493002],[54.406266,24.493083],[54.406346,24.493088]]]}},{"type":"Feature","properties":{},"geometry":{"type":"Polygon","coordinates":[[[54.406162,24.492249],[54.405291,24.49271],[54.405256,24.492994],[54.406035,24.493655],[54.405868,24.49378],[54.405594,24.494103],[54.405642,24.494132],[54.405598,24.49419],[54.40584,24.494351],[54.407436,24.494447],[54.408186,24.494903],[54.408198,24.494937],[54.408349,24.495125],[54.40844,24.495174],[54.408086,24.495695],[54.406894,24.495031],[54.406794,24.495025],[54.406649,24.495424],[54.406562,24.495341],[54.406482,24.495336],[54.406406,24.495401],[54.406516,24.495507],[54.406596,24.495512],[54.406626,24.495487],[54.40659,24.495653],[54.406485,24.495609],[54.406421,24.495605],[54.406448,24.495591],[54.406395,24.495503],[54.406315,24.495499],[54.406231,24.49554],[54.406285,24.495628],[54.406327,24.495631],[54.406281,24.495719],[54.406466,24.495798],[54.406546,24.495803],[54.406572,24.495752],[54.406555,24.495847],[54.405314,24.49578],[54.405194,24.49582],[54.405024,24.495923],[54.404918,24.496059],[54.404918,24.496153],[54.404981,24.496197],[54.406792,24.496313],[54.408742,24.496429],[54.408833,24.496427],[54.4089,24.496399],[54.408918,24.496381],[54.408932,24.49632],[54.408856,24.496195],[54.408693,24.496072],[54.408481,24.495984],[54.408504,24.495925],[54.408263,24.495794],[54.40862,24.495269],[54.408927,24.495321],[54.409261,24.495341],[54.409621,24.495322],[54.409964,24.495229],[54.409867,24.495048],[54.409653,24.494565],[54.40954,24.494014],[54.409518,24.493451],[54.409564,24.493205],[54.409532,24.493029],[54.407769,24.492924],[54.407301,24.49303],[54.406786,24.493202],[54.406445,24.493388],[54.405951,24.492978],[54.406315,24.492642],[54.406142,24.492521],[54.406355,24.492421],[54.406247,24.492254],[54.406162,24.492249]],[[54.406399,24.495616],[54.406396,24.495621],[54.406389,24.495621],[54.406399,24.495616]]]}},{"type":"Feature","properties":{},"geometry":{"type":"Polygon","coordinates":[[[54.406406,24.495292],[54.406417,24.495276],[54.40635,24.49524],[54.40627,24.495235],[54.406225,24.495303],[54.406291,24.49534],[54.406371,24.495344],[54.406394,24.49531],[54.4066,24.495316],[54.406598,24.495288],[54.406406,24.495292]]]}},{"type":"Feature","properties":{},"geometry":{"type":"Polygon","coordinates":[[[54.406251,24.495819],[54.406297,24.495754],[54.40627,24.495738],[54.40619,24.495734],[54.406144,24.495798],[54.406171,24.495814],[54.406251,24.495819]]]}},{"type":"Feature","properties":{},"geometry":{"type":"Polygon","coordinates":[[[54.406352,24.497218],[54.406432,24.497223],[54.40674,24.497142],[54.406735,24.497117],[54.406805,24.497122],[54.407038,24.49706],[54.407344,24.49708],[54.407805,24.497137],[54.407979,24.497234],[54.407922,24.497231],[54.407879,24.497271],[54.407931,24.497311],[54.408015,24.497347],[54.408096,24.497352],[54.408151,24.49732],[54.408111,24.497273],[54.408709,24.497309],[54.40953,24.496918],[54.409385,24.496689],[54.408717,24.496649],[54.408246,24.49686],[54.408234,24.496859],[54.408244,24.496834],[54.408035,24.496764],[54.407724,24.496686],[54.407257,24.496644],[54.407251,24.496758],[54.406814,24.496746],[54.406658,24.496783],[54.406656,24.496773],[54.406576,24.496768],[54.406249,24.496849],[54.406352,24.497218]]]}},{"type":"Feature","properties":{},"geometry":{"type":"Polygon","coordinates":[[[54.405962,24.496854],[54.405882,24.49685],[54.405817,24.4969],[54.405896,24.496988],[54.405977,24.496993],[54.406044,24.496945],[54.405962,24.496854]]]}},{"type":"Feature","properties":{},"geometry":{"type":"Polygon","coordinates":[[[54.40572,24.497283],[54.40566,24.497544],[54.406,24.497594],[54.406013,24.497537],[54.406053,24.497539],[54.406089,24.497391],[54.405991,24.497375],[54.406007,24.497326],[54.40572,24.497283]]]}},{"type":"Feature","properties":{},"geometry":{"type":"Polygon","coordinates":[[[54.406523,24.504681],[54.406525,24.504539],[54.406352,24.504532],[54.406348,24.504675],[54.406523,24.504681]]]}},{"type":"Feature","properties":{},"geometry":{"type":"Polygon","coordinates":[[[54.406184,24.50457],[54.406104,24.504566],[54.406008,24.504588],[54.406061,24.504754],[54.406141,24.504759],[54.406233,24.504739],[54.406184,24.50457]]]}},{"type":"Feature","properties":{},"geometry":{"type":"Polygon","coordinates":[[[54.405967,24.505878],[54.406702,24.505922],[54.406793,24.505817],[54.406828,24.505695],[54.406787,24.505553],[54.406674,24.505453],[54.406588,24.505447],[54.406344,24.50524],[54.406264,24.505235],[54.406077,24.505417],[54.405939,24.505409],[54.405693,24.505656],[54.405967,24.505878]]]}},{"type":"Feature","properties":{},"geometry":{"type":"Polygon","coordinates":[[[54.405492,24.505789],[54.405586,24.505474],[54.405385,24.505424],[54.405305,24.505419],[54.405211,24.505734],[54.405412,24.505784],[54.405492,24.505789]]]}},{"type":"Feature","properties":{},"geometry":{"type":"Polygon","coordinates":[[[54.405359,24.506221],[54.405475,24.505923],[54.405179,24.505828],[54.405099,24.505824],[54.404983,24.506121],[54.405279,24.506216],[54.405359,24.506221]]]}},{"type":"Feature","properties":{},"geometry":{"type":"Polygon","coordinates":[[[54.405252,24.506613],[54.405345,24.506365],[54.405066,24.506279],[54.404986,24.506274],[54.404893,24.506522],[54.405172,24.506609],[54.405252,24.506613]]]}},{"type":"Feature","properties":{},"geometry":{"type":"Polygon","coordinates":[[[54.404096,24.508018],[54.404191,24.508083],[54.404993,24.508131],[54.405356,24.508068],[54.405862,24.507159],[54.405855,24.507079],[54.405593,24.506955],[54.405143,24.506929],[54.405237,24.506716],[54.404948,24.50662],[54.404868,24.506615],[54.404762,24.506913],[54.404728,24.506918],[54.404507,24.507303],[54.404437,24.507235],[54.404357,24.50723],[54.404324,24.507258],[54.404417,24.507349],[54.404479,24.507353],[54.404096,24.508018]]]}},{"type":"Feature","properties":{},"geometry":{"type":"Polygon","coordinates":[[[54.405585,24.508599],[54.405201,24.508576],[54.405083,24.508684],[54.405479,24.509076],[54.406121,24.509114],[54.406232,24.508999],[54.405993,24.508764],[54.406377,24.508786],[54.406489,24.508672],[54.406169,24.508357],[54.406645,24.508385],[54.406757,24.508271],[54.406367,24.507886],[54.405725,24.507848],[54.405607,24.507955],[54.405933,24.508277],[54.405457,24.508249],[54.405339,24.508356],[54.405585,24.508599]]]}},{"type":"Feature","properties":{},"geometry":{"type":"Polygon","coordinates":[[[54.406299,24.509036],[54.406218,24.509031],[54.406177,24.509076],[54.406263,24.509141],[54.406344,24.509146],[54.406384,24.509101],[54.406299,24.509036]]]}},{"type":"Feature","properties":{},"geometry":{"type":"Polygon","coordinates":[[[54.404842,24.50933],[54.404827,24.509347],[54.404596,24.509333],[54.40447,24.509502],[54.404618,24.509646],[54.405418,24.509695],[54.405598,24.509432],[54.405477,24.509367],[54.404842,24.50933]]]}},{"type":"Feature","properties":{},"geometry":{"type":"Polygon","coordinates":[[[54.410443,24.479885],[54.410362,24.47988],[54.410293,24.479947],[54.410444,24.480076],[54.410524,24.48008],[54.410593,24.480014],[54.410443,24.479885]]]}},{"type":"Feature","properties":{},"geometry":{"type":"Polygon","coordinates":[[[54.409403,24.482883],[54.409226,24.482882],[54.409231,24.482996],[54.409408,24.482998],[54.409403,24.482883]]]}},{"type":"Feature","properties":{},"geometry":{"type":"Polygon","coordinates":[[[54.408489,24.48516],[54.408602,24.485076],[54.408406,24.484858],[54.408829,24.484883],[54.409038,24.484742],[54.408793,24.48444],[54.408366,24.484415],[54.408156,24.484556],[54.40836,24.484806],[54.408334,24.484777],[54.407907,24.484752],[54.407702,24.484906],[54.407714,24.48497],[54.407933,24.485081],[54.408025,24.485087],[54.408062,24.485134],[54.408489,24.48516]]]}},{"type":"Feature","properties":{},"geometry":{"type":"Polygon","coordinates":[[[54.407889,24.48568],[54.407828,24.485631],[54.407787,24.485629],[54.407564,24.485445],[54.407235,24.485425],[54.407336,24.485327],[54.407262,24.485263],[54.407181,24.485259],[54.406887,24.485546],[54.406958,24.485606],[54.406951,24.485613],[54.407271,24.485853],[54.407698,24.485879],[54.407889,24.48568]]]}},{"type":"Feature","properties":{},"geometry":{"type":"Polygon","coordinates":[[[54.409223,24.485975],[54.409311,24.48605],[54.409624,24.486071],[54.409707,24.486047],[54.40979,24.485963],[54.40985,24.485834],[54.410331,24.486658],[54.410504,24.486668],[54.410863,24.4865],[54.410363,24.485619],[54.410402,24.485593],[54.410413,24.48552],[54.410404,24.485468],[54.410388,24.485446],[54.41025,24.485438],[54.41025,24.485424],[54.410362,24.485422],[54.410404,24.485395],[54.410434,24.485322],[54.410978,24.485104],[54.410804,24.484786],[54.41063,24.484775],[54.409662,24.485243],[54.4095,24.485234],[54.409426,24.485319],[54.40925,24.48539],[54.409163,24.485473],[54.409127,24.485567],[54.409126,24.485625],[54.409056,24.485621],[54.408976,24.485668],[54.409042,24.485617],[54.409001,24.485574],[54.408921,24.485569],[54.408842,24.48563],[54.408883,24.485673],[54.408959,24.485678],[54.408942,24.485688],[54.409049,24.48584],[54.409143,24.485846],[54.409223,24.485975]],[[54.409125,24.485721],[54.409107,24.485694],[54.409125,24.485684],[54.409125,24.485721]]]}},{"type":"Feature","properties":{},"geometry":{"type":"Polygon","coordinates":[[[54.407605,24.486034],[54.4077,24.485931],[54.407651,24.485895],[54.407571,24.48589],[54.407477,24.485993],[54.407525,24.486029],[54.407605,24.486034]]]}},{"type":"Feature","properties":{},"geometry":{"type":"Polygon","coordinates":[[[54.409247,24.487364],[54.409167,24.48736],[54.408804,24.487642],[54.408254,24.488005],[54.408557,24.488489],[54.408637,24.488493],[54.409511,24.488057],[54.40936,24.487784],[54.409279,24.48778],[54.408608,24.488154],[54.40859,24.488122],[54.409363,24.48769],[54.409247,24.487364]]]}},{"type":"Feature","properties":{},"geometry":{"type":"Polygon","coordinates":[[[54.407768,24.488343],[54.407687,24.488338],[54.407285,24.488563],[54.407229,24.48856],[54.406823,24.48879],[54.407103,24.489198],[54.407183,24.489203],[54.407589,24.488973],[54.407569,24.488944],[54.407644,24.488949],[54.40802,24.488719],[54.407768,24.488343]]]}},{"type":"Feature","properties":{},"geometry":{"type":"Polygon","coordinates":[[[54.407021,24.490271],[54.40694,24.490266],[54.406881,24.490287],[54.406909,24.490368],[54.406989,24.490373],[54.407054,24.490352],[54.407021,24.490271]]]}},{"type":"Feature","properties":{},"geometry":{"type":"Polygon","coordinates":[[[54.409268,24.491263],[54.409272,24.491156],[54.408957,24.491145],[54.408956,24.491177],[54.408878,24.491175],[54.408867,24.49129],[54.408928,24.491293],[54.408927,24.491318],[54.409219,24.491329],[54.409221,24.491262],[54.409268,24.491263]]]}},{"type":"Feature","properties":{},"geometry":{"type":"Polygon","coordinates":[[[54.410389,24.495984],[54.410337,24.495938],[54.409803,24.495906],[54.409512,24.496137],[54.409616,24.496256],[54.409535,24.496311],[54.409644,24.496452],[54.410179,24.496484],[54.410343,24.49638],[54.410261,24.496275],[54.410552,24.496292],[54.410775,24.496187],[54.410614,24.495998],[54.410389,24.495984]]]}},{"type":"Feature","properties":{},"geometry":{"type":"Polygon","coordinates":[[[54.408578,24.498366],[54.408992,24.498391],[54.409383,24.498324],[54.409415,24.497947],[54.409165,24.497863],[54.408751,24.497839],[54.408576,24.497905],[54.408578,24.498366]]]}},{"type":"Feature","properties":{},"geometry":{"type":"Polygon","coordinates":[[[54.409382,24.499166],[54.409435,24.498769],[54.408919,24.498734],[54.408924,24.498611],[54.408772,24.498595],[54.408756,24.498655],[54.408779,24.498725],[54.408758,24.498724],[54.40877,24.499078],[54.408684,24.499443],[54.409041,24.499538],[54.409276,24.499552],[54.409382,24.499166]]]}},{"type":"Feature","properties":{},"geometry":{"type":"Polygon","coordinates":[[[54.409926,24.500296],[54.409975,24.49974],[54.410012,24.49951],[54.409978,24.499439],[54.4099,24.49938],[54.409707,24.499358],[54.409535,24.499368],[54.409467,24.499414],[54.409417,24.499551],[54.409269,24.500035],[54.409219,24.500249],[54.409261,24.500377],[54.409353,24.500443],[54.409533,24.500474],[54.409746,24.500476],[54.409871,24.500412],[54.409926,24.500296]]]}},{"type":"Feature","properties":{},"geometry":{"type":"Polygon","coordinates":[[[54.407974,24.500903],[54.407973,24.500949],[54.407944,24.501008],[54.407983,24.50104],[54.408063,24.501044],[54.408114,24.500971],[54.408147,24.500887],[54.408005,24.500871],[54.407974,24.500903]]]}},{"type":"Feature","properties":{},"geometry":{"type":"Polygon","coordinates":[[[54.410544,24.501523],[54.409836,24.501484],[54.409835,24.501572],[54.409734,24.501567],[54.409732,24.501816],[54.410433,24.501853],[54.410432,24.501791],[54.410568,24.501791],[54.410573,24.501566],[54.410542,24.501564],[54.410544,24.501523]]]}},{"type":"Feature","properties":{},"geometry":{"type":"Polygon","coordinates":[[[54.409545,24.501851],[54.409584,24.501746],[54.40961,24.501599],[54.409605,24.501431],[54.408643,24.501466],[54.408599,24.501794],[54.408672,24.501946],[54.409021,24.501962],[54.409339,24.501953],[54.40943,24.501922],[54.409545,24.501851]]]}},{"type":"Feature","properties":{},"geometry":{"type":"Polygon","coordinates":[[[54.407616,24.502398],[54.408034,24.502572],[54.408114,24.502577],[54.408295,24.5021],[54.408422,24.501858],[54.408025,24.50174],[54.407945,24.501735],[54.407616,24.502398]]]}},{"type":"Feature","properties":{},"geometry":{"type":"Polygon","coordinates":[[[54.407435,24.502387],[54.407427,24.502433],[54.407551,24.502448],[54.407608,24.502389],[54.407648,24.502313],[54.407506,24.502305],[54.407435,24.502387]]]}},{"type":"Feature","properties":{},"geometry":{"type":"Polygon","coordinates":[[[54.407159,24.502921],[54.407036,24.503072],[54.407099,24.503108],[54.407179,24.503113],[54.40731,24.502996],[54.407335,24.502994],[54.407403,24.502885],[54.407264,24.502866],[54.407216,24.502924],[54.407159,24.502921]]]}},{"type":"Feature","properties":{},"geometry":{"type":"Polygon","coordinates":[[[54.406943,24.503344],[54.406863,24.50334],[54.4068,24.503359],[54.406837,24.50348],[54.406917,24.503485],[54.406997,24.503468],[54.406943,24.503344]]]}},{"type":"Feature","properties":{},"geometry":{"type":"Polygon","coordinates":[[[54.410039,24.504167],[54.410673,24.504204],[54.410705,24.504046],[54.410233,24.503968],[54.409937,24.50395],[54.410053,24.503863],[54.40972,24.503497],[54.409086,24.503459],[54.408942,24.503568],[54.409274,24.503934],[54.409594,24.503953],[54.409567,24.504089],[54.410039,24.504167]]]}},{"type":"Feature","properties":{},"geometry":{"type":"Polygon","coordinates":[[[54.407074,24.503829],[54.407134,24.50368],[54.407036,24.503648],[54.406956,24.503643],[54.406905,24.503801],[54.407074,24.503829]]]}},{"type":"Feature","properties":{},"geometry":{"type":"Polygon","coordinates":[[[54.40961,24.504393],[54.409259,24.504094],[54.408324,24.504038],[54.408119,24.504298],[54.408414,24.504636],[54.409349,24.504692],[54.40961,24.504393]]]}},{"type":"Feature","properties":{},"geometry":{"type":"Polygon","coordinates":[[[54.408033,24.505842],[54.408028,24.505741],[54.407786,24.50572],[54.407788,24.505814],[54.408033,24.505842]]]}},{"type":"Feature","properties":{},"geometry":{"type":"Polygon","coordinates":[[[54.409472,24.506175],[54.409587,24.506114],[54.409672,24.506021],[54.409717,24.505908],[54.409719,24.505787],[54.40968,24.50568],[54.409606,24.50559],[54.409506,24.505526],[54.409388,24.505493],[54.409184,24.50549],[54.409068,24.505527],[54.40897,24.505596],[54.408901,24.505689],[54.408867,24.505797],[54.408874,24.505917],[54.408925,24.506029],[54.409014,24.506118],[54.409131,24.506176],[54.409342,24.506198],[54.409472,24.506175]]]}},{"type":"Feature","properties":{},"geometry":{"type":"Polygon","coordinates":[[[54.407336,24.506699],[54.407629,24.506391],[54.407472,24.506231],[54.40657,24.506177],[54.406342,24.506186],[54.406126,24.50641],[54.406434,24.506645],[54.407336,24.506699]]]}},{"type":"Feature","properties":{},"geometry":{"type":"Polygon","coordinates":[[[54.407231,24.50734],[54.407333,24.507251],[54.406919,24.506861],[54.406854,24.506857],[54.406758,24.506945],[54.40679,24.506979],[54.406684,24.50707],[54.406718,24.507107],[54.406612,24.507193],[54.406955,24.50751],[54.407019,24.507514],[54.40712,24.507428],[54.407102,24.50741],[54.407188,24.507337],[54.407231,24.50734]]]}},{"type":"Feature","properties":{},"geometry":{"type":"Polygon","coordinates":[[[54.406644,24.507341],[54.406564,24.507337],[54.406521,24.507365],[54.40664,24.507516],[54.406721,24.507521],[54.406764,24.507492],[54.406644,24.507341]]]}},{"type":"Feature","properties":{},"geometry":{"type":"Polygon","coordinates":[[[54.409709,24.507832],[54.409692,24.507556],[54.409481,24.507344],[54.409401,24.50734],[54.409207,24.507508],[54.409568,24.50787],[54.409648,24.507874],[54.409709,24.507832]]]}},{"type":"Feature","properties":{},"geometry":{"type":"Polygon","coordinates":[[[54.407091,24.507802],[54.407171,24.507807],[54.407201,24.507774],[54.407167,24.507749],[54.407087,24.507744],[54.407057,24.507777],[54.407091,24.507802]]]}},{"type":"Feature","properties":{},"geometry":{"type":"Polygon","coordinates":[[[54.410313,24.507789],[54.410237,24.507785],[54.410204,24.507719],[54.410042,24.507716],[54.409909,24.507751],[54.409775,24.507855],[54.409745,24.507933],[54.409774,24.507975],[54.409846,24.508014],[54.409927,24.508019],[54.409973,24.508004],[54.41011,24.507998],[54.410332,24.507855],[54.410313,24.507789]]]}},{"type":"Feature","properties":{},"geometry":{"type":"Polygon","coordinates":[[[54.408925,24.507856],[54.408797,24.507853],[54.4088,24.507915],[54.408766,24.507916],[54.408771,24.508022],[54.40889,24.508025],[54.408889,24.507995],[54.408918,24.507994],[54.408914,24.507905],[54.408927,24.507904],[54.408925,24.507856]]]}},{"type":"Feature","properties":{},"geometry":{"type":"Polygon","coordinates":[[[54.409231,24.508233],[54.40932,24.508159],[54.409278,24.508116],[54.409198,24.508111],[54.409108,24.508185],[54.409151,24.508228],[54.409231,24.508233]]]}},{"type":"Feature","properties":{},"geometry":{"type":"Polygon","coordinates":[[[54.409117,24.508675],[54.409097,24.508646],[54.409158,24.508646],[54.409334,24.508542],[54.409273,24.508456],[54.409194,24.508452],[54.409158,24.5084],[54.409077,24.508395],[54.408934,24.50848],[54.40898,24.508545],[54.408906,24.508603],[54.408925,24.508629],[54.408889,24.50865],[54.40892,24.508693],[54.409057,24.508711],[54.409117,24.508675]]]}},{"type":"Feature","properties":{},"geometry":{"type":"Polygon","coordinates":[[[54.40755,24.50889],[54.407615,24.508841],[54.407587,24.508811],[54.407507,24.508807],[54.407442,24.508856],[54.40747,24.508886],[54.40755,24.50889]]]}},{"type":"Feature","properties":{},"geometry":{"type":"Polygon","coordinates":[[[54.407708,24.508969],[54.407628,24.508964],[54.407576,24.509008],[54.407732,24.509161],[54.407812,24.509166],[54.407864,24.509122],[54.407708,24.508969]]]}},{"type":"Feature","properties":{},"geometry":{"type":"Polygon","coordinates":[[[54.407179,24.509921],[54.407017,24.509768],[54.407446,24.509794],[54.40758,24.509657],[54.40739,24.509478],[54.407784,24.509501],[54.4079,24.509383],[54.407538,24.50905],[54.406897,24.509012],[54.406775,24.509121],[54.406951,24.509285],[54.406559,24.509261],[54.406419,24.509396],[54.406596,24.509561],[54.40617,24.509535],[54.40601,24.509668],[54.406373,24.51],[54.407014,24.510038],[54.407179,24.509921]]]}},{"type":"Feature","properties":{},"geometry":{"type":"Polygon","coordinates":[[[54.409847,24.510306],[54.41019,24.509994],[54.410005,24.509826],[54.409925,24.509821],[54.409582,24.510133],[54.409767,24.510302],[54.409847,24.510306]]]}},{"type":"Feature","properties":{},"geometry":{"type":"Polygon","coordinates":[[[54.411226,24.482004],[54.411307,24.482009],[54.411484,24.481839],[54.411116,24.48152],[54.411036,24.481515],[54.410863,24.481681],[54.410943,24.481751],[54.411024,24.481756],[54.411085,24.481697],[54.411118,24.481726],[54.411089,24.481753],[54.411133,24.481791],[54.411194,24.481795],[54.411241,24.481836],[54.411142,24.481931],[54.411226,24.482004]]]}},{"type":"Feature","properties":{},"geometry":{"type":"Polygon","coordinates":[[[54.410906,24.481767],[54.410825,24.481762],[54.410796,24.48179],[54.410835,24.481825],[54.410916,24.481829],[54.410945,24.481801],[54.410906,24.481767]]]}},{"type":"Feature","properties":{},"geometry":{"type":"Polygon","coordinates":[[[54.412482,24.482203],[54.412563,24.482207],[54.412739,24.481932],[54.412378,24.481741],[54.412298,24.481736],[54.412122,24.482011],[54.412482,24.482203]]]}},{"type":"Feature","properties":{},"geometry":{"type":"Polygon","coordinates":[[[54.411351,24.482158],[54.41143,24.482077],[54.411398,24.482052],[54.411318,24.482047],[54.41124,24.482127],[54.411271,24.482153],[54.411351,24.482158]]]}},{"type":"Feature","properties":{},"geometry":{"type":"Polygon","coordinates":[[[54.410832,24.485218],[54.410752,24.485213],[54.410643,24.485271],[54.410693,24.485349],[54.410774,24.485354],[54.410882,24.485296],[54.410832,24.485218]]]}},{"type":"Feature","properties":{},"geometry":{"type":"Polygon","coordinates":[[[54.411376,24.485656],[54.411468,24.48562],[54.411454,24.485589],[54.411374,24.485584],[54.41127,24.485625],[54.411284,24.485656],[54.411339,24.485659],[54.411295,24.485673],[54.411333,24.485771],[54.411414,24.485776],[54.411471,24.485757],[54.411432,24.48566],[54.411376,24.485656]]]}},{"type":"Feature","properties":{},"geometry":{"type":"Polygon","coordinates":[[[54.413027,24.487229],[54.413104,24.487447],[54.4134,24.487443],[54.413388,24.487195],[54.413203,24.487194],[54.413204,24.487222],[54.413027,24.487229]]]}},{"type":"Feature","properties":{},"geometry":{"type":"Polygon","coordinates":[[[54.413165,24.48746],[54.413176,24.487705],[54.413524,24.4877],[54.413521,24.487621],[54.413488,24.487619],[54.413484,24.487529],[54.413516,24.487528],[54.413513,24.487454],[54.413165,24.48746]]]}},{"type":"Feature","properties":{},"geometry":{"type":"Polygon","coordinates":[[[54.4131,24.487731],[54.413046,24.487541],[54.412966,24.487536],[54.412879,24.487557],[54.412933,24.487747],[54.413014,24.487751],[54.4131,24.487731]]]}},{"type":"Feature","properties":{},"geometry":{"type":"Polygon","coordinates":[[[54.413587,24.48789],[54.413439,24.487888],[54.413442,24.48795],[54.41359,24.487952],[54.413587,24.48789]]]}},{"type":"Feature","properties":{},"geometry":{"type":"Polygon","coordinates":[[[54.415623,24.487965],[54.415751,24.487968],[54.415745,24.487766],[54.415042,24.487767],[54.415042,24.48781],[54.415107,24.487814],[54.415107,24.488208],[54.41537,24.488213],[54.41537,24.487962],[54.415619,24.487961],[54.415622,24.487941],[54.415623,24.487965]]]}},{"type":"Feature","properties":{},"geometry":{"type":"Polygon","coordinates":[[[54.414968,24.48833],[54.414972,24.488235],[54.414759,24.488226],[54.414756,24.488321],[54.414968,24.48833]]]}},{"type":"Feature","properties":{},"geometry":{"type":"Polygon","coordinates":[[[54.415566,24.488292],[54.415392,24.488291],[54.415393,24.48831],[54.415238,24.48831],[54.415239,24.488392],[54.415436,24.488396],[54.415435,24.488332],[54.415568,24.48833],[54.415566,24.488292]]]}},{"type":"Feature","properties":{},"geometry":{"type":"Polygon","coordinates":[[[54.414976,24.488355],[54.414772,24.488354],[54.414776,24.488473],[54.414979,24.488475],[54.414976,24.488355]]]}},{"type":"Feature","properties":{},"geometry":{"type":"Polygon","coordinates":[[[54.415431,24.488484],[54.415432,24.488438],[54.415332,24.488433],[54.415331,24.488479],[54.415431,24.488484]]]}},{"type":"Feature","properties":{},"geometry":{"type":"Polygon","coordinates":[[[54.415543,24.488642],[54.415383,24.488639],[54.415385,24.488688],[54.415545,24.48869],[54.415543,24.488642]]]}},{"type":"Feature","properties":{},"geometry":{"type":"Polygon","coordinates":[[[54.410476,24.4884],[54.410341,24.488411],[54.410347,24.488459],[54.410058,24.488487],[54.410103,24.488923],[54.410183,24.488928],[54.41065,24.488887],[54.410638,24.488768],[54.410905,24.488745],[54.410862,24.48833],[54.410782,24.488325],[54.410471,24.488352],[54.410476,24.4884]]]}},{"type":"Feature","properties":{},"geometry":{"type":"Polygon","coordinates":[[[54.411094,24.488865],[54.411067,24.488926],[54.411117,24.488994],[54.411234,24.488998],[54.411353,24.489156],[54.411181,24.489248],[54.411234,24.489331],[54.411314,24.489336],[54.411955,24.48898],[54.411983,24.489034],[54.41141,24.489349],[54.411505,24.489503],[54.411586,24.489507],[54.411633,24.489588],[54.411892,24.489637],[54.411875,24.489714],[54.41212,24.489755],[54.412285,24.489127],[54.412431,24.489121],[54.412722,24.489675],[54.412803,24.48968],[54.412956,24.4896],[54.412923,24.48955],[54.413136,24.489455],[54.413186,24.489343],[54.413261,24.489348],[54.413305,24.489173],[54.412655,24.488956],[54.412659,24.488906],[54.41288,24.488938],[54.413489,24.488848],[54.413445,24.488556],[54.413365,24.488551],[54.412846,24.488613],[54.412817,24.488588],[54.412737,24.488583],[54.412648,24.48863],[54.412595,24.488585],[54.412673,24.488545],[54.412558,24.488398],[54.412689,24.48799],[54.412889,24.488096],[54.412969,24.488101],[54.413104,24.487954],[54.412745,24.487759],[54.412516,24.487718],[54.412162,24.487701],[54.412184,24.48792],[54.412369,24.487934],[54.412382,24.487907],[54.412397,24.487908],[54.412259,24.488479],[54.411981,24.487983],[54.412183,24.487944],[54.412157,24.487708],[54.412077,24.487704],[54.411788,24.487778],[54.411501,24.487952],[54.411333,24.488125],[54.411491,24.488236],[54.411571,24.488241],[54.411736,24.488106],[54.411948,24.488469],[54.411865,24.488706],[54.411214,24.488505],[54.411134,24.4885],[54.41109,24.488595],[54.411276,24.488663],[54.411239,24.488847],[54.411094,24.488865]],[[54.411948,24.489488],[54.411834,24.489464],[54.41175,24.489351],[54.411883,24.489275],[54.411882,24.489297],[54.411983,24.489319],[54.411948,24.489488]],[[54.412827,24.489256],[54.412861,24.489164],[54.412983,24.489202],[54.412936,24.489328],[54.412872,24.489358],[54.412827,24.489256]]]}},{"type":"Feature","properties":{},"geometry":{"type":"Polygon","coordinates":[[[54.410136,24.489179],[54.410216,24.489184],[54.410543,24.489154],[54.410594,24.489611],[54.410826,24.489601],[54.410762,24.489025],[54.410681,24.48902],[54.410124,24.489071],[54.410136,24.489179]]]}},{"type":"Feature","properties":{},"geometry":{"type":"Polygon","coordinates":[[[54.410884,24.489736],[54.410755,24.489734],[54.410759,24.489777],[54.410888,24.489778],[54.410884,24.489736]]]}},{"type":"Feature","properties":{},"geometry":{"type":"Polygon","coordinates":[[[54.410405,24.48949],[54.410176,24.4895],[54.410246,24.490085],[54.410326,24.49009],[54.410885,24.490035],[54.41087,24.489907],[54.410456,24.489924],[54.410405,24.48949]]]}},{"type":"Feature","properties":{},"geometry":{"type":"Polygon","coordinates":[[[54.412502,24.490007],[54.412498,24.489945],[54.412348,24.489944],[54.412352,24.490007],[54.412502,24.490007]]]}},{"type":"Feature","properties":{},"geometry":{"type":"Polygon","coordinates":[[[54.411148,24.490662],[54.410971,24.490656],[54.410971,24.490708],[54.411147,24.490714],[54.411148,24.490662]]]}},{"type":"Feature","properties":{},"geometry":{"type":"Polygon","coordinates":[[[54.411224,24.490795],[54.411074,24.49079],[54.411074,24.490883],[54.411224,24.490888],[54.411224,24.490795]]]}},{"type":"Feature","properties":{},"geometry":{"type":"Polygon","coordinates":[[[54.413413,24.490645],[54.412844,24.490635],[54.412836,24.491128],[54.413395,24.491138],[54.413397,24.490975],[54.413113,24.490967],[54.413116,24.49081],[54.413411,24.490814],[54.413413,24.490645]]]}},{"type":"Feature","properties":{},"geometry":{"type":"Polygon","coordinates":[[[54.410336,24.490813],[54.410332,24.491025],[54.410699,24.491033],[54.410706,24.490766],[54.41052,24.490761],[54.410518,24.490808],[54.410336,24.490813]]]}},{"type":"Feature","properties":{},"geometry":{"type":"Polygon","coordinates":[[[54.411221,24.490892],[54.411066,24.490889],[54.411068,24.490946],[54.411223,24.490949],[54.411221,24.490892]]]}},{"type":"Feature","properties":{},"geometry":{"type":"Polygon","coordinates":[[[54.412874,24.491226],[54.412875,24.491187],[54.412749,24.49118],[54.412748,24.49122],[54.412874,24.491226]]]}},{"type":"Feature","properties":{},"geometry":{"type":"Polygon","coordinates":[[[54.411219,24.491503],[54.411222,24.491426],[54.411105,24.49142],[54.411101,24.491497],[54.411219,24.491503]]]}},{"type":"Feature","properties":{},"geometry":{"type":"Polygon","coordinates":[[[54.410816,24.491635],[54.41083,24.491311],[54.410377,24.491293],[54.410364,24.491618],[54.410816,24.491635]]]}},{"type":"Feature","properties":{},"geometry":{"type":"Polygon","coordinates":[[[54.41186,24.492132],[54.411931,24.491223],[54.411355,24.491186],[54.411283,24.492095],[54.41186,24.492132]]]}},{"type":"Feature","properties":{},"geometry":{"type":"Polygon","coordinates":[[[54.412185,24.491729],[54.412186,24.491699],[54.412028,24.491692],[54.412027,24.491722],[54.412185,24.491729]]]}},{"type":"Feature","properties":{},"geometry":{"type":"Polygon","coordinates":[[[54.411706,24.492383],[54.411709,24.492296],[54.411501,24.492287],[54.411498,24.492375],[54.411706,24.492383]]]}},{"type":"Feature","properties":{},"geometry":{"type":"Polygon","coordinates":[[[54.412155,24.492461],[54.411893,24.492454],[54.411892,24.492552],[54.412154,24.492558],[54.412155,24.492461]]]}},{"type":"Feature","properties":{},"geometry":{"type":"Polygon","coordinates":[[[54.414992,24.497071],[54.415103,24.496914],[54.41501,24.49686],[54.41493,24.496855],[54.414819,24.497013],[54.414912,24.497066],[54.414992,24.497071]]]}},{"type":"Feature","properties":{},"geometry":{"type":"Polygon","coordinates":[[[54.41181,24.4975],[54.411496,24.497386],[54.411416,24.497381],[54.411323,24.497417],[54.411618,24.498177],[54.411744,24.498907],[54.411943,24.498902],[54.412125,24.498673],[54.412019,24.498054],[54.412041,24.498045],[54.41181,24.4975]]]}},{"type":"Feature","properties":{},"geometry":{"type":"Polygon","coordinates":[[[54.410544,24.497704],[54.41053,24.498866],[54.410668,24.499013],[54.410993,24.499029],[54.410985,24.497515],[54.410905,24.49751],[54.410718,24.497555],[54.410544,24.497704]]]}},{"type":"Feature","properties":{},"geometry":{"type":"Polygon","coordinates":[[[54.412812,24.502961],[54.412897,24.503107],[54.413098,24.503119],[54.41317,24.503099],[54.41329,24.502809],[54.413379,24.502328],[54.412899,24.502033],[54.412741,24.501881],[54.412655,24.501769],[54.412574,24.501625],[54.412526,24.501486],[54.411781,24.50146],[54.411817,24.501661],[54.411864,24.501795],[54.411937,24.501978],[54.412021,24.502135],[54.412174,24.502342],[54.412429,24.502644],[54.412674,24.502808],[54.412812,24.502961]]]}},{"type":"Feature","properties":{},"geometry":{"type":"Polygon","coordinates":[[[54.411529,24.502276],[54.411448,24.502271],[54.411377,24.502344],[54.41159,24.502517],[54.41167,24.502522],[54.411742,24.502449],[54.411529,24.502276]]]}},{"type":"Feature","properties":{},"geometry":{"type":"Polygon","coordinates":[[[54.410867,24.50224],[54.410833,24.502834],[54.411356,24.502864],[54.411354,24.502702],[54.411224,24.502679],[54.411155,24.502628],[54.411149,24.502248],[54.410867,24.50224]]]}},{"type":"Feature","properties":{},"geometry":{"type":"Polygon","coordinates":[[[54.411509,24.502659],[54.411512,24.502535],[54.411383,24.50253],[54.41138,24.502653],[54.411509,24.502659]]]}},{"type":"Feature","properties":{},"geometry":{"type":"Polygon","coordinates":[[[54.411796,24.502509],[54.411716,24.502504],[54.411614,24.502561],[54.411775,24.5028],[54.411855,24.502805],[54.411957,24.502748],[54.411796,24.502509]]]}},{"type":"Feature","properties":{},"geometry":{"type":"Polygon","coordinates":[[[54.411657,24.50276],[54.411577,24.502755],[54.411492,24.50279],[54.411569,24.502942],[54.411649,24.502947],[54.411733,24.502911],[54.411657,24.50276]]]}},{"type":"Feature","properties":{},"geometry":{"type":"Polygon","coordinates":[[[54.414844,24.504316],[54.414874,24.504291],[54.414902,24.504316],[54.41533,24.504341],[54.415451,24.50424],[54.415537,24.504314],[54.415811,24.504331],[54.415988,24.504182],[54.415792,24.50402],[54.415518,24.504004],[54.415445,24.504077],[54.415408,24.504032],[54.414884,24.504006],[54.414857,24.504032],[54.414826,24.504005],[54.414351,24.503977],[54.414193,24.504134],[54.414282,24.504212],[54.413711,24.504178],[54.413552,24.504335],[54.413729,24.504488],[54.414331,24.504524],[54.414508,24.504375],[54.414404,24.504289],[54.414844,24.504316]],[[54.415409,24.504112],[54.415389,24.504095],[54.415422,24.504097],[54.415409,24.504112]]]}},{"type":"Feature","properties":{},"geometry":{"type":"Polygon","coordinates":[[[54.414858,24.504803],[54.414848,24.504813],[54.414671,24.504668],[54.414244,24.504643],[54.414085,24.5048],[54.414263,24.504953],[54.41469,24.504979],[54.414705,24.504966],[54.414877,24.505114],[54.415219,24.505134],[54.415233,24.50515],[54.415313,24.505155],[54.415377,24.50511],[54.415331,24.505068],[54.415428,24.504987],[54.415232,24.504826],[54.414858,24.504803]]]}},{"type":"Feature","properties":{},"geometry":{"type":"Polygon","coordinates":[[[54.410773,24.506792],[54.410797,24.506728],[54.410732,24.506708],[54.410747,24.506615],[54.410678,24.506576],[54.410546,24.50654],[54.410465,24.506535],[54.410291,24.506556],[54.410218,24.506606],[54.410218,24.506656],[54.410255,24.506725],[54.410303,24.506735],[54.410422,24.506798],[54.410588,24.506808],[54.410773,24.506792]]]}},{"type":"Feature","properties":{},"geometry":{"type":"Polygon","coordinates":[[[54.411043,24.506943],[54.410977,24.506911],[54.410897,24.506907],[54.410874,24.506946],[54.410767,24.506933],[54.410713,24.506989],[54.410652,24.507102],[54.410646,24.507262],[54.410689,24.507335],[54.410823,24.507348],[54.410904,24.507326],[54.410922,24.507285],[54.41101,24.507189],[54.411043,24.506943]]]}},{"type":"Feature","properties":{},"geometry":{"type":"Polygon","coordinates":[[[54.410732,24.508592],[54.410729,24.508692],[54.411097,24.508706],[54.4111,24.508608],[54.410732,24.508592]]]}},{"type":"Feature","properties":{},"geometry":{"type":"Polygon","coordinates":[[[54.411694,24.509167],[54.411703,24.508958],[54.4115,24.508949],[54.411491,24.509158],[54.411694,24.509167]]]}},{"type":"Feature","properties":{},"geometry":{"type":"Polygon","coordinates":[[[54.41076,24.509063],[54.410618,24.50906],[54.41062,24.509156],[54.410762,24.50916],[54.41076,24.509063]]]}},{"type":"Feature","properties":{},"geometry":{"type":"Polygon","coordinates":[[[54.411157,24.50922],[54.411154,24.509305],[54.411227,24.509309],[54.411226,24.509331],[54.411477,24.50934],[54.411487,24.508984],[54.411168,24.508979],[54.411161,24.509147],[54.411043,24.509143],[54.411041,24.509215],[54.411157,24.50922]]]}},{"type":"Feature","properties":{},"geometry":{"type":"Polygon","coordinates":[[[54.411678,24.509265],[54.411479,24.509258],[54.411475,24.509475],[54.411673,24.509482],[54.411678,24.509265]]]}},{"type":"Feature","properties":{},"geometry":{"type":"Polygon","coordinates":[[[54.411448,24.509523],[54.411445,24.509433],[54.410643,24.509445],[54.410647,24.509539],[54.411448,24.509523]]]}},{"type":"Feature","properties":{},"geometry":{"type":"Polygon","coordinates":[[[54.411355,24.509641],[54.411275,24.509636],[54.411176,24.509676],[54.411253,24.509833],[54.411333,24.509838],[54.411432,24.509798],[54.411355,24.509641]]]}},{"type":"Feature","properties":{},"geometry":{"type":"Polygon","coordinates":[[[54.418573,24.481898],[54.418449,24.481896],[54.41845,24.481918],[54.418575,24.48192],[54.418573,24.481898]]]}},{"type":"Feature","properties":{},"geometry":{"type":"Polygon","coordinates":[[[54.419119,24.482505],[54.419116,24.482535],[54.418758,24.482493],[54.41876,24.48248],[54.418353,24.482442],[54.418337,24.482576],[54.418743,24.482614],[54.418751,24.482554],[54.419047,24.482591],[54.419127,24.482596],[54.41913,24.482576],[54.419525,24.482609],[54.41953,24.482568],[54.419598,24.482572],[54.419632,24.482238],[54.41979,24.482258],[54.419774,24.482389],[54.420161,24.482425],[54.420159,24.482435],[54.420926,24.482526],[54.420945,24.482404],[54.420206,24.482305],[54.420209,24.48228],[54.420954,24.482361],[54.420967,24.48224],[54.420577,24.482207],[54.420571,24.482259],[54.42027,24.482219],[54.419879,24.482189],[54.419798,24.482184],[54.419795,24.482214],[54.419636,24.482195],[54.4198,24.482179],[54.4198,24.48213],[54.419701,24.482118],[54.419811,24.482116],[54.419806,24.482149],[54.420207,24.482195],[54.420228,24.482064],[54.419907,24.482023],[54.419614,24.482017],[54.419618,24.481986],[54.419214,24.481943],[54.419196,24.482063],[54.418829,24.482025],[54.418837,24.481991],[54.41872,24.48198],[54.418705,24.48205],[54.418799,24.48206],[54.418793,24.482103],[54.41917,24.482142],[54.419147,24.482303],[54.419462,24.482341],[54.419292,24.482328],[54.419285,24.482401],[54.41916,24.482391],[54.419163,24.482372],[54.41838,24.48228],[54.418362,24.482412],[54.419119,24.482505]],[[54.4192,24.482111],[54.419205,24.482075],[54.419579,24.482115],[54.419573,24.482151],[54.4192,24.482111]]]}},{"type":"Feature","properties":{},"geometry":{"type":"Polygon","coordinates":[[[54.418681,24.482847],[54.418679,24.482873],[54.418286,24.482856],[54.41828,24.482978],[54.418686,24.482995],[54.418689,24.482919],[54.418784,24.482924],[54.418777,24.48299],[54.419189,24.483025],[54.4192,24.482928],[54.419551,24.482961],[54.419568,24.482829],[54.419164,24.48279],[54.419153,24.482877],[54.418849,24.482851],[54.418851,24.482817],[54.418712,24.48281],[54.418722,24.482713],[54.418316,24.48268],[54.418302,24.482816],[54.418681,24.482847]]]}},{"type":"Feature","properties":{},"geometry":{"type":"Polygon","coordinates":[[[54.415671,24.487682],[54.415532,24.48768],[54.415535,24.487724],[54.415674,24.487726],[54.415671,24.487682]]]}},{"type":"Feature","properties":{},"geometry":{"type":"Polygon","coordinates":[[[54.417324,24.487723],[54.417158,24.487719],[54.417159,24.487765],[54.417325,24.487769],[54.417324,24.487723]]]}},{"type":"Feature","properties":{},"geometry":{"type":"Polygon","coordinates":[[[54.415885,24.487791],[54.415887,24.487747],[54.415775,24.487742],[54.415773,24.487785],[54.415885,24.487791]]]}},{"type":"Feature","properties":{},"geometry":{"type":"Polygon","coordinates":[[[54.416102,24.487798],[54.416103,24.487769],[54.415917,24.487761],[54.415916,24.48779],[54.416102,24.487798]]]}},{"type":"Feature","properties":{},"geometry":{"type":"Polygon","coordinates":[[[54.416254,24.487801],[54.415917,24.48781],[54.415925,24.487939],[54.416262,24.487931],[54.416254,24.487801]]]}},{"type":"Feature","properties":{},"geometry":{"type":"Polygon","coordinates":[[[54.416244,24.487954],[54.415928,24.487956],[54.415929,24.488012],[54.416245,24.48801],[54.416244,24.487954]]]}},{"type":"Feature","properties":{},"geometry":{"type":"Polygon","coordinates":[[[54.416665,24.488042],[54.416594,24.488038],[54.416595,24.48802],[54.416666,24.48802],[54.416665,24.487971],[54.416362,24.48797],[54.416362,24.488017],[54.416255,24.488019],[54.41627,24.488277],[54.416155,24.488272],[54.416154,24.488347],[54.416065,24.488348],[54.416069,24.488384],[54.416153,24.488388],[54.416151,24.488484],[54.416527,24.488493],[54.416528,24.48842],[54.416348,24.488414],[54.416349,24.488388],[54.416274,24.488384],[54.416275,24.488302],[54.416396,24.488304],[54.416399,24.48836],[54.416479,24.488365],[54.416526,24.488363],[54.416524,24.488323],[54.41665,24.48833],[54.416652,24.488301],[54.416749,24.488305],[54.416748,24.488248],[54.416682,24.488244],[54.41675,24.488241],[54.416746,24.488148],[54.416603,24.488145],[54.416603,24.488134],[54.416669,24.488133],[54.416665,24.488042]],[[54.416422,24.488132],[54.416421,24.48812],[54.41644,24.488121],[54.416535,24.488123],[54.416422,24.488132]],[[54.416625,24.488264],[54.416519,24.488259],[54.416517,24.488294],[54.416504,24.488293],[54.416501,24.488232],[54.416625,24.488244],[54.416625,24.488264]]]}},{"type":"Feature","properties":{},"geometry":{"type":"Polygon","coordinates":[[[54.41571,24.4882],[54.415567,24.488197],[54.415571,24.488308],[54.415714,24.488311],[54.41571,24.4882]]]}},{"type":"Feature","properties":{},"geometry":{"type":"Polygon","coordinates":[[[54.415696,24.488385],[54.415695,24.488336],[54.415521,24.488333],[54.415522,24.488382],[54.415696,24.488385]]]}},{"type":"Feature","properties":{},"geometry":{"type":"Polygon","coordinates":[[[54.416723,24.488408],[54.416725,24.488369],[54.416615,24.488363],[54.416613,24.488402],[54.416723,24.488408]]]}},{"type":"Feature","properties":{},"geometry":{"type":"Polygon","coordinates":[[[54.416694,24.488479],[54.416696,24.488436],[54.416571,24.488429],[54.416569,24.488473],[54.416694,24.488479]]]}},{"type":"Feature","properties":{},"geometry":{"type":"Polygon","coordinates":[[[54.416252,24.488881],[54.416143,24.488877],[54.416147,24.488984],[54.416257,24.488988],[54.416252,24.488881]]]}},{"type":"Feature","properties":{},"geometry":{"type":"Polygon","coordinates":[[[54.416058,24.48884],[54.415919,24.488837],[54.415926,24.489036],[54.416065,24.48904],[54.416058,24.48884]]]}},{"type":"Feature","properties":{},"geometry":{"type":"Polygon","coordinates":[[[54.415679,24.488851],[54.415539,24.488847],[54.415543,24.489047],[54.415683,24.489051],[54.415679,24.488851]]]}},{"type":"Feature","properties":{},"geometry":{"type":"Polygon","coordinates":[[[54.415876,24.489139],[54.415873,24.489095],[54.415639,24.4891],[54.415641,24.489142],[54.415876,24.489139]]]}},{"type":"Feature","properties":{},"geometry":{"type":"Polygon","coordinates":[[[54.415833,24.489251],[54.415835,24.489171],[54.415704,24.489164],[54.415701,24.489245],[54.415833,24.489251]]]}},{"type":"Feature","properties":{},"geometry":{"type":"Polygon","coordinates":[[[54.415336,24.489518],[54.41534,24.489672],[54.416292,24.489655],[54.41629,24.489586],[54.416269,24.489585],[54.416267,24.489502],[54.415336,24.489518]]]}},{"type":"Feature","properties":{},"geometry":{"type":"Polygon","coordinates":[[[54.41716,24.50168],[54.417082,24.501753],[54.417139,24.501814],[54.417101,24.501897],[54.416979,24.501944],[54.417174,24.502085],[54.417254,24.502089],[54.41747,24.501885],[54.41724,24.501685],[54.41716,24.50168]]]}},{"type":"Feature","properties":{},"geometry":{"type":"Polygon","coordinates":[[[54.416758,24.501965],[54.416757,24.501931],[54.416865,24.501923],[54.41685,24.501875],[54.41677,24.501871],[54.416725,24.501882],[54.416735,24.501914],[54.416492,24.501924],[54.416493,24.50197],[54.416758,24.501965]]]}},{"type":"Feature","properties":{},"geometry":{"type":"Polygon","coordinates":[[[54.41759,24.502323],[54.41751,24.502318],[54.417468,24.502346],[54.417497,24.502383],[54.417577,24.502387],[54.417619,24.50236],[54.41759,24.502323]]]}},{"type":"Feature","properties":{},"geometry":{"type":"Polygon","coordinates":[[[54.417885,24.502453],[54.417805,24.502448],[54.417781,24.502473],[54.417828,24.50251],[54.417908,24.502514],[54.417932,24.502489],[54.417885,24.502453]]]}},{"type":"Feature","properties":{},"geometry":{"type":"Polygon","coordinates":[[[54.415522,24.502478],[54.415526,24.502419],[54.415421,24.502412],[54.415416,24.502471],[54.415522,24.502478]]]}},{"type":"Feature","properties":{},"geometry":{"type":"Polygon","coordinates":[[[54.4175,24.502562],[54.417504,24.502442],[54.417341,24.502437],[54.417341,24.502552],[54.4175,24.502562]]]}},{"type":"Feature","properties":{},"geometry":{"type":"Polygon","coordinates":[[[54.416995,24.502628],[54.416812,24.502625],[54.416812,24.502649],[54.416996,24.502652],[54.416995,24.502628]]]}},{"type":"Feature","properties":{},"geometry":{"type":"Polygon","coordinates":[[[54.415468,24.502603],[54.41531,24.502602],[54.415312,24.502636],[54.415369,24.502639],[54.415315,24.502639],[54.415314,24.502677],[54.415466,24.502682],[54.415466,24.502644],[54.4154,24.50264],[54.415469,24.502637],[54.415468,24.502603]]]}},{"type":"Feature","properties":{},"geometry":{"type":"Polygon","coordinates":[[[54.417408,24.502771],[54.417402,24.50271],[54.417054,24.502713],[54.416865,24.502698],[54.416862,24.502758],[54.416979,24.502764],[54.41698,24.502789],[54.417302,24.502785],[54.417302,24.502773],[54.417408,24.502771]]]}},{"type":"Feature","properties":{},"geometry":{"type":"Polygon","coordinates":[[[54.415485,24.502775],[54.415481,24.502802],[54.415607,24.502812],[54.415605,24.502852],[54.415811,24.502861],[54.415815,24.502783],[54.415485,24.502775]]]}},{"type":"Feature","properties":{},"geometry":{"type":"Polygon","coordinates":[[[54.415458,24.502778],[54.415316,24.50278],[54.415322,24.502834],[54.415465,24.502832],[54.415458,24.502778]]]}},{"type":"Feature","properties":{},"geometry":{"type":"Polygon","coordinates":[[[54.415497,24.502843],[54.415359,24.502846],[54.415367,24.502896],[54.415505,24.502893],[54.415497,24.502843]]]}},{"type":"Feature","properties":{},"geometry":{"type":"Polygon","coordinates":[[[54.417372,24.503102],[54.417374,24.50306],[54.417187,24.503051],[54.417185,24.503094],[54.417372,24.503102]]]}},{"type":"Feature","properties":{},"geometry":{"type":"Polygon","coordinates":[[[54.417526,24.503139],[54.417385,24.503132],[54.417381,24.503222],[54.417605,24.503229],[54.417604,24.503168],[54.417525,24.503163],[54.417526,24.503139]]]}},{"type":"Feature","properties":{},"geometry":{"type":"Polygon","coordinates":[[[54.415726,24.503477],[54.415728,24.503421],[54.415554,24.503413],[54.415552,24.503469],[54.415726,24.503477]]]}},{"type":"Feature","properties":{},"geometry":{"type":"Polygon","coordinates":[[[54.415852,24.503558],[54.415729,24.503554],[54.415732,24.503637],[54.415855,24.50364],[54.415852,24.503558]]]}},{"type":"Feature","properties":{},"geometry":{"type":"Polygon","coordinates":[[[54.41769,24.503787],[54.417698,24.50357],[54.417584,24.503564],[54.417576,24.503781],[54.41769,24.503787]]]}},{"type":"Feature","properties":{},"geometry":{"type":"Polygon","coordinates":[[[54.415415,24.503972],[54.415276,24.50398],[54.415285,24.504017],[54.415424,24.504009],[54.415415,24.503972]]]}},{"type":"Feature","properties":{},"geometry":{"type":"Polygon","coordinates":[[[54.415441,24.504421],[54.415361,24.504417],[54.415316,24.504452],[54.415345,24.504483],[54.415283,24.504479],[54.415124,24.504636],[54.415301,24.504789],[54.415629,24.504809],[54.415806,24.50466],[54.41561,24.504498],[54.415468,24.50449],[54.41549,24.504472],[54.415441,24.504421]]]}},{"type":"Feature","properties":{},"geometry":{"type":"Polygon","coordinates":[[[54.415784,24.50493],[54.415703,24.504925],[54.415657,24.504961],[54.415714,24.505022],[54.415794,24.505027],[54.415841,24.50499],[54.415784,24.50493]]]}},{"type":"Feature","properties":{},"geometry":{"type":"Polygon","coordinates":[[[54.418939,24.480052],[54.418793,24.480038],[54.418787,24.480073],[54.418863,24.480083],[54.418862,24.480126],[54.41898,24.480132],[54.418981,24.480071],[54.418936,24.480068],[54.418939,24.480052]]]}},{"type":"Feature","properties":{},"geometry":{"type":"Polygon","coordinates":[[[54.420695,24.480332],[54.420696,24.480302],[54.420657,24.4803],[54.42066,24.480236],[54.420489,24.480228],[54.420482,24.480359],[54.420901,24.480388],[54.420903,24.480342],[54.420695,24.480332]]]}},{"type":"Feature","properties":{},"geometry":{"type":"Polygon","coordinates":[[[54.419987,24.480883],[54.419993,24.480828],[54.419849,24.480818],[54.419843,24.480872],[54.419987,24.480883]]]}},{"type":"Feature","properties":{},"geometry":{"type":"Polygon","coordinates":[[[54.41888,24.481695],[54.418898,24.481561],[54.418498,24.481519],[54.41848,24.481654],[54.41888,24.481695]]]}},{"type":"Feature","properties":{},"geometry":{"type":"Polygon","coordinates":[[[54.4193,24.481784],[54.419322,24.48163],[54.418902,24.481584],[54.41888,24.481737],[54.4193,24.481784]]]}},{"type":"Feature","properties":{},"geometry":{"type":"Polygon","coordinates":[[[54.419728,24.481807],[54.419748,24.48167],[54.419341,24.481626],[54.419321,24.481763],[54.419728,24.481807]]]}},{"type":"Feature","properties":{},"geometry":{"type":"Polygon","coordinates":[[[54.420597,24.481951],[54.420621,24.481788],[54.420283,24.481748],[54.420203,24.481743],[54.4202,24.481761],[54.420202,24.48172],[54.419989,24.481701],[54.419983,24.481764],[54.420199,24.481772],[54.420179,24.481906],[54.420597,24.481951]]]}},{"type":"Feature","properties":{},"geometry":{"type":"Polygon","coordinates":[[[54.418463,24.481686],[54.418469,24.481826],[54.418733,24.481824],[54.41873,24.481743],[54.418674,24.481739],[54.418672,24.481686],[54.418463,24.481686]]]}},{"type":"Feature","properties":{},"geometry":{"type":"Polygon","coordinates":[[[54.418855,24.481855],[54.418868,24.481775],[54.418746,24.481765],[54.418733,24.481845],[54.418855,24.481855]]]}},{"type":"Feature","properties":{},"geometry":{"type":"Polygon","coordinates":[[[54.421032,24.481962],[54.42104,24.48183],[54.420635,24.481808],[54.420627,24.481941],[54.421032,24.481962]]]}},{"type":"Feature","properties":{},"geometry":{"type":"Polygon","coordinates":[[[54.420155,24.482024],[54.420171,24.481889],[54.419771,24.481851],[54.419754,24.481986],[54.420155,24.482024]]]}},{"type":"Feature","properties":{},"geometry":{"type":"Polygon","coordinates":[[[54.420987,24.482135],[54.421007,24.482012],[54.420617,24.481966],[54.420597,24.482089],[54.420987,24.482135]]]}},{"type":"Feature","properties":{},"geometry":{"type":"Polygon","coordinates":[[[54.420444,24.482109],[54.420468,24.48202],[54.420297,24.481995],[54.420273,24.482084],[54.420444,24.482109]]]}},{"type":"Feature","properties":{},"geometry":{"type":"Polygon","coordinates":[[[54.418798,24.482252],[54.418817,24.482124],[54.418414,24.482079],[54.418395,24.482206],[54.418798,24.482252]]]}},{"type":"Feature","properties":{},"geometry":{"type":"Polygon","coordinates":[[[54.420871,24.48289],[54.420888,24.482769],[54.420519,24.48273],[54.420522,24.482703],[54.420155,24.482668],[54.420158,24.482645],[54.420508,24.482674],[54.420506,24.482689],[54.420895,24.482727],[54.420916,24.482582],[54.420174,24.482514],[54.420176,24.482499],[54.419759,24.48246],[54.419736,24.482656],[54.420111,24.482692],[54.420105,24.482733],[54.420492,24.48277],[54.420481,24.48285],[54.420871,24.48289]]]}},{"type":"Feature","properties":{},"geometry":{"type":"Polygon","coordinates":[[[54.419494,24.482791],[54.419514,24.482659],[54.419111,24.482614],[54.419091,24.482746],[54.419494,24.482791]]]}},{"type":"Feature","properties":{},"geometry":{"type":"Polygon","coordinates":[[[54.419026,24.482773],[54.419055,24.482687],[54.418957,24.482661],[54.418877,24.482656],[54.418849,24.482742],[54.418946,24.482769],[54.419026,24.482773]]]}},{"type":"Feature","properties":{},"geometry":{"type":"Polygon","coordinates":[[[54.420103,24.48287],[54.420123,24.482738],[54.419721,24.482693],[54.419702,24.482825],[54.420103,24.48287]]]}},{"type":"Feature","properties":{},"geometry":{"type":"Polygon","coordinates":[[[54.420354,24.482948],[54.420388,24.482858],[54.4203,24.48283],[54.420219,24.482825],[54.420185,24.482916],[54.420274,24.482944],[54.420354,24.482948]]]}},{"type":"Feature","properties":{},"geometry":{"type":"Polygon","coordinates":[[[54.420003,24.48302],[54.420021,24.482886],[54.419619,24.482845],[54.419601,24.48298],[54.420003,24.48302]]]}},{"type":"Feature","properties":{},"geometry":{"type":"Polygon","coordinates":[[[54.420835,24.483127],[54.420852,24.483007],[54.420464,24.482965],[54.420446,24.483085],[54.420835,24.483127]]]}},{"type":"Feature","properties":{},"geometry":{"type":"Polygon","coordinates":[[[54.419984,24.483163],[54.419997,24.483043],[54.419592,24.48301],[54.41958,24.48313],[54.419984,24.483163]]]}},{"type":"Feature","properties":{},"geometry":{"type":"Polygon","coordinates":[[[54.420414,24.483194],[54.420432,24.483032],[54.420013,24.482995],[54.419995,24.483157],[54.420414,24.483194]]]}},{"type":"Feature","properties":{},"geometry":{"type":"Polygon","coordinates":[[[54.420826,24.483278],[54.420839,24.483149],[54.42044,24.483118],[54.420427,24.483246],[54.420826,24.483278]]]}},{"type":"Feature","properties":{},"geometry":{"type":"Polygon","coordinates":[[[54.419511,24.489315],[54.419695,24.489319],[54.419694,24.489265],[54.419459,24.489254],[54.41925,24.489263],[54.419251,24.489302],[54.419511,24.489302],[54.419511,24.489315]]]}},{"type":"Feature","properties":{},"geometry":{"type":"Polygon","coordinates":[[[54.419077,24.489301],[54.418907,24.4893],[54.418913,24.489424],[54.419083,24.489425],[54.419077,24.489301]]]}},{"type":"Feature","properties":{},"geometry":{"type":"Polygon","coordinates":[[[54.419658,24.489483],[54.419661,24.489381],[54.419477,24.489374],[54.419473,24.489476],[54.419658,24.489483]]]}},{"type":"Feature","properties":{},"geometry":{"type":"Polygon","coordinates":[[[54.419183,24.489537],[54.419076,24.489535],[54.419086,24.489607],[54.419193,24.489609],[54.419183,24.489537]]]}},{"type":"Feature","properties":{},"geometry":{"type":"Polygon","coordinates":[[[54.419684,24.489774],[54.419483,24.489771],[54.419484,24.489817],[54.419685,24.489819],[54.419684,24.489774]]]}},{"type":"Feature","properties":{},"geometry":{"type":"Polygon","coordinates":[[[54.419498,24.490293],[54.419662,24.490293],[54.419659,24.490172],[54.419531,24.490168],[54.419533,24.490248],[54.419491,24.490253],[54.419498,24.490293]]]}},{"type":"Feature","properties":{},"geometry":{"type":"Polygon","coordinates":[[[54.41916,24.490306],[54.419438,24.490303],[54.419432,24.490181],[54.419301,24.490178],[54.419306,24.490274],[54.419159,24.490272],[54.41916,24.490306]]]}},{"type":"Feature","properties":{},"geometry":{"type":"Polygon","coordinates":[[[54.418376,24.5023],[54.418296,24.502295],[54.418094,24.502374],[54.418137,24.502467],[54.418218,24.502471],[54.41842,24.502393],[54.418376,24.5023]]]}}]}