{"type":"FeatureCollection","features":[{"type":"Feature","properties":{},"geometry":{"type":"Polygon","coordinates":[[[54.390866,24.48257],[54.390886,24.482448],[54.390749,24.482434],[54.39058,24.482459],[54.390563,24.482582],[54.390697,24.482594],[54.390866,24.48257]]]}},{"type":"Feature","properties":{},"geometry":{"type":"Polygon","coordinates":[[[54.390997,24.483025],[54.391238,24.483168],[54.39128,24.483162],[54.391275,24.48317],[54.391503,24.483283],[54.391671,24.483258],[54.391748,24.483136],[54.391658,24.483072],[54.391703,24.482998],[54.391836,24.482979],[54.39191,24.482859],[54.391678,24.482745],[54.391588,24.482758],[54.391363,24.482656],[54.3913,24.482665],[54.391317,24.482636],[54.391231,24.482596],[54.391192,24.482602],[54.391204,24.482583],[54.39111,24.482541],[54.390942,24.482565],[54.390853,24.482722],[54.390687,24.48263],[54.390518,24.482654],[54.390461,24.482735],[54.39071,24.482873],[54.390878,24.482849],[54.390903,24.482812],[54.390957,24.48281],[54.390947,24.482828],[54.391028,24.482867],[54.391187,24.482844],[54.39115,24.482902],[54.391191,24.482923],[54.391056,24.482942],[54.390997,24.483025]],[[54.391382,24.482946],[54.391408,24.482942],[54.391372,24.483004],[54.391228,24.48292],[54.391303,24.48291],[54.391382,24.482946]],[[54.391256,24.482798],[54.391247,24.482816],[54.391262,24.482829],[54.391199,24.482838],[54.39123,24.482785],[54.391256,24.482798]]]}},{"type":"Feature","properties":{},"geometry":{"type":"Polygon","coordinates":[[[54.389972,24.482894],[54.390141,24.48287],[54.390231,24.4828],[54.390166,24.482731],[54.389997,24.482755],[54.389907,24.482825],[54.389972,24.482894]]]}},{"type":"Feature","properties":{},"geometry":{"type":"Polygon","coordinates":[[[54.392325,24.483234],[54.392282,24.483312],[54.392375,24.483354],[54.392543,24.48333],[54.392644,24.483156],[54.392548,24.48311],[54.392486,24.483119],[54.392427,24.483091],[54.392449,24.483053],[54.392342,24.483003],[54.392277,24.483012],[54.39221,24.482982],[54.392042,24.483006],[54.392022,24.483043],[54.392118,24.483089],[54.392158,24.483084],[54.39226,24.483126],[54.392207,24.483218],[54.392261,24.483243],[54.392325,24.483234]]]}},{"type":"Feature","properties":{},"geometry":{"type":"Polygon","coordinates":[[[54.391612,24.483457],[54.39178,24.483433],[54.391795,24.483403],[54.3917,24.483363],[54.391532,24.483387],[54.391516,24.483417],[54.391612,24.483457]]]}},{"type":"Feature","properties":{},"geometry":{"type":"Polygon","coordinates":[[[54.391407,24.483666],[54.391468,24.483595],[54.391445,24.483576],[54.391492,24.48357],[54.391576,24.483474],[54.391392,24.483334],[54.391224,24.483358],[54.391015,24.483564],[54.39122,24.483711],[54.391248,24.483707],[54.391186,24.48376],[54.391324,24.483896],[54.391492,24.483872],[54.391579,24.483796],[54.391442,24.483661],[54.391407,24.483666]]]}},{"type":"Feature","properties":{},"geometry":{"type":"Polygon","coordinates":[[[54.390799,24.484563],[54.390967,24.484539],[54.391059,24.484461],[54.39094,24.484345],[54.390771,24.484369],[54.39068,24.484447],[54.390799,24.484563]]]}},{"type":"Feature","properties":{},"geometry":{"type":"Polygon","coordinates":[[[54.392538,24.489018],[54.392688,24.489106],[54.392839,24.489252],[54.392886,24.489319],[54.393096,24.489288],[54.393263,24.489222],[54.393272,24.489275],[54.394013,24.489176],[54.39396,24.488839],[54.393383,24.488915],[54.393309,24.488876],[54.393254,24.488816],[54.393227,24.488756],[54.393221,24.488692],[54.393234,24.488628],[54.393267,24.488571],[54.393363,24.488502],[54.393918,24.488442],[54.39386,24.487887],[54.393082,24.487954],[54.392872,24.487985],[54.392909,24.488341],[54.39273,24.488562],[54.392524,24.488504],[54.392314,24.488534],[54.392302,24.488593],[54.392215,24.488605],[54.392125,24.48894],[54.392388,24.488966],[54.392538,24.489018]]]}},{"type":"Feature","properties":{},"geometry":{"type":"Polygon","coordinates":[[[54.392303,24.490933],[54.392518,24.490899],[54.39257,24.490997],[54.392984,24.490943],[54.393301,24.49113],[54.393465,24.491106],[54.393566,24.49117],[54.393672,24.491195],[54.393757,24.491191],[54.393441,24.491575],[54.393494,24.491719],[54.39383,24.491951],[54.393942,24.491935],[54.395165,24.490467],[54.394994,24.490354],[54.394767,24.490368],[54.394497,24.490409],[54.394352,24.490468],[54.39416,24.490702],[54.394078,24.490606],[54.393982,24.490553],[54.393874,24.490531],[54.393944,24.490521],[54.39405,24.490464],[54.394188,24.490288],[54.394101,24.489783],[54.393723,24.489816],[54.393447,24.48966],[54.393205,24.489668],[54.392995,24.489698],[54.392899,24.490086],[54.392856,24.490178],[54.392776,24.490275],[54.392729,24.490281],[54.392598,24.490361],[54.392349,24.490475],[54.392146,24.490481],[54.391946,24.490435],[54.391736,24.490465],[54.391721,24.490502],[54.391735,24.490577],[54.3917,24.4906],[54.391651,24.49071],[54.391724,24.490779],[54.391942,24.490822],[54.392303,24.490933]]]}},{"type":"Feature","properties":{},"geometry":{"type":"Polygon","coordinates":[[[54.393038,24.491067],[54.392169,24.491164],[54.39221,24.49149],[54.392671,24.491436],[54.392657,24.491325],[54.393064,24.491276],[54.393038,24.491067]]]}},{"type":"Feature","properties":{},"geometry":{"type":"Polygon","coordinates":[[[54.39246,24.491593],[54.392547,24.492146],[54.393131,24.492068],[54.393158,24.491868],[54.393102,24.491508],[54.39246,24.491593]]]}},{"type":"Feature","properties":{},"geometry":{"type":"Polygon","coordinates":[[[54.392226,24.492479],[54.392288,24.492864],[54.393039,24.492762],[54.392976,24.492377],[54.392226,24.492479]]]}},{"type":"Feature","properties":{},"geometry":{"type":"Polygon","coordinates":[[[54.390861,24.492843],[54.390755,24.492747],[54.390587,24.492771],[54.390399,24.492942],[54.390505,24.493039],[54.390673,24.493014],[54.390861,24.492843]]]}},{"type":"Feature","properties":{},"geometry":{"type":"Polygon","coordinates":[[[54.389361,24.494209],[54.390339,24.494091],[54.390289,24.493736],[54.389311,24.493854],[54.389361,24.494209]]]}},{"type":"Feature","properties":{},"geometry":{"type":"Polygon","coordinates":[[[54.392741,24.49608],[54.392909,24.496056],[54.392954,24.496022],[54.39373,24.495942],[54.393739,24.496008],[54.394032,24.49597],[54.394231,24.495792],[54.394454,24.495762],[54.394368,24.495152],[54.393632,24.495242],[54.393641,24.495305],[54.392676,24.495443],[54.392741,24.49608]]]}},{"type":"Feature","properties":{},"geometry":{"type":"Polygon","coordinates":[[[54.390205,24.496364],[54.390509,24.496344],[54.390811,24.496304],[54.390798,24.496075],[54.390758,24.496077],[54.390795,24.496072],[54.390744,24.495652],[54.390109,24.495729],[54.390113,24.495837],[54.39024,24.495832],[54.390263,24.496016],[54.390147,24.496033],[54.390156,24.496107],[54.390173,24.496106],[54.390205,24.496364]],[[54.390545,24.496217],[54.390561,24.496215],[54.390563,24.496249],[54.390545,24.496217]]]}},{"type":"Feature","properties":{},"geometry":{"type":"Polygon","coordinates":[[[54.391832,24.496988],[54.39183,24.496949],[54.39159,24.496961],[54.391422,24.496985],[54.391421,24.497019],[54.391832,24.496988]]]}},{"type":"Feature","properties":{},"geometry":{"type":"Polygon","coordinates":[[[54.391615,24.497128],[54.391838,24.497094],[54.39183,24.497056],[54.391607,24.49709],[54.391615,24.497128]]]}},{"type":"Feature","properties":{},"geometry":{"type":"Polygon","coordinates":[[[54.391477,24.497028],[54.391354,24.497026],[54.391186,24.49705],[54.391184,24.497144],[54.391304,24.497146],[54.391472,24.497122],[54.391477,24.497028]]]}},{"type":"Feature","properties":{},"geometry":{"type":"Polygon","coordinates":[[[54.391513,24.497156],[54.3914,24.497154],[54.391232,24.497178],[54.39123,24.497241],[54.391343,24.497244],[54.391511,24.49722],[54.391513,24.497156]]]}},{"type":"Feature","properties":{},"geometry":{"type":"Polygon","coordinates":[[[54.391913,24.49816],[54.393596,24.497918],[54.393565,24.4977],[54.393189,24.497574],[54.391505,24.497815],[54.391368,24.497883],[54.391404,24.498122],[54.391497,24.498179],[54.391913,24.49816]]]}},{"type":"Feature","properties":{},"geometry":{"type":"Polygon","coordinates":[[[54.39352,24.498174],[54.393523,24.498093],[54.393313,24.498116],[54.39331,24.498197],[54.39352,24.498174]]]}},{"type":"Feature","properties":{},"geometry":{"type":"Polygon","coordinates":[[[54.389941,24.498568],[54.391142,24.498437],[54.391098,24.498083],[54.389896,24.498215],[54.389941,24.498568]]]}},{"type":"Feature","properties":{},"geometry":{"type":"Polygon","coordinates":[[[54.391623,24.500751],[54.39166,24.500999],[54.39209,24.500945],[54.392057,24.500702],[54.391623,24.500751]]]}},{"type":"Feature","properties":{},"geometry":{"type":"Polygon","coordinates":[[[54.39033,24.502516],[54.390406,24.5031],[54.391157,24.503036],[54.391466,24.502991],[54.391409,24.502481],[54.391727,24.502436],[54.391289,24.498799],[54.389877,24.498968],[54.390311,24.502362],[54.389868,24.502417],[54.389887,24.502566],[54.39033,24.502516]]]}},{"type":"Feature","properties":{},"geometry":{"type":"Polygon","coordinates":[[[54.392099,24.503682],[54.392359,24.503646],[54.392351,24.503596],[54.392091,24.503633],[54.392099,24.503682]]]}},{"type":"Feature","properties":{},"geometry":{"type":"Polygon","coordinates":[[[54.392463,24.503812],[54.392723,24.503787],[54.392722,24.503738],[54.392463,24.503763],[54.392463,24.503812]]]}},{"type":"Feature","properties":{},"geometry":{"type":"Polygon","coordinates":[[[54.392105,24.503737],[54.392111,24.503839],[54.392442,24.503807],[54.392436,24.503705],[54.392105,24.503737]]]}},{"type":"Feature","properties":{},"geometry":{"type":"Polygon","coordinates":[[[54.392186,24.50412],[54.392197,24.504212],[54.39209,24.504227],[54.392098,24.504395],[54.392216,24.504384],[54.392222,24.504432],[54.392672,24.504377],[54.392666,24.504283],[54.39276,24.504261],[54.392748,24.504225],[54.392663,24.504237],[54.392656,24.504141],[54.392471,24.504158],[54.392466,24.504116],[54.392758,24.504078],[54.392727,24.503857],[54.392054,24.50394],[54.392065,24.504132],[54.392186,24.50412]]]}},{"type":"Feature","properties":{},"geometry":{"type":"Polygon","coordinates":[[[54.39221,24.504771],[54.392821,24.504703],[54.392788,24.504428],[54.392177,24.504496],[54.39221,24.504771]]]}},{"type":"Feature","properties":{},"geometry":{"type":"Polygon","coordinates":[[[54.392181,24.504943],[54.392404,24.504914],[54.392396,24.504834],[54.392173,24.504863],[54.392181,24.504943]]]}},{"type":"Feature","properties":{},"geometry":{"type":"Polygon","coordinates":[[[54.392524,24.505178],[54.392558,24.505648],[54.392941,24.505611],[54.392905,24.505112],[54.392602,24.505137],[54.3926,24.505062],[54.39276,24.505039],[54.392731,24.50479],[54.392452,24.504825],[54.39248,24.50506],[54.392208,24.505104],[54.392211,24.505213],[54.392524,24.505178]]]}},{"type":"Feature","properties":{},"geometry":{"type":"Polygon","coordinates":[[[54.389842,24.505811],[54.390224,24.505773],[54.390162,24.50518],[54.389795,24.505218],[54.389842,24.505811]]]}},{"type":"Feature","properties":{},"geometry":{"type":"Polygon","coordinates":[[[54.391776,24.506856],[54.392034,24.506822],[54.392028,24.506777],[54.39177,24.50681],[54.391776,24.506856]]]}},{"type":"Feature","properties":{},"geometry":{"type":"Polygon","coordinates":[[[54.391997,24.506943],[54.392001,24.506959],[54.392236,24.506921],[54.392223,24.506872],[54.392267,24.506863],[54.392256,24.506822],[54.392088,24.506846],[54.391978,24.506869],[54.391981,24.506882],[54.39188,24.506896],[54.391888,24.506957],[54.391997,24.506943]]]}},{"type":"Feature","properties":{},"geometry":{"type":"Polygon","coordinates":[[[54.392556,24.507137],[54.39291,24.507101],[54.392884,24.506758],[54.39253,24.506794],[54.392556,24.507137]]]}},{"type":"Feature","properties":{},"geometry":{"type":"Polygon","coordinates":[[[54.391816,24.507144],[54.391942,24.507142],[54.39211,24.507118],[54.392108,24.507029],[54.391982,24.507031],[54.391814,24.507055],[54.391816,24.507144]]]}},{"type":"Feature","properties":{},"geometry":{"type":"Polygon","coordinates":[[[54.392911,24.507214],[54.39316,24.507181],[54.393154,24.507128],[54.392904,24.50716],[54.392911,24.507214]]]}},{"type":"Feature","properties":{},"geometry":{"type":"Polygon","coordinates":[[[54.391541,24.50749],[54.391944,24.507466],[54.392113,24.507442],[54.392103,24.507303],[54.391699,24.507327],[54.391531,24.507352],[54.391541,24.50749]]]}},{"type":"Feature","properties":{},"geometry":{"type":"Polygon","coordinates":[[[54.391046,24.50751],[54.391179,24.507511],[54.391347,24.507487],[54.391349,24.507406],[54.391215,24.507405],[54.391047,24.507429],[54.391046,24.50751]]]}},{"type":"Feature","properties":{},"geometry":{"type":"Polygon","coordinates":[[[54.39297,24.508739],[54.393216,24.508734],[54.393384,24.50871],[54.393386,24.508676],[54.393272,24.508672],[54.39297,24.508709],[54.39297,24.508739]]]}},{"type":"Feature","properties":{},"geometry":{"type":"Polygon","coordinates":[[[54.393063,24.509778],[54.393232,24.509753],[54.39325,24.509726],[54.393287,24.509787],[54.393456,24.509763],[54.393793,24.509592],[54.393781,24.509572],[54.393963,24.50948],[54.393937,24.509436],[54.394058,24.509406],[54.394021,24.509347],[54.393893,24.509365],[54.393752,24.509135],[54.393826,24.509125],[54.393824,24.50907],[54.393604,24.509096],[54.393605,24.509119],[54.393563,24.509125],[54.393369,24.509224],[54.39338,24.509243],[54.393317,24.509272],[54.393403,24.509396],[54.393334,24.509406],[54.393287,24.509433],[54.393322,24.509481],[54.393096,24.509587],[54.393144,24.509669],[54.393209,24.509659],[54.393232,24.509697],[54.393189,24.509672],[54.393021,24.509696],[54.392992,24.509738],[54.393063,24.509778]]]}},{"type":"Feature","properties":{},"geometry":{"type":"Polygon","coordinates":[[[54.405557,24.48076],[54.405676,24.480673],[54.405535,24.480513],[54.405384,24.480535],[54.405341,24.480486],[54.405173,24.48051],[54.405123,24.480546],[54.404982,24.480566],[54.404751,24.480736],[54.404947,24.480958],[54.405116,24.480934],[54.405379,24.480773],[54.405389,24.480784],[54.405557,24.48076]]]}},{"type":"Feature","properties":{},"geometry":{"type":"Polygon","coordinates":[[[54.404658,24.48116],[54.404826,24.481135],[54.404882,24.481112],[54.404865,24.481078],[54.404697,24.481102],[54.40464,24.481125],[54.404658,24.48116]]]}},{"type":"Feature","properties":{},"geometry":{"type":"Polygon","coordinates":[[[54.404085,24.481559],[54.404613,24.481289],[54.404451,24.481012],[54.404282,24.481036],[54.403673,24.48131],[54.403917,24.481584],[54.404085,24.481559]]]}},{"type":"Feature","properties":{},"geometry":{"type":"Polygon","coordinates":[[[54.403376,24.483356],[54.403301,24.483139],[54.403535,24.483006],[54.403359,24.482666],[54.403035,24.48223],[54.402754,24.48227],[54.402643,24.482315],[54.402658,24.482202],[54.402571,24.482198],[54.402291,24.482238],[54.401421,24.483154],[54.401422,24.483271],[54.401463,24.483334],[54.401638,24.483375],[54.401918,24.483334],[54.402116,24.483249],[54.402271,24.483208],[54.40257,24.483215],[54.403095,24.483396],[54.403376,24.483356]]]}},{"type":"Feature","properties":{},"geometry":{"type":"Polygon","coordinates":[[[54.40362,24.484898],[54.403526,24.485074],[54.40334,24.485265],[54.403951,24.4858],[54.40412,24.485776],[54.404316,24.485585],[54.404535,24.485249],[54.404641,24.485006],[54.404711,24.484786],[54.404708,24.484491],[54.403919,24.484427],[54.403751,24.484451],[54.40362,24.484898]]]}},{"type":"Feature","properties":{},"geometry":{"type":"Polygon","coordinates":[[[54.40032,24.486616],[54.400169,24.486792],[54.400636,24.487122],[54.400754,24.487158],[54.400922,24.487134],[54.401035,24.487093],[54.401375,24.486338],[54.400911,24.486099],[54.400743,24.486123],[54.400631,24.486302],[54.40032,24.486616]]]}},{"type":"Feature","properties":{},"geometry":{"type":"Polygon","coordinates":[[[54.404838,24.486637],[54.404829,24.486589],[54.404481,24.486225],[54.404444,24.486199],[54.404391,24.486194],[54.403971,24.486254],[54.403234,24.486607],[54.403444,24.48716],[54.403478,24.487193],[54.40353,24.487207],[54.403951,24.487147],[54.404188,24.487063],[54.404542,24.486872],[54.40481,24.486676],[54.404838,24.486637]],[[54.404037,24.486631],[54.404072,24.486675],[54.403996,24.486719],[54.403975,24.48666],[54.404037,24.486631]]]}},{"type":"Feature","properties":{},"geometry":{"type":"Polygon","coordinates":[[[54.394095,24.487756],[54.394113,24.487773],[54.394066,24.487813],[54.394198,24.487939],[54.394521,24.488303],[54.394661,24.488283],[54.394793,24.488419],[54.396946,24.488111],[54.397163,24.487936],[54.39709,24.48786],[54.397187,24.487782],[54.397015,24.487605],[54.395204,24.487864],[54.395011,24.487587],[54.397049,24.487295],[54.397433,24.486953],[54.3974,24.486923],[54.397319,24.486891],[54.397207,24.486878],[54.395019,24.487192],[54.39497,24.487235],[54.395012,24.487275],[54.394869,24.487402],[54.394788,24.487319],[54.394555,24.487364],[54.394369,24.487515],[54.394431,24.487578],[54.394275,24.4876],[54.394095,24.487756]]]}},{"type":"Feature","properties":{},"geometry":{"type":"Polygon","coordinates":[[[54.403048,24.489572],[54.402793,24.488112],[54.402456,24.488062],[54.401941,24.487957],[54.401313,24.487741],[54.400279,24.487279],[54.399711,24.48691],[54.399136,24.486478],[54.398968,24.486502],[54.397734,24.487851],[54.398874,24.488706],[54.400196,24.489399],[54.400966,24.489714],[54.401757,24.489883],[54.4026,24.489943],[54.402768,24.489919],[54.403048,24.489572]]]}},{"type":"Feature","properties":{},"geometry":{"type":"Polygon","coordinates":[[[54.396937,24.488511],[54.396835,24.488521],[54.396823,24.488423],[54.394327,24.488773],[54.394338,24.488866],[54.39419,24.488888],[54.394231,24.489235],[54.394384,24.48922],[54.394398,24.489338],[54.3969,24.488987],[54.396887,24.488878],[54.396979,24.488865],[54.396937,24.488511]]]}},{"type":"Feature","properties":{},"geometry":{"type":"Polygon","coordinates":[[[54.397019,24.489241],[54.396918,24.48925],[54.396907,24.489152],[54.39441,24.489501],[54.39442,24.489594],[54.394271,24.489615],[54.394312,24.489967],[54.394465,24.489952],[54.394481,24.490096],[54.396984,24.489746],[54.396968,24.489605],[54.39706,24.489592],[54.397019,24.489241]]]}},{"type":"Feature","properties":{},"geometry":{"type":"Polygon","coordinates":[[[54.400058,24.490467],[54.400098,24.490732],[54.400571,24.490669],[54.40053,24.490404],[54.400058,24.490467]]]}},{"type":"Feature","properties":{},"geometry":{"type":"Polygon","coordinates":[[[54.394932,24.491475],[54.394754,24.49168],[54.394931,24.491807],[54.394529,24.491865],[54.394441,24.491975],[54.393984,24.49204],[54.393805,24.492246],[54.394047,24.492419],[54.39412,24.492408],[54.394184,24.492454],[54.396345,24.492144],[54.396446,24.492028],[54.396372,24.491974],[54.396913,24.491892],[54.396988,24.491798],[54.396912,24.491749],[54.396976,24.491669],[54.396921,24.491632],[54.397321,24.491575],[54.397423,24.491458],[54.397328,24.491389],[54.397371,24.49134],[54.397171,24.491196],[54.397575,24.491138],[54.397676,24.491021],[54.397581,24.490953],[54.397624,24.490904],[54.397365,24.490726],[54.39752,24.490547],[54.397281,24.490375],[54.395387,24.490647],[54.395185,24.490879],[54.39537,24.491012],[54.395186,24.491038],[54.395007,24.491243],[54.395249,24.491417],[54.395322,24.491406],[54.395336,24.491417],[54.394932,24.491475]]]}},{"type":"Feature","properties":{},"geometry":{"type":"Polygon","coordinates":[[[54.398541,24.492176],[54.398835,24.492134],[54.398793,24.491816],[54.398498,24.491854],[54.398541,24.492176]]]}},{"type":"Feature","properties":{},"geometry":{"type":"Polygon","coordinates":[[[54.398815,24.492529],[54.398805,24.492457],[54.399263,24.492396],[54.39925,24.492296],[54.399016,24.492325],[54.398993,24.492191],[54.398773,24.492222],[54.39877,24.4922],[54.398525,24.492233],[54.39857,24.492562],[54.398815,24.492529]]]}},{"type":"Feature","properties":{},"geometry":{"type":"Polygon","coordinates":[[[54.396231,24.492308],[54.395822,24.492234],[54.395653,24.492258],[54.395588,24.492557],[54.395997,24.492631],[54.396165,24.492607],[54.396231,24.492308]]]}},{"type":"Feature","properties":{},"geometry":{"type":"Polygon","coordinates":[[[54.399973,24.493406],[54.400872,24.493297],[54.400818,24.492911],[54.399918,24.49302],[54.399973,24.493406]]]}},{"type":"Feature","properties":{},"geometry":{"type":"Polygon","coordinates":[[[54.403828,24.494383],[54.404045,24.494498],[54.404214,24.494474],[54.40435,24.494259],[54.406196,24.493995],[54.406381,24.493705],[54.406512,24.493686],[54.406501,24.493602],[54.406707,24.493431],[54.40613,24.492952],[54.406494,24.492617],[54.406322,24.492496],[54.406534,24.492396],[54.406427,24.492228],[54.406247,24.492254],[54.405376,24.492715],[54.405341,24.492999],[54.405769,24.493362],[54.404707,24.493515],[54.40475,24.493447],[54.404586,24.493361],[54.404418,24.493385],[54.404398,24.493416],[54.404047,24.493458],[54.40402,24.493505],[54.403876,24.49352],[54.403872,24.493485],[54.403359,24.493544],[54.403367,24.493613],[54.403273,24.493627],[54.403326,24.494057],[54.403286,24.494063],[54.403322,24.494353],[54.403622,24.494322],[54.403653,24.494365],[54.403701,24.49439],[54.403828,24.494383]]]}},{"type":"Feature","properties":{},"geometry":{"type":"Polygon","coordinates":[[[54.39369,24.494465],[54.393683,24.494417],[54.393367,24.494459],[54.39337,24.494482],[54.39331,24.49449],[54.393345,24.49473],[54.393782,24.494674],[54.393751,24.494458],[54.39369,24.494465]]]}},{"type":"Feature","properties":{},"geometry":{"type":"Polygon","coordinates":[[[54.406,24.497594],[54.406168,24.49757],[54.40618,24.497521],[54.406222,24.497515],[54.406235,24.49746],[54.406287,24.497438],[54.40611,24.497089],[54.406197,24.497076],[54.406236,24.496983],[54.40636,24.496965],[54.406432,24.497223],[54.4066,24.497199],[54.406909,24.497118],[54.406906,24.497107],[54.407192,24.497066],[54.407344,24.497081],[54.407469,24.497063],[54.407468,24.497083],[54.408106,24.497162],[54.408375,24.497123],[54.408709,24.497309],[54.410112,24.497107],[54.410933,24.496717],[54.410788,24.496487],[54.409385,24.496689],[54.409269,24.49674],[54.408712,24.49682],[54.408735,24.496764],[54.408526,24.496693],[54.408215,24.496615],[54.407982,24.496587],[54.407491,24.496658],[54.407487,24.496718],[54.40744,24.496724],[54.407435,24.496697],[54.407014,24.496758],[54.406836,24.4968],[54.406825,24.496748],[54.406788,24.496754],[54.406935,24.496404],[54.406733,24.496317],[54.406482,24.496353],[54.406585,24.496094],[54.406371,24.496024],[54.406409,24.496018],[54.406407,24.495997],[54.40637,24.495983],[54.406358,24.495944],[54.406167,24.495971],[54.406168,24.495982],[54.405171,24.496125],[54.404836,24.495999],[54.404485,24.49605],[54.404158,24.496949],[54.403928,24.497053],[54.404358,24.49798],[54.404709,24.497929],[54.404979,24.497698],[54.405866,24.497571],[54.406,24.497594]]]}},{"type":"Feature","properties":{},"geometry":{"type":"Polygon","coordinates":[[[54.39431,24.497106],[54.39439,24.49739],[54.394641,24.497508],[54.39481,24.497484],[54.394937,24.497418],[54.395054,24.497324],[54.395042,24.49725],[54.395086,24.497187],[54.395165,24.497148],[54.395198,24.497089],[54.394711,24.496797],[54.394542,24.496821],[54.39431,24.497106]]]}},{"type":"Feature","properties":{},"geometry":{"type":"Polygon","coordinates":[[[54.402759,24.498984],[54.402809,24.499041],[54.40277,24.499106],[54.402825,24.499141],[54.40285,24.499176],[54.402864,24.49922],[54.402856,24.499279],[54.403021,24.499304],[54.404003,24.499167],[54.404232,24.499258],[54.403484,24.499365],[54.403448,24.499406],[54.40316,24.499589],[54.403093,24.499605],[54.40308,24.499633],[54.403087,24.499668],[54.403154,24.499754],[54.403248,24.499802],[54.403335,24.49979],[54.403476,24.499943],[54.403581,24.500013],[54.403698,24.500065],[54.403823,24.500099],[54.403952,24.500113],[54.404111,24.500109],[54.404135,24.500134],[54.404109,24.500161],[54.404113,24.500183],[54.404184,24.500229],[54.404243,24.500234],[54.404484,24.500203],[54.404483,24.500286],[54.404761,24.500267],[54.404986,24.500234],[54.405413,24.500139],[54.405492,24.500102],[54.406179,24.500004],[54.406266,24.499967],[54.40631,24.499928],[54.40636,24.499921],[54.406415,24.499853],[54.406999,24.499768],[54.407034,24.49975],[54.407063,24.499699],[54.40706,24.499663],[54.406975,24.499569],[54.407298,24.499523],[54.40733,24.499505],[54.407374,24.499428],[54.407393,24.499345],[54.407422,24.499341],[54.40743,24.499226],[54.407382,24.499231],[54.407343,24.499132],[54.407312,24.499095],[54.407248,24.49907],[54.406562,24.499168],[54.406648,24.49898],[54.407325,24.498874],[54.407397,24.498785],[54.407481,24.498714],[54.407548,24.498679],[54.407593,24.498629],[54.407609,24.498555],[54.407603,24.498478],[54.407559,24.498412],[54.407487,24.49838],[54.407183,24.498423],[54.407167,24.498395],[54.407162,24.498318],[54.407139,24.498311],[54.407042,24.498292],[54.406931,24.498291],[54.406768,24.498314],[54.406769,24.498293],[54.406876,24.498245],[54.406899,24.498184],[54.406819,24.497853],[54.40677,24.497805],[54.406674,24.497791],[54.406669,24.497769],[54.40649,24.497732],[54.405868,24.497619],[54.405643,24.497652],[54.405791,24.497852],[54.40582,24.497913],[54.405209,24.498001],[54.405129,24.498028],[54.405089,24.49808],[54.4051,24.498143],[54.405047,24.498153],[54.404875,24.498333],[54.40482,24.498593],[54.403737,24.498749],[54.403749,24.49868],[54.403864,24.4986],[54.403841,24.498549],[54.404137,24.498433],[54.404278,24.498349],[54.40436,24.498261],[54.404383,24.498208],[54.404364,24.498177],[54.404377,24.498162],[54.404291,24.4981],[54.404257,24.498105],[54.404231,24.49809],[54.40429,24.498081],[54.404304,24.498053],[54.404251,24.498033],[54.404083,24.498057],[54.40407,24.498083],[54.403978,24.498096],[54.403208,24.498413],[54.403016,24.498458],[54.402864,24.498563],[54.402757,24.498744],[54.40274,24.498873],[54.402759,24.498984]],[[54.405928,24.498435],[54.405751,24.49846],[54.405747,24.498439],[54.405927,24.498413],[54.405928,24.498435]],[[54.404813,24.499577],[54.404829,24.499542],[54.404856,24.499538],[54.405135,24.499379],[54.405133,24.499363],[54.405178,24.499357],[54.405209,24.49933],[54.40521,24.499287],[54.405165,24.499219],[54.405329,24.49917],[54.405732,24.499112],[54.405491,24.499342],[54.405367,24.499437],[54.405163,24.499547],[54.404289,24.499673],[54.404271,24.499656],[54.404813,24.499577]]]}},{"type":"Feature","properties":{},"geometry":{"type":"Polygon","coordinates":[[[54.396297,24.498495],[54.396073,24.498517],[54.39607,24.498583],[54.396295,24.49856],[54.396297,24.498495]]]}},{"type":"Feature","properties":{},"geometry":{"type":"Polygon","coordinates":[[[54.393634,24.498636],[54.393466,24.49866],[54.393621,24.499665],[54.395538,24.499447],[54.395428,24.498639],[54.395304,24.498518],[54.393634,24.498636]]]}},{"type":"Feature","properties":{},"geometry":{"type":"Polygon","coordinates":[[[54.395447,24.499997],[54.39573,24.499956],[54.395703,24.499803],[54.395419,24.499844],[54.395447,24.499997]]]}},{"type":"Feature","properties":{},"geometry":{"type":"Polygon","coordinates":[[[54.395264,24.500113],[54.395465,24.500083],[54.395441,24.499978],[54.395241,24.500009],[54.395264,24.500113]]]}},{"type":"Feature","properties":{},"geometry":{"type":"Polygon","coordinates":[[[54.39489,24.500451],[54.395105,24.500419],[54.395084,24.500305],[54.394869,24.500337],[54.39489,24.500451]]]}},{"type":"Feature","properties":{},"geometry":{"type":"Polygon","coordinates":[[[54.394922,24.50055],[54.395064,24.501399],[54.395798,24.501296],[54.395656,24.500448],[54.394922,24.50055]]]}},{"type":"Feature","properties":{},"geometry":{"type":"Polygon","coordinates":[[[54.395915,24.501873],[54.39583,24.501871],[54.395661,24.501895],[54.395658,24.501997],[54.395744,24.502],[54.395912,24.501975],[54.395915,24.501873]]]}},{"type":"Feature","properties":{},"geometry":{"type":"Polygon","coordinates":[[[54.395492,24.502519],[54.396092,24.502436],[54.396041,24.502128],[54.395441,24.502211],[54.395492,24.502519]]]}},{"type":"Feature","properties":{},"geometry":{"type":"Polygon","coordinates":[[[54.397407,24.504788],[54.397648,24.504761],[54.397642,24.50466],[54.397401,24.504687],[54.397407,24.504788]]]}},{"type":"Feature","properties":{},"geometry":{"type":"Polygon","coordinates":[[[54.404497,24.507354],[54.404665,24.50733],[54.404698,24.507302],[54.404605,24.507211],[54.404437,24.507235],[54.404404,24.507263],[54.404497,24.507354]]]}},{"type":"Feature","properties":{},"geometry":{"type":"Polygon","coordinates":[[[54.394077,24.509894],[54.394245,24.50987],[54.394341,24.509828],[54.394296,24.509741],[54.39425,24.509748],[54.394288,24.509727],[54.394227,24.509636],[54.394204,24.509639],[54.39422,24.50963],[54.394187,24.509581],[54.394018,24.509606],[54.393978,24.509629],[54.394012,24.509678],[54.394033,24.509675],[54.394017,24.509683],[54.394078,24.509774],[54.394122,24.509768],[54.394031,24.509807],[54.394077,24.509894]]]}},{"type":"Feature","properties":{},"geometry":{"type":"Polygon","coordinates":[[[54.393874,24.509991],[54.394085,24.509961],[54.394079,24.509925],[54.393869,24.509955],[54.393874,24.509991]]]}},{"type":"Feature","properties":{},"geometry":{"type":"Polygon","coordinates":[[[54.394363,24.509974],[54.394332,24.509914],[54.394163,24.509938],[54.393848,24.510074],[54.393879,24.510134],[54.394048,24.51011],[54.394363,24.509974]]]}},{"type":"Feature","properties":{},"geometry":{"type":"Polygon","coordinates":[[[54.406492,24.480071],[54.406423,24.479963],[54.406598,24.479871],[54.406541,24.479781],[54.406433,24.479797],[54.406449,24.479788],[54.406344,24.479624],[54.406176,24.479648],[54.405927,24.479779],[54.405983,24.479867],[54.405776,24.479976],[54.405813,24.480035],[54.405737,24.480075],[54.4058,24.480173],[54.405819,24.480171],[54.405905,24.480306],[54.406074,24.480282],[54.406492,24.480071]]]}},{"type":"Feature","properties":{},"geometry":{"type":"Polygon","coordinates":[[[54.406743,24.480076],[54.406911,24.480052],[54.407004,24.479975],[54.40694,24.479911],[54.406771,24.479935],[54.406679,24.480012],[54.406743,24.480076]]]}},{"type":"Feature","properties":{},"geometry":{"type":"Polygon","coordinates":[[[54.406404,24.480249],[54.406368,24.480321],[54.406349,24.480324],[54.406306,24.480382],[54.406104,24.480529],[54.406136,24.480569],[54.40618,24.480562],[54.406214,24.480596],[54.40628,24.480587],[54.406437,24.480741],[54.406605,24.480717],[54.406751,24.480594],[54.406584,24.48043],[54.406613,24.480426],[54.406647,24.480379],[54.406612,24.480358],[54.406652,24.480352],[54.406691,24.480272],[54.406572,24.480225],[54.406404,24.480249]]]}},{"type":"Feature","properties":{},"geometry":{"type":"Polygon","coordinates":[[[54.405699,24.480497],[54.405868,24.480473],[54.405943,24.480435],[54.405916,24.48039],[54.405748,24.480415],[54.405672,24.480452],[54.405699,24.480497]]]}},{"type":"Feature","properties":{},"geometry":{"type":"Polygon","coordinates":[[[54.405261,24.482119],[54.405287,24.48226],[54.405336,24.482344],[54.405367,24.482339],[54.405417,24.48244],[54.40668,24.482258],[54.406914,24.482143],[54.406887,24.482052],[54.407143,24.482015],[54.407383,24.481865],[54.407318,24.481795],[54.407491,24.48177],[54.407718,24.481623],[54.407507,24.481336],[54.407441,24.481224],[54.406178,24.481406],[54.406001,24.481509],[54.405923,24.481577],[54.405961,24.481622],[54.405846,24.481639],[54.405621,24.481752],[54.40558,24.481799],[54.40561,24.481862],[54.405398,24.481892],[54.40529,24.481997],[54.405261,24.482119]]]}},{"type":"Feature","properties":{},"geometry":{"type":"Polygon","coordinates":[[[54.406107,24.48267],[54.406143,24.482727],[54.406311,24.482703],[54.406411,24.482651],[54.406708,24.483103],[54.406876,24.483079],[54.407052,24.482983],[54.406718,24.482474],[54.406688,24.482478],[54.406654,24.482422],[54.406485,24.482446],[54.40631,24.482553],[54.406314,24.482564],[54.406107,24.48267]]]}},{"type":"Feature","properties":{},"geometry":{"type":"Polygon","coordinates":[[[54.405455,24.483133],[54.405126,24.483265],[54.405318,24.483913],[54.404939,24.484017],[54.404994,24.484359],[54.405703,24.48437],[54.405871,24.484346],[54.405871,24.483828],[54.405623,24.483108],[54.405455,24.483133]]]}},{"type":"Feature","properties":{},"geometry":{"type":"Polygon","coordinates":[[[54.405911,24.484456],[54.405186,24.484369],[54.405017,24.484393],[54.404939,24.484734],[54.405619,24.484873],[54.405787,24.484848],[54.405911,24.484456]]]}},{"type":"Feature","properties":{},"geometry":{"type":"Polygon","coordinates":[[[54.40721,24.48559],[54.407504,24.485303],[54.40743,24.485239],[54.407262,24.485263],[54.406974,24.485556],[54.406923,24.485527],[54.406754,24.485552],[54.406713,24.485613],[54.406818,24.485672],[54.406986,24.485647],[54.407021,24.485596],[54.407042,24.485614],[54.40721,24.48559]]]}},{"type":"Feature","properties":{},"geometry":{"type":"Polygon","coordinates":[[[54.405983,24.487822],[54.406881,24.487693],[54.407025,24.487514],[54.40673,24.4873],[54.405832,24.487429],[54.405686,24.487602],[54.405983,24.487822]]]}},{"type":"Feature","properties":{},"geometry":{"type":"Polygon","coordinates":[[[54.407766,24.488257],[54.407487,24.487849],[54.407318,24.487873],[54.406497,24.488337],[54.406776,24.488745],[54.406945,24.488721],[54.407766,24.488257]]]}},{"type":"Feature","properties":{},"geometry":{"type":"Polygon","coordinates":[[[54.406989,24.490373],[54.407223,24.490327],[54.407189,24.490247],[54.407021,24.490271],[54.406961,24.490292],[54.406989,24.490373]]]}},{"type":"Feature","properties":{},"geometry":{"type":"Polygon","coordinates":[[[54.406644,24.492936],[54.406547,24.492855],[54.406379,24.492879],[54.406249,24.493007],[54.406346,24.493088],[54.406515,24.493064],[54.406644,24.492936]]]}},{"type":"Feature","properties":{},"geometry":{"type":"Polygon","coordinates":[[[54.406768,24.495292],[54.406766,24.495264],[54.406563,24.495285],[54.406585,24.495252],[54.406518,24.495216],[54.40635,24.49524],[54.406305,24.495308],[54.406371,24.495344],[54.406768,24.495292]]]}},{"type":"Feature","properties":{},"geometry":{"type":"Polygon","coordinates":[[[54.40627,24.495738],[54.406224,24.495803],[54.406251,24.495819],[54.406419,24.495795],[54.406444,24.49576],[54.406546,24.495803],[54.406667,24.495786],[54.406613,24.496087],[54.406559,24.496192],[54.406567,24.496251],[54.406631,24.496295],[54.406737,24.496292],[54.407269,24.496215],[54.407824,24.496263],[54.408207,24.49638],[54.408418,24.49635],[54.408424,24.496337],[54.408609,24.49641],[54.408791,24.496429],[54.410111,24.496243],[54.41015,24.496288],[54.410069,24.496343],[54.410179,24.496484],[54.411301,24.496323],[54.411465,24.496219],[54.411425,24.496167],[54.411674,24.496131],[54.411898,24.496026],[54.411868,24.495991],[54.412968,24.495825],[54.413016,24.495793],[54.41303,24.495731],[54.412954,24.495606],[54.412855,24.495525],[54.412725,24.495452],[54.412578,24.495396],[54.412459,24.495373],[54.412345,24.495378],[54.410488,24.495644],[54.410574,24.495533],[54.410589,24.495456],[54.41055,24.495392],[54.41048,24.495377],[54.40848,24.495661],[54.408791,24.495203],[54.408961,24.495292],[54.409261,24.495341],[54.409621,24.495322],[54.410322,24.495221],[54.410666,24.495128],[54.410569,24.494948],[54.410078,24.495018],[54.409863,24.494535],[54.409781,24.49413],[54.4111,24.493941],[54.411174,24.493857],[54.411314,24.493837],[54.411583,24.493531],[54.411863,24.493286],[54.41236,24.492975],[54.41282,24.492826],[54.413265,24.492708],[54.413236,24.492498],[54.409532,24.493029],[54.409064,24.493135],[54.408549,24.493307],[54.407982,24.493622],[54.407631,24.493885],[54.407294,24.494291],[54.407536,24.494453],[54.408571,24.495082],[54.408209,24.495616],[54.407104,24.495001],[54.406894,24.495031],[54.406775,24.495359],[54.406731,24.495317],[54.406562,24.495341],[54.406486,24.495406],[54.406562,24.495479],[54.406395,24.495503],[54.406312,24.495545],[54.406365,24.495633],[54.406412,24.495626],[54.406361,24.495724],[54.40627,24.495738]],[[54.406565,24.495482],[54.406596,24.495512],[54.406726,24.495494],[54.4067,24.495604],[54.406653,24.495585],[54.406553,24.495599],[54.406616,24.495567],[54.406565,24.495482]]]}},{"type":"Feature","properties":{},"geometry":{"type":"Polygon","coordinates":[[[54.406917,24.503485],[54.407165,24.503443],[54.407111,24.50332],[54.40688,24.503364],[54.406917,24.503485]]]}},{"type":"Feature","properties":{},"geometry":{"type":"Polygon","coordinates":[[[54.406694,24.504515],[54.4066,24.504513],[54.406432,24.504537],[54.406428,24.504679],[54.406523,24.504681],[54.406692,24.504657],[54.406694,24.504515]]]}},{"type":"Feature","properties":{},"geometry":{"type":"Polygon","coordinates":[[[54.406141,24.504759],[54.406401,24.504714],[54.406352,24.504546],[54.406088,24.504593],[54.406141,24.504759]]]}},{"type":"Feature","properties":{},"geometry":{"type":"Polygon","coordinates":[[[54.406455,24.505722],[54.406702,24.505922],[54.407867,24.505755],[54.407868,24.505818],[54.408033,24.505842],[54.408201,24.505818],[54.408196,24.505717],[54.408156,24.505713],[54.408245,24.5057],[54.408336,24.505595],[54.408371,24.505473],[54.408331,24.505332],[54.408217,24.505231],[54.406774,24.505438],[54.406513,24.505216],[54.406344,24.50524],[54.406082,24.505495],[54.406364,24.505735],[54.406455,24.505722]]]}},{"type":"Feature","properties":{},"geometry":{"type":"Polygon","coordinates":[[[54.405754,24.50545],[54.405553,24.5054],[54.405385,24.505424],[54.405291,24.505739],[54.405492,24.505789],[54.40566,24.505765],[54.405754,24.50545]]]}},{"type":"Feature","properties":{},"geometry":{"type":"Polygon","coordinates":[[[54.405643,24.505899],[54.405347,24.505804],[54.405179,24.505828],[54.405064,24.506126],[54.405359,24.506221],[54.405527,24.506197],[54.405643,24.505899]]]}},{"type":"Feature","properties":{},"geometry":{"type":"Polygon","coordinates":[[[54.405513,24.506341],[54.405235,24.506255],[54.405066,24.506279],[54.404973,24.506527],[54.405252,24.506613],[54.40542,24.506589],[54.405513,24.506341]]]}},{"type":"Feature","properties":{},"geometry":{"type":"Polygon","coordinates":[[[54.405405,24.506692],[54.405116,24.506595],[54.404948,24.50662],[54.404806,24.507019],[54.405062,24.507112],[54.40523,24.507087],[54.405405,24.506692]]]}},{"type":"Feature","properties":{},"geometry":{"type":"Polygon","coordinates":[[[54.407366,24.50732],[54.407468,24.507231],[54.407404,24.507172],[54.407546,24.506917],[54.407539,24.506837],[54.407277,24.506714],[54.405529,24.506966],[54.404898,24.508066],[54.404993,24.508131],[54.406304,24.507943],[54.406249,24.507993],[54.406489,24.508231],[54.406098,24.508287],[54.40598,24.508394],[54.406157,24.508569],[54.405842,24.508615],[54.405724,24.508722],[54.406121,24.509114],[54.406273,24.509092],[54.406344,24.509146],[54.406512,24.509121],[54.406553,24.509077],[54.406525,24.509056],[54.407468,24.508921],[54.407524,24.508863],[54.40755,24.50889],[54.407718,24.508866],[54.407783,24.508816],[54.407756,24.508787],[54.407587,24.508811],[54.407536,24.508851],[54.40758,24.508806],[54.40741,24.508638],[54.407724,24.508593],[54.407836,24.508479],[54.407602,24.508248],[54.407992,24.508192],[54.408104,24.508077],[54.407714,24.507693],[54.40736,24.507743],[54.407335,24.507725],[54.407167,24.507749],[54.407144,24.507774],[54.407063,24.507786],[54.407318,24.507327],[54.407366,24.50732]]]}},{"type":"Feature","properties":{},"geometry":{"type":"Polygon","coordinates":[[[54.406603,24.509206],[54.406564,24.50918],[54.405231,24.509371],[54.405105,24.509539],[54.405253,24.509684],[54.405375,24.509666],[54.405418,24.509695],[54.406751,24.509504],[54.406932,24.509241],[54.40681,24.509176],[54.406603,24.509206]]]}},{"type":"Feature","properties":{},"geometry":{"type":"Polygon","coordinates":[[[54.410524,24.48008],[54.410692,24.480056],[54.410761,24.479989],[54.410611,24.479861],[54.410443,24.479885],[54.410374,24.479952],[54.410524,24.48008]]]}},{"type":"Feature","properties":{},"geometry":{"type":"Polygon","coordinates":[[[54.407183,24.482071],[54.407041,24.482137],[54.407181,24.482327],[54.407302,24.482429],[54.407416,24.48261],[54.408819,24.482409],[54.409008,24.482337],[54.40905,24.482206],[54.408652,24.481761],[54.407249,24.481963],[54.407183,24.482071]]]}},{"type":"Feature","properties":{},"geometry":{"type":"Polygon","coordinates":[[[54.409312,24.483001],[54.409576,24.482974],[54.409571,24.482859],[54.409307,24.482887],[54.409312,24.483001]]]}},{"type":"Feature","properties":{},"geometry":{"type":"Polygon","coordinates":[[[54.4087,24.484725],[54.408334,24.484777],[54.408129,24.484931],[54.408142,24.484996],[54.408361,24.485107],[54.40844,24.485095],[54.408489,24.48516],[54.409387,24.485031],[54.4095,24.484947],[54.409372,24.484805],[54.409727,24.484754],[54.409936,24.484613],[54.409691,24.484311],[54.408793,24.48444],[54.408584,24.484581],[54.4087,24.484725]]]}},{"type":"Feature","properties":{},"geometry":{"type":"Polygon","coordinates":[[[54.409484,24.48606],[54.409624,24.486071],[54.409989,24.486018],[54.410072,24.485995],[54.410097,24.485969],[54.410504,24.486668],[54.410869,24.486616],[54.411228,24.486448],[54.410728,24.485567],[54.410767,24.485541],[54.410778,24.485468],[54.410769,24.485415],[54.410753,24.485393],[54.410615,24.485411],[54.410615,24.485385],[54.410727,24.485369],[54.410767,24.485343],[54.410774,24.485354],[54.410942,24.48533],[54.411051,24.485272],[54.411,24.485194],[54.410982,24.485196],[54.411342,24.485052],[54.411169,24.484733],[54.410804,24.484786],[54.409938,24.485206],[54.409673,24.485244],[54.409599,24.48533],[54.409423,24.4854],[54.409337,24.485483],[54.4093,24.485603],[54.409174,24.485621],[54.40921,24.485592],[54.40917,24.485549],[54.409001,24.485574],[54.408922,24.485635],[54.408963,24.485678],[54.409074,24.485662],[54.409022,24.485692],[54.409129,24.485845],[54.409309,24.485814],[54.409317,24.485856],[54.409397,24.485985],[54.409484,24.48606]],[[54.409299,24.485705],[54.409275,24.48567],[54.4093,24.485656],[54.409299,24.485705]]]}},{"type":"Feature","properties":{},"geometry":{"type":"Polygon","coordinates":[[[54.407564,24.485445],[54.407378,24.485639],[54.407438,24.485686],[54.407458,24.485683],[54.407698,24.485879],[54.408596,24.48575],[54.408787,24.485551],[54.408726,24.485502],[54.408693,24.485507],[54.408462,24.485316],[54.407564,24.485445]]]}},{"type":"Feature","properties":{},"geometry":{"type":"Polygon","coordinates":[[[54.407868,24.485907],[54.407819,24.48587],[54.407651,24.485895],[54.407557,24.485997],[54.407605,24.486034],[54.407774,24.48601],[54.407868,24.485907]]]}},{"type":"Feature","properties":{},"geometry":{"type":"Polygon","coordinates":[[[54.409415,24.48734],[54.409247,24.487364],[54.408884,24.487647],[54.408334,24.48801],[54.408637,24.488493],[54.408805,24.488469],[54.409679,24.488033],[54.409528,24.48776],[54.40936,24.487784],[54.408768,24.488115],[54.408758,24.488098],[54.409532,24.487666],[54.409415,24.48734]]]}},{"type":"Feature","properties":{},"geometry":{"type":"Polygon","coordinates":[[[54.41103,24.488306],[54.410551,24.488356],[54.410555,24.488397],[54.410422,24.488416],[54.410426,24.488456],[54.410138,24.488492],[54.410183,24.488928],[54.410819,24.488863],[54.410807,24.488753],[54.411074,24.488721],[54.41103,24.488306]]]}},{"type":"Feature","properties":{},"geometry":{"type":"Polygon","coordinates":[[[54.407813,24.488925],[54.408189,24.488695],[54.407936,24.488319],[54.407768,24.488343],[54.407373,24.488555],[54.407309,24.488565],[54.406903,24.488795],[54.407183,24.489203],[54.407351,24.489179],[54.407757,24.488949],[54.407747,24.488934],[54.407813,24.488925]]]}},{"type":"Feature","properties":{},"geometry":{"type":"Polygon","coordinates":[[[54.410622,24.489146],[54.410674,24.489615],[54.410994,24.489577],[54.41093,24.489],[54.410204,24.489076],[54.410216,24.489184],[54.410622,24.489146]]]}},{"type":"Feature","properties":{},"geometry":{"type":"Polygon","coordinates":[[[54.410256,24.489504],[54.410326,24.49009],[54.411053,24.490011],[54.411038,24.489883],[54.410678,24.489918],[54.410677,24.489903],[54.410626,24.489908],[54.410573,24.489466],[54.410256,24.489504]]]}},{"type":"Feature","properties":{},"geometry":{"type":"Polygon","coordinates":[[[54.410599,24.490793],[54.410416,24.490817],[54.410413,24.49103],[54.410699,24.491033],[54.410868,24.491009],[54.410875,24.490742],[54.410768,24.490742],[54.4106,24.490766],[54.410599,24.490793]]]}},{"type":"Feature","properties":{},"geometry":{"type":"Polygon","coordinates":[[[54.409206,24.491125],[54.409037,24.491149],[54.409037,24.491169],[54.408959,24.49118],[54.408947,24.491294],[54.409008,24.491296],[54.409007,24.491323],[54.409219,24.491329],[54.409387,24.491305],[54.409389,24.491246],[54.409437,24.491239],[54.40944,24.491132],[54.409206,24.491125]]]}},{"type":"Feature","properties":{},"geometry":{"type":"Polygon","coordinates":[[[54.408002,24.497236],[54.407959,24.497276],[54.408051,24.497341],[54.408096,24.497352],[54.408264,24.497327],[54.408319,24.497296],[54.408273,24.497242],[54.40817,24.497211],[54.408002,24.497236]]]}},{"type":"Feature","properties":{},"geometry":{"type":"Polygon","coordinates":[[[54.409165,24.497863],[54.40899,24.49793],[54.408992,24.498391],[54.410253,24.498199],[54.410285,24.497822],[54.410035,24.497739],[54.409165,24.497863]]]}},{"type":"Feature","properties":{},"geometry":{"type":"Polygon","coordinates":[[[54.409349,24.50004],[54.4093,24.500253],[54.409341,24.500381],[54.409433,24.500448],[54.409613,24.500479],[54.409746,24.500476],[54.409914,24.500452],[54.410039,24.500388],[54.410094,24.500272],[54.410144,24.499716],[54.41018,24.499486],[54.410146,24.499415],[54.410068,24.499356],[54.409956,24.499339],[54.409806,24.499347],[54.409876,24.499095],[54.409929,24.498698],[54.409487,24.498667],[54.409085,24.498725],[54.409093,24.498587],[54.40902,24.498576],[54.408852,24.4986],[54.408836,24.49866],[54.408874,24.498774],[54.408994,24.498767],[54.409005,24.499092],[54.408919,24.499457],[54.409276,24.499552],[54.409511,24.499518],[54.409349,24.50004]]]}},{"type":"Feature","properties":{},"geometry":{"type":"Polygon","coordinates":[[[54.408085,24.500876],[54.408054,24.500908],[54.408053,24.500954],[54.408025,24.501013],[54.408063,24.501044],[54.408232,24.50102],[54.408283,24.500947],[54.408315,24.500863],[54.408253,24.500852],[54.408085,24.500876]]]}},{"type":"Feature","properties":{},"geometry":{"type":"Polygon","coordinates":[[[54.409713,24.501827],[54.409752,24.501722],[54.409778,24.501575],[54.409773,24.501407],[54.408891,24.501447],[54.408723,24.501471],[54.408679,24.501799],[54.408752,24.50195],[54.409021,24.501962],[54.409339,24.501953],[54.409507,24.501929],[54.409598,24.501898],[54.409713,24.501827]]]}},{"type":"Feature","properties":{},"geometry":{"type":"Polygon","coordinates":[[[54.407727,24.502416],[54.408114,24.502577],[54.408283,24.502553],[54.408463,24.502075],[54.40859,24.501833],[54.408193,24.501716],[54.408025,24.50174],[54.407752,24.502286],[54.407586,24.50231],[54.407515,24.502391],[54.407507,24.502438],[54.407551,24.502448],[54.407727,24.502416]]]}},{"type":"Feature","properties":{},"geometry":{"type":"Polygon","coordinates":[[[54.407307,24.502916],[54.40724,24.502926],[54.407116,24.503077],[54.407179,24.503113],[54.407347,24.503089],[54.407476,24.502974],[54.407504,24.50297],[54.407571,24.502861],[54.407513,24.502846],[54.407345,24.502871],[54.407307,24.502916]]]}},{"type":"Feature","properties":{},"geometry":{"type":"Polygon","coordinates":[[[54.407303,24.503656],[54.407205,24.503624],[54.407036,24.503648],[54.406985,24.503805],[54.407074,24.503829],[54.407242,24.503805],[54.407303,24.503656]]]}},{"type":"Feature","properties":{},"geometry":{"type":"Polygon","coordinates":[[[54.411566,24.503777],[54.411238,24.503824],[54.411224,24.503812],[54.409259,24.504094],[54.409054,24.504354],[54.409349,24.504692],[54.411313,24.50441],[54.411575,24.504111],[54.411539,24.50408],[54.412006,24.504013],[54.412038,24.503855],[54.411566,24.503777]]]}},{"type":"Feature","properties":{},"geometry":{"type":"Polygon","coordinates":[[[54.40923,24.506427],[54.409465,24.506181],[54.409641,24.506151],[54.409755,24.50609],[54.40984,24.505997],[54.409886,24.505883],[54.409887,24.505763],[54.409848,24.505656],[54.409775,24.505566],[54.409674,24.505501],[54.409556,24.505469],[54.409265,24.505495],[54.409148,24.505532],[54.40905,24.505601],[54.408981,24.505693],[54.408947,24.505801],[54.408954,24.505922],[54.408985,24.50599],[54.407244,24.506239],[54.407028,24.506464],[54.407336,24.506699],[54.40923,24.506427]]]}},{"type":"Feature","properties":{},"geometry":{"type":"Polygon","coordinates":[[[54.409481,24.507344],[54.409287,24.507513],[54.409648,24.507874],[54.409816,24.50785],[54.409878,24.507808],[54.409861,24.507532],[54.40965,24.50732],[54.409481,24.507344]]]}},{"type":"Feature","properties":{},"geometry":{"type":"Polygon","coordinates":[[[54.4105,24.507831],[54.410482,24.507765],[54.410413,24.507775],[54.410372,24.507695],[54.410291,24.507696],[54.40999,24.507756],[54.409856,24.507859],[54.409825,24.507938],[54.409854,24.50798],[54.409927,24.508019],[54.410278,24.507974],[54.410354,24.507936],[54.4105,24.507831]]]}},{"type":"Feature","properties":{},"geometry":{"type":"Polygon","coordinates":[[[54.408877,24.507857],[54.40888,24.507916],[54.408846,24.507921],[54.408851,24.508027],[54.409059,24.508001],[54.409057,24.507974],[54.409087,24.50797],[54.409094,24.507831],[54.408877,24.507857]]]}},{"type":"Feature","properties":{},"geometry":{"type":"Polygon","coordinates":[[[54.409489,24.508134],[54.409446,24.508092],[54.409278,24.508116],[54.409189,24.50819],[54.409231,24.508233],[54.4094,24.508208],[54.409489,24.508134]]]}},{"type":"Feature","properties":{},"geometry":{"type":"Polygon","coordinates":[[[54.409327,24.508622],[54.409502,24.508518],[54.409441,24.508432],[54.409373,24.508442],[54.409326,24.508376],[54.409158,24.5084],[54.409014,24.508484],[54.409061,24.50855],[54.408987,24.508608],[54.409005,24.508634],[54.408969,24.508655],[54.409,24.508698],[54.409044,24.508692],[54.409057,24.508711],[54.409225,24.508686],[54.409286,24.508651],[54.409271,24.50863],[54.409327,24.508622]]]}},{"type":"Feature","properties":{},"geometry":{"type":"Polygon","coordinates":[[[54.407538,24.50905],[54.407416,24.509159],[54.407518,24.509254],[54.407438,24.509266],[54.407338,24.509173],[54.40717,24.509197],[54.407129,24.509238],[54.407202,24.509299],[54.40706,24.509435],[54.407156,24.509524],[54.406811,24.509574],[54.406652,24.509706],[54.407014,24.510038],[54.408361,24.509845],[54.408526,24.509728],[54.408444,24.50965],[54.408793,24.5096],[54.408928,24.509463],[54.408811,24.509354],[54.409131,24.509308],[54.409247,24.50919],[54.408885,24.508857],[54.407927,24.508994],[54.407877,24.508945],[54.407708,24.508969],[54.407656,24.509013],[54.407674,24.50903],[54.407538,24.50905]]]}},{"type":"Feature","properties":{},"geometry":{"type":"Polygon","coordinates":[[[54.410359,24.50997],[54.410174,24.509801],[54.410005,24.509826],[54.409662,24.510138],[54.409847,24.510306],[54.410015,24.510282],[54.410359,24.50997]]]}},{"type":"Feature","properties":{},"geometry":{"type":"Polygon","coordinates":[[[54.411169,24.481758],[54.411214,24.481796],[54.411262,24.481789],[54.411321,24.481841],[54.411222,24.481936],[54.411307,24.482009],[54.411475,24.481984],[54.411652,24.481815],[54.411285,24.481496],[54.411116,24.48152],[54.410943,24.481686],[54.411018,24.481751],[54.410906,24.481767],[54.410876,24.481795],[54.410916,24.481829],[54.411084,24.481805],[54.411113,24.481777],[54.41108,24.481748],[54.411192,24.481732],[54.411169,24.481758]]]}},{"type":"Feature","properties":{},"geometry":{"type":"Polygon","coordinates":[[[54.412731,24.482183],[54.412907,24.481908],[54.412546,24.481717],[54.412378,24.481741],[54.412202,24.482016],[54.412563,24.482207],[54.412731,24.482183]]]}},{"type":"Feature","properties":{},"geometry":{"type":"Polygon","coordinates":[[[54.411598,24.482053],[54.411567,24.482028],[54.411398,24.482052],[54.41132,24.482132],[54.411351,24.482158],[54.411519,24.482133],[54.411598,24.482053]]]}},{"type":"Feature","properties":{},"geometry":{"type":"Polygon","coordinates":[[[54.411365,24.485661],[54.411533,24.485637],[54.411637,24.485596],[54.411622,24.485565],[54.411454,24.485589],[54.41135,24.48563],[54.411365,24.485661]]]}},{"type":"Feature","properties":{},"geometry":{"type":"Polygon","coordinates":[[[54.411414,24.485776],[54.411639,24.485733],[54.411601,24.485635],[54.411375,24.485678],[54.411414,24.485776]]]}},{"type":"Feature","properties":{},"geometry":{"type":"Polygon","coordinates":[[[54.412959,24.487562],[54.413014,24.487751],[54.413256,24.487709],[54.413524,24.4877],[54.413693,24.487676],[54.413689,24.487597],[54.413657,24.487598],[54.413653,24.487509],[54.413685,24.487504],[54.413681,24.48743],[54.413417,24.48744],[54.413568,24.487418],[54.413557,24.487171],[54.413451,24.487175],[54.413107,24.487233],[54.413184,24.487452],[54.413395,24.487443],[54.413245,24.487464],[54.413253,24.487653],[54.413214,24.487517],[54.412959,24.487562]]]}},{"type":"Feature","properties":{},"geometry":{"type":"Polygon","coordinates":[[[54.415615,24.487729],[54.415843,24.487702],[54.41584,24.487658],[54.415613,24.487685],[54.415615,24.487729]]]}},{"type":"Feature","properties":{},"geometry":{"type":"Polygon","coordinates":[[[54.413522,24.487954],[54.413758,24.487928],[54.413756,24.487866],[54.413519,24.487893],[54.413522,24.487954]]]}},{"type":"Feature","properties":{},"geometry":{"type":"Polygon","coordinates":[[[54.41592,24.487944],[54.415915,24.487787],[54.415997,24.487775],[54.415996,24.487795],[54.416102,24.487798],[54.416271,24.487774],[54.416272,24.487745],[54.416166,24.487741],[54.416054,24.487757],[54.416055,24.487723],[54.416023,24.487722],[54.415784,24.487747],[54.415291,24.487747],[54.415123,24.487771],[54.415123,24.487815],[54.415187,24.487815],[54.415187,24.488213],[54.41537,24.488213],[54.415538,24.488189],[54.415538,24.487961],[54.415702,24.487949],[54.415703,24.48797],[54.41592,24.487944]]]}},{"type":"Feature","properties":{},"geometry":{"type":"Polygon","coordinates":[[[54.41514,24.488211],[54.415008,24.488207],[54.414839,24.488231],[54.414836,24.488326],[54.414968,24.48833],[54.415137,24.488306],[54.41514,24.488211]]]}},{"type":"Feature","properties":{},"geometry":{"type":"Polygon","coordinates":[[[54.415319,24.488397],[54.415602,24.488372],[54.415602,24.488387],[54.415696,24.488385],[54.415864,24.488361],[54.415863,24.488312],[54.415604,24.488338],[54.415604,24.488325],[54.415883,24.488287],[54.415879,24.488176],[54.415648,24.488202],[54.41565,24.488271],[54.415318,24.488314],[54.415319,24.488397]]]}},{"type":"Feature","properties":{},"geometry":{"type":"Polygon","coordinates":[[[54.414856,24.488478],[54.415147,24.488451],[54.415144,24.488331],[54.414852,24.488358],[54.414856,24.488478]]]}},{"type":"Feature","properties":{},"geometry":{"type":"Polygon","coordinates":[[[54.415601,24.488414],[54.415581,24.488413],[54.415412,24.488438],[54.415411,24.488484],[54.4156,24.48846],[54.415601,24.488414]]]}},{"type":"Feature","properties":{},"geometry":{"type":"Polygon","coordinates":[[[54.415465,24.488693],[54.415713,24.488666],[54.415712,24.488617],[54.415463,24.488644],[54.415465,24.488693]]]}},{"type":"Feature","properties":{},"geometry":{"type":"Polygon","coordinates":[[[54.411174,24.48887],[54.411147,24.488931],[54.411198,24.488999],[54.411309,24.488996],[54.411433,24.489161],[54.411262,24.489253],[54.411314,24.489336],[54.411482,24.489311],[54.412044,24.489],[54.412063,24.489038],[54.411491,24.489354],[54.411585,24.489507],[54.411657,24.489497],[54.411713,24.489593],[54.411972,24.489642],[54.411955,24.489719],[54.41212,24.489755],[54.412289,24.489731],[54.412448,24.489125],[54.412506,24.489116],[54.412803,24.48968],[54.412971,24.489656],[54.413124,24.489576],[54.413091,24.489525],[54.413304,24.489431],[54.413347,24.489335],[54.413429,24.489324],[54.413473,24.489149],[54.412824,24.488927],[54.41288,24.488938],[54.413657,24.488824],[54.413613,24.488531],[54.413029,24.488602],[54.412986,24.488564],[54.412804,24.488595],[54.412763,24.488561],[54.412841,24.488521],[54.412726,24.488374],[54.412839,24.488025],[54.412969,24.488101],[54.413137,24.488076],[54.413272,24.487929],[54.412913,24.487734],[54.412684,24.487694],[54.412411,24.487681],[54.412157,24.487708],[54.411868,24.487782],[54.411582,24.487957],[54.411414,24.48813],[54.411571,24.488241],[54.411739,24.488217],[54.411833,24.48814],[54.412028,24.488474],[54.411962,24.48866],[54.411383,24.488481],[54.411214,24.488505],[54.411171,24.4886],[54.411356,24.488668],[54.411319,24.488849],[54.411174,24.48887]],[[54.412306,24.487928],[54.412476,24.487918],[54.412371,24.488354],[54.412149,24.487959],[54.412306,24.487928]],[[54.411918,24.489327],[54.411962,24.489302],[54.412063,24.489323],[54.412038,24.489448],[54.412002,24.48944],[54.411918,24.489327]],[[54.413011,24.489191],[54.413063,24.489207],[54.413027,24.489303],[54.412996,24.489232],[54.413011,24.489191]]]}},{"type":"Feature","properties":{},"geometry":{"type":"Polygon","coordinates":[[[54.410839,24.489782],[54.411056,24.489754],[54.411053,24.489712],[54.410835,24.489739],[54.410839,24.489782]]]}},{"type":"Feature","properties":{},"geometry":{"type":"Polygon","coordinates":[[[54.412432,24.490011],[54.41267,24.489983],[54.412666,24.48992],[54.412428,24.489949],[54.412432,24.490011]]]}},{"type":"Feature","properties":{},"geometry":{"type":"Polygon","coordinates":[[[54.411052,24.490661],[54.411051,24.490713],[54.411147,24.490714],[54.411316,24.49069],[54.411316,24.490637],[54.41122,24.490637],[54.411052,24.490661]]]}},{"type":"Feature","properties":{},"geometry":{"type":"Polygon","coordinates":[[[54.41139,24.490868],[54.41136,24.490869],[54.411393,24.490864],[54.411393,24.490771],[54.411155,24.490795],[54.411155,24.490888],[54.411185,24.490888],[54.411147,24.490894],[54.411148,24.490951],[54.411391,24.490925],[54.41139,24.490868]]]}},{"type":"Feature","properties":{},"geometry":{"type":"Polygon","coordinates":[[[54.413579,24.49079],[54.413581,24.490621],[54.413092,24.490615],[54.412924,24.490639],[54.412916,24.491132],[54.413395,24.491138],[54.413563,24.491114],[54.413566,24.490951],[54.413281,24.490947],[54.413283,24.490812],[54.413411,24.490814],[54.413579,24.49079]]]}},{"type":"Feature","properties":{},"geometry":{"type":"Polygon","coordinates":[[[54.413043,24.491163],[54.412998,24.491161],[54.412829,24.491185],[54.412828,24.491224],[54.413042,24.491202],[54.413043,24.491163]]]}},{"type":"Feature","properties":{},"geometry":{"type":"Polygon","coordinates":[[[54.411391,24.491402],[54.411185,24.491424],[54.411181,24.491501],[54.411387,24.491479],[54.411391,24.491402]]]}},{"type":"Feature","properties":{},"geometry":{"type":"Polygon","coordinates":[[[54.410998,24.491287],[54.410626,24.491274],[54.410457,24.491298],[54.410444,24.491622],[54.410816,24.491635],[54.410984,24.491611],[54.410998,24.491287]]]}},{"type":"Feature","properties":{},"geometry":{"type":"Polygon","coordinates":[[[54.412028,24.492107],[54.412099,24.491199],[54.411603,24.491166],[54.411435,24.491191],[54.411364,24.492099],[54.41186,24.492132],[54.412028,24.492107]]]}},{"type":"Feature","properties":{},"geometry":{"type":"Polygon","coordinates":[[[54.412354,24.491675],[54.412276,24.491673],[54.412108,24.491697],[54.412107,24.491726],[54.412185,24.491729],[54.412353,24.491704],[54.412354,24.491675]]]}},{"type":"Feature","properties":{},"geometry":{"type":"Polygon","coordinates":[[[54.411877,24.492271],[54.41175,24.492268],[54.411581,24.492292],[54.411578,24.49238],[54.411706,24.492383],[54.411874,24.492359],[54.411877,24.492271]]]}},{"type":"Feature","properties":{},"geometry":{"type":"Polygon","coordinates":[[[54.411972,24.492557],[54.412154,24.492558],[54.412323,24.492534],[54.412324,24.492436],[54.412141,24.492435],[54.411973,24.492459],[54.411972,24.492557]]]}},{"type":"Feature","properties":{},"geometry":{"type":"Polygon","coordinates":[[[54.415271,24.496889],[54.415179,24.496836],[54.41501,24.49686],[54.4149,24.497017],[54.414992,24.497071],[54.41516,24.497047],[54.415271,24.496889]]]}},{"type":"Feature","properties":{},"geometry":{"type":"Polygon","coordinates":[[[54.412111,24.498878],[54.412293,24.498649],[54.412187,24.498029],[54.41221,24.49802],[54.411978,24.497476],[54.411664,24.497361],[54.411496,24.497386],[54.411403,24.497422],[54.411699,24.498182],[54.411825,24.498912],[54.412111,24.498878]]]}},{"type":"Feature","properties":{},"geometry":{"type":"Polygon","coordinates":[[[54.410624,24.497708],[54.41061,24.498871],[54.410748,24.499018],[54.410993,24.499029],[54.411161,24.499005],[54.411154,24.497491],[54.410798,24.49756],[54.410624,24.497708]]]}},{"type":"Feature","properties":{},"geometry":{"type":"Polygon","coordinates":[[[54.4117,24.501339],[54.410437,24.50152],[54.410437,24.501588],[54.410335,24.501603],[54.410333,24.501852],[54.410433,24.501853],[54.411696,24.501672],[54.411695,24.501629],[54.411831,24.50161],[54.411836,24.501385],[54.411805,24.501383],[54.411807,24.501342],[54.4117,24.501339]]]}},{"type":"Feature","properties":{},"geometry":{"type":"Polygon","coordinates":[[[54.413013,24.502973],[54.413098,24.503119],[54.413591,24.503039],[54.413711,24.502748],[54.4138,24.502268],[54.41332,24.501972],[54.413161,24.501821],[54.413076,24.501709],[54.412995,24.501565],[54.412947,24.501425],[54.412403,24.501412],[54.411982,24.501472],[54.412018,24.501673],[54.412065,24.501807],[54.412137,24.50199],[54.412222,24.502147],[54.412374,24.502354],[54.412629,24.502656],[54.412874,24.50282],[54.413013,24.502973]]]}},{"type":"Feature","properties":{},"geometry":{"type":"Polygon","coordinates":[[[54.41168,24.502521],[54.411839,24.502498],[54.41191,24.502425],[54.411697,24.502252],[54.411529,24.502276],[54.411457,24.502349],[54.411657,24.502511],[54.411463,24.502535],[54.41146,24.502658],[54.411678,24.502635],[54.41168,24.502521]]]}},{"type":"Feature","properties":{},"geometry":{"type":"Polygon","coordinates":[[[54.410947,24.502245],[54.410913,24.502838],[54.411356,24.502864],[54.411524,24.50284],[54.411522,24.502678],[54.411392,24.502655],[54.411323,24.502604],[54.411318,24.502224],[54.411116,24.50222],[54.410947,24.502245]]]}},{"type":"Feature","properties":{},"geometry":{"type":"Polygon","coordinates":[[[54.41186,24.502804],[54.412023,24.502781],[54.412126,24.502724],[54.411965,24.502484],[54.411796,24.502509],[54.411694,24.502566],[54.41181,24.502738],[54.411657,24.50276],[54.411573,24.502795],[54.411649,24.502947],[54.411817,24.502922],[54.411902,24.502887],[54.41186,24.502804]]]}},{"type":"Feature","properties":{},"geometry":{"type":"Polygon","coordinates":[[[54.409909,24.503972],[54.411242,24.50378],[54.411386,24.503672],[54.411053,24.503306],[54.40972,24.503497],[54.409576,24.503605],[54.409909,24.503972]]]}},{"type":"Feature","properties":{},"geometry":{"type":"Polygon","coordinates":[[[54.415753,24.50428],[54.415811,24.504331],[54.416386,24.504248],[54.416564,24.504099],[54.416368,24.503938],[54.41627,24.503952],[54.416209,24.503902],[54.41592,24.503944],[54.415822,24.503863],[54.414826,24.504005],[54.414667,24.504163],[54.414312,24.504214],[54.414153,24.504371],[54.414331,24.504524],[54.415593,24.504343],[54.41565,24.504295],[54.415753,24.50428]]]}},{"type":"Feature","properties":{},"geometry":{"type":"Polygon","coordinates":[[[54.41469,24.504979],[54.415143,24.504914],[54.415073,24.504983],[54.415251,24.505136],[54.415292,24.50513],[54.415313,24.505155],[54.415482,24.505131],[54.415532,24.505095],[54.416036,24.505023],[54.416214,24.504874],[54.416059,24.504747],[54.416316,24.50471],[54.416494,24.504561],[54.416298,24.5044],[54.41561,24.504498],[54.415568,24.50454],[54.414671,24.504668],[54.414513,24.504826],[54.41469,24.504979]]]}},{"type":"Feature","properties":{},"geometry":{"type":"Polygon","coordinates":[[[54.410942,24.506768],[54.410965,24.506704],[54.410901,24.506684],[54.410915,24.506591],[54.410846,24.506551],[54.410714,24.506515],[54.410371,24.50656],[54.410298,24.506611],[54.410298,24.506661],[54.410335,24.50673],[54.410383,24.506739],[54.410502,24.506803],[54.410588,24.506808],[54.410942,24.506768]]]}},{"type":"Feature","properties":{},"geometry":{"type":"Polygon","coordinates":[[[54.411178,24.507165],[54.411212,24.506919],[54.411146,24.506887],[54.410847,24.506938],[54.410793,24.506994],[54.410732,24.507106],[54.410726,24.507266],[54.410769,24.50734],[54.410823,24.507348],[54.411072,24.507302],[54.411178,24.507165]]]}},{"type":"Feature","properties":{},"geometry":{"type":"Polygon","coordinates":[[[54.410981,24.508572],[54.410813,24.508596],[54.410809,24.508696],[54.411097,24.508706],[54.411266,24.508682],[54.411269,24.508584],[54.410981,24.508572]]]}},{"type":"Feature","properties":{},"geometry":{"type":"Polygon","coordinates":[[[54.411248,24.508984],[54.411242,24.50913],[54.411123,24.509147],[54.411122,24.509219],[54.411238,24.50921],[54.411234,24.509309],[54.411307,24.509308],[54.411307,24.509336],[54.411477,24.50934],[54.411558,24.509328],[54.411557,24.50941],[54.410892,24.509425],[54.410723,24.509449],[54.410727,24.509544],[54.411448,24.509523],[54.411616,24.509499],[54.411616,24.509481],[54.411842,24.509457],[54.411846,24.50924],[54.411647,24.50925],[54.411649,24.509165],[54.411863,24.509142],[54.411871,24.508934],[54.411748,24.50893],[54.41158,24.508958],[54.411248,24.508984]]]}},{"type":"Feature","properties":{},"geometry":{"type":"Polygon","coordinates":[[[54.4107,24.509161],[54.41093,24.509136],[54.410928,24.509039],[54.410698,24.509064],[54.4107,24.509161]]]}},{"type":"Feature","properties":{},"geometry":{"type":"Polygon","coordinates":[[[54.411333,24.509838],[54.411502,24.509814],[54.4116,24.509774],[54.411523,24.509617],[54.411355,24.509641],[54.411256,24.509681],[54.411333,24.509838]]]}},{"type":"Feature","properties":{},"geometry":{"type":"Polygon","coordinates":[[[54.418741,24.481874],[54.418697,24.481877],[54.418529,24.481901],[54.41853,24.481923],[54.418743,24.481896],[54.418741,24.481874]]]}},{"type":"Feature","properties":{},"geometry":{"type":"Polygon","coordinates":[[[54.419224,24.482582],[54.419525,24.482609],[54.419693,24.482585],[54.419696,24.482558],[54.419766,24.482548],[54.419796,24.482254],[54.419871,24.482256],[54.419855,24.482394],[54.420191,24.482427],[54.420242,24.48242],[54.420239,24.48244],[54.420561,24.482479],[54.420618,24.48247],[54.420616,24.482487],[54.420926,24.482526],[54.421094,24.482502],[54.421113,24.48238],[54.42096,24.48236],[54.421122,24.482337],[54.421136,24.482216],[54.420825,24.482187],[54.420657,24.482212],[54.420655,24.482224],[54.420267,24.482186],[54.420376,24.482171],[54.420387,24.482097],[54.420444,24.482109],[54.420612,24.482085],[54.420637,24.481996],[54.420546,24.481975],[54.420378,24.481999],[54.420367,24.482037],[54.420208,24.482016],[54.420323,24.482],[54.420333,24.48192],[54.420597,24.481951],[54.420708,24.481935],[54.420707,24.481946],[54.420826,24.481952],[54.420697,24.48197],[54.420677,24.482093],[54.420987,24.482135],[54.421155,24.482111],[54.421175,24.481988],[54.420957,24.481958],[54.421032,24.481962],[54.4212,24.481938],[54.421209,24.481806],[54.420884,24.481789],[54.420783,24.481803],[54.420789,24.481764],[54.420451,24.481723],[54.420369,24.481735],[54.420371,24.481696],[54.420238,24.481682],[54.42007,24.481706],[54.420064,24.481769],[54.420281,24.48176],[54.420267,24.481857],[54.420019,24.481832],[54.419851,24.481856],[54.419834,24.481991],[54.419893,24.481997],[54.41978,24.482007],[54.419787,24.481961],[54.419462,24.481923],[54.419294,24.481947],[54.419282,24.48203],[54.419052,24.482004],[54.418995,24.482013],[54.419005,24.481967],[54.418969,24.48196],[54.418801,24.481985],[54.418785,24.482055],[54.418881,24.482053],[54.418876,24.482087],[54.418663,24.48206],[54.418494,24.482084],[54.418475,24.482211],[54.418798,24.482252],[54.418966,24.482227],[54.418982,24.48212],[54.419196,24.482143],[54.419252,24.482135],[54.419228,24.482308],[54.419402,24.482329],[54.419372,24.482333],[54.419368,24.482371],[54.419327,24.482377],[54.419331,24.482348],[54.419011,24.482306],[54.41895,24.482315],[54.418952,24.482298],[54.418629,24.482261],[54.41846,24.482285],[54.418442,24.482417],[54.418552,24.48243],[54.418434,24.482447],[54.418417,24.482581],[54.418743,24.482614],[54.418912,24.482589],[54.418914,24.482569],[54.419127,24.482596],[54.419224,24.482582]],[[54.418925,24.48248],[54.418925,24.482478],[54.418933,24.482479],[54.418925,24.48248]],[[54.419367,24.482098],[54.419368,24.482089],[54.4194,24.482093],[54.419367,24.482098]],[[54.419676,24.482106],[54.41966,24.482117],[54.419623,24.482113],[54.419676,24.482106]],[[54.419842,24.482177],[54.419934,24.48216],[54.420013,24.48217],[54.419842,24.482177]],[[54.420008,24.482009],[54.420004,24.482009],[54.420004,24.482008],[54.420008,24.482009]],[[54.420774,24.482344],[54.420745,24.482349],[54.420746,24.482342],[54.420774,24.482344]],[[54.419193,24.482499],[54.419201,24.482498],[54.4192,24.4825],[54.419193,24.482499]]]}},{"type":"Feature","properties":{},"geometry":{"type":"Polygon","coordinates":[[[54.418366,24.482861],[54.418361,24.482982],[54.418686,24.482995],[54.418854,24.482971],[54.418865,24.482924],[54.418857,24.482995],[54.419189,24.483025],[54.419358,24.483001],[54.419364,24.482942],[54.419551,24.482961],[54.419687,24.482942],[54.419682,24.482985],[54.419793,24.482997],[54.419673,24.483014],[54.41966,24.483134],[54.419984,24.483163],[54.420077,24.483149],[54.420075,24.483162],[54.420414,24.483194],[54.420514,24.483179],[54.420507,24.483251],[54.420826,24.483278],[54.420994,24.483253],[54.421007,24.483125],[54.420905,24.483117],[54.421003,24.483103],[54.421021,24.482983],[54.420712,24.482946],[54.420544,24.48297],[54.420539,24.483002],[54.420262,24.482976],[54.420172,24.482989],[54.420189,24.482862],[54.420172,24.48286],[54.420272,24.482845],[54.420286,24.482748],[54.420514,24.482771],[54.420574,24.482762],[54.420561,24.482854],[54.420871,24.48289],[54.421039,24.482866],[54.421056,24.482745],[54.4209,24.482727],[54.421063,24.482703],[54.421085,24.482558],[54.420774,24.482524],[54.420712,24.482533],[54.420713,24.482521],[54.420392,24.482492],[54.420341,24.4825],[54.420344,24.482475],[54.420008,24.482441],[54.41984,24.482465],[54.419816,24.482661],[54.419962,24.482675],[54.419802,24.482698],[54.419782,24.48283],[54.419813,24.482834],[54.419731,24.482846],[54.419736,24.482805],[54.41954,24.482784],[54.419662,24.482767],[54.419682,24.482635],[54.41936,24.482594],[54.419191,24.482619],[54.419186,24.482653],[54.419126,24.482637],[54.418957,24.482661],[54.418929,24.482747],[54.419026,24.482773],[54.419179,24.482751],[54.419376,24.482776],[54.419245,24.482795],[54.419238,24.482846],[54.419017,24.482831],[54.41902,24.482793],[54.418879,24.482796],[54.41889,24.482689],[54.418564,24.482661],[54.418396,24.482685],[54.418382,24.482821],[54.418598,24.482839],[54.418366,24.482861]],[[54.418761,24.482845],[54.418735,24.482844],[54.418761,24.482841],[54.418761,24.482845]],[[54.420072,24.483011],[54.420093,24.483008],[54.420092,24.483012],[54.420072,24.483011]],[[54.420688,24.482705],[54.420737,24.48271],[54.420686,24.482717],[54.420688,24.482705]],[[54.420061,24.482685],[54.420192,24.482689],[54.42019,24.482701],[54.420061,24.482685]],[[54.42059,24.482669],[54.420582,24.482668],[54.42059,24.482667],[54.42059,24.482669]],[[54.42059,24.483097],[54.420649,24.483104],[54.420589,24.483113],[54.42059,24.483097]]]}},{"type":"Feature","properties":{},"geometry":{"type":"Polygon","coordinates":[[[54.417239,24.487769],[54.417493,24.487744],[54.417492,24.487699],[54.417238,24.487724],[54.417239,24.487769]]]}},{"type":"Feature","properties":{},"geometry":{"type":"Polygon","coordinates":[[[54.416006,24.487944],[54.416262,24.487931],[54.416431,24.487907],[54.416422,24.487777],[54.416166,24.48779],[54.415997,24.487814],[54.416006,24.487944]]]}},{"type":"Feature","properties":{},"geometry":{"type":"Polygon","coordinates":[[[54.41601,24.488017],[54.416245,24.48801],[54.416414,24.487986],[54.416412,24.48793],[54.416176,24.487936],[54.416008,24.487961],[54.41601,24.488017]]]}},{"type":"Feature","properties":{},"geometry":{"type":"Polygon","coordinates":[[[54.416234,24.48834],[54.416146,24.488352],[54.41615,24.488389],[54.416234,24.488379],[54.416232,24.488489],[54.416527,24.488493],[54.416862,24.488455],[54.416864,24.488411],[54.416696,24.488427],[54.416696,24.488407],[54.416891,24.488384],[54.416893,24.488345],[54.416695,24.488368],[54.416694,24.488396],[54.416517,24.488393],[54.416517,24.488364],[54.416504,24.488364],[54.416694,24.488339],[54.416694,24.488324],[54.416917,24.48828],[54.416917,24.488224],[54.416672,24.488253],[54.416671,24.488244],[54.416918,24.488216],[54.416915,24.488124],[54.416772,24.488124],[54.416837,24.488109],[54.416833,24.488018],[54.416762,24.488022],[54.416763,24.488006],[54.416835,24.487996],[54.416833,24.487947],[54.416611,24.487951],[54.416443,24.487975],[54.416442,24.488009],[54.416335,24.488024],[54.416349,24.48826],[54.416236,24.488277],[54.416234,24.48834]],[[54.416442,24.488363],[54.416443,24.488302],[54.416475,24.488301],[54.416479,24.488363],[54.416442,24.488363]]]}},{"type":"Feature","properties":{},"geometry":{"type":"Polygon","coordinates":[[[54.416232,24.488989],[54.416425,24.488964],[54.416421,24.488857],[54.416229,24.488881],[54.416226,24.488815],[54.415999,24.488841],[54.416006,24.489041],[54.416233,24.489015],[54.416232,24.488989]]]}},{"type":"Feature","properties":{},"geometry":{"type":"Polygon","coordinates":[[[54.415624,24.489052],[54.415851,24.489027],[54.415847,24.488827],[54.41562,24.488852],[54.415624,24.489052]]]}},{"type":"Feature","properties":{},"geometry":{"type":"Polygon","coordinates":[[[54.416044,24.489114],[54.416041,24.489071],[54.415719,24.489105],[54.415722,24.489146],[54.416044,24.489114]]]}},{"type":"Feature","properties":{},"geometry":{"type":"Polygon","coordinates":[[[54.416001,24.489227],[54.416003,24.489146],[54.415784,24.489169],[54.415782,24.48925],[54.416001,24.489227]]]}},{"type":"Feature","properties":{},"geometry":{"type":"Polygon","coordinates":[[[54.415421,24.489677],[54.416292,24.489655],[54.41646,24.489631],[54.416458,24.489562],[54.416438,24.489562],[54.416435,24.489478],[54.415584,24.489499],[54.415416,24.489523],[54.415421,24.489677]]]}},{"type":"Feature","properties":{},"geometry":{"type":"Polygon","coordinates":[[[54.41724,24.501685],[54.417163,24.501757],[54.41722,24.501818],[54.417181,24.501902],[54.417059,24.501949],[54.417254,24.502089],[54.417422,24.502065],[54.417639,24.501861],[54.417408,24.501661],[54.41724,24.501685]]]}},{"type":"Feature","properties":{},"geometry":{"type":"Polygon","coordinates":[[[54.416926,24.50194],[54.416926,24.501919],[54.417033,24.501898],[54.417018,24.501851],[54.41685,24.501875],[54.416805,24.501887],[54.416809,24.501898],[54.416572,24.501928],[54.416574,24.501975],[54.416926,24.50194]]]}},{"type":"Feature","properties":{},"geometry":{"type":"Polygon","coordinates":[[[54.417577,24.502387],[54.417746,24.502363],[54.417788,24.502335],[54.417758,24.502299],[54.41759,24.502323],[54.417548,24.502351],[54.417577,24.502387]]]}},{"type":"Feature","properties":{},"geometry":{"type":"Polygon","coordinates":[[[54.417908,24.502514],[54.418076,24.50249],[54.4181,24.502465],[54.418053,24.502429],[54.417885,24.502453],[54.417861,24.502478],[54.417908,24.502514]]]}},{"type":"Feature","properties":{},"geometry":{"type":"Polygon","coordinates":[[[54.415694,24.502394],[54.415669,24.502393],[54.415501,24.502417],[54.415496,24.502476],[54.41569,24.502454],[54.415694,24.502394]]]}},{"type":"Feature","properties":{},"geometry":{"type":"Polygon","coordinates":[[[54.417672,24.502418],[54.417421,24.502442],[54.417421,24.502556],[54.4175,24.502562],[54.417668,24.502538],[54.417672,24.502418]]]}},{"type":"Feature","properties":{},"geometry":{"type":"Polygon","coordinates":[[[54.417164,24.502603],[54.41706,24.502606],[54.416892,24.50263],[54.416893,24.502654],[54.417164,24.502628],[54.417164,24.502603]]]}},{"type":"Feature","properties":{},"geometry":{"type":"Polygon","coordinates":[[[54.415634,24.50262],[54.415589,24.502619],[54.415638,24.502612],[54.415636,24.502579],[54.41539,24.502607],[54.415392,24.50264],[54.415429,24.502639],[54.415395,24.502643],[54.415395,24.502682],[54.415634,24.502658],[54.415634,24.50262]]]}},{"type":"Feature","properties":{},"geometry":{"type":"Polygon","coordinates":[[[54.41706,24.502794],[54.417302,24.502785],[54.417576,24.502747],[54.417571,24.502686],[54.417222,24.502697],[54.417223,24.502683],[54.417113,24.502678],[54.416945,24.502702],[54.416942,24.502762],[54.417059,24.502766],[54.41706,24.502794]]]}},{"type":"Feature","properties":{},"geometry":{"type":"Polygon","coordinates":[[[54.415688,24.502802],[54.415685,24.502856],[54.415811,24.502861],[54.415979,24.502837],[54.415983,24.502759],[54.415733,24.502755],[54.415629,24.50277],[54.415627,24.502754],[54.415564,24.50276],[54.415396,24.502784],[54.415403,24.502838],[54.415688,24.502802]]]}},{"type":"Feature","properties":{},"geometry":{"type":"Polygon","coordinates":[[[54.415447,24.502901],[54.415673,24.502869],[54.415665,24.502819],[54.415439,24.50285],[54.415447,24.502901]]]}},{"type":"Feature","properties":{},"geometry":{"type":"Polygon","coordinates":[[[54.417542,24.503036],[54.417435,24.503032],[54.417267,24.503056],[54.417265,24.503098],[54.417372,24.503102],[54.41754,24.503078],[54.417542,24.503036]]]}},{"type":"Feature","properties":{},"geometry":{"type":"Polygon","coordinates":[[[54.417605,24.503229],[54.417773,24.503205],[54.417772,24.503144],[54.417693,24.503149],[54.417695,24.503115],[54.417633,24.503113],[54.417465,24.503137],[54.417461,24.503227],[54.417605,24.503229]]]}},{"type":"Feature","properties":{},"geometry":{"type":"Polygon","coordinates":[[[54.415897,24.503397],[54.415803,24.503394],[54.415635,24.503418],[54.415632,24.503473],[54.415726,24.503477],[54.415894,24.503452],[54.415897,24.503397]]]}},{"type":"Feature","properties":{},"geometry":{"type":"Polygon","coordinates":[[[54.415813,24.503642],[54.416024,24.503616],[54.416021,24.503533],[54.415809,24.503559],[54.415813,24.503642]]]}},{"type":"Feature","properties":{},"geometry":{"type":"Polygon","coordinates":[[[54.417866,24.503546],[54.417664,24.503569],[54.417657,24.503786],[54.417859,24.503763],[54.417866,24.503546]]]}},{"type":"Feature","properties":{},"geometry":{"type":"Polygon","coordinates":[[[54.415445,24.504508],[54.415614,24.504484],[54.415658,24.504448],[54.415609,24.504397],[54.415441,24.504421],[54.415396,24.504457],[54.415445,24.504508]]]}},{"type":"Feature","properties":{},"geometry":{"type":"Polygon","coordinates":[[[54.419107,24.480028],[54.419041,24.480018],[54.418873,24.480042],[54.418867,24.480078],[54.418943,24.480086],[54.418942,24.480131],[54.419148,24.480108],[54.419149,24.480047],[54.419103,24.480047],[54.419107,24.480028]]]}},{"type":"Feature","properties":{},"geometry":{"type":"Polygon","coordinates":[[[54.420825,24.480277],[54.420828,24.480212],[54.420737,24.480208],[54.420569,24.480232],[54.420562,24.480364],[54.420901,24.480388],[54.42107,24.480364],[54.421072,24.480318],[54.420863,24.48031],[54.420864,24.480278],[54.420825,24.480277]]]}},{"type":"Feature","properties":{},"geometry":{"type":"Polygon","coordinates":[[[54.420161,24.480804],[54.420098,24.480798],[54.419929,24.480822],[54.419923,24.480877],[54.419987,24.480883],[54.420155,24.480859],[54.420161,24.480804]]]}},{"type":"Feature","properties":{},"geometry":{"type":"Polygon","coordinates":[[[54.419589,24.481607],[54.419488,24.481621],[54.419491,24.481606],[54.419151,24.481565],[54.419061,24.481577],[54.419066,24.481536],[54.418747,24.4815],[54.418579,24.481524],[54.41856,24.481659],[54.418675,24.481672],[54.418544,24.481691],[54.41855,24.481831],[54.418819,24.481812],[54.418813,24.48185],[54.418855,24.481855],[54.419023,24.481831],[54.419036,24.481751],[54.4193,24.481784],[54.419405,24.481768],[54.419728,24.481807],[54.419897,24.481783],[54.419916,24.481646],[54.419589,24.481607]],[[54.418992,24.481746],[54.4189,24.481759],[54.418898,24.481718],[54.418843,24.48172],[54.418842,24.481691],[54.418969,24.481682],[54.41896,24.481742],[54.418992,24.481746]]]}},{"type":"Feature","properties":{},"geometry":{"type":"Polygon","coordinates":[[[54.420557,24.482834],[54.420468,24.482806],[54.4203,24.48283],[54.420265,24.48292],[54.420354,24.482948],[54.420522,24.482924],[54.420557,24.482834]]]}},{"type":"Feature","properties":{},"geometry":{"type":"Polygon","coordinates":[[[54.419591,24.489293],[54.419592,24.48932],[54.419863,24.489295],[54.419863,24.489241],[54.419498,24.489244],[54.41933,24.489268],[54.419331,24.489307],[54.419591,24.489293]]]}},{"type":"Feature","properties":{},"geometry":{"type":"Polygon","coordinates":[[[54.418994,24.489429],[54.419251,24.489401],[54.419245,24.489277],[54.418987,24.489305],[54.418994,24.489429]]]}},{"type":"Feature","properties":{},"geometry":{"type":"Polygon","coordinates":[[[54.41983,24.489357],[54.419725,24.489354],[54.419557,24.489378],[54.419554,24.489481],[54.419658,24.489483],[54.419827,24.489459],[54.41983,24.489357]]]}},{"type":"Feature","properties":{},"geometry":{"type":"Polygon","coordinates":[[[54.419166,24.489612],[54.419361,24.489585],[54.419351,24.489513],[54.419157,24.48954],[54.419166,24.489612]]]}},{"type":"Feature","properties":{},"geometry":{"type":"Polygon","coordinates":[[[54.419564,24.489821],[54.419853,24.489795],[54.419852,24.489749],[54.419563,24.489776],[54.419564,24.489821]]]}},{"type":"Feature","properties":{},"geometry":{"type":"Polygon","coordinates":[[[54.419385,24.490256],[54.419239,24.490277],[54.41924,24.490311],[54.419576,24.490283],[54.419579,24.490298],[54.419662,24.490293],[54.419831,24.490269],[54.419828,24.490148],[54.419611,24.490173],[54.419605,24.490252],[54.419601,24.490157],[54.419381,24.490183],[54.419385,24.490256]]]}},{"type":"Feature","properties":{},"geometry":{"type":"Polygon","coordinates":[[[54.418218,24.502471],[54.418386,24.502447],[54.418588,24.502369],[54.418544,24.502276],[54.418376,24.5023],[54.418174,24.502378],[54.418218,24.502471]]]}}]}