{"type":"FeatureCollection","features":[{"type":"Feature","properties":{},"geometry":{"type":"Polygon","coordinates":[[[54.390662,24.482967],[54.390752,24.482897],[54.390731,24.482875],[54.391405,24.482948],[54.391388,24.482977],[54.391056,24.482942],[54.390997,24.483025],[54.391238,24.483168],[54.391279,24.483172],[54.391503,24.483283],[54.392192,24.483356],[54.392263,24.483243],[54.392316,24.483249],[54.392282,24.483312],[54.392375,24.483354],[54.393064,24.483428],[54.393165,24.483253],[54.393069,24.483207],[54.392949,24.483187],[54.39297,24.48315],[54.392863,24.4831],[54.392378,24.483042],[54.392431,24.482956],[54.392199,24.482843],[54.392045,24.482826],[54.391884,24.482753],[54.39183,24.482748],[54.391838,24.482733],[54.391719,24.48269],[54.391725,24.48268],[54.391631,24.482638],[54.391396,24.482613],[54.391407,24.482545],[54.39058,24.482459],[54.390563,24.482582],[54.390911,24.482619],[54.39087,24.482691],[54.390518,24.482654],[54.390461,24.482735],[54.390615,24.48282],[54.389997,24.482755],[54.389907,24.482825],[54.389972,24.482894],[54.390662,24.482967]],[[54.392259,24.483128],[54.392222,24.483191],[54.392179,24.483169],[54.392215,24.48311],[54.392259,24.483128]]]}},{"type":"Feature","properties":{},"geometry":{"type":"Polygon","coordinates":[[[54.391015,24.483564],[54.39122,24.483711],[54.391241,24.483713],[54.391186,24.48376],[54.391324,24.483896],[54.392014,24.483969],[54.392101,24.483893],[54.391963,24.483758],[54.391935,24.483755],[54.391989,24.483692],[54.39195,24.48366],[54.392013,24.483667],[54.392097,24.483571],[54.392002,24.483498],[54.392301,24.48353],[54.392316,24.4835],[54.392221,24.48346],[54.391224,24.483358],[54.391015,24.483564]]]}},{"type":"Feature","properties":{},"geometry":{"type":"Polygon","coordinates":[[[54.390771,24.484369],[54.39068,24.484447],[54.390799,24.484563],[54.391488,24.484636],[54.39158,24.484558],[54.391461,24.484442],[54.390771,24.484369]]]}},{"type":"Feature","properties":{},"geometry":{"type":"Polygon","coordinates":[[[54.392714,24.489126],[54.392886,24.489319],[54.393748,24.48941],[54.393914,24.489343],[54.394134,24.489367],[54.394398,24.489332],[54.400276,24.48996],[54.400463,24.489942],[54.400449,24.489829],[54.400541,24.48982],[54.400506,24.489526],[54.400966,24.489714],[54.401757,24.489883],[54.402446,24.489956],[54.40329,24.490016],[54.40357,24.489669],[54.403314,24.488209],[54.402978,24.488159],[54.402463,24.488054],[54.401834,24.487838],[54.4008,24.487376],[54.400233,24.487007],[54.399657,24.486575],[54.398968,24.486502],[54.39807,24.487484],[54.395144,24.487174],[54.395019,24.487192],[54.39497,24.487235],[54.395012,24.487275],[54.394901,24.487373],[54.39462,24.487343],[54.39459,24.487368],[54.394555,24.487364],[54.394369,24.487515],[54.394473,24.487621],[54.394275,24.4876],[54.394095,24.487756],[54.394113,24.487773],[54.394066,24.487813],[54.394233,24.487979],[54.393649,24.487917],[54.392872,24.487985],[54.392909,24.488341],[54.392719,24.488577],[54.392314,24.488534],[54.392298,24.488614],[54.392215,24.488605],[54.392125,24.48894],[54.392399,24.488969],[54.392538,24.489018],[54.392714,24.489126]],[[54.393886,24.48875],[54.393918,24.488692],[54.393968,24.488646],[54.394043,24.488609],[54.394569,24.488563],[54.394542,24.488305],[54.394699,24.488322],[54.394793,24.488419],[54.399221,24.488888],[54.400095,24.489347],[54.394508,24.488755],[54.394327,24.488773],[54.394339,24.488873],[54.39419,24.488888],[54.394193,24.488916],[54.393881,24.488883],[54.393872,24.488813],[54.393886,24.48875]],[[54.395726,24.487962],[54.395506,24.487646],[54.397781,24.487887],[54.398236,24.488228],[54.395726,24.487962]]]}},{"type":"Feature","properties":{},"geometry":{"type":"Polygon","coordinates":[[[54.392869,24.491091],[54.392169,24.491164],[54.39221,24.49149],[54.392785,24.491551],[54.39246,24.491593],[54.392547,24.492146],[54.393236,24.492219],[54.393652,24.492166],[54.393679,24.491965],[54.393659,24.491833],[54.39383,24.491951],[54.39429,24.492],[54.395209,24.490896],[54.395424,24.49105],[54.401302,24.491673],[54.401503,24.491441],[54.401264,24.491269],[54.395415,24.490649],[54.395513,24.490532],[54.395342,24.490419],[54.394834,24.490373],[54.394792,24.490129],[54.400092,24.49069],[54.400098,24.490732],[54.400788,24.490805],[54.401092,24.490767],[54.401051,24.490501],[54.400612,24.490455],[54.400582,24.490196],[54.400478,24.490185],[54.400469,24.490107],[54.394592,24.489484],[54.39441,24.489501],[54.394421,24.489601],[54.394271,24.489615],[54.394299,24.489857],[54.394219,24.489848],[54.394099,24.489781],[54.393237,24.48969],[54.392995,24.489698],[54.392899,24.490086],[54.392856,24.490178],[54.392769,24.490285],[54.392729,24.490281],[54.392598,24.490361],[54.392349,24.490475],[54.392154,24.490509],[54.391736,24.490465],[54.391721,24.490502],[54.391735,24.490577],[54.3917,24.4906],[54.391651,24.49071],[54.391724,24.490779],[54.391942,24.490822],[54.392303,24.490933],[54.39255,24.49096],[54.39257,24.490997],[54.393187,24.491063],[54.393301,24.49113],[54.393556,24.491164],[54.392869,24.491091]],[[54.393585,24.491373],[54.393559,24.491165],[54.393747,24.491203],[54.393441,24.491575],[54.393445,24.491586],[54.393066,24.491546],[54.393192,24.491533],[54.393177,24.491415],[54.393585,24.491373]]]}},{"type":"Feature","properties":{},"geometry":{"type":"Polygon","coordinates":[[[54.393497,24.492474],[54.392808,24.492401],[54.392226,24.492479],[54.392288,24.492864],[54.392978,24.492937],[54.39356,24.492859],[54.393497,24.492474]]]}},{"type":"Feature","properties":{},"geometry":{"type":"Polygon","coordinates":[[[54.391195,24.493112],[54.391382,24.492941],[54.391276,24.492844],[54.390587,24.492771],[54.390399,24.492942],[54.390505,24.493039],[54.391195,24.493112]]]}},{"type":"Feature","properties":{},"geometry":{"type":"Polygon","coordinates":[[[54.390121,24.493761],[54.389311,24.493854],[54.389361,24.494209],[54.39005,24.494282],[54.39086,24.494188],[54.390811,24.493834],[54.390121,24.493761]]]}},{"type":"Feature","properties":{},"geometry":{"type":"Polygon","coordinates":[[[54.392741,24.49608],[54.39343,24.496153],[54.393487,24.496111],[54.394118,24.496049],[54.394429,24.496081],[54.394553,24.496067],[54.394759,24.495884],[54.394975,24.495859],[54.39489,24.495249],[54.3942,24.495176],[54.393632,24.495242],[54.393644,24.495323],[54.393572,24.495316],[54.392676,24.495443],[54.392741,24.49608]]]}},{"type":"Feature","properties":{},"geometry":{"type":"Polygon","coordinates":[[[54.390174,24.496109],[54.390205,24.496364],[54.390894,24.496437],[54.391198,24.496417],[54.391198,24.496399],[54.391332,24.496402],[54.391319,24.496173],[54.391301,24.496171],[54.391316,24.496169],[54.391265,24.49575],[54.390576,24.495677],[54.390226,24.495712],[54.390227,24.495726],[54.390109,24.495729],[54.390113,24.495837],[54.390243,24.49585],[54.390265,24.496029],[54.390147,24.496033],[54.390156,24.496107],[54.390174,24.496109]]]}},{"type":"Feature","properties":{},"geometry":{"type":"Polygon","coordinates":[[[54.39211,24.497092],[54.392353,24.497086],[54.392351,24.497047],[54.391661,24.496974],[54.391541,24.496979],[54.391542,24.496992],[54.391422,24.496985],[54.391421,24.497019],[54.39211,24.497092]]]}},{"type":"Feature","properties":{},"geometry":{"type":"Polygon","coordinates":[[[54.391998,24.497168],[54.392305,24.497201],[54.392359,24.497191],[54.392351,24.497153],[54.391662,24.49708],[54.391186,24.49705],[54.391184,24.497144],[54.391873,24.497217],[54.391993,24.497219],[54.391998,24.497168]]]}},{"type":"Feature","properties":{},"geometry":{"type":"Polygon","coordinates":[[[54.391345,24.497181],[54.391232,24.497178],[54.39123,24.497241],[54.39192,24.497314],[54.392032,24.497317],[54.392034,24.497254],[54.391345,24.497181]]]}},{"type":"Feature","properties":{},"geometry":{"type":"Polygon","coordinates":[[[54.39162,24.498192],[54.395011,24.498551],[54.393466,24.49866],[54.393621,24.499665],[54.394311,24.499738],[54.396059,24.499544],[54.395949,24.498737],[54.39585,24.49864],[54.397374,24.498802],[54.39779,24.498782],[54.397759,24.498564],[54.397382,24.498438],[54.391505,24.497815],[54.391368,24.497883],[54.391404,24.498122],[54.391474,24.498165],[54.390929,24.498107],[54.389896,24.498215],[54.389941,24.498568],[54.39063,24.498642],[54.391663,24.498534],[54.39162,24.498192]]]}},{"type":"Feature","properties":{},"geometry":{"type":"Polygon","coordinates":[[[54.390312,24.502373],[54.389868,24.502417],[54.389887,24.502566],[54.390343,24.502615],[54.390406,24.5031],[54.39167,24.503234],[54.392421,24.50317],[54.392364,24.502656],[54.392683,24.502614],[54.392495,24.501055],[54.392611,24.501042],[54.392578,24.5008],[54.392463,24.500787],[54.392244,24.498977],[54.39098,24.498843],[54.389877,24.498968],[54.390312,24.502373]]]}},{"type":"Feature","properties":{},"geometry":{"type":"Polygon","coordinates":[[[54.392789,24.503755],[54.392881,24.503743],[54.392873,24.503694],[54.392183,24.503621],[54.392091,24.503633],[54.392099,24.503682],[54.392789,24.503755]]]}},{"type":"Feature","properties":{},"geometry":{"type":"Polygon","coordinates":[[[54.392164,24.503927],[54.392166,24.503944],[54.392054,24.50394],[54.392065,24.504132],[54.392189,24.504146],[54.392199,24.504232],[54.39209,24.504227],[54.392098,24.504395],[54.392219,24.504408],[54.392222,24.504432],[54.392515,24.504463],[54.392177,24.504496],[54.39221,24.504771],[54.3929,24.504844],[54.393342,24.5048],[54.393309,24.504525],[54.393019,24.504494],[54.393016,24.504473],[54.393193,24.504474],[54.393187,24.504374],[54.393281,24.504358],[54.39327,24.504322],[54.393182,24.504313],[54.393177,24.504238],[54.392987,24.504218],[54.392984,24.504191],[54.393069,24.5042],[54.39328,24.504175],[54.393248,24.503954],[54.392837,24.50391],[54.392964,24.503904],[54.392961,24.503865],[54.393244,24.503884],[54.393243,24.503835],[54.392268,24.503729],[54.392105,24.503737],[54.392111,24.503839],[54.392533,24.503884],[54.392347,24.503906],[54.39235,24.503925],[54.392272,24.503917],[54.392164,24.503927]]]}},{"type":"Feature","properties":{},"geometry":{"type":"Polygon","coordinates":[[[54.392173,24.504863],[54.392181,24.504943],[54.39247,24.504973],[54.392482,24.505074],[54.393171,24.505147],[54.393282,24.505136],[54.393252,24.504888],[54.392563,24.504815],[54.392452,24.504825],[54.392459,24.504883],[54.392173,24.504863]]]}},{"type":"Feature","properties":{},"geometry":{"type":"Polygon","coordinates":[[[54.392529,24.505247],[54.392558,24.505648],[54.393248,24.505721],[54.393462,24.505709],[54.393426,24.505209],[54.393122,24.505177],[54.393121,24.505154],[54.392431,24.505081],[54.392319,24.505083],[54.392319,24.505109],[54.392208,24.505104],[54.392211,24.505213],[54.392529,24.505247]]]}},{"type":"Feature","properties":{},"geometry":{"type":"Polygon","coordinates":[[[54.389993,24.505205],[54.389795,24.505218],[54.389842,24.505811],[54.390531,24.505884],[54.390746,24.50587],[54.390683,24.505278],[54.389993,24.505205]]]}},{"type":"Feature","properties":{},"geometry":{"type":"Polygon","coordinates":[[[54.39198,24.506877],[54.391986,24.5069],[54.39188,24.506896],[54.391888,24.506957],[54.392548,24.507027],[54.392555,24.507118],[54.39194,24.507053],[54.391814,24.507055],[54.391816,24.507144],[54.392505,24.507217],[54.392631,24.507215],[54.39263,24.507145],[54.392906,24.507174],[54.392911,24.507214],[54.393601,24.507287],[54.393682,24.507279],[54.393675,24.507225],[54.393426,24.507198],[54.393405,24.506856],[54.392715,24.506783],[54.39253,24.506794],[54.392536,24.506872],[54.391859,24.506801],[54.39177,24.50681],[54.391776,24.506856],[54.39198,24.506877]]]}},{"type":"Feature","properties":{},"geometry":{"type":"Polygon","coordinates":[[[54.391736,24.507583],[54.391869,24.507584],[54.391869,24.507525],[54.392231,24.507563],[54.392634,24.507539],[54.392624,24.5074],[54.391934,24.507327],[54.391531,24.507352],[54.391539,24.507469],[54.39118,24.507431],[54.391047,24.507429],[54.391046,24.50751],[54.391736,24.507583]]]}},{"type":"Feature","properties":{},"geometry":{"type":"Polygon","coordinates":[[[54.39366,24.508812],[54.393905,24.508807],[54.393907,24.508773],[54.393217,24.5087],[54.39297,24.508709],[54.39297,24.508739],[54.39366,24.508812]]]}},{"type":"Feature","properties":{},"geometry":{"type":"Polygon","coordinates":[[[54.394042,24.509827],[54.394077,24.509894],[54.394766,24.509967],[54.394863,24.509925],[54.394817,24.509838],[54.394789,24.509835],[54.394809,24.509824],[54.394708,24.509679],[54.394357,24.509641],[54.394485,24.509577],[54.394444,24.50951],[54.394544,24.509521],[54.394579,24.509503],[54.394542,24.509444],[54.394393,24.509428],[54.394266,24.509221],[54.394347,24.509222],[54.394345,24.509167],[54.393655,24.509094],[54.393604,24.509096],[54.393606,24.50913],[54.393563,24.509125],[54.393369,24.509224],[54.393383,24.509247],[54.393317,24.509272],[54.393415,24.509414],[54.393334,24.509406],[54.393287,24.509433],[54.393324,24.509484],[54.393096,24.509587],[54.393144,24.509669],[54.393219,24.509677],[54.393246,24.50972],[54.393021,24.509696],[54.392992,24.509738],[54.393063,24.509778],[54.393753,24.509851],[54.393762,24.509838],[54.393977,24.50986],[54.394042,24.509827]]]}},{"type":"Feature","properties":{},"geometry":{"type":"Polygon","coordinates":[[[54.406078,24.480857],[54.406197,24.48077],[54.406056,24.48061],[54.405173,24.48051],[54.405081,24.480577],[54.404982,24.480566],[54.404751,24.480736],[54.404947,24.480958],[54.405637,24.481031],[54.405798,24.480928],[54.405818,24.48093],[54.405928,24.48085],[54.40592,24.48084],[54.406078,24.480857]]]}},{"type":"Feature","properties":{},"geometry":{"type":"Polygon","coordinates":[[[54.405347,24.481233],[54.405403,24.481209],[54.405386,24.481175],[54.404986,24.481132],[54.404972,24.481109],[54.404282,24.481036],[54.403673,24.48131],[54.403917,24.481584],[54.404606,24.481657],[54.405134,24.481386],[54.405024,24.481198],[54.405347,24.481233]]]}},{"type":"Feature","properties":{},"geometry":{"type":"Polygon","coordinates":[[[54.404244,24.483518],[54.40417,24.483301],[54.404404,24.483168],[54.404228,24.482828],[54.403903,24.482392],[54.402754,24.48227],[54.40273,24.48228],[54.402291,24.482238],[54.401421,24.483154],[54.401422,24.483271],[54.401463,24.483334],[54.401638,24.483375],[54.402787,24.483496],[54.402985,24.483411],[54.403072,24.483388],[54.404244,24.483518]]]}},{"type":"Feature","properties":{},"geometry":{"type":"Polygon","coordinates":[[[54.405455,24.483133],[54.405126,24.483265],[54.405318,24.483913],[54.404939,24.484017],[54.404994,24.484359],[54.405683,24.484432],[54.406392,24.484443],[54.406393,24.483925],[54.406144,24.483206],[54.405455,24.483133]]]}},{"type":"Feature","properties":{},"geometry":{"type":"Polygon","coordinates":[[[54.404641,24.485874],[54.404837,24.485682],[54.405056,24.485347],[54.405162,24.485103],[54.405232,24.484883],[54.405231,24.484794],[54.405619,24.484873],[54.406308,24.484946],[54.406432,24.484553],[54.405017,24.484393],[54.404979,24.484561],[54.403751,24.484451],[54.40362,24.484898],[54.403526,24.485074],[54.40334,24.485265],[54.403951,24.4858],[54.404641,24.485874]]]}},{"type":"Feature","properties":{},"geometry":{"type":"Polygon","coordinates":[[[54.40032,24.486616],[54.400169,24.486792],[54.400636,24.487122],[54.400754,24.487158],[54.401443,24.487231],[54.401556,24.48719],[54.401897,24.486436],[54.401432,24.486196],[54.400743,24.486123],[54.400631,24.486302],[54.40032,24.486616]]]}},{"type":"Feature","properties":{},"geometry":{"type":"Polygon","coordinates":[[[54.405747,24.486442],[54.403971,24.486254],[54.403234,24.486607],[54.403444,24.48716],[54.403478,24.487193],[54.405254,24.48739],[54.405491,24.487306],[54.405845,24.487115],[54.406113,24.486919],[54.406141,24.48688],[54.406132,24.486832],[54.405747,24.486442]]]}},{"type":"Feature","properties":{},"geometry":{"type":"Polygon","coordinates":[[[54.395386,24.491452],[54.401263,24.492075],[54.401365,24.491958],[54.40127,24.49189],[54.401312,24.491841],[54.401063,24.491661],[54.395186,24.491038],[54.395007,24.491243],[54.395249,24.491417],[54.395352,24.491428],[54.395386,24.491452]]]}},{"type":"Feature","properties":{},"geometry":{"type":"Polygon","coordinates":[[[54.394932,24.491475],[54.394754,24.49168],[54.394995,24.491853],[54.395099,24.491864],[54.395132,24.491889],[54.398527,24.492248],[54.398533,24.492287],[54.394529,24.491865],[54.394395,24.492033],[54.394486,24.492094],[54.393984,24.49204],[54.393805,24.492246],[54.394047,24.492419],[54.39415,24.49243],[54.394184,24.492454],[54.399924,24.493063],[54.399973,24.493406],[54.400662,24.493479],[54.401393,24.493394],[54.401339,24.493008],[54.400649,24.492935],[54.400132,24.492995],[54.400163,24.49296],[54.400068,24.492892],[54.40011,24.492843],[54.400068,24.492812],[54.400461,24.492854],[54.400495,24.492811],[54.400629,24.492825],[54.400704,24.492731],[54.400629,24.492682],[54.400693,24.492601],[54.400539,24.4925],[54.399775,24.492419],[54.399771,24.492393],[54.399528,24.492367],[54.399526,24.492354],[54.40101,24.492511],[54.401111,24.492395],[54.401016,24.492326],[54.401059,24.492277],[54.40081,24.492097],[54.399317,24.491939],[54.399314,24.491913],[54.398624,24.49184],[54.398507,24.491853],[54.394932,24.491475]]]}},{"type":"Feature","properties":{},"geometry":{"type":"Polygon","coordinates":[[[54.404858,24.494378],[54.407951,24.494705],[54.408571,24.495082],[54.408328,24.495441],[54.407756,24.495122],[54.406894,24.495031],[54.406801,24.495287],[54.40635,24.49524],[54.406305,24.495308],[54.406371,24.495344],[54.406537,24.495362],[54.406486,24.495406],[54.406596,24.495512],[54.406715,24.495525],[54.406712,24.495537],[54.406395,24.495503],[54.406312,24.495545],[54.406365,24.495633],[54.406406,24.495637],[54.406361,24.495724],[54.406435,24.495756],[54.40627,24.495738],[54.406224,24.495803],[54.406251,24.495819],[54.406654,24.495861],[54.406626,24.496014],[54.40619,24.495968],[54.406167,24.495971],[54.406173,24.49601],[54.406202,24.496035],[54.406241,24.496042],[54.406614,24.496082],[54.406568,24.496157],[54.406327,24.496131],[54.406312,24.496158],[54.406385,24.496193],[54.406559,24.496211],[54.406584,24.496272],[54.406631,24.496295],[54.412508,24.496918],[54.412614,24.496914],[54.412771,24.496856],[54.41462,24.497051],[54.41471,24.497049],[54.414778,24.497021],[54.41481,24.496949],[54.41494,24.496867],[54.414847,24.496747],[54.415149,24.496779],[54.415372,24.496674],[54.415211,24.496484],[54.414973,24.496459],[54.414934,24.496424],[54.410337,24.495938],[54.410079,24.496142],[54.409347,24.496065],[54.409366,24.496016],[54.408902,24.49576],[54.409194,24.49533],[54.412134,24.495646],[54.412494,24.495626],[54.412837,24.495533],[54.412741,24.495353],[54.411647,24.495237],[54.411609,24.495192],[54.411563,24.495061],[54.411582,24.494918],[54.411601,24.494883],[54.413413,24.495075],[54.413757,24.494684],[54.414037,24.49444],[54.414533,24.494128],[54.414994,24.49398],[54.415439,24.493862],[54.41541,24.493652],[54.409532,24.493029],[54.409064,24.493135],[54.408549,24.493307],[54.407982,24.493622],[54.407631,24.493885],[54.407485,24.494057],[54.405138,24.493809],[54.405243,24.493644],[54.405216,24.49363],[54.405271,24.493544],[54.405107,24.493458],[54.404418,24.493385],[54.404381,24.493443],[54.404296,24.493434],[54.404047,24.493458],[54.403999,24.493541],[54.403703,24.493509],[54.403359,24.493544],[54.403368,24.493617],[54.403273,24.493627],[54.403326,24.494059],[54.403286,24.494063],[54.403322,24.494353],[54.403883,24.494412],[54.404045,24.494498],[54.404735,24.494571],[54.404858,24.494378]]]}},{"type":"Feature","properties":{},"geometry":{"type":"Polygon","coordinates":[[[54.394272,24.494555],[54.394209,24.494549],[54.394204,24.494515],[54.393515,24.494441],[54.393367,24.494459],[54.393371,24.494483],[54.39331,24.49449],[54.393345,24.49473],[54.394034,24.494803],[54.394303,24.494771],[54.394272,24.494555]]]}},{"type":"Feature","properties":{},"geometry":{"type":"Polygon","coordinates":[[[54.404158,24.496949],[54.403928,24.497053],[54.404358,24.49798],[54.405106,24.498059],[54.405089,24.49808],[54.4051,24.498143],[54.405085,24.498157],[54.405047,24.498153],[54.404966,24.498238],[54.40484,24.498187],[54.403978,24.498096],[54.403208,24.498413],[54.403016,24.498458],[54.402864,24.498563],[54.402757,24.498744],[54.40274,24.498873],[54.402759,24.498984],[54.402809,24.499041],[54.40277,24.499106],[54.402825,24.499141],[54.40285,24.499176],[54.402864,24.49922],[54.402856,24.499279],[54.405189,24.499534],[54.403484,24.499365],[54.403448,24.499406],[54.403154,24.499593],[54.403093,24.499605],[54.40308,24.499633],[54.403087,24.499668],[54.403154,24.499754],[54.403248,24.499802],[54.403353,24.499813],[54.403476,24.499943],[54.403581,24.500013],[54.403698,24.500065],[54.403823,24.500099],[54.404133,24.500132],[54.404109,24.500161],[54.404113,24.500183],[54.404184,24.500229],[54.404483,24.500261],[54.404483,24.500286],[54.405402,24.500383],[54.405546,24.500373],[54.410121,24.500857],[54.410214,24.500837],[54.410229,24.500801],[54.410583,24.500837],[54.41067,24.500801],[54.410728,24.500751],[54.410764,24.500755],[54.410846,24.500667],[54.410804,24.500644],[54.410828,24.500578],[54.411234,24.500621],[54.411238,24.500601],[54.411354,24.50061],[54.411438,24.500584],[54.411468,24.500533],[54.411445,24.500465],[54.411368,24.500396],[54.411324,24.500383],[54.411339,24.500341],[54.411263,24.500313],[54.411703,24.500357],[54.41176,24.500308],[54.411798,24.500176],[54.411827,24.500175],[54.411835,24.50006],[54.411783,24.500054],[54.411747,24.499966],[54.411683,24.499909],[54.410873,24.499821],[54.410949,24.499729],[54.411298,24.499766],[54.411405,24.49938],[54.411443,24.499091],[54.411682,24.499102],[54.41168,24.498675],[54.411786,24.498686],[54.411825,24.498912],[54.412514,24.498985],[54.412632,24.498975],[54.412815,24.498746],[54.412811,24.498724],[54.412945,24.498701],[54.412978,24.498324],[54.412728,24.498241],[54.412709,24.498127],[54.412731,24.498118],[54.41256,24.497716],[54.414455,24.497917],[54.415276,24.497526],[54.415131,24.497297],[54.409385,24.496689],[54.409311,24.496722],[54.406519,24.496426],[54.405921,24.496202],[54.404485,24.49605],[54.404158,24.496949]],[[54.405881,24.498072],[54.405869,24.498071],[54.405879,24.498063],[54.405881,24.498072]],[[54.407442,24.49873],[54.408998,24.498895],[54.409005,24.499092],[54.408997,24.499124],[54.407399,24.498955],[54.407442,24.49873]],[[54.407419,24.498115],[54.408992,24.498282],[54.408992,24.498391],[54.410614,24.498562],[54.410614,24.498573],[54.407445,24.498238],[54.407419,24.498115]],[[54.410292,24.49793],[54.410391,24.49794],[54.410478,24.497731],[54.410624,24.497746],[54.410621,24.498018],[54.410321,24.497986],[54.410292,24.49793]],[[54.404666,24.498749],[54.404625,24.498667],[54.404531,24.498657],[54.404843,24.498522],[54.40483,24.498577],[54.404772,24.498671],[54.404666,24.498749]]]}},{"type":"Feature","properties":{},"geometry":{"type":"Polygon","coordinates":[[[54.39572,24.497187],[54.395232,24.496894],[54.394542,24.496821],[54.39431,24.497106],[54.39439,24.49739],[54.394641,24.497508],[54.395331,24.497581],[54.395458,24.497515],[54.395575,24.497421],[54.395564,24.497347],[54.395607,24.497284],[54.395686,24.497245],[54.39572,24.497187]]]}},{"type":"Feature","properties":{},"geometry":{"type":"Polygon","coordinates":[[[54.404083,24.498057],[54.404069,24.498085],[54.404122,24.498105],[54.404812,24.498179],[54.404825,24.49815],[54.404772,24.49813],[54.404083,24.498057]]]}},{"type":"Feature","properties":{},"geometry":{"type":"Polygon","coordinates":[[[54.395534,24.499827],[54.395419,24.499844],[54.395447,24.499997],[54.396137,24.500071],[54.396252,24.500053],[54.396224,24.4999],[54.395534,24.499827]]]}},{"type":"Feature","properties":{},"geometry":{"type":"Polygon","coordinates":[[[54.395273,24.500002],[54.395241,24.500009],[54.395264,24.500113],[54.395953,24.500186],[54.395986,24.50018],[54.395963,24.500076],[54.395273,24.500002]]]}},{"type":"Feature","properties":{},"geometry":{"type":"Polygon","coordinates":[[[54.394869,24.500337],[54.39489,24.500451],[54.395316,24.500496],[54.394922,24.50055],[54.395064,24.501399],[54.395753,24.501472],[54.396319,24.501393],[54.396177,24.500545],[54.395621,24.500486],[54.395605,24.500403],[54.394916,24.50033],[54.394869,24.500337]]]}},{"type":"Feature","properties":{},"geometry":{"type":"Polygon","coordinates":[[[54.395747,24.501897],[54.395661,24.501895],[54.395658,24.501997],[54.396348,24.50207],[54.396433,24.502073],[54.396436,24.50197],[54.395747,24.501897]]]}},{"type":"Feature","properties":{},"geometry":{"type":"Polygon","coordinates":[[[54.395873,24.502153],[54.395441,24.502211],[54.395492,24.502519],[54.396182,24.502592],[54.396613,24.502534],[54.396563,24.502226],[54.395873,24.502153]]]}},{"type":"Feature","properties":{},"geometry":{"type":"Polygon","coordinates":[[[54.397473,24.504684],[54.397401,24.504687],[54.397407,24.504788],[54.398096,24.504861],[54.398169,24.504858],[54.398163,24.504757],[54.397473,24.504684]]]}},{"type":"Feature","properties":{},"geometry":{"type":"Polygon","coordinates":[[[54.405424,24.50715],[54.404898,24.508066],[54.404993,24.508131],[54.406555,24.508296],[54.4066,24.50834],[54.406098,24.508287],[54.40598,24.508394],[54.406246,24.508657],[54.405842,24.508615],[54.405724,24.508722],[54.406121,24.509114],[54.407144,24.509222],[54.407129,24.509238],[54.407203,24.5093],[54.40706,24.509435],[54.407182,24.509548],[54.405477,24.509367],[54.405452,24.509395],[54.405231,24.509371],[54.405105,24.509539],[54.405253,24.509684],[54.406807,24.509848],[54.407014,24.510038],[54.412531,24.510622],[54.412696,24.510506],[54.41251,24.51033],[54.412963,24.510378],[54.413097,24.510241],[54.412885,24.510041],[54.413301,24.510085],[54.413417,24.509967],[54.413055,24.509634],[54.412293,24.509553],[54.412363,24.509555],[54.412367,24.509338],[54.412169,24.509317],[54.412172,24.509226],[54.412384,24.50924],[54.412393,24.509031],[54.411703,24.508958],[54.411661,24.508916],[54.412162,24.508969],[54.412274,24.508855],[54.411884,24.50847],[54.411386,24.508417],[54.41174,24.507781],[54.411733,24.507701],[54.411472,24.507578],[54.410196,24.507443],[54.410171,24.507418],[54.409481,24.507344],[54.409458,24.507365],[54.407751,24.507184],[54.40747,24.50692],[54.406919,24.506861],[54.406822,24.506949],[54.406855,24.506983],[54.406753,24.507078],[54.405841,24.506982],[54.405926,24.506789],[54.405638,24.506693],[54.404948,24.50662],[54.404806,24.507019],[54.405062,24.507112],[54.405424,24.50715]],[[54.411521,24.509359],[54.411558,24.509362],[54.411557,24.509394],[54.411521,24.509359]]]}},{"type":"Feature","properties":{},"geometry":{"type":"Polygon","coordinates":[[[54.404437,24.507235],[54.404404,24.507263],[54.404497,24.507354],[54.405187,24.507427],[54.40522,24.507399],[54.405126,24.507308],[54.404437,24.507235]]]}},{"type":"Feature","properties":{},"geometry":{"type":"Polygon","coordinates":[[[54.394163,24.509938],[54.394092,24.509969],[54.393911,24.50995],[54.393869,24.509955],[54.393874,24.509991],[54.394008,24.510005],[54.393848,24.510074],[54.393879,24.510134],[54.394569,24.510207],[54.394884,24.510071],[54.394853,24.510011],[54.394163,24.509938]]]}},{"type":"Feature","properties":{},"geometry":{"type":"Polygon","coordinates":[[[54.40624,24.480439],[54.406195,24.480462],[54.405748,24.480415],[54.405672,24.480452],[54.405699,24.480497],[54.406114,24.480541],[54.406136,24.480569],[54.406192,24.480575],[54.406214,24.480596],[54.406298,24.480605],[54.406437,24.480741],[54.407126,24.480814],[54.407272,24.480691],[54.407098,24.48052],[54.407134,24.480523],[54.407168,24.480476],[54.407114,24.480443],[54.407173,24.480449],[54.407212,24.48037],[54.407093,24.480322],[54.406768,24.480287],[54.407013,24.480168],[54.40697,24.4801],[54.407432,24.480149],[54.407525,24.480073],[54.407461,24.480008],[54.407113,24.479972],[54.407062,24.479878],[54.406959,24.479867],[54.406865,24.479721],[54.406176,24.479648],[54.405927,24.479779],[54.405983,24.479867],[54.405776,24.479976],[54.405813,24.480035],[54.405737,24.480075],[54.4058,24.480173],[54.405823,24.480176],[54.405905,24.480306],[54.40633,24.480351],[54.406304,24.480386],[54.406291,24.480385],[54.40624,24.480439]]]}},{"type":"Feature","properties":{},"geometry":{"type":"Polygon","coordinates":[[[54.407397,24.483176],[54.407573,24.483081],[54.407282,24.482637],[54.410588,24.482987],[54.410657,24.482953],[54.413162,24.483218],[54.413351,24.483147],[54.413393,24.483016],[54.412995,24.482571],[54.411528,24.482416],[54.411627,24.482352],[54.411501,24.482173],[54.412041,24.482231],[54.412119,24.482151],[54.412088,24.482125],[54.411408,24.482053],[54.411387,24.482017],[54.411996,24.482082],[54.412174,24.481912],[54.411806,24.481593],[54.411116,24.48152],[54.410943,24.481686],[54.411024,24.481756],[54.411187,24.481773],[54.411214,24.481796],[54.411282,24.481807],[54.410906,24.481767],[54.410876,24.481795],[54.410916,24.481829],[54.411292,24.481869],[54.411228,24.48194],[54.406178,24.481406],[54.406001,24.481509],[54.405923,24.481577],[54.405989,24.481654],[54.405846,24.481639],[54.405621,24.481752],[54.40558,24.481799],[54.405601,24.481854],[54.405677,24.481922],[54.405398,24.481892],[54.40529,24.481997],[54.405261,24.482119],[54.405287,24.48226],[54.405336,24.482344],[54.405371,24.482347],[54.405417,24.48244],[54.406337,24.482537],[54.40631,24.482553],[54.406318,24.482564],[54.406107,24.48267],[54.406143,24.482727],[54.406485,24.482763],[54.406708,24.483103],[54.407397,24.483176]]]}},{"type":"Feature","properties":{},"geometry":{"type":"Polygon","coordinates":[[[54.407698,24.485879],[54.410199,24.486144],[54.410504,24.486668],[54.411998,24.486826],[54.412357,24.486658],[54.411884,24.485825],[54.412103,24.485849],[54.41216,24.48583],[54.412122,24.485733],[54.412071,24.485727],[54.412158,24.485693],[54.412143,24.485662],[54.4119,24.485636],[54.411882,24.485604],[54.411744,24.485582],[54.411856,24.48558],[54.411898,24.485553],[54.411911,24.485522],[54.412166,24.485549],[54.41228,24.485465],[54.412196,24.485373],[54.41246,24.485267],[54.412506,24.485272],[54.412716,24.485131],[54.412471,24.48483],[54.408793,24.48444],[54.408584,24.484581],[54.408782,24.484825],[54.408334,24.484777],[54.408129,24.484931],[54.408142,24.484996],[54.408361,24.485107],[54.408456,24.485117],[54.408489,24.48516],[54.409641,24.485282],[54.409599,24.48533],[54.409423,24.4854],[54.409337,24.485483],[54.4093,24.485605],[54.409001,24.485574],[54.408975,24.485594],[54.407939,24.485484],[54.408026,24.4854],[54.407951,24.485337],[54.407262,24.485263],[54.406967,24.48555],[54.406999,24.485577],[54.406754,24.485552],[54.406713,24.485613],[54.406818,24.485672],[54.407508,24.485745],[54.407515,24.485733],[54.407698,24.485879]]]}},{"type":"Feature","properties":{},"geometry":{"type":"Polygon","coordinates":[[[54.408295,24.486107],[54.408389,24.486004],[54.408341,24.485968],[54.407651,24.485895],[54.407557,24.485997],[54.407605,24.486034],[54.408295,24.486107]]]}},{"type":"Feature","properties":{},"geometry":{"type":"Polygon","coordinates":[[[54.406957,24.488765],[54.406903,24.488795],[54.407183,24.489203],[54.407873,24.489276],[54.408278,24.489046],[54.408256,24.489013],[54.408334,24.489022],[54.40871,24.488792],[54.408457,24.488416],[54.408222,24.488391],[54.408287,24.488354],[54.408075,24.488044],[54.408375,24.488075],[54.408637,24.488493],[54.409326,24.488567],[54.4102,24.48813],[54.410049,24.487857],[54.40991,24.487843],[54.410053,24.487763],[54.409937,24.487437],[54.409247,24.487364],[54.408751,24.487738],[54.405832,24.487429],[54.405686,24.487602],[54.405983,24.487822],[54.407184,24.487949],[54.406497,24.488337],[54.406776,24.488745],[54.406957,24.488765]]]}},{"type":"Feature","properties":{},"geometry":{"type":"Polygon","coordinates":[[[54.407021,24.490271],[54.406961,24.490292],[54.406989,24.490373],[54.407678,24.490446],[54.407744,24.490425],[54.40771,24.490344],[54.407021,24.490271]]]}},{"type":"Feature","properties":{},"geometry":{"type":"Polygon","coordinates":[[[54.406983,24.492332],[54.406247,24.492254],[54.405376,24.492715],[54.405341,24.492999],[54.4062,24.493728],[54.406936,24.493806],[54.407263,24.493534],[54.40678,24.493134],[54.407036,24.493161],[54.407165,24.493033],[54.407068,24.492952],[54.406827,24.492926],[54.40705,24.49272],[54.406878,24.492599],[54.40709,24.492499],[54.406983,24.492332]]]}},{"type":"Feature","properties":{},"geometry":{"type":"Polygon","coordinates":[[[54.407345,24.502871],[54.407294,24.502932],[54.40724,24.502926],[54.407116,24.503077],[54.407179,24.503113],[54.407868,24.503186],[54.407999,24.503069],[54.408025,24.503067],[54.408093,24.502958],[54.407345,24.502871]]]}},{"type":"Feature","properties":{},"geometry":{"type":"Polygon","coordinates":[[[54.406943,24.503344],[54.40688,24.503364],[54.406917,24.503485],[54.407607,24.503558],[54.407686,24.503541],[54.407633,24.503417],[54.406943,24.503344]]]}},{"type":"Feature","properties":{},"geometry":{"type":"Polygon","coordinates":[[[54.407763,24.503902],[54.407824,24.503753],[54.407726,24.503721],[54.407036,24.503648],[54.406985,24.503805],[54.407074,24.503829],[54.407763,24.503902]]]}},{"type":"Feature","properties":{},"geometry":{"type":"Polygon","coordinates":[[[54.406141,24.504759],[54.406831,24.504832],[54.406922,24.504812],[54.406898,24.504729],[54.407213,24.504754],[54.407215,24.504612],[54.406432,24.504537],[54.40643,24.504596],[54.406184,24.50457],[54.406088,24.504593],[54.406141,24.504759]]]}},{"type":"Feature","properties":{},"geometry":{"type":"Polygon","coordinates":[[[54.406364,24.505735],[54.406488,24.505748],[54.406702,24.505922],[54.41258,24.506544],[54.412671,24.506439],[54.412706,24.506317],[54.412665,24.506176],[54.412552,24.506075],[54.410404,24.505848],[54.410369,24.505753],[54.410296,24.505663],[54.410195,24.505599],[54.410077,24.505566],[54.409388,24.505493],[54.409265,24.505495],[54.409148,24.505532],[54.40905,24.505601],[54.40898,24.505697],[54.407273,24.505516],[54.407034,24.505313],[54.406344,24.50524],[54.406082,24.505495],[54.406089,24.505501],[54.405385,24.505424],[54.405291,24.505739],[54.405492,24.505789],[54.406182,24.505862],[54.406249,24.505637],[54.406364,24.505735]]]}},{"type":"Feature","properties":{},"geometry":{"type":"Polygon","coordinates":[[[54.406049,24.506294],[54.406164,24.505996],[54.405869,24.505901],[54.405179,24.505828],[54.405064,24.506126],[54.405359,24.506221],[54.406049,24.506294]]]}},{"type":"Feature","properties":{},"geometry":{"type":"Polygon","coordinates":[[[54.405941,24.506687],[54.406034,24.506438],[54.405756,24.506352],[54.405066,24.506279],[54.404973,24.506527],[54.405252,24.506613],[54.405941,24.506687]]]}},{"type":"Feature","properties":{},"geometry":{"type":"Polygon","coordinates":[[[54.410443,24.479885],[54.410374,24.479952],[54.410524,24.48008],[54.411213,24.480153],[54.411282,24.480087],[54.411132,24.479958],[54.410443,24.479885]]]}},{"type":"Feature","properties":{},"geometry":{"type":"Polygon","coordinates":[[[54.409403,24.482883],[54.409307,24.482887],[54.409312,24.483001],[54.410001,24.483074],[54.410097,24.483071],[54.410092,24.482956],[54.409403,24.482883]]]}},{"type":"Feature","properties":{},"geometry":{"type":"Polygon","coordinates":[[[54.410862,24.48833],[54.410551,24.488356],[54.410556,24.488405],[54.410422,24.488416],[54.410427,24.488464],[54.410138,24.488492],[54.410183,24.488928],[54.410873,24.489001],[54.411179,24.488974],[54.411198,24.488999],[54.411321,24.489012],[54.41138,24.48909],[54.410762,24.489025],[54.410204,24.489076],[54.410216,24.489184],[54.410631,24.489228],[54.410663,24.489517],[54.410405,24.48949],[54.410256,24.489504],[54.410326,24.49009],[54.411015,24.490163],[54.411575,24.490108],[54.411559,24.48998],[54.411139,24.489935],[54.411124,24.489812],[54.411577,24.489851],[54.411574,24.489809],[54.411118,24.48976],[54.411106,24.489661],[54.411364,24.489688],[54.411516,24.489674],[54.41148,24.489353],[54.411585,24.489507],[54.411668,24.489516],[54.411713,24.489593],[54.411972,24.489642],[54.411955,24.489719],[54.41212,24.489755],[54.41281,24.489829],[54.412848,24.489685],[54.413492,24.489753],[54.413645,24.489673],[54.413612,24.489623],[54.413825,24.489528],[54.413877,24.489413],[54.413951,24.489421],[54.413994,24.489246],[54.413344,24.489029],[54.413348,24.488987],[54.41357,24.489011],[54.414178,24.488921],[54.414134,24.488629],[54.413445,24.488556],[54.413325,24.48857],[54.413248,24.488471],[54.413354,24.488141],[54.413658,24.488174],[54.413793,24.488026],[54.4137,24.487973],[54.414211,24.488027],[54.41428,24.488025],[54.414277,24.487963],[54.413551,24.487892],[54.413434,24.487831],[54.413205,24.487791],[54.412516,24.487718],[54.412157,24.487708],[54.411868,24.487782],[54.411582,24.487957],[54.411414,24.48813],[54.411571,24.488241],[54.411913,24.488277],[54.412028,24.488474],[54.411983,24.488603],[54.411904,24.488578],[54.411566,24.488542],[54.411552,24.488403],[54.410862,24.48833]]]}},{"type":"Feature","properties":{},"geometry":{"type":"Polygon","coordinates":[[[54.410598,24.490812],[54.410416,24.490817],[54.410413,24.49103],[54.411102,24.491103],[54.411389,24.491106],[54.411392,24.490977],[54.411912,24.491023],[54.411911,24.490965],[54.411872,24.490961],[54.411914,24.490961],[54.411914,24.490868],[54.411224,24.490795],[54.411155,24.490795],[54.411155,24.490813],[54.410706,24.490766],[54.4106,24.490766],[54.410598,24.490812]]]}},{"type":"Feature","properties":{},"geometry":{"type":"Polygon","coordinates":[[[54.409037,24.491149],[54.409036,24.491182],[54.408959,24.49118],[54.408947,24.491294],[54.409008,24.491301],[54.409007,24.491323],[54.409697,24.491396],[54.409909,24.491402],[54.409911,24.491335],[54.409958,24.491336],[54.409961,24.491229],[54.409272,24.491156],[54.409037,24.491149]]]}},{"type":"Feature","properties":{},"geometry":{"type":"Polygon","coordinates":[[[54.410457,24.491298],[54.410444,24.491622],[54.411133,24.491695],[54.411395,24.491704],[54.411364,24.492099],[54.412053,24.492172],[54.412549,24.492205],[54.412583,24.491777],[54.412874,24.491802],[54.412875,24.491772],[54.412585,24.491742],[54.41262,24.491296],[54.411931,24.491223],[54.411435,24.491191],[54.411421,24.491374],[54.41083,24.491311],[54.410457,24.491298]]]}},{"type":"Feature","properties":{},"geometry":{"type":"Polygon","coordinates":[[[54.408054,24.500908],[54.408053,24.500954],[54.408025,24.501013],[54.408063,24.501044],[54.408753,24.501117],[54.408804,24.501044],[54.408836,24.50096],[54.408085,24.500876],[54.408054,24.500908]]]}},{"type":"Feature","properties":{},"geometry":{"type":"Polygon","coordinates":[[[54.410294,24.501504],[54.409605,24.501431],[54.408723,24.501471],[54.408684,24.50181],[54.408025,24.50174],[54.407735,24.502323],[54.407586,24.50231],[54.407515,24.502391],[54.407507,24.502438],[54.407891,24.502484],[54.408114,24.502577],[54.408804,24.50265],[54.408985,24.502173],[54.409081,24.501985],[54.409441,24.502024],[54.40971,24.502035],[54.410028,24.502026],[54.41012,24.501995],[54.410234,24.501924],[54.410274,24.501819],[54.4103,24.501672],[54.410294,24.501504]]]}},{"type":"Feature","properties":{},"geometry":{"type":"Polygon","coordinates":[[[54.410726,24.507266],[54.410769,24.50734],[54.411513,24.507422],[54.411593,24.507399],[54.411612,24.507358],[54.4117,24.507262],[54.411719,24.507163],[54.413214,24.507322],[54.413507,24.507013],[54.41335,24.506853],[54.411337,24.50664],[54.411235,24.506613],[54.410546,24.50654],[54.41047,24.506549],[54.407472,24.506231],[54.407244,24.506239],[54.407028,24.506464],[54.407336,24.506699],[54.410756,24.507061],[54.410732,24.507106],[54.410726,24.507266]]]}},{"type":"Feature","properties":{},"geometry":{"type":"Polygon","coordinates":[[[54.413252,24.48228],[54.413428,24.482005],[54.413067,24.481814],[54.412378,24.481741],[54.412202,24.482016],[54.412563,24.482207],[54.413252,24.48228]]]}},{"type":"Feature","properties":{},"geometry":{"type":"Polygon","coordinates":[[[54.413703,24.487824],[54.41379,24.487803],[54.413779,24.487765],[54.413946,24.487783],[54.414214,24.487773],[54.41421,24.487694],[54.414178,24.487691],[54.414174,24.487602],[54.414206,24.487601],[54.414203,24.487527],[54.414089,24.487515],[54.414078,24.487268],[54.413388,24.487195],[54.413283,24.487199],[54.413284,24.487227],[54.413107,24.487233],[54.413184,24.487452],[54.413288,24.487463],[54.413245,24.487464],[54.413249,24.487563],[54.413046,24.487541],[54.412959,24.487562],[54.413014,24.487751],[54.413703,24.487824]]]}},{"type":"Feature","properties":{},"geometry":{"type":"Polygon","coordinates":[[[54.415854,24.487754],[54.415854,24.487778],[54.415745,24.487766],[54.415123,24.487771],[54.415123,24.487815],[54.415187,24.487822],[54.415187,24.488213],[54.41565,24.488262],[54.415651,24.488301],[54.414839,24.488231],[54.414836,24.488326],[54.415319,24.488377],[54.415319,24.488392],[54.414976,24.488355],[54.414852,24.488358],[54.414856,24.488478],[54.415545,24.488551],[54.415669,24.488548],[54.415668,24.488511],[54.416121,24.488557],[54.416122,24.488511],[54.415666,24.488463],[54.415665,24.488434],[54.416008,24.48847],[54.416125,24.488469],[54.416125,24.488442],[54.416232,24.488453],[54.416232,24.488489],[54.416921,24.488562],[54.417216,24.488566],[54.417217,24.488537],[54.417383,24.488552],[54.417386,24.488509],[54.416963,24.488453],[54.416964,24.488435],[54.417413,24.488481],[54.417414,24.488442],[54.417215,24.488421],[54.417213,24.488393],[54.41734,24.488403],[54.417342,24.488372],[54.417438,24.488377],[54.417438,24.488321],[54.417372,24.488314],[54.41744,24.488313],[54.417436,24.488221],[54.417312,24.488208],[54.417358,24.488206],[54.417355,24.488115],[54.417284,24.488108],[54.417284,24.488092],[54.417356,24.488093],[54.417355,24.488044],[54.416952,24.488002],[54.416944,24.487874],[54.416792,24.487858],[54.416793,24.487842],[54.416364,24.487797],[54.416361,24.487755],[54.415671,24.487682],[54.415613,24.487685],[54.415615,24.487729],[54.415854,24.487754]],[[54.416337,24.488051],[54.416349,24.488268],[54.416059,24.488237],[54.416059,24.488034],[54.416337,24.488051]]]}},{"type":"Feature","properties":{},"geometry":{"type":"Polygon","coordinates":[[[54.416154,24.488766],[54.416235,24.488763],[54.416233,24.488714],[54.415543,24.488642],[54.415463,24.488644],[54.415465,24.488693],[54.416154,24.488766]]]}},{"type":"Feature","properties":{},"geometry":{"type":"Polygon","coordinates":[[[54.416755,24.489113],[54.416752,24.489045],[54.416946,24.489061],[54.416942,24.488954],[54.416748,24.488933],[54.416748,24.488913],[54.416058,24.48884],[54.415999,24.488841],[54.416001,24.488885],[54.41562,24.488852],[54.415624,24.489052],[54.416313,24.489125],[54.416372,24.489124],[54.416371,24.48908],[54.416755,24.489113]]]}},{"type":"Feature","properties":{},"geometry":{"type":"Polygon","coordinates":[[[54.412498,24.489945],[54.412428,24.489949],[54.412432,24.490011],[54.413122,24.490085],[54.413192,24.49008],[54.413187,24.490018],[54.412498,24.489945]]]}},{"type":"Feature","properties":{},"geometry":{"type":"Polygon","coordinates":[[[54.41174,24.490786],[54.411837,24.490787],[54.411838,24.490735],[54.411148,24.490662],[54.411052,24.490661],[54.411051,24.490713],[54.41174,24.490786]]]}},{"type":"Feature","properties":{},"geometry":{"type":"Polygon","coordinates":[[[54.413413,24.490645],[54.412924,24.490639],[54.412916,24.491132],[54.413606,24.491205],[54.414085,24.491211],[54.414087,24.491048],[54.413803,24.491018],[54.413805,24.490883],[54.4141,24.490887],[54.414103,24.490718],[54.413413,24.490645]]]}},{"type":"Feature","properties":{},"geometry":{"type":"Polygon","coordinates":[[[54.412875,24.491187],[54.412829,24.491185],[54.412828,24.491224],[54.413517,24.491297],[54.413563,24.491299],[54.413564,24.49126],[54.412875,24.491187]]]}},{"type":"Feature","properties":{},"geometry":{"type":"Polygon","coordinates":[[[54.412398,24.492369],[54.411581,24.492292],[54.411578,24.49238],[54.412395,24.492456],[54.412398,24.492369]]]}},{"type":"Feature","properties":{},"geometry":{"type":"Polygon","coordinates":[[[54.412155,24.492461],[54.411973,24.492459],[54.411972,24.492557],[54.412661,24.49263],[54.412844,24.492631],[54.412845,24.492534],[54.412155,24.492461]]]}},{"type":"Feature","properties":{},"geometry":{"type":"Polygon","coordinates":[[[54.414992,24.497071],[54.415681,24.497144],[54.415792,24.496987],[54.4157,24.496933],[54.41501,24.49686],[54.4149,24.497017],[54.414992,24.497071]]]}},{"type":"Feature","properties":{},"geometry":{"type":"Polygon","coordinates":[[[54.413013,24.502973],[54.413098,24.503119],[54.414822,24.503301],[54.414894,24.503282],[54.415014,24.502991],[54.415103,24.50251],[54.414799,24.502324],[54.415605,24.502401],[54.415604,24.502338],[54.41574,24.502339],[54.415745,24.502114],[54.415714,24.50211],[54.415716,24.50207],[54.414365,24.501927],[54.414298,24.501808],[54.41425,24.501668],[54.412526,24.501486],[54.411982,24.501472],[54.41202,24.501679],[54.410544,24.501523],[54.410437,24.50152],[54.410436,24.501607],[54.410335,24.501603],[54.410333,24.501852],[54.412167,24.502046],[54.412222,24.502147],[54.412374,24.502354],[54.412629,24.502656],[54.412874,24.50282],[54.413013,24.502973]]]}},{"type":"Feature","properties":{},"geometry":{"type":"Polygon","coordinates":[[[54.411632,24.502913],[54.411649,24.502947],[54.412339,24.50302],[54.412423,24.502984],[54.412359,24.502858],[54.412544,24.502878],[54.412647,24.502821],[54.412486,24.502582],[54.412384,24.502571],[54.412431,24.502522],[54.412218,24.502349],[54.411529,24.502276],[54.411518,24.502287],[54.411149,24.502248],[54.410947,24.502245],[54.410913,24.502838],[54.411632,24.502913]]]}},{"type":"Feature","properties":{},"geometry":{"type":"Polygon","coordinates":[[[54.409909,24.503972],[54.410225,24.504005],[54.410201,24.504126],[54.410673,24.504204],[54.415524,24.504718],[54.415577,24.504764],[54.409259,24.504094],[54.409054,24.504354],[54.409349,24.504692],[54.415227,24.505314],[54.415361,24.50516],[54.416003,24.505228],[54.416019,24.505217],[54.418469,24.505476],[54.418646,24.505328],[54.41853,24.505232],[54.418545,24.505219],[54.418404,24.505102],[54.418445,24.505107],[54.418601,24.504976],[54.419503,24.505071],[54.41968,24.504923],[54.419484,24.504761],[54.419029,24.504713],[54.419185,24.504582],[54.418989,24.50442],[54.418234,24.50434],[54.418148,24.50427],[54.415415,24.503972],[54.415356,24.503984],[54.415365,24.504022],[54.415618,24.504048],[54.415311,24.504031],[54.415288,24.504054],[54.414826,24.504005],[54.414796,24.504034],[54.40972,24.503497],[54.409576,24.503605],[54.409909,24.503972]]]}},{"type":"Feature","properties":{},"geometry":{"type":"Polygon","coordinates":[[[54.41922,24.481996],[54.419264,24.481993],[54.419262,24.481971],[54.418573,24.481898],[54.418529,24.481901],[54.41853,24.481923],[54.41922,24.481996]]]}},{"type":"Feature","properties":{},"geometry":{"type":"Polygon","coordinates":[[[54.419199,24.482512],[54.419197,24.482526],[54.418434,24.482447],[54.418417,24.482581],[54.419185,24.482662],[54.419181,24.482684],[54.418957,24.482661],[54.418933,24.482735],[54.418396,24.482685],[54.418382,24.482821],[54.41876,24.482861],[54.418759,24.482881],[54.418366,24.482861],[54.418361,24.482982],[54.41905,24.483055],[54.419375,24.483068],[54.419376,24.48305],[54.419666,24.483078],[54.41966,24.483134],[54.42051,24.483221],[54.420507,24.483251],[54.421516,24.483351],[54.421528,24.483222],[54.421113,24.483178],[54.421116,24.483156],[54.421525,24.4832],[54.421542,24.48308],[54.420706,24.482987],[54.421043,24.483021],[54.421078,24.482931],[54.420989,24.482903],[54.420802,24.482883],[54.420802,24.482882],[54.421561,24.482963],[54.421578,24.482842],[54.421209,24.4828],[54.421212,24.482776],[54.420845,24.482738],[54.420847,24.482722],[54.421584,24.4828],[54.421606,24.482655],[54.420301,24.482512],[54.420307,24.482448],[54.421616,24.482599],[54.421635,24.482477],[54.420895,24.482375],[54.420897,24.482359],[54.421643,24.482434],[54.421657,24.482313],[54.420902,24.482234],[54.420914,24.482159],[54.421133,24.482182],[54.421142,24.482151],[54.421676,24.482208],[54.421696,24.482085],[54.420859,24.481979],[54.421286,24.482024],[54.421289,24.482007],[54.421721,24.482035],[54.42173,24.481903],[54.420891,24.481812],[54.420892,24.481793],[54.42082,24.481784],[54.419585,24.481649],[54.419587,24.481634],[54.418579,24.481524],[54.41856,24.481659],[54.418965,24.481704],[54.418964,24.481717],[54.418672,24.481686],[54.418544,24.481691],[54.41855,24.481831],[54.419544,24.481928],[54.419557,24.481848],[54.41942,24.481833],[54.419419,24.481816],[54.419364,24.48181],[54.419363,24.48179],[54.419989,24.481856],[54.419992,24.481835],[54.420266,24.481864],[54.420261,24.481898],[54.419851,24.481856],[54.419834,24.481991],[54.420364,24.482047],[54.420358,24.482071],[54.419294,24.481947],[54.419281,24.482035],[54.418801,24.481985],[54.418785,24.482055],[54.418879,24.482068],[54.418874,24.482108],[54.41925,24.482149],[54.419248,24.482165],[54.418494,24.482084],[54.418475,24.482211],[54.419229,24.482297],[54.419228,24.482308],[54.419561,24.482349],[54.419372,24.482333],[54.419367,24.482383],[54.41846,24.482285],[54.418442,24.482417],[54.419199,24.482512]],[[54.42019,24.4827],[54.420187,24.48273],[54.419438,24.482645],[54.41944,24.482629],[54.42019,24.4827]],[[54.420651,24.482259],[54.420489,24.482242],[54.42049,24.482225],[54.420653,24.482242],[54.420651,24.482259]],[[54.419886,24.483033],[54.419889,24.483008],[54.42009,24.48303],[54.420088,24.483053],[54.419886,24.483033]],[[54.420257,24.482902],[54.419716,24.482845],[54.419726,24.482815],[54.419783,24.482821],[54.420277,24.482888],[54.420269,24.48291],[54.420257,24.482902]],[[54.420202,24.482741],[54.420572,24.482779],[54.420491,24.482771],[54.420202,24.482741]]]}},{"type":"Feature","properties":{},"geometry":{"type":"Polygon","coordinates":[[[54.417928,24.487842],[54.418014,24.487842],[54.418014,24.487796],[54.417324,24.487723],[54.417238,24.487724],[54.417239,24.487769],[54.417928,24.487842]]]}},{"type":"Feature","properties":{},"geometry":{"type":"Polygon","coordinates":[[[54.416566,24.489212],[54.416563,24.489168],[54.415873,24.489095],[54.415719,24.489105],[54.415722,24.489146],[54.416461,24.489217],[54.416566,24.489212]]]}},{"type":"Feature","properties":{},"geometry":{"type":"Polygon","coordinates":[[[54.415835,24.489171],[54.415784,24.489169],[54.415782,24.48925],[54.416471,24.489323],[54.416522,24.489324],[54.416524,24.489243],[54.415835,24.489171]]]}},{"type":"Feature","properties":{},"geometry":{"type":"Polygon","coordinates":[[[54.416267,24.489502],[54.415416,24.489523],[54.415421,24.489677],[54.41611,24.48975],[54.416981,24.489728],[54.416979,24.489659],[54.416959,24.489657],[54.416956,24.489575],[54.416267,24.489502]]]}},{"type":"Feature","properties":{},"geometry":{"type":"Polygon","coordinates":[[[54.416572,24.501928],[54.416574,24.501975],[54.417184,24.502039],[54.417254,24.502089],[54.417943,24.502162],[54.41816,24.501958],[54.41793,24.501758],[54.41724,24.501685],[54.417163,24.501757],[54.41722,24.501818],[54.417181,24.501902],[54.41685,24.501875],[54.416805,24.501887],[54.416816,24.501922],[54.416572,24.501928]]]}},{"type":"Feature","properties":{},"geometry":{"type":"Polygon","coordinates":[[[54.418907,24.502544],[54.419109,24.502466],[54.419066,24.502373],[54.418376,24.5023],[54.418177,24.502385],[54.41759,24.502323],[54.417548,24.502351],[54.417577,24.502387],[54.418907,24.502544]]]}},{"type":"Feature","properties":{},"geometry":{"type":"Polygon","coordinates":[[[54.41819,24.502635],[54.418193,24.502544],[54.418598,24.502587],[54.418621,24.502562],[54.418575,24.502526],[54.417885,24.502453],[54.417863,24.50248],[54.417504,24.502442],[54.417421,24.502442],[54.417421,24.502556],[54.41819,24.502635]]]}},{"type":"Feature","properties":{},"geometry":{"type":"Polygon","coordinates":[[[54.415501,24.502417],[54.415496,24.502476],[54.416211,24.502551],[54.416216,24.502492],[54.415501,24.502417]]]}},{"type":"Feature","properties":{},"geometry":{"type":"Polygon","coordinates":[[[54.417582,24.502727],[54.417686,24.502725],[54.417685,24.502701],[54.416995,24.502628],[54.416892,24.50263],[54.416893,24.502654],[54.417582,24.502727]]]}},{"type":"Feature","properties":{},"geometry":{"type":"Polygon","coordinates":[[[54.41611,24.502712],[54.416159,24.50271],[54.416157,24.502676],[54.415468,24.502603],[54.41539,24.502607],[54.415392,24.50264],[54.415423,24.502644],[54.415395,24.502643],[54.415395,24.502682],[54.416084,24.502754],[54.416155,24.502755],[54.416156,24.502717],[54.41611,24.502712]]]}},{"type":"Feature","properties":{},"geometry":{"type":"Polygon","coordinates":[[[54.416945,24.502702],[54.416942,24.502762],[54.417059,24.502775],[54.41706,24.502794],[54.41775,24.502867],[54.418098,24.502844],[54.418092,24.502783],[54.417402,24.50271],[54.417152,24.502717],[54.416945,24.502702]]]}},{"type":"Feature","properties":{},"geometry":{"type":"Polygon","coordinates":[[[54.415403,24.502838],[54.415474,24.502846],[54.415439,24.50285],[54.415447,24.502901],[54.416137,24.502974],[54.416194,24.502966],[54.416186,24.502916],[54.416119,24.502909],[54.416501,24.502934],[54.416504,24.502856],[54.415815,24.502783],[54.415396,24.502784],[54.415403,24.502838]]]}},{"type":"Feature","properties":{},"geometry":{"type":"Polygon","coordinates":[[[54.417267,24.503056],[54.417265,24.503098],[54.418062,24.503175],[54.418064,24.503133],[54.417267,24.503056]]]}},{"type":"Feature","properties":{},"geometry":{"type":"Polygon","coordinates":[[[54.417465,24.503137],[54.417461,24.503227],[54.418151,24.5033],[54.418295,24.503302],[54.418293,24.503241],[54.418215,24.503233],[54.418216,24.503212],[54.417465,24.503137]]]}},{"type":"Feature","properties":{},"geometry":{"type":"Polygon","coordinates":[[[54.415635,24.503418],[54.415632,24.503473],[54.416416,24.50355],[54.416418,24.503494],[54.415635,24.503418]]]}},{"type":"Feature","properties":{},"geometry":{"type":"Polygon","coordinates":[[[54.416542,24.503631],[54.415809,24.503559],[54.415813,24.503642],[54.416545,24.503713],[54.416542,24.503631]]]}},{"type":"Feature","properties":{},"geometry":{"type":"Polygon","coordinates":[[[54.417664,24.503569],[54.417657,24.503786],[54.41838,24.50386],[54.418387,24.503643],[54.417664,24.503569]]]}},{"type":"Feature","properties":{},"geometry":{"type":"Polygon","coordinates":[[[54.419628,24.480125],[54.419563,24.480115],[54.418873,24.480042],[54.418867,24.480078],[54.418943,24.480089],[54.418942,24.480131],[54.419669,24.480205],[54.419671,24.480144],[54.419625,24.480139],[54.419628,24.480125]]]}},{"type":"Feature","properties":{},"geometry":{"type":"Polygon","coordinates":[[[54.420569,24.480232],[54.420562,24.480364],[54.421347,24.480452],[54.421591,24.480461],[54.421593,24.480415],[54.421385,24.480393],[54.421386,24.480375],[54.421346,24.480371],[54.421349,24.480309],[54.420569,24.480232]]]}},{"type":"Feature","properties":{},"geometry":{"type":"Polygon","coordinates":[[[54.419929,24.480822],[54.419923,24.480877],[54.420676,24.480956],[54.420683,24.480901],[54.419929,24.480822]]]}},{"type":"Feature","properties":{},"geometry":{"type":"Polygon","coordinates":[[[54.420385,24.489392],[54.420384,24.489338],[54.419694,24.489265],[54.41933,24.489268],[54.419331,24.489307],[54.420021,24.48938],[54.420385,24.489392]]]}},{"type":"Feature","properties":{},"geometry":{"type":"Polygon","coordinates":[[[54.420348,24.489556],[54.420351,24.489454],[54.419767,24.489392],[54.419766,24.489374],[54.419077,24.489301],[54.418987,24.489305],[54.418994,24.489429],[54.420348,24.489556]]]}},{"type":"Feature","properties":{},"geometry":{"type":"Polygon","coordinates":[[[54.419183,24.489537],[54.419157,24.48954],[54.419166,24.489612],[54.419856,24.489685],[54.419882,24.489682],[54.419872,24.48961],[54.419183,24.489537]]]}},{"type":"Feature","properties":{},"geometry":{"type":"Polygon","coordinates":[[[54.420254,24.489894],[54.420374,24.489892],[54.420373,24.489847],[54.419684,24.489774],[54.419563,24.489776],[54.419564,24.489821],[54.420254,24.489894]]]}},{"type":"Feature","properties":{},"geometry":{"type":"Polygon","coordinates":[[[54.419239,24.490277],[54.41924,24.490311],[54.41993,24.490384],[54.420005,24.490382],[54.420004,24.49037],[54.420127,24.490376],[54.420126,24.490356],[54.420352,24.490366],[54.420349,24.490245],[54.419659,24.490172],[54.419611,24.490173],[54.419612,24.4902],[54.419381,24.490183],[54.419386,24.490282],[54.419239,24.490277]]]}}]}