{"type":"FeatureCollection","features":[{"type":"Feature","properties":{},"geometry":{"type":"Polygon","coordinates":[[[54.390748,24.482477],[54.39058,24.482459],[54.390563,24.482582],[54.390727,24.482599],[54.390748,24.482477]]]}},{"type":"Feature","properties":{},"geometry":{"type":"Polygon","coordinates":[[[54.390942,24.482821],[54.391065,24.482612],[54.390942,24.482565],[54.390825,24.482772],[54.390942,24.482821]]]}},{"type":"Feature","properties":{},"geometry":{"type":"Polygon","coordinates":[[[54.391058,24.482871],[54.391179,24.482665],[54.391093,24.482625],[54.391062,24.48262],[54.390947,24.482828],[54.391058,24.482871]]]}},{"type":"Feature","properties":{},"geometry":{"type":"Polygon","coordinates":[[[54.390518,24.482654],[54.390461,24.482735],[54.39071,24.482873],[54.39074,24.482878],[54.390796,24.482796],[54.390548,24.482659],[54.390518,24.482654]]]}},{"type":"Feature","properties":{},"geometry":{"type":"Polygon","coordinates":[[[54.391225,24.48293],[54.391252,24.482886],[54.391404,24.482949],[54.391324,24.483086],[54.391086,24.482947],[54.391056,24.482942],[54.390997,24.483025],[54.391238,24.483168],[54.391268,24.483173],[54.39129,24.483144],[54.391275,24.48317],[54.391533,24.483287],[54.39161,24.483165],[54.39152,24.483101],[54.391589,24.482986],[54.391697,24.483008],[54.391772,24.482888],[54.39154,24.482774],[54.391509,24.482769],[54.391489,24.482805],[54.391195,24.48268],[54.391155,24.48275],[54.391256,24.482798],[54.391247,24.482816],[54.391264,24.482825],[54.391247,24.482857],[54.391191,24.482839],[54.39115,24.482902],[54.391225,24.48293]]]}},{"type":"Feature","properties":{},"geometry":{"type":"Polygon","coordinates":[[[54.390002,24.482899],[54.390092,24.482829],[54.390028,24.48276],[54.389997,24.482755],[54.389907,24.482825],[54.389972,24.482894],[54.390002,24.482899]]]}},{"type":"Feature","properties":{},"geometry":{"type":"Polygon","coordinates":[[[54.392207,24.483218],[54.392291,24.483248],[54.392349,24.483145],[54.39229,24.483118],[54.392311,24.483082],[54.392204,24.483032],[54.392174,24.483027],[54.392161,24.483051],[54.392042,24.483006],[54.392022,24.483043],[54.392118,24.483089],[54.392148,24.483094],[54.392155,24.483082],[54.392252,24.483127],[54.392207,24.483218]]]}},{"type":"Feature","properties":{},"geometry":{"type":"Polygon","coordinates":[[[54.392405,24.483359],[54.392506,24.483185],[54.392379,24.483134],[54.392282,24.483312],[54.392405,24.483359]]]}},{"type":"Feature","properties":{},"geometry":{"type":"Polygon","coordinates":[[[54.391532,24.483387],[54.391516,24.483417],[54.391642,24.483462],[54.391657,24.483432],[54.391532,24.483387]]]}},{"type":"Feature","properties":{},"geometry":{"type":"Polygon","coordinates":[[[54.391277,24.483685],[54.39133,24.483624],[54.391265,24.483571],[54.391278,24.483555],[54.391324,24.483594],[54.391354,24.483599],[54.391438,24.483503],[54.391254,24.483363],[54.391224,24.483358],[54.391015,24.483564],[54.39124,24.483714],[54.391186,24.48376],[54.391324,24.483896],[54.391354,24.483901],[54.391441,24.483825],[54.391304,24.48369],[54.391277,24.483685]]]}},{"type":"Feature","properties":{},"geometry":{"type":"Polygon","coordinates":[[[54.390771,24.484369],[54.39068,24.484447],[54.390799,24.484563],[54.390829,24.484568],[54.39092,24.48449],[54.390801,24.484374],[54.390771,24.484369]]]}},{"type":"Feature","properties":{},"geometry":{"type":"Polygon","coordinates":[[[54.392388,24.488966],[54.392607,24.489053],[54.392714,24.489126],[54.392886,24.489319],[54.392924,24.489325],[54.393258,24.489191],[54.393272,24.489275],[54.393309,24.489281],[54.393841,24.489212],[54.393788,24.488875],[54.39375,24.488869],[54.393193,24.488942],[54.393136,24.488912],[54.393081,24.488852],[54.393055,24.488792],[54.393048,24.488728],[54.393061,24.488664],[54.393094,24.488607],[54.393144,24.48856],[54.393219,24.488524],[54.393745,24.488478],[54.393687,24.487923],[54.392872,24.487985],[54.392909,24.488341],[54.392661,24.488647],[54.39252,24.488581],[54.392314,24.488534],[54.392296,24.488623],[54.392215,24.488605],[54.392125,24.48894],[54.392388,24.488966]]]}},{"type":"Feature","properties":{},"geometry":{"type":"Polygon","coordinates":[[[54.39234,24.490939],[54.392413,24.490876],[54.392506,24.490876],[54.39257,24.490997],[54.392607,24.491003],[54.393,24.490952],[54.393301,24.49113],[54.393338,24.491136],[54.393408,24.491044],[54.393474,24.491116],[54.393566,24.49117],[54.393697,24.491199],[54.393753,24.491196],[54.393441,24.491575],[54.393494,24.491719],[54.39385,24.491955],[54.395073,24.490486],[54.394882,24.49037],[54.394497,24.490409],[54.394352,24.490468],[54.394078,24.490801],[54.394036,24.490708],[54.393963,24.490631],[54.393867,24.490578],[54.393769,24.490557],[54.393878,24.4905],[54.394016,24.490324],[54.393929,24.48982],[54.393537,24.489844],[54.393275,24.489696],[54.392995,24.489698],[54.392899,24.490086],[54.392856,24.490178],[54.392767,24.490287],[54.392729,24.490281],[54.392598,24.490361],[54.392349,24.490475],[54.392143,24.490511],[54.391947,24.490511],[54.391736,24.490465],[54.391721,24.490502],[54.391735,24.490577],[54.3917,24.4906],[54.391651,24.49071],[54.391724,24.490779],[54.391942,24.490822],[54.39234,24.490939]]]}},{"type":"Feature","properties":{},"geometry":{"type":"Polygon","coordinates":[[[54.392169,24.491164],[54.39221,24.49149],[54.392533,24.491465],[54.392518,24.491347],[54.392926,24.491305],[54.392899,24.491096],[54.392169,24.491164]]]}},{"type":"Feature","properties":{},"geometry":{"type":"Polygon","coordinates":[[[54.39302,24.491897],[54.392964,24.491537],[54.39246,24.491593],[54.392547,24.492146],[54.392993,24.492097],[54.39302,24.491897]]]}},{"type":"Feature","properties":{},"geometry":{"type":"Polygon","coordinates":[[[54.392838,24.492406],[54.392226,24.492479],[54.392288,24.492864],[54.3929,24.492791],[54.392838,24.492406]]]}},{"type":"Feature","properties":{},"geometry":{"type":"Polygon","coordinates":[[[54.390535,24.493043],[54.390723,24.492872],[54.390617,24.492776],[54.390587,24.492771],[54.390399,24.492942],[54.390505,24.493039],[54.390535,24.493043]]]}},{"type":"Feature","properties":{},"geometry":{"type":"Polygon","coordinates":[[[54.389311,24.493854],[54.389361,24.494209],[54.390201,24.49412],[54.390151,24.493765],[54.389311,24.493854]]]}},{"type":"Feature","properties":{},"geometry":{"type":"Polygon","coordinates":[[[54.392741,24.49608],[54.392771,24.496085],[54.392827,24.496043],[54.393686,24.495958],[54.393602,24.49532],[54.392676,24.495443],[54.392741,24.49608]]]}},{"type":"Feature","properties":{},"geometry":{"type":"Polygon","coordinates":[[[54.390205,24.496364],[54.390539,24.496349],[54.390536,24.496275],[54.39041,24.496273],[54.390406,24.496244],[54.390478,24.496236],[54.390464,24.496121],[54.390513,24.496116],[54.390514,24.496146],[54.390557,24.496151],[54.390568,24.496332],[54.390673,24.496333],[54.39066,24.496104],[54.390646,24.496102],[54.390657,24.496101],[54.390606,24.495681],[54.390109,24.495729],[54.390113,24.495837],[54.390241,24.495838],[54.39027,24.49607],[54.390259,24.496071],[54.390254,24.49603],[54.390147,24.496033],[54.390156,24.496107],[54.390174,24.49611],[54.390205,24.496364]]]}},{"type":"Feature","properties":{},"geometry":{"type":"Polygon","coordinates":[[[54.391541,24.496979],[54.391543,24.497018],[54.391693,24.497017],[54.391692,24.496978],[54.391541,24.496979]]]}},{"type":"Feature","properties":{},"geometry":{"type":"Polygon","coordinates":[[[54.391422,24.496985],[54.391421,24.497019],[54.391526,24.497026],[54.391527,24.496992],[54.391422,24.496985]]]}},{"type":"Feature","properties":{},"geometry":{"type":"Polygon","coordinates":[[[54.391607,24.49709],[54.391615,24.497128],[54.3917,24.497123],[54.391692,24.497085],[54.391607,24.49709]]]}},{"type":"Feature","properties":{},"geometry":{"type":"Polygon","coordinates":[[[54.391186,24.49705],[54.391184,24.497144],[54.391334,24.497151],[54.391339,24.497057],[54.391186,24.49705]]]}},{"type":"Feature","properties":{},"geometry":{"type":"Polygon","coordinates":[[[54.391232,24.497178],[54.39123,24.497241],[54.391373,24.497249],[54.391375,24.497185],[54.391232,24.497178]]]}},{"type":"Feature","properties":{},"geometry":{"type":"Polygon","coordinates":[[[54.391368,24.497883],[54.391404,24.498122],[54.391497,24.498179],[54.391798,24.498227],[54.392214,24.498208],[54.392182,24.497989],[54.391806,24.497864],[54.391505,24.497815],[54.391368,24.497883]]]}},{"type":"Feature","properties":{},"geometry":{"type":"Polygon","coordinates":[[[54.393385,24.498122],[54.393313,24.498116],[54.39331,24.498197],[54.393382,24.498203],[54.393385,24.498122]]]}},{"type":"Feature","properties":{},"geometry":{"type":"Polygon","coordinates":[[[54.389896,24.498215],[54.389941,24.498568],[54.391004,24.498466],[54.390959,24.498112],[54.389896,24.498215]]]}},{"type":"Feature","properties":{},"geometry":{"type":"Polygon","coordinates":[[[54.391623,24.500751],[54.39166,24.500999],[54.391951,24.500974],[54.391919,24.500731],[54.391623,24.500751]]]}},{"type":"Feature","properties":{},"geometry":{"type":"Polygon","coordinates":[[[54.390332,24.502528],[54.390406,24.5031],[54.390461,24.503108],[54.391212,24.503045],[54.391155,24.502531],[54.391474,24.502489],[54.391035,24.498852],[54.39098,24.498843],[54.389877,24.498968],[54.390312,24.502373],[54.389868,24.502417],[54.389887,24.502566],[54.389932,24.502574],[54.390332,24.502528]]]}},{"type":"Feature","properties":{},"geometry":{"type":"Polygon","coordinates":[[[54.392091,24.503633],[54.392099,24.503682],[54.392221,24.503675],[54.392213,24.503625],[54.392091,24.503633]]]}},{"type":"Feature","properties":{},"geometry":{"type":"Polygon","coordinates":[[[54.392463,24.503763],[54.392463,24.503812],[54.392585,24.503816],[54.392584,24.503767],[54.392463,24.503763]]]}},{"type":"Feature","properties":{},"geometry":{"type":"Polygon","coordinates":[[[54.392298,24.503734],[54.392105,24.503737],[54.392111,24.503839],[54.392304,24.503836],[54.392298,24.503734]]]}},{"type":"Feature","properties":{},"geometry":{"type":"Polygon","coordinates":[[[54.392347,24.503906],[54.392379,24.504127],[54.39262,24.504107],[54.392588,24.503886],[54.392347,24.503906]]]}},{"type":"Feature","properties":{},"geometry":{"type":"Polygon","coordinates":[[[54.392054,24.50394],[54.392065,24.504132],[54.392146,24.504135],[54.392134,24.503942],[54.392054,24.50394]]]}},{"type":"Feature","properties":{},"geometry":{"type":"Polygon","coordinates":[[[54.392164,24.503927],[54.392222,24.504432],[54.392252,24.504436],[54.392359,24.504426],[54.392302,24.503922],[54.392164,24.503927]]]}},{"type":"Feature","properties":{},"geometry":{"type":"Polygon","coordinates":[[[54.392534,24.504406],[54.392527,24.504304],[54.392622,24.50429],[54.39261,24.504254],[54.392524,24.504264],[54.392518,24.50417],[54.392381,24.504171],[54.392397,24.504407],[54.392534,24.504406]]]}},{"type":"Feature","properties":{},"geometry":{"type":"Polygon","coordinates":[[[54.39209,24.504227],[54.392098,24.504395],[54.392178,24.504398],[54.39217,24.50423],[54.39209,24.504227]]]}},{"type":"Feature","properties":{},"geometry":{"type":"Polygon","coordinates":[[[54.392177,24.504496],[54.39221,24.504771],[54.392683,24.504732],[54.39265,24.504457],[54.392177,24.504496]]]}},{"type":"Feature","properties":{},"geometry":{"type":"Polygon","coordinates":[[[54.392173,24.504863],[54.392181,24.504943],[54.392266,24.504943],[54.392258,24.504863],[54.392173,24.504863]]]}},{"type":"Feature","properties":{},"geometry":{"type":"Polygon","coordinates":[[[54.392452,24.504825],[54.392482,24.505074],[54.392622,24.505068],[54.392593,24.504819],[54.392452,24.504825]]]}},{"type":"Feature","properties":{},"geometry":{"type":"Polygon","coordinates":[[[54.392319,24.505083],[54.392322,24.505193],[54.392465,24.505196],[54.392462,24.505086],[54.392319,24.505083]]]}},{"type":"Feature","properties":{},"geometry":{"type":"Polygon","coordinates":[[[54.392208,24.505104],[54.392211,24.505213],[54.392299,24.505217],[54.392296,24.505108],[54.392208,24.505104]]]}},{"type":"Feature","properties":{},"geometry":{"type":"Polygon","coordinates":[[[54.392522,24.505149],[54.392558,24.505648],[54.392803,24.50564],[54.392767,24.505141],[54.392522,24.505149]]]}},{"type":"Feature","properties":{},"geometry":{"type":"Polygon","coordinates":[[[54.389795,24.505218],[54.389842,24.505811],[54.390086,24.505802],[54.390023,24.505209],[54.389795,24.505218]]]}},{"type":"Feature","properties":{},"geometry":{"type":"Polygon","coordinates":[[[54.39177,24.50681],[54.391776,24.506856],[54.391895,24.506851],[54.39189,24.506806],[54.39177,24.50681]]]}},{"type":"Feature","properties":{},"geometry":{"type":"Polygon","coordinates":[[[54.391978,24.506869],[54.392001,24.506959],[54.392097,24.50695],[54.392085,24.506901],[54.392128,24.506892],[54.392118,24.506851],[54.391978,24.506869]]]}},{"type":"Feature","properties":{},"geometry":{"type":"Polygon","coordinates":[[[54.39188,24.506896],[54.391888,24.506957],[54.391954,24.506958],[54.391946,24.506897],[54.39188,24.506896]]]}},{"type":"Feature","properties":{},"geometry":{"type":"Polygon","coordinates":[[[54.39253,24.506794],[54.392556,24.507137],[54.392772,24.50713],[54.392745,24.506787],[54.39253,24.506794]]]}},{"type":"Feature","properties":{},"geometry":{"type":"Polygon","coordinates":[[[54.391814,24.507055],[54.391816,24.507144],[54.391972,24.507147],[54.39197,24.507058],[54.391814,24.507055]]]}},{"type":"Feature","properties":{},"geometry":{"type":"Polygon","coordinates":[[[54.392904,24.50716],[54.392911,24.507214],[54.393022,24.50721],[54.393015,24.507157],[54.392904,24.50716]]]}},{"type":"Feature","properties":{},"geometry":{"type":"Polygon","coordinates":[[[54.391531,24.507352],[54.391541,24.50749],[54.391974,24.507471],[54.391964,24.507332],[54.391531,24.507352]]]}},{"type":"Feature","properties":{},"geometry":{"type":"Polygon","coordinates":[[[54.391047,24.507429],[54.391046,24.50751],[54.391209,24.507516],[54.39121,24.507435],[54.391047,24.507429]]]}},{"type":"Feature","properties":{},"geometry":{"type":"Polygon","coordinates":[[[54.393246,24.508739],[54.393247,24.508705],[54.393104,24.508696],[54.393103,24.508709],[54.39297,24.508709],[54.39297,24.508739],[54.393246,24.508739]]]}},{"type":"Feature","properties":{},"geometry":{"type":"Polygon","coordinates":[[[54.393093,24.509782],[54.393121,24.509741],[54.393021,24.509696],[54.392992,24.509738],[54.393093,24.509782]]]}},{"type":"Feature","properties":{},"geometry":{"type":"Polygon","coordinates":[[[54.404697,24.481102],[54.40464,24.481125],[54.404658,24.48116],[54.404688,24.481164],[54.404744,24.481141],[54.404727,24.481107],[54.404697,24.481102]]]}},{"type":"Feature","properties":{},"geometry":{"type":"Polygon","coordinates":[[[54.403917,24.481584],[54.403947,24.481588],[54.404475,24.481318],[54.404313,24.481041],[54.404282,24.481036],[54.403673,24.48131],[54.403917,24.481584]]]}},{"type":"Feature","properties":{},"geometry":{"type":"Polygon","coordinates":[[[54.403145,24.483404],[54.403071,24.483187],[54.403305,24.483054],[54.403129,24.482714],[54.402804,24.482278],[54.402754,24.48227],[54.402463,24.482388],[54.402413,24.482363],[54.402427,24.48225],[54.402377,24.482242],[54.402291,24.482238],[54.401421,24.483154],[54.401422,24.483271],[54.401463,24.483334],[54.401688,24.483383],[54.401886,24.483298],[54.402201,24.483213],[54.402592,24.483223],[54.403145,24.483404]]]}},{"type":"Feature","properties":{},"geometry":{"type":"Polygon","coordinates":[[[54.404397,24.485278],[54.404503,24.485035],[54.404572,24.484815],[54.40457,24.48452],[54.403751,24.484451],[54.40362,24.484898],[54.403526,24.485074],[54.40334,24.485265],[54.403951,24.4858],[54.403981,24.485805],[54.404178,24.485614],[54.404397,24.485278]]]}},{"type":"Feature","properties":{},"geometry":{"type":"Polygon","coordinates":[[[54.400631,24.486302],[54.40032,24.486616],[54.400169,24.486792],[54.400636,24.487122],[54.400784,24.487163],[54.400896,24.487122],[54.401237,24.486367],[54.400743,24.486123],[54.400631,24.486302]]]}},{"type":"Feature","properties":{},"geometry":{"type":"Polygon","coordinates":[[[54.404465,24.486748],[54.404492,24.486709],[54.404483,24.486661],[54.404098,24.486272],[54.403971,24.486254],[54.403234,24.486607],[54.403444,24.48716],[54.403478,24.487193],[54.403605,24.487219],[54.403842,24.487135],[54.404197,24.486945],[54.404465,24.486748]],[[54.403977,24.486558],[54.404072,24.486675],[54.403684,24.486883],[54.403629,24.486733],[54.403977,24.486558]]]}},{"type":"Feature","properties":{},"geometry":{"type":"Polygon","coordinates":[[[54.395707,24.487278],[54.395625,24.487246],[54.395144,24.487174],[54.395019,24.487192],[54.39497,24.487235],[54.395012,24.487275],[54.394866,24.487404],[54.394906,24.48744],[54.394864,24.487477],[54.394986,24.48759],[54.395355,24.48765],[54.395739,24.487308],[54.395707,24.487278]]]}},{"type":"Feature","properties":{},"geometry":{"type":"Polygon","coordinates":[[[54.394113,24.487773],[54.394066,24.487813],[54.394198,24.487939],[54.394521,24.488303],[54.394551,24.488308],[54.394627,24.488249],[54.394793,24.488419],[54.395147,24.488476],[54.395201,24.488432],[54.395322,24.488452],[54.395539,24.488276],[54.395465,24.488201],[54.395563,24.488122],[54.39539,24.487945],[54.395066,24.487893],[54.394777,24.487478],[54.39465,24.487348],[54.39462,24.487343],[54.394586,24.487371],[54.394555,24.487364],[54.394369,24.487515],[54.394522,24.487663],[54.39444,24.487734],[54.394305,24.487605],[54.394275,24.4876],[54.394095,24.487756],[54.394113,24.487773]]]}},{"type":"Feature","properties":{},"geometry":{"type":"Polygon","coordinates":[[[54.40291,24.489601],[54.402655,24.488141],[54.402312,24.48809],[54.401803,24.487986],[54.401174,24.48777],[54.400141,24.487308],[54.399573,24.486939],[54.398998,24.486507],[54.398968,24.486502],[54.397734,24.487851],[54.398874,24.488706],[54.400196,24.489399],[54.400966,24.489714],[54.401787,24.489888],[54.40263,24.489948],[54.40291,24.489601]]]}},{"type":"Feature","properties":{},"geometry":{"type":"Polygon","coordinates":[[[54.395036,24.48891],[54.394931,24.488893],[54.394922,24.488821],[54.394508,24.488755],[54.394327,24.488773],[54.394339,24.488873],[54.39419,24.488888],[54.394231,24.489235],[54.394389,24.48926],[54.394398,24.489338],[54.394812,24.489404],[54.394999,24.489386],[54.394986,24.489272],[54.395078,24.489263],[54.395036,24.48891]]]}},{"type":"Feature","properties":{},"geometry":{"type":"Polygon","coordinates":[[[54.395118,24.489639],[54.395014,24.489623],[54.395006,24.48955],[54.394592,24.489484],[54.39441,24.489501],[54.394421,24.489601],[54.394271,24.489615],[54.394312,24.489967],[54.394469,24.489992],[54.394481,24.490096],[54.394895,24.490162],[54.395083,24.490145],[54.395067,24.49],[54.395159,24.489991],[54.395118,24.489639]]]}},{"type":"Feature","properties":{},"geometry":{"type":"Polygon","coordinates":[[[54.400432,24.490698],[54.400392,24.490433],[54.400058,24.490467],[54.400098,24.490732],[54.400432,24.490698]]]}},{"type":"Feature","properties":{},"geometry":{"type":"Polygon","coordinates":[[[54.395763,24.491105],[54.395965,24.490873],[54.395726,24.490701],[54.395387,24.490647],[54.395185,24.490879],[54.395424,24.49105],[54.395763,24.491105]]]}},{"type":"Feature","properties":{},"geometry":{"type":"Polygon","coordinates":[[[54.395186,24.491038],[54.395007,24.491243],[54.395249,24.491417],[54.395362,24.491435],[54.395386,24.491452],[54.395777,24.491515],[54.395879,24.491398],[54.395784,24.49133],[54.395826,24.491281],[54.395577,24.491101],[54.395186,24.491038]]]}},{"type":"Feature","properties":{},"geometry":{"type":"Polygon","coordinates":[[[54.395324,24.491537],[54.394932,24.491475],[54.394754,24.49168],[54.394995,24.491853],[54.395109,24.491871],[54.395132,24.491889],[54.395524,24.491951],[54.395625,24.491835],[54.39553,24.491766],[54.395573,24.491717],[54.395324,24.491537]]]}},{"type":"Feature","properties":{},"geometry":{"type":"Polygon","coordinates":[[[54.398498,24.491854],[54.398541,24.492176],[54.398697,24.492163],[54.398654,24.491845],[54.398498,24.491854]]]}},{"type":"Feature","properties":{},"geometry":{"type":"Polygon","coordinates":[[[54.395138,24.492121],[54.395202,24.49204],[54.395048,24.491939],[54.394529,24.491865],[54.394395,24.492033],[54.394486,24.492093],[54.394448,24.492141],[54.394583,24.492231],[54.39497,24.492293],[54.395009,24.492243],[54.395138,24.492264],[54.395213,24.49217],[54.395138,24.492121]]]}},{"type":"Feature","properties":{},"geometry":{"type":"Polygon","coordinates":[[[54.398753,24.492225],[54.398781,24.49246],[54.399125,24.492425],[54.399112,24.492325],[54.398877,24.492346],[54.398855,24.49222],[54.398753,24.492225]]]}},{"type":"Feature","properties":{},"geometry":{"type":"Polygon","coordinates":[[[54.393984,24.49204],[54.393805,24.492246],[54.394047,24.492419],[54.39416,24.492437],[54.394184,24.492454],[54.39457,24.492516],[54.394672,24.4924],[54.394577,24.492331],[54.394619,24.492282],[54.39437,24.492102],[54.393984,24.49204]]]}},{"type":"Feature","properties":{},"geometry":{"type":"Polygon","coordinates":[[[54.398632,24.492229],[54.398525,24.492233],[54.39857,24.492562],[54.398677,24.492558],[54.398632,24.492229]]]}},{"type":"Feature","properties":{},"geometry":{"type":"Polygon","coordinates":[[[54.396027,24.492636],[54.396093,24.492337],[54.395653,24.492258],[54.395588,24.492557],[54.396027,24.492636]]]}},{"type":"Feature","properties":{},"geometry":{"type":"Polygon","coordinates":[[[54.399918,24.49302],[54.399973,24.493406],[54.400734,24.493326],[54.400679,24.49294],[54.399918,24.49302]]]}},{"type":"Feature","properties":{},"geometry":{"type":"Polygon","coordinates":[[[54.403286,24.494063],[54.403322,24.494353],[54.403628,24.49433],[54.403653,24.494365],[54.403701,24.49439],[54.403787,24.494398],[54.403826,24.494382],[54.404075,24.494503],[54.404196,24.494313],[54.404468,24.494357],[54.404751,24.493913],[54.404667,24.493869],[54.404585,24.493856],[54.40461,24.493818],[54.404469,24.493756],[54.404584,24.493576],[54.404557,24.493562],[54.404611,24.493476],[54.404418,24.493385],[54.404369,24.493461],[54.404296,24.493434],[54.404047,24.493458],[54.403982,24.49357],[54.403873,24.493527],[54.403737,24.493541],[54.403733,24.493514],[54.403703,24.493509],[54.403359,24.493544],[54.403368,24.493617],[54.403273,24.493627],[54.403326,24.494059],[54.403286,24.494063]]]}},{"type":"Feature","properties":{},"geometry":{"type":"Polygon","coordinates":[[[54.393612,24.494487],[54.393551,24.494486],[54.393545,24.494446],[54.393515,24.494441],[54.393367,24.494459],[54.393371,24.494483],[54.39331,24.49449],[54.393345,24.49473],[54.393644,24.494703],[54.393612,24.494487]]]}},{"type":"Feature","properties":{},"geometry":{"type":"Polygon","coordinates":[[[54.393632,24.495242],[54.393739,24.496008],[54.393894,24.495999],[54.394099,24.495816],[54.394315,24.495791],[54.39423,24.495181],[54.393632,24.495242]]]}},{"type":"Feature","properties":{},"geometry":{"type":"Polygon","coordinates":[[[54.39431,24.497106],[54.39439,24.49739],[54.394671,24.497513],[54.394799,24.497447],[54.394915,24.497353],[54.394904,24.497279],[54.394948,24.497216],[54.395027,24.497177],[54.39506,24.497118],[54.394573,24.496826],[54.394542,24.496821],[54.39431,24.497106]]]}},{"type":"Feature","properties":{},"geometry":{"type":"Polygon","coordinates":[[[54.405162,24.497174],[54.405339,24.497203],[54.405552,24.496694],[54.405475,24.496661],[54.405474,24.496402],[54.404548,24.49606],[54.404485,24.49605],[54.404158,24.496949],[54.403928,24.497053],[54.404358,24.49798],[54.404421,24.49799],[54.404613,24.497833],[54.404644,24.497838],[54.404905,24.497728],[54.404834,24.497588],[54.405162,24.497174]]]}},{"type":"Feature","properties":{},"geometry":{"type":"Polygon","coordinates":[[[54.404152,24.49811],[54.404166,24.498082],[54.404083,24.498057],[54.404069,24.498085],[54.404152,24.49811]]]}},{"type":"Feature","properties":{},"geometry":{"type":"Polygon","coordinates":[[[54.403964,24.498469],[54.404105,24.498385],[54.404187,24.498297],[54.40421,24.498245],[54.404191,24.498213],[54.404204,24.498198],[54.404119,24.498136],[54.404076,24.498136],[54.403978,24.498096],[54.403208,24.498413],[54.403016,24.498458],[54.402864,24.498563],[54.402757,24.498744],[54.40274,24.498873],[54.402759,24.498984],[54.402809,24.499041],[54.40277,24.499106],[54.402825,24.499141],[54.40285,24.499176],[54.402864,24.49922],[54.402856,24.499279],[54.403463,24.499377],[54.403448,24.499406],[54.403154,24.499593],[54.403093,24.499605],[54.40308,24.499633],[54.403115,24.499713],[54.403206,24.499786],[54.403357,24.49982],[54.403476,24.499943],[54.403581,24.500013],[54.403698,24.500065],[54.403879,24.500108],[54.404008,24.500122],[54.404118,24.500117],[54.404135,24.500134],[54.404109,24.500161],[54.404113,24.500183],[54.404184,24.500229],[54.404483,24.500275],[54.404483,24.500286],[54.404523,24.500292],[54.404802,24.500273],[54.404905,24.50025],[54.404969,24.500257],[54.405062,24.500215],[54.405228,24.500178],[54.405545,24.500029],[54.405619,24.500041],[54.405624,24.500018],[54.405789,24.500022],[54.405824,24.500004],[54.405853,24.499953],[54.40585,24.499917],[54.405816,24.499867],[54.405951,24.499759],[54.406088,24.499777],[54.406145,24.499728],[54.406184,24.499596],[54.406212,24.499595],[54.40622,24.49948],[54.406199,24.499476],[54.406295,24.499353],[54.406413,24.499144],[54.406514,24.498897],[54.406569,24.498609],[54.406585,24.498337],[54.406562,24.498113],[54.406484,24.497808],[54.405643,24.497652],[54.405791,24.497852],[54.405871,24.49802],[54.405922,24.498291],[54.40592,24.498713],[54.405882,24.498867],[54.405791,24.499035],[54.405677,24.499174],[54.405491,24.499342],[54.405291,24.499479],[54.405053,24.499607],[54.404746,24.499696],[54.40449,24.499725],[54.404489,24.499747],[54.404214,24.499702],[54.4041,24.4997],[54.404072,24.499726],[54.404111,24.499771],[54.404069,24.499783],[54.40407,24.499806],[54.404024,24.499719],[54.40395,24.499662],[54.403867,24.49964],[54.403864,24.49962],[54.40391,24.499622],[54.403942,24.499596],[54.403943,24.499553],[54.40392,24.499509],[54.403834,24.499424],[54.403752,24.499404],[54.403835,24.499394],[54.40395,24.499352],[54.404079,24.499264],[54.40412,24.499219],[54.404345,24.499283],[54.404611,24.499326],[54.404962,24.49926],[54.405253,24.4993],[54.405401,24.499278],[54.405472,24.499189],[54.405556,24.499117],[54.405623,24.499082],[54.405668,24.499032],[54.405685,24.498959],[54.405679,24.498882],[54.405634,24.498816],[54.405562,24.498783],[54.405484,24.498771],[54.405496,24.498745],[54.405497,24.498537],[54.405579,24.498544],[54.405654,24.498501],[54.405678,24.498441],[54.405598,24.498109],[54.405549,24.498061],[54.405475,24.498044],[54.405209,24.498001],[54.405129,24.498028],[54.405089,24.49808],[54.4051,24.498143],[54.405083,24.498159],[54.405047,24.498153],[54.404875,24.498333],[54.404851,24.498402],[54.404855,24.498473],[54.40483,24.498577],[54.404772,24.498671],[54.404698,24.498736],[54.404569,24.498791],[54.40446,24.498801],[54.404327,24.498776],[54.404234,24.498809],[54.404127,24.498878],[54.40417,24.49892],[54.404131,24.498952],[54.403471,24.498853],[54.403585,24.498707],[54.403691,24.498636],[54.403668,24.498585],[54.403964,24.498469]]]}},{"type":"Feature","properties":{},"geometry":{"type":"Polygon","coordinates":[[[54.396073,24.498517],[54.39607,24.498583],[54.396157,24.498589],[54.396159,24.498524],[54.396073,24.498517]]]}},{"type":"Feature","properties":{},"geometry":{"type":"Polygon","coordinates":[[[54.393466,24.49866],[54.393621,24.499665],[54.3954,24.499476],[54.39529,24.498668],[54.395166,24.498547],[54.393466,24.49866]]]}},{"type":"Feature","properties":{},"geometry":{"type":"Polygon","coordinates":[[[54.395419,24.499844],[54.395447,24.499997],[54.395592,24.499985],[54.395564,24.499832],[54.395419,24.499844]]]}},{"type":"Feature","properties":{},"geometry":{"type":"Polygon","coordinates":[[[54.395241,24.500009],[54.395264,24.500113],[54.395326,24.500112],[54.395303,24.500007],[54.395241,24.500009]]]}},{"type":"Feature","properties":{},"geometry":{"type":"Polygon","coordinates":[[[54.394946,24.500334],[54.394869,24.500337],[54.39489,24.500451],[54.394967,24.500448],[54.394946,24.500334]]]}},{"type":"Feature","properties":{},"geometry":{"type":"Polygon","coordinates":[[[54.394922,24.50055],[54.395064,24.501399],[54.39566,24.501325],[54.395518,24.500477],[54.394922,24.50055]]]}},{"type":"Feature","properties":{},"geometry":{"type":"Polygon","coordinates":[[[54.395661,24.501895],[54.395658,24.501997],[54.395774,24.502004],[54.395777,24.501902],[54.395661,24.501895]]]}},{"type":"Feature","properties":{},"geometry":{"type":"Polygon","coordinates":[[[54.395441,24.502211],[54.395492,24.502519],[54.395954,24.502465],[54.395903,24.502157],[54.395441,24.502211]]]}},{"type":"Feature","properties":{},"geometry":{"type":"Polygon","coordinates":[[[54.397401,24.504687],[54.397407,24.504788],[54.397509,24.50479],[54.397504,24.504689],[54.397401,24.504687]]]}},{"type":"Feature","properties":{},"geometry":{"type":"Polygon","coordinates":[[[54.393604,24.509096],[54.393607,24.509151],[54.393688,24.509154],[54.393685,24.509099],[54.393604,24.509096]]]}},{"type":"Feature","properties":{},"geometry":{"type":"Polygon","coordinates":[[[54.393334,24.509406],[54.393287,24.509433],[54.393324,24.509485],[54.393096,24.509587],[54.393144,24.509669],[54.393174,24.509673],[54.393207,24.509657],[54.393287,24.509787],[54.393317,24.509792],[54.393655,24.509621],[54.393643,24.509601],[54.393825,24.509509],[54.393593,24.50913],[54.393563,24.509125],[54.393369,24.509224],[54.393383,24.509248],[54.393317,24.509272],[54.393434,24.509442],[54.393465,24.509447],[54.393495,24.50943],[54.393505,24.509447],[54.393361,24.509521],[54.39335,24.509502],[54.393412,24.509477],[54.393364,24.509411],[54.393334,24.509406]]]}},{"type":"Feature","properties":{},"geometry":{"type":"Polygon","coordinates":[[[54.393853,24.509371],[54.393818,24.509388],[54.393855,24.509448],[54.393885,24.509453],[54.39392,24.509435],[54.393883,24.509376],[54.393853,24.509371]]]}},{"type":"Feature","properties":{},"geometry":{"type":"Polygon","coordinates":[[[54.394018,24.509606],[54.393978,24.509629],[54.394078,24.509774],[54.394099,24.509778],[54.394031,24.509807],[54.394077,24.509894],[54.394107,24.509899],[54.394203,24.509857],[54.394158,24.50977],[54.394132,24.509766],[54.394149,24.509756],[54.394048,24.50961],[54.394018,24.509606]]]}},{"type":"Feature","properties":{},"geometry":{"type":"Polygon","coordinates":[[[54.393869,24.509955],[54.393874,24.509991],[54.393946,24.50999],[54.393941,24.509954],[54.393869,24.509955]]]}},{"type":"Feature","properties":{},"geometry":{"type":"Polygon","coordinates":[[[54.393909,24.510139],[54.394225,24.510003],[54.394194,24.509943],[54.394163,24.509938],[54.393848,24.510074],[54.393879,24.510134],[54.393909,24.510139]]]}},{"type":"Feature","properties":{},"geometry":{"type":"Polygon","coordinates":[[[54.406354,24.4801],[54.406285,24.479992],[54.40646,24.4799],[54.406403,24.47981],[54.406373,24.479805],[54.406289,24.47985],[54.406279,24.479834],[54.406311,24.479817],[54.406206,24.479653],[54.406176,24.479648],[54.405927,24.479779],[54.405983,24.479867],[54.405776,24.479976],[54.405813,24.480035],[54.405737,24.480075],[54.4058,24.480173],[54.405823,24.480177],[54.405905,24.480306],[54.405935,24.480311],[54.406354,24.4801]]]}},{"type":"Feature","properties":{},"geometry":{"type":"Polygon","coordinates":[[[54.406773,24.480081],[54.406866,24.480004],[54.406802,24.47994],[54.406771,24.479935],[54.406679,24.480012],[54.406743,24.480076],[54.406773,24.480081]]]}},{"type":"Feature","properties":{},"geometry":{"type":"Polygon","coordinates":[[[54.406193,24.480476],[54.406104,24.480529],[54.406136,24.480569],[54.406181,24.480563],[54.406214,24.480596],[54.406244,24.480601],[54.406271,24.480578],[54.406437,24.480741],[54.406467,24.480746],[54.406613,24.480623],[54.406416,24.480439],[54.406474,24.480455],[54.406509,24.480408],[54.406404,24.480344],[54.406514,24.480381],[54.406553,24.480301],[54.406434,24.480254],[54.406404,24.480249],[54.406366,24.480327],[54.406349,24.480324],[54.406303,24.480387],[54.406187,24.480469],[54.406193,24.480476]],[[54.406382,24.48045],[54.406373,24.480442],[54.406379,24.480445],[54.406382,24.48045]],[[54.406255,24.480512],[54.406288,24.480486],[54.406308,24.480507],[54.406277,24.480533],[54.406255,24.480512]]]}},{"type":"Feature","properties":{},"geometry":{"type":"Polygon","coordinates":[[[54.405748,24.480415],[54.405672,24.480452],[54.405699,24.480497],[54.40573,24.480502],[54.405805,24.480464],[54.405778,24.480419],[54.405748,24.480415]]]}},{"type":"Feature","properties":{},"geometry":{"type":"Polygon","coordinates":[[[54.405251,24.480761],[54.405299,24.480725],[54.405345,24.480777],[54.405419,24.480789],[54.405538,24.480702],[54.405397,24.480542],[54.405367,24.480537],[54.405279,24.480601],[54.405203,24.480515],[54.405173,24.48051],[54.405043,24.480605],[54.405012,24.480571],[54.404982,24.480566],[54.404751,24.480736],[54.404947,24.480958],[54.404977,24.480963],[54.40514,24.480859],[54.405159,24.480862],[54.405269,24.480782],[54.405251,24.480761]]]}},{"type":"Feature","properties":{},"geometry":{"type":"Polygon","coordinates":[[[54.406106,24.482232],[54.406346,24.482083],[54.406216,24.481941],[54.406454,24.481988],[54.406682,24.481841],[54.40647,24.481553],[54.406404,24.481442],[54.406178,24.481406],[54.406001,24.481509],[54.405923,24.481577],[54.405997,24.481663],[54.405846,24.481639],[54.405621,24.481752],[54.40558,24.481799],[54.405601,24.481854],[54.405747,24.481985],[54.405815,24.482137],[54.40588,24.482196],[54.406106,24.482232]]]}},{"type":"Feature","properties":{},"geometry":{"type":"Polygon","coordinates":[[[54.405398,24.481892],[54.40529,24.481997],[54.405261,24.482119],[54.405287,24.48226],[54.405336,24.482344],[54.405372,24.48235],[54.405417,24.48244],[54.405643,24.482476],[54.405877,24.482361],[54.405847,24.482259],[54.405814,24.482254],[54.405767,24.482043],[54.405624,24.481929],[54.405398,24.481892]]]}},{"type":"Feature","properties":{},"geometry":{"type":"Polygon","coordinates":[[[54.40637,24.48261],[54.406384,24.48261],[54.406708,24.483103],[54.406738,24.483108],[54.406914,24.483012],[54.40658,24.482503],[54.406551,24.482499],[54.406516,24.482451],[54.406485,24.482446],[54.40631,24.482553],[54.406318,24.482564],[54.406107,24.48267],[54.406143,24.482727],[54.406173,24.482732],[54.40638,24.482626],[54.40637,24.48261]]]}},{"type":"Feature","properties":{},"geometry":{"type":"Polygon","coordinates":[[[54.405455,24.483133],[54.405126,24.483265],[54.405318,24.483913],[54.404939,24.484017],[54.404994,24.484359],[54.405733,24.484375],[54.405733,24.483857],[54.405485,24.483137],[54.405455,24.483133]]]}},{"type":"Feature","properties":{},"geometry":{"type":"Polygon","coordinates":[[[54.405017,24.484393],[54.404939,24.484734],[54.405649,24.484877],[54.405773,24.484485],[54.405017,24.484393]]]}},{"type":"Feature","properties":{},"geometry":{"type":"Polygon","coordinates":[[[54.407072,24.485619],[54.407366,24.485332],[54.407292,24.485268],[54.407262,24.485263],[54.406967,24.48555],[54.407042,24.485614],[54.407072,24.485619]]]}},{"type":"Feature","properties":{},"geometry":{"type":"Polygon","coordinates":[[[54.406848,24.485676],[54.40689,24.485615],[54.406754,24.485552],[54.406713,24.485613],[54.406848,24.485676]]]}},{"type":"Feature","properties":{},"geometry":{"type":"Polygon","coordinates":[[[54.405992,24.487455],[54.405832,24.487429],[54.405686,24.487602],[54.405983,24.487822],[54.406143,24.487848],[54.406288,24.487668],[54.405992,24.487455]]]}},{"type":"Feature","properties":{},"geometry":{"type":"Polygon","coordinates":[[[54.407628,24.488286],[54.407348,24.487878],[54.407318,24.487873],[54.406497,24.488337],[54.406776,24.488745],[54.406807,24.48875],[54.407628,24.488286]]]}},{"type":"Feature","properties":{},"geometry":{"type":"Polygon","coordinates":[[[54.407021,24.490271],[54.406961,24.490292],[54.406989,24.490373],[54.407019,24.490378],[54.407084,24.490356],[54.407051,24.490276],[54.407021,24.490271]]]}},{"type":"Feature","properties":{},"geometry":{"type":"Polygon","coordinates":[[[54.406376,24.493093],[54.406506,24.492965],[54.406409,24.492884],[54.406379,24.492879],[54.406249,24.493007],[54.406346,24.493088],[54.406376,24.493093]]]}},{"type":"Feature","properties":{},"geometry":{"type":"Polygon","coordinates":[[[54.406247,24.492254],[54.405376,24.492715],[54.405341,24.492999],[54.4062,24.493728],[54.406233,24.493733],[54.406559,24.493461],[54.405983,24.492983],[54.406347,24.492648],[54.406174,24.492527],[54.406387,24.492427],[54.406279,24.492259],[54.406247,24.492254]]]}},{"type":"Feature","properties":{},"geometry":{"type":"Polygon","coordinates":[[[54.406402,24.495349],[54.406447,24.495281],[54.40635,24.49524],[54.406305,24.495308],[54.406402,24.495349]]]}},{"type":"Feature","properties":{},"geometry":{"type":"Polygon","coordinates":[[[54.406598,24.495288],[54.406472,24.495298],[54.406475,24.495319],[54.406505,24.495324],[54.40663,24.495321],[54.406628,24.495293],[54.406598,24.495288]]]}},{"type":"Feature","properties":{},"geometry":{"type":"Polygon","coordinates":[[[54.406593,24.495346],[54.406562,24.495341],[54.406486,24.495406],[54.406596,24.495512],[54.406626,24.495517],[54.406702,24.495452],[54.406593,24.495346]]]}},{"type":"Feature","properties":{},"geometry":{"type":"Polygon","coordinates":[[[54.406576,24.495808],[54.406647,24.49567],[54.406515,24.495614],[54.406485,24.495609],[54.40647,24.495638],[54.406423,24.495624],[54.406478,24.495596],[54.406425,24.495508],[54.406395,24.495503],[54.406312,24.495545],[54.406365,24.495633],[54.40641,24.49563],[54.406361,24.495724],[54.406576,24.495808]]]}},{"type":"Feature","properties":{},"geometry":{"type":"Polygon","coordinates":[[[54.406281,24.495824],[54.406327,24.495759],[54.40627,24.495738],[54.406224,24.495803],[54.406281,24.495824]]]}},{"type":"Feature","properties":{},"geometry":{"type":"Polygon","coordinates":[[[54.406167,24.495971],[54.406173,24.49601],[54.406202,24.496035],[54.406271,24.496047],[54.406269,24.496026],[54.406232,24.496012],[54.40622,24.495973],[54.406167,24.495971]]]}},{"type":"Feature","properties":{},"geometry":{"type":"Polygon","coordinates":[[[54.406327,24.496131],[54.406312,24.496158],[54.406415,24.496198],[54.40643,24.496171],[54.406327,24.496131]]]}},{"type":"Feature","properties":{},"geometry":{"type":"Polygon","coordinates":[[[54.405962,24.496854],[54.405897,24.496904],[54.405977,24.496993],[54.406007,24.496998],[54.406074,24.49695],[54.405993,24.496859],[54.405962,24.496854]]]}},{"type":"Feature","properties":{},"geometry":{"type":"Polygon","coordinates":[[[54.407431,24.497095],[54.407464,24.49678],[54.407376,24.496766],[54.407136,24.496768],[54.40713,24.496997],[54.407089,24.49677],[54.407014,24.496758],[54.406722,24.496827],[54.406805,24.497122],[54.40688,24.497134],[54.407142,24.497062],[54.407431,24.497095]]]}},{"type":"Feature","properties":{},"geometry":{"type":"Polygon","coordinates":[[[54.406656,24.496773],[54.406329,24.496853],[54.406432,24.497223],[54.406462,24.497228],[54.40677,24.497147],[54.406686,24.496777],[54.406656,24.496773]]]}},{"type":"Feature","properties":{},"geometry":{"type":"Polygon","coordinates":[[[54.406021,24.49738],[54.406037,24.497331],[54.4058,24.497287],[54.40574,24.497548],[54.40603,24.497599],[54.406044,24.497537],[54.406083,24.497544],[54.406119,24.497395],[54.406021,24.49738]]]}},{"type":"Feature","properties":{},"geometry":{"type":"Polygon","coordinates":[[[54.406432,24.504537],[54.406428,24.504679],[54.406553,24.504686],[54.406556,24.504544],[54.406432,24.504537]]]}},{"type":"Feature","properties":{},"geometry":{"type":"Polygon","coordinates":[[[54.406088,24.504593],[54.406141,24.504759],[54.406263,24.504743],[54.406214,24.504575],[54.406088,24.504593]]]}},{"type":"Feature","properties":{},"geometry":{"type":"Polygon","coordinates":[[[54.407063,24.505597],[54.40695,24.505497],[54.406674,24.505453],[54.406649,24.505478],[54.406374,24.505245],[54.406344,24.50524],[54.406082,24.505495],[54.406364,24.505735],[54.406394,24.50574],[54.406432,24.505703],[54.406702,24.505922],[54.406978,24.505966],[54.407069,24.505861],[54.407104,24.505739],[54.407063,24.505597]]]}},{"type":"Feature","properties":{},"geometry":{"type":"Polygon","coordinates":[[[54.405522,24.505794],[54.405616,24.505479],[54.405385,24.505424],[54.405291,24.505739],[54.405522,24.505794]]]}},{"type":"Feature","properties":{},"geometry":{"type":"Polygon","coordinates":[[[54.405389,24.506226],[54.405505,24.505928],[54.405179,24.505828],[54.405064,24.506126],[54.405389,24.506226]]]}},{"type":"Feature","properties":{},"geometry":{"type":"Polygon","coordinates":[[[54.405282,24.506618],[54.405375,24.50637],[54.405066,24.506279],[54.404973,24.506527],[54.405282,24.506618]]]}},{"type":"Feature","properties":{},"geometry":{"type":"Polygon","coordinates":[[[54.405092,24.507116],[54.405267,24.506721],[54.404948,24.50662],[54.404806,24.507019],[54.405092,24.507116]]]}},{"type":"Feature","properties":{},"geometry":{"type":"Polygon","coordinates":[[[54.404437,24.507235],[54.404404,24.507263],[54.404497,24.507354],[54.404527,24.507359],[54.40456,24.507331],[54.404467,24.50724],[54.404437,24.507235]]]}},{"type":"Feature","properties":{},"geometry":{"type":"Polygon","coordinates":[[[54.406644,24.507341],[54.406601,24.50737],[54.406721,24.507521],[54.406751,24.507526],[54.406794,24.507497],[54.406675,24.507346],[54.406644,24.507341]]]}},{"type":"Feature","properties":{},"geometry":{"type":"Polygon","coordinates":[[[54.405895,24.507004],[54.405593,24.506955],[54.405529,24.506966],[54.404898,24.508066],[54.404993,24.508131],[54.405294,24.508179],[54.405657,24.508116],[54.406163,24.507207],[54.406156,24.507127],[54.405895,24.507004]]]}},{"type":"Feature","properties":{},"geometry":{"type":"Polygon","coordinates":[[[54.406367,24.507886],[54.406249,24.507993],[54.406645,24.508385],[54.406886,24.508424],[54.406998,24.508309],[54.406607,24.507924],[54.406367,24.507886]]]}},{"type":"Feature","properties":{},"geometry":{"type":"Polygon","coordinates":[[[54.406098,24.508287],[54.40598,24.508394],[54.406377,24.508786],[54.406618,24.508825],[54.406729,24.50871],[54.406339,24.508326],[54.406098,24.508287]]]}},{"type":"Feature","properties":{},"geometry":{"type":"Polygon","coordinates":[[[54.406121,24.509114],[54.406374,24.50915],[54.406473,24.509038],[54.406083,24.508653],[54.405842,24.508615],[54.405724,24.508722],[54.406121,24.509114]]]}},{"type":"Feature","properties":{},"geometry":{"type":"Polygon","coordinates":[[[54.405477,24.509367],[54.405443,24.509405],[54.405231,24.509371],[54.405105,24.509539],[54.405253,24.509684],[54.405656,24.509733],[54.405837,24.50947],[54.405715,24.509406],[54.405477,24.509367]]]}},{"type":"Feature","properties":{},"geometry":{"type":"Polygon","coordinates":[[[54.410443,24.479885],[54.410374,24.479952],[54.410524,24.48008],[54.410554,24.480085],[54.410623,24.480018],[54.410473,24.47989],[54.410443,24.479885]]]}},{"type":"Feature","properties":{},"geometry":{"type":"Polygon","coordinates":[[[54.407183,24.482071],[54.407041,24.482137],[54.407181,24.482327],[54.407302,24.482429],[54.407416,24.48261],[54.407667,24.48265],[54.407856,24.482579],[54.407898,24.482448],[54.4075,24.482003],[54.407249,24.481963],[54.407183,24.482071]]]}},{"type":"Feature","properties":{},"geometry":{"type":"Polygon","coordinates":[[[54.409307,24.482887],[54.409312,24.483001],[54.409438,24.483003],[54.409433,24.482888],[54.409307,24.482887]]]}},{"type":"Feature","properties":{},"geometry":{"type":"Polygon","coordinates":[[[54.408793,24.48444],[54.408584,24.484581],[54.408829,24.484883],[54.408989,24.484909],[54.409199,24.484768],[54.408954,24.484466],[54.408793,24.48444]]]}},{"type":"Feature","properties":{},"geometry":{"type":"Polygon","coordinates":[[[54.408494,24.484803],[54.408334,24.484777],[54.408129,24.484931],[54.408142,24.484996],[54.408361,24.485107],[54.408461,24.485123],[54.408489,24.48516],[54.40865,24.485185],[54.408763,24.485102],[54.408494,24.484803]]]}},{"type":"Feature","properties":{},"geometry":{"type":"Polygon","coordinates":[[[54.408993,24.485683],[54.409072,24.485621],[54.409031,24.485578],[54.409001,24.485574],[54.408922,24.485635],[54.408963,24.485678],[54.408993,24.485683]]]}},{"type":"Feature","properties":{},"geometry":{"type":"Polygon","coordinates":[[[54.407461,24.48569],[54.407698,24.485879],[54.407859,24.485905],[54.40805,24.485706],[54.407988,24.485657],[54.407941,24.485649],[54.407725,24.485471],[54.407564,24.485445],[54.407378,24.485639],[54.407461,24.48569]]]}},{"type":"Feature","properties":{},"geometry":{"type":"Polygon","coordinates":[[[54.409397,24.485985],[54.409484,24.48606],[54.40969,24.486081],[54.409772,24.486057],[54.409855,24.485974],[54.409902,24.485896],[54.409933,24.485782],[54.409925,24.485674],[54.410504,24.486668],[54.41057,24.486679],[54.410929,24.486511],[54.410428,24.48563],[54.410467,24.485604],[54.410478,24.485531],[54.410469,24.485478],[54.410453,24.485456],[54.410388,24.485446],[54.410315,24.485455],[54.410316,24.485434],[54.410427,24.485432],[54.410469,24.485405],[54.410499,24.485333],[54.411043,24.485115],[54.410869,24.484796],[54.410804,24.484786],[54.409836,24.485253],[54.409812,24.485297],[54.409739,24.485254],[54.409673,24.485244],[54.409599,24.48533],[54.409423,24.4854],[54.409337,24.485483],[54.4093,24.485577],[54.409298,24.485763],[54.409317,24.485856],[54.409397,24.485985]]]}},{"type":"Feature","properties":{},"geometry":{"type":"Polygon","coordinates":[[[54.409129,24.485845],[54.409159,24.48585],[54.409218,24.485816],[54.409137,24.485699],[54.409192,24.485667],[54.409167,24.485631],[54.409136,24.485626],[54.409022,24.485692],[54.409129,24.485845]]]}},{"type":"Feature","properties":{},"geometry":{"type":"Polygon","coordinates":[[[54.407635,24.486039],[54.40773,24.485936],[54.407681,24.485899],[54.407651,24.485895],[54.407557,24.485997],[54.407605,24.486034],[54.407635,24.486039]]]}},{"type":"Feature","properties":{},"geometry":{"type":"Polygon","coordinates":[[[54.409277,24.487369],[54.409247,24.487364],[54.408884,24.487647],[54.408334,24.48801],[54.408637,24.488493],[54.408667,24.488498],[54.409541,24.488062],[54.40939,24.487789],[54.40936,24.487784],[54.408652,24.488179],[54.40862,24.488127],[54.409393,24.487695],[54.409277,24.487369]]]}},{"type":"Feature","properties":{},"geometry":{"type":"Polygon","coordinates":[[[54.410556,24.488405],[54.410422,24.488416],[54.410427,24.488464],[54.410138,24.488492],[54.410183,24.488928],[54.410681,24.488892],[54.410668,24.488773],[54.410935,24.48875],[54.410892,24.488335],[54.410551,24.488356],[54.410556,24.488405]]]}},{"type":"Feature","properties":{},"geometry":{"type":"Polygon","coordinates":[[[54.407768,24.488343],[54.407361,24.488562],[54.407644,24.488949],[54.407675,24.488954],[54.40805,24.488724],[54.407798,24.488348],[54.407768,24.488343]]]}},{"type":"Feature","properties":{},"geometry":{"type":"Polygon","coordinates":[[[54.407309,24.488565],[54.406903,24.488795],[54.407183,24.489203],[54.407213,24.489208],[54.407619,24.488978],[54.407339,24.488569],[54.407309,24.488565]]]}},{"type":"Feature","properties":{},"geometry":{"type":"Polygon","coordinates":[[[54.410216,24.489184],[54.410623,24.489154],[54.410674,24.489615],[54.410856,24.489606],[54.410792,24.489029],[54.410204,24.489076],[54.410216,24.489184]]]}},{"type":"Feature","properties":{},"geometry":{"type":"Polygon","coordinates":[[[54.409251,24.491267],[54.409298,24.491268],[54.409302,24.491161],[54.409037,24.491149],[54.409036,24.491182],[54.408959,24.49118],[54.408947,24.491294],[54.409008,24.4913],[54.409007,24.491323],[54.409038,24.491328],[54.409249,24.491334],[54.409251,24.491267]]]}},{"type":"Feature","properties":{},"geometry":{"type":"Polygon","coordinates":[[[54.407294,24.494291],[54.407536,24.494453],[54.408571,24.495082],[54.408144,24.495712],[54.406931,24.495037],[54.406894,24.495031],[54.406715,24.495524],[54.406613,24.496087],[54.406559,24.496192],[54.406567,24.496251],[54.406631,24.496295],[54.407283,24.496396],[54.407357,24.496391],[54.407464,24.496357],[54.407633,24.496249],[54.407837,24.496267],[54.408245,24.496386],[54.408308,24.496268],[54.40842,24.496335],[54.408609,24.49641],[54.409475,24.496547],[54.409565,24.496544],[54.409633,24.496516],[54.409651,24.496499],[54.409665,24.496437],[54.409623,24.496351],[54.409541,24.49627],[54.409425,24.49619],[54.409214,24.496101],[54.40852,24.495986],[54.408542,24.495931],[54.408291,24.495794],[54.408719,24.495165],[54.408961,24.495292],[54.409387,24.495361],[54.409746,24.495342],[54.410089,24.495249],[54.409993,24.495069],[54.409905,24.495054],[54.40969,24.494571],[54.409588,24.494071],[54.409666,24.494034],[54.40966,24.493848],[54.409572,24.493834],[54.409559,24.493535],[54.410223,24.493346],[54.410194,24.493136],[54.409532,24.493029],[54.409064,24.493135],[54.408549,24.493307],[54.407982,24.493622],[54.407631,24.493885],[54.407294,24.494291]]]}},{"type":"Feature","properties":{},"geometry":{"type":"Polygon","coordinates":[[[54.407812,24.4967],[54.407491,24.496658],[54.407468,24.497083],[54.408194,24.497176],[54.408332,24.496848],[54.408123,24.496778],[54.407812,24.4967]]]}},{"type":"Feature","properties":{},"geometry":{"type":"Polygon","coordinates":[[[54.409385,24.496689],[54.40877,24.496964],[54.408631,24.496908],[54.40838,24.496868],[54.408294,24.497078],[54.408709,24.497309],[54.40896,24.497349],[54.40978,24.496958],[54.409636,24.496729],[54.409385,24.496689]]]}},{"type":"Feature","properties":{},"geometry":{"type":"Polygon","coordinates":[[[54.408002,24.497236],[54.407959,24.497276],[54.408051,24.497341],[54.408126,24.497356],[54.408181,24.497325],[54.408135,24.497271],[54.408002,24.497236]]]}},{"type":"Feature","properties":{},"geometry":{"type":"Polygon","coordinates":[[[54.409571,24.497972],[54.409321,24.497888],[54.409165,24.497863],[54.40899,24.49793],[54.408992,24.498391],[54.409148,24.498416],[54.409538,24.498349],[54.409571,24.497972]]]}},{"type":"Feature","properties":{},"geometry":{"type":"Polygon","coordinates":[[[54.408874,24.498774],[54.408944,24.498783],[54.408955,24.498616],[54.408852,24.4986],[54.408836,24.49866],[54.408874,24.498774]]]}},{"type":"Feature","properties":{},"geometry":{"type":"Polygon","coordinates":[[[54.409523,24.498783],[54.408993,24.498738],[54.409005,24.499092],[54.408919,24.499457],[54.409364,24.499566],[54.409471,24.49918],[54.409523,24.498783]]]}},{"type":"Feature","properties":{},"geometry":{"type":"Polygon","coordinates":[[[54.409956,24.500301],[54.410005,24.499745],[54.410042,24.499515],[54.410008,24.499444],[54.40993,24.499385],[54.409787,24.499363],[54.409615,24.499373],[54.409548,24.499419],[54.409498,24.499556],[54.409349,24.50004],[54.4093,24.500253],[54.409341,24.500381],[54.409433,24.500448],[54.409643,24.500484],[54.409776,24.500481],[54.409901,24.500417],[54.409956,24.500301]]]}},{"type":"Feature","properties":{},"geometry":{"type":"Polygon","coordinates":[[[54.408085,24.500876],[54.408054,24.500908],[54.408053,24.500954],[54.408025,24.501013],[54.408063,24.501044],[54.408094,24.501049],[54.408145,24.500976],[54.408177,24.500892],[54.408085,24.500876]]]}},{"type":"Feature","properties":{},"geometry":{"type":"Polygon","coordinates":[[[54.409635,24.501436],[54.409605,24.501431],[54.408723,24.501471],[54.408679,24.501799],[54.408752,24.50195],[54.409051,24.501967],[54.409369,24.501958],[54.40946,24.501927],[54.409575,24.501856],[54.409614,24.501751],[54.40964,24.501604],[54.409635,24.501436]]]}},{"type":"Feature","properties":{},"geometry":{"type":"Polygon","coordinates":[[[54.408025,24.50174],[54.407696,24.502403],[54.408144,24.502582],[54.408325,24.502104],[54.408452,24.501862],[54.408025,24.50174]]]}},{"type":"Feature","properties":{},"geometry":{"type":"Polygon","coordinates":[[[54.407515,24.502391],[54.407507,24.502438],[54.407581,24.502453],[54.407638,24.502394],[54.407678,24.502318],[54.407586,24.50231],[54.407515,24.502391]]]}},{"type":"Feature","properties":{},"geometry":{"type":"Polygon","coordinates":[[[54.407285,24.502943],[54.40724,24.502926],[54.407116,24.503077],[54.407209,24.503118],[54.40734,24.503001],[54.407365,24.502999],[54.407433,24.50289],[54.407345,24.502871],[54.407285,24.502943]]]}},{"type":"Feature","properties":{},"geometry":{"type":"Polygon","coordinates":[[[54.406943,24.503344],[54.40688,24.503364],[54.406917,24.503485],[54.407027,24.503472],[54.406973,24.503349],[54.406943,24.503344]]]}},{"type":"Feature","properties":{},"geometry":{"type":"Polygon","coordinates":[[[54.40972,24.503497],[54.409576,24.503605],[54.409909,24.503972],[54.410147,24.50401],[54.410291,24.503901],[54.409959,24.503535],[54.40972,24.503497]]]}},{"type":"Feature","properties":{},"geometry":{"type":"Polygon","coordinates":[[[54.407104,24.503834],[54.407165,24.503685],[54.407036,24.503648],[54.406985,24.503805],[54.407104,24.503834]]]}},{"type":"Feature","properties":{},"geometry":{"type":"Polygon","coordinates":[[[54.409259,24.504094],[54.409054,24.504354],[54.409349,24.504692],[54.4097,24.504748],[54.409962,24.504449],[54.409611,24.50415],[54.409259,24.504094]]]}},{"type":"Feature","properties":{},"geometry":{"type":"Polygon","coordinates":[[[54.407866,24.505725],[54.407868,24.505818],[54.408063,24.505847],[54.408058,24.505746],[54.407866,24.505725]]]}},{"type":"Feature","properties":{},"geometry":{"type":"Polygon","coordinates":[[[54.409502,24.50618],[54.409617,24.506119],[54.409702,24.506026],[54.409747,24.505912],[54.409749,24.505792],[54.40971,24.505685],[54.409636,24.505595],[54.409536,24.50553],[54.409388,24.505493],[54.409265,24.505495],[54.409148,24.505532],[54.40905,24.505601],[54.408981,24.505693],[54.408947,24.505801],[54.408954,24.505922],[54.409005,24.506033],[54.409094,24.506123],[54.409211,24.50618],[54.409372,24.506203],[54.409502,24.50618]]]}},{"type":"Feature","properties":{},"geometry":{"type":"Polygon","coordinates":[[[54.407472,24.506231],[54.407244,24.506239],[54.407028,24.506464],[54.407336,24.506699],[54.407675,24.506754],[54.407967,24.506445],[54.40781,24.506285],[54.407472,24.506231]]]}},{"type":"Feature","properties":{},"geometry":{"type":"Polygon","coordinates":[[[54.407255,24.507344],[54.407357,24.507255],[54.406943,24.506865],[54.406919,24.506861],[54.406822,24.506949],[54.406855,24.506983],[54.406749,24.507074],[54.406783,24.507111],[54.406677,24.507196],[54.407019,24.507514],[54.407043,24.507518],[54.407144,24.507431],[54.407126,24.507414],[54.407222,24.507332],[54.407255,24.507344]]]}},{"type":"Feature","properties":{},"geometry":{"type":"Polygon","coordinates":[[[54.409723,24.507561],[54.409512,24.507349],[54.409481,24.507344],[54.409287,24.507513],[54.409648,24.507874],[54.409678,24.507879],[54.40974,24.507837],[54.409723,24.507561]]]}},{"type":"Feature","properties":{},"geometry":{"type":"Polygon","coordinates":[[[54.407201,24.507812],[54.407231,24.507779],[54.407167,24.507749],[54.407137,24.507782],[54.407201,24.507812]]]}},{"type":"Feature","properties":{},"geometry":{"type":"Polygon","coordinates":[[[54.410343,24.507794],[54.410272,24.507799],[54.410234,24.507724],[54.410122,24.507721],[54.40999,24.507756],[54.409856,24.507859],[54.409825,24.507938],[54.409854,24.50798],[54.409927,24.508019],[54.41014,24.508003],[54.410362,24.50786],[54.410343,24.507794]]]}},{"type":"Feature","properties":{},"geometry":{"type":"Polygon","coordinates":[[[54.40888,24.50792],[54.408846,24.507921],[54.408851,24.508027],[54.40892,24.50803],[54.408919,24.508],[54.408948,24.507999],[54.408955,24.50786],[54.408877,24.507857],[54.40888,24.50792]]]}},{"type":"Feature","properties":{},"geometry":{"type":"Polygon","coordinates":[[[54.409261,24.508237],[54.409351,24.508163],[54.409308,24.508121],[54.409278,24.508116],[54.409189,24.50819],[54.409231,24.508233],[54.409261,24.508237]]]}},{"type":"Feature","properties":{},"geometry":{"type":"Polygon","coordinates":[[[54.409087,24.508715],[54.409148,24.50868],[54.409127,24.508651],[54.409151,24.508636],[54.409189,24.508651],[54.409364,24.508547],[54.409303,24.508461],[54.409273,24.508456],[54.409239,24.508476],[54.409188,24.508405],[54.409158,24.5084],[54.409014,24.508484],[54.409061,24.50855],[54.408987,24.508608],[54.409005,24.508634],[54.408969,24.508655],[54.409,24.508698],[54.409045,24.508694],[54.409057,24.508711],[54.409087,24.508715]]]}},{"type":"Feature","properties":{},"geometry":{"type":"Polygon","coordinates":[[[54.40758,24.508895],[54.407645,24.508845],[54.407618,24.508816],[54.407587,24.508811],[54.407523,24.508861],[54.40755,24.50889],[54.40758,24.508895]]]}},{"type":"Feature","properties":{},"geometry":{"type":"Polygon","coordinates":[[[54.408025,24.50954],[54.40814,24.509422],[54.407855,24.509159],[54.407894,24.509127],[54.407738,24.508974],[54.407708,24.508969],[54.407656,24.509013],[54.407725,24.50908],[54.407538,24.50905],[54.407416,24.509159],[54.407784,24.509501],[54.408025,24.50954]]]}},{"type":"Feature","properties":{},"geometry":{"type":"Polygon","coordinates":[[[54.407687,24.509832],[54.407821,24.509695],[54.407441,24.509338],[54.407281,24.509313],[54.407304,24.50929],[54.4072,24.509202],[54.40717,24.509197],[54.407129,24.509238],[54.407203,24.5093],[54.40706,24.509435],[54.407446,24.509794],[54.407687,24.509832]]]}},{"type":"Feature","properties":{},"geometry":{"type":"Polygon","coordinates":[[[54.406811,24.509574],[54.406652,24.509706],[54.407014,24.510038],[54.407255,24.510076],[54.40742,24.50996],[54.407052,24.509612],[54.406811,24.509574]]]}},{"type":"Feature","properties":{},"geometry":{"type":"Polygon","coordinates":[[[54.409877,24.510311],[54.41022,24.509999],[54.410035,24.50983],[54.410005,24.509826],[54.409662,24.510138],[54.409847,24.510306],[54.409877,24.510311]]]}},{"type":"Feature","properties":{},"geometry":{"type":"Polygon","coordinates":[[[54.411321,24.481841],[54.411222,24.481936],[54.411307,24.482009],[54.411337,24.482013],[54.411514,24.481844],[54.411146,24.481525],[54.411116,24.48152],[54.410943,24.481686],[54.411024,24.481756],[54.411054,24.481761],[54.411139,24.481679],[54.411198,24.48173],[54.411169,24.481758],[54.411214,24.481796],[54.411244,24.481801],[54.411259,24.481787],[54.411321,24.481841]]]}},{"type":"Feature","properties":{},"geometry":{"type":"Polygon","coordinates":[[[54.410906,24.481767],[54.410876,24.481795],[54.410916,24.481829],[54.410946,24.481834],[54.410975,24.481806],[54.410936,24.481772],[54.410906,24.481767]]]}},{"type":"Feature","properties":{},"geometry":{"type":"Polygon","coordinates":[[[54.412593,24.482212],[54.412769,24.481937],[54.412378,24.481741],[54.412202,24.482016],[54.412593,24.482212]]]}},{"type":"Feature","properties":{},"geometry":{"type":"Polygon","coordinates":[[[54.411381,24.482162],[54.41146,24.482082],[54.411398,24.482052],[54.41132,24.482132],[54.411381,24.482162]]]}},{"type":"Feature","properties":{},"geometry":{"type":"Polygon","coordinates":[[[54.410832,24.485218],[54.410723,24.485276],[54.410774,24.485354],[54.410804,24.485359],[54.410912,24.485301],[54.410862,24.485223],[54.410832,24.485218]]]}},{"type":"Feature","properties":{},"geometry":{"type":"Polygon","coordinates":[[[54.411395,24.485666],[54.411499,24.485625],[54.411484,24.485594],[54.411454,24.485589],[54.41135,24.48563],[54.411365,24.485661],[54.411395,24.485666]]]}},{"type":"Feature","properties":{},"geometry":{"type":"Polygon","coordinates":[[[54.411432,24.48566],[54.411375,24.485678],[54.411414,24.485776],[54.411444,24.48578],[54.411501,24.485762],[54.411462,24.485664],[54.411432,24.48566]]]}},{"type":"Feature","properties":{},"geometry":{"type":"Polygon","coordinates":[[[54.413107,24.487233],[54.413184,24.487452],[54.41343,24.487447],[54.413419,24.4872],[54.413283,24.487199],[54.413284,24.487227],[54.413107,24.487233]]]}},{"type":"Feature","properties":{},"geometry":{"type":"Polygon","coordinates":[[[54.413543,24.487459],[54.413245,24.487464],[54.413256,24.48771],[54.413554,24.487705],[54.413551,24.487626],[54.413518,24.487621],[54.413514,24.487534],[54.413547,24.487533],[54.413543,24.487459]]]}},{"type":"Feature","properties":{},"geometry":{"type":"Polygon","coordinates":[[[54.413076,24.487546],[54.412959,24.487562],[54.413014,24.487751],[54.413131,24.487735],[54.413076,24.487546]]]}},{"type":"Feature","properties":{},"geometry":{"type":"Polygon","coordinates":[[[54.415613,24.487685],[54.415615,24.487729],[54.415704,24.487731],[54.415702,24.487687],[54.415613,24.487685]]]}},{"type":"Feature","properties":{},"geometry":{"type":"Polygon","coordinates":[[[54.413519,24.487893],[54.413522,24.487954],[54.41362,24.487957],[54.413617,24.487895],[54.413519,24.487893]]]}},{"type":"Feature","properties":{},"geometry":{"type":"Polygon","coordinates":[[[54.415702,24.487946],[54.415703,24.48797],[54.415782,24.487973],[54.415775,24.487771],[54.415123,24.487771],[54.415123,24.487815],[54.415187,24.48782],[54.415187,24.488213],[54.4154,24.488218],[54.4154,24.487966],[54.415649,24.487966],[54.415649,24.487944],[54.415702,24.487946]]]}},{"type":"Feature","properties":{},"geometry":{"type":"Polygon","coordinates":[[[54.414839,24.488231],[54.414836,24.488326],[54.414998,24.488335],[54.415002,24.48824],[54.414839,24.488231]]]}},{"type":"Feature","properties":{},"geometry":{"type":"Polygon","coordinates":[[[54.415472,24.488296],[54.415474,24.488334],[54.415598,24.488335],[54.415596,24.488297],[54.415472,24.488296]]]}},{"type":"Feature","properties":{},"geometry":{"type":"Polygon","coordinates":[[[54.415318,24.488314],[54.415319,24.488397],[54.415466,24.488401],[54.415465,24.488318],[54.415318,24.488314]]]}},{"type":"Feature","properties":{},"geometry":{"type":"Polygon","coordinates":[[[54.414852,24.488358],[54.414856,24.488478],[54.415009,24.48848],[54.415006,24.48836],[54.414852,24.488358]]]}},{"type":"Feature","properties":{},"geometry":{"type":"Polygon","coordinates":[[[54.415412,24.488438],[54.415411,24.488484],[54.415461,24.488489],[54.415462,24.488443],[54.415412,24.488438]]]}},{"type":"Feature","properties":{},"geometry":{"type":"Polygon","coordinates":[[[54.415463,24.488644],[54.415465,24.488693],[54.415575,24.488695],[54.415573,24.488646],[54.415463,24.488644]]]}},{"type":"Feature","properties":{},"geometry":{"type":"Polygon","coordinates":[[[54.411174,24.48887],[54.411147,24.488931],[54.411198,24.488999],[54.411313,24.489001],[54.411433,24.489161],[54.411262,24.489253],[54.411314,24.489336],[54.411344,24.48934],[54.412024,24.488963],[54.412063,24.489038],[54.411491,24.489354],[54.411585,24.489507],[54.411615,24.489512],[54.411657,24.489496],[54.411713,24.489593],[54.411972,24.489642],[54.411955,24.489719],[54.41215,24.48976],[54.412315,24.489132],[54.412442,24.489135],[54.412501,24.489106],[54.412803,24.48968],[54.412833,24.489685],[54.412986,24.489605],[54.412953,24.489554],[54.413166,24.48946],[54.413224,24.489329],[54.413291,24.489353],[54.413335,24.489178],[54.412685,24.488961],[54.41269,24.488901],[54.41291,24.488943],[54.413519,24.488853],[54.413475,24.48856],[54.412882,24.488623],[54.412847,24.488593],[54.412817,24.488588],[54.412698,24.488651],[54.412625,24.48859],[54.412703,24.48855],[54.412588,24.488403],[54.412725,24.487979],[54.412999,24.488105],[54.413134,24.487958],[54.412775,24.487763],[54.412516,24.487718],[54.412242,24.487705],[54.412264,24.487925],[54.412399,24.487938],[54.412414,24.487909],[54.412476,24.487915],[54.412339,24.488484],[54.412293,24.488492],[54.412011,24.487988],[54.412213,24.487949],[54.412187,24.487713],[54.412157,24.487708],[54.411868,24.487782],[54.411582,24.487957],[54.411414,24.48813],[54.411571,24.488241],[54.411601,24.488246],[54.4118,24.488084],[54.412028,24.488474],[54.41194,24.488725],[54.411214,24.488505],[54.411171,24.4886],[54.411356,24.488668],[54.411319,24.488851],[54.411174,24.48887]],[[54.41178,24.489356],[54.411964,24.489251],[54.411962,24.489302],[54.412063,24.489323],[54.412026,24.489503],[54.411864,24.489469],[54.41178,24.489356]],[[54.412858,24.489261],[54.412896,24.489155],[54.413063,24.489207],[54.413016,24.489333],[54.412911,24.489383],[54.412858,24.489261]]]}},{"type":"Feature","properties":{},"geometry":{"type":"Polygon","coordinates":[[[54.410835,24.489739],[54.410839,24.489782],[54.410918,24.489783],[54.410914,24.489741],[54.410835,24.489739]]]}},{"type":"Feature","properties":{},"geometry":{"type":"Polygon","coordinates":[[[54.410435,24.489495],[54.410256,24.489504],[54.410326,24.49009],[54.410915,24.49004],[54.4109,24.489912],[54.410539,24.48994],[54.410486,24.489929],[54.410435,24.489495]]]}},{"type":"Feature","properties":{},"geometry":{"type":"Polygon","coordinates":[[[54.412428,24.489949],[54.412432,24.490011],[54.412532,24.490012],[54.412528,24.489949],[54.412428,24.489949]]]}},{"type":"Feature","properties":{},"geometry":{"type":"Polygon","coordinates":[[[54.411178,24.490666],[54.411052,24.490661],[54.411051,24.490713],[54.411178,24.490719],[54.411178,24.490666]]]}},{"type":"Feature","properties":{},"geometry":{"type":"Polygon","coordinates":[[[54.411253,24.490954],[54.411251,24.490897],[54.411226,24.490893],[54.411254,24.490893],[54.411254,24.4908],[54.411155,24.490795],[54.411155,24.490888],[54.411184,24.490893],[54.411147,24.490894],[54.411148,24.490951],[54.411253,24.490954]]]}},{"type":"Feature","properties":{},"geometry":{"type":"Polygon","coordinates":[[[54.413443,24.49065],[54.412924,24.490639],[54.412916,24.491132],[54.413425,24.491143],[54.413428,24.49098],[54.413143,24.490972],[54.413146,24.490815],[54.413441,24.490819],[54.413443,24.49065]]]}},{"type":"Feature","properties":{},"geometry":{"type":"Polygon","coordinates":[[[54.410416,24.490817],[54.410413,24.49103],[54.410729,24.491038],[54.410736,24.490771],[54.4106,24.490766],[54.410598,24.490812],[54.410416,24.490817]]]}},{"type":"Feature","properties":{},"geometry":{"type":"Polygon","coordinates":[[[54.412829,24.491185],[54.412828,24.491224],[54.412904,24.491231],[54.412905,24.491192],[54.412829,24.491185]]]}},{"type":"Feature","properties":{},"geometry":{"type":"Polygon","coordinates":[[[54.411185,24.491424],[54.411181,24.491501],[54.411249,24.491508],[54.411252,24.491431],[54.411185,24.491424]]]}},{"type":"Feature","properties":{},"geometry":{"type":"Polygon","coordinates":[[[54.41086,24.491316],[54.410457,24.491298],[54.410444,24.491622],[54.410846,24.49164],[54.41086,24.491316]]]}},{"type":"Feature","properties":{},"geometry":{"type":"Polygon","coordinates":[[[54.411435,24.491191],[54.411364,24.492099],[54.41189,24.492136],[54.411961,24.491228],[54.411435,24.491191]]]}},{"type":"Feature","properties":{},"geometry":{"type":"Polygon","coordinates":[[[54.412108,24.491697],[54.412107,24.491726],[54.412215,24.491733],[54.412216,24.491704],[54.412108,24.491697]]]}},{"type":"Feature","properties":{},"geometry":{"type":"Polygon","coordinates":[[[54.411581,24.492292],[54.411578,24.49238],[54.411736,24.492388],[54.411739,24.4923],[54.411581,24.492292]]]}},{"type":"Feature","properties":{},"geometry":{"type":"Polygon","coordinates":[[[54.411973,24.492459],[54.411972,24.492557],[54.412184,24.492563],[54.412185,24.492465],[54.411973,24.492459]]]}},{"type":"Feature","properties":{},"geometry":{"type":"Polygon","coordinates":[[[54.410614,24.495998],[54.410587,24.496014],[54.410538,24.49597],[54.410337,24.495938],[54.410046,24.496169],[54.41015,24.496288],[54.410069,24.496343],[54.410179,24.496484],[54.410379,24.496516],[54.410543,24.496413],[54.410447,24.496288],[54.410509,24.496236],[54.410552,24.496292],[54.410752,24.496324],[54.410976,24.49622],[54.410815,24.49603],[54.410614,24.495998]]]}},{"type":"Feature","properties":{},"geometry":{"type":"Polygon","coordinates":[[[54.415022,24.497076],[54.415133,24.496918],[54.41501,24.49686],[54.4149,24.497017],[54.415022,24.497076]]]}},{"type":"Feature","properties":{},"geometry":{"type":"Polygon","coordinates":[[[54.41184,24.497505],[54.411526,24.49739],[54.411496,24.497386],[54.411403,24.497422],[54.411699,24.498182],[54.411825,24.498912],[54.411973,24.498907],[54.412155,24.498678],[54.412049,24.498058],[54.412072,24.498049],[54.41184,24.497505]]]}},{"type":"Feature","properties":{},"geometry":{"type":"Polygon","coordinates":[[[54.410624,24.497708],[54.41061,24.498871],[54.410748,24.499018],[54.411023,24.499034],[54.411016,24.49752],[54.410985,24.497515],[54.410798,24.49756],[54.410624,24.497708]]]}},{"type":"Feature","properties":{},"geometry":{"type":"Polygon","coordinates":[[[54.410436,24.501607],[54.410335,24.501603],[54.410333,24.501852],[54.410559,24.501888],[54.410659,24.50189],[54.410658,24.501827],[54.410794,24.501827],[54.410799,24.501602],[54.410768,24.501597],[54.41077,24.501559],[54.410544,24.501523],[54.410437,24.50152],[54.410436,24.501607]]]}},{"type":"Feature","properties":{},"geometry":{"type":"Polygon","coordinates":[[[54.413013,24.502973],[54.413098,24.503119],[54.413173,24.503131],[54.413245,24.503111],[54.413366,24.502821],[54.413454,24.50234],[54.412974,24.502045],[54.412816,24.501893],[54.41273,24.501781],[54.412649,24.501637],[54.412601,24.501498],[54.411982,24.501472],[54.412018,24.501673],[54.412065,24.501807],[54.412137,24.50199],[54.412222,24.502147],[54.412374,24.502354],[54.412629,24.502656],[54.412874,24.50282],[54.413013,24.502973]]]}},{"type":"Feature","properties":{},"geometry":{"type":"Polygon","coordinates":[[[54.411529,24.502276],[54.411457,24.502349],[54.41167,24.502522],[54.4117,24.502527],[54.411772,24.502454],[54.411559,24.502281],[54.411529,24.502276]]]}},{"type":"Feature","properties":{},"geometry":{"type":"Polygon","coordinates":[[[54.410947,24.502245],[54.410913,24.502838],[54.411386,24.502869],[54.411384,24.502707],[54.411254,24.502684],[54.411185,24.502633],[54.411179,24.502253],[54.410947,24.502245]]]}},{"type":"Feature","properties":{},"geometry":{"type":"Polygon","coordinates":[[[54.411463,24.502535],[54.41146,24.502658],[54.411539,24.502664],[54.411542,24.50254],[54.411463,24.502535]]]}},{"type":"Feature","properties":{},"geometry":{"type":"Polygon","coordinates":[[[54.411796,24.502509],[54.411694,24.502566],[54.411855,24.502805],[54.411885,24.50281],[54.411987,24.502753],[54.411826,24.502513],[54.411796,24.502509]]]}},{"type":"Feature","properties":{},"geometry":{"type":"Polygon","coordinates":[[[54.411657,24.50276],[54.411573,24.502795],[54.411649,24.502947],[54.411679,24.502951],[54.411763,24.502916],[54.411687,24.502765],[54.411657,24.50276]]]}},{"type":"Feature","properties":{},"geometry":{"type":"Polygon","coordinates":[[[54.415022,24.504344],[54.41518,24.504212],[54.41533,24.504341],[54.41549,24.504367],[54.415668,24.504218],[54.415438,24.504037],[54.415408,24.504032],[54.415391,24.504044],[54.415311,24.504031],[54.41517,24.504171],[54.415004,24.504034],[54.414826,24.504005],[54.414667,24.504163],[54.414844,24.504316],[54.415022,24.504344]]]}},{"type":"Feature","properties":{},"geometry":{"type":"Polygon","coordinates":[[[54.410911,24.504243],[54.410943,24.504084],[54.410233,24.503968],[54.410201,24.504126],[54.410911,24.504243]]]}},{"type":"Feature","properties":{},"geometry":{"type":"Polygon","coordinates":[[[54.414556,24.50456],[54.414734,24.504411],[54.414538,24.50425],[54.414312,24.504214],[54.414153,24.504371],[54.414331,24.504524],[54.414556,24.50456]]]}},{"type":"Feature","properties":{},"geometry":{"type":"Polygon","coordinates":[[[54.414851,24.505004],[54.415028,24.504856],[54.414832,24.504694],[54.414671,24.504668],[54.414513,24.504826],[54.41469,24.504979],[54.414851,24.505004]]]}},{"type":"Feature","properties":{},"geometry":{"type":"Polygon","coordinates":[[[54.415343,24.50516],[54.415391,24.505158],[54.415568,24.50501],[54.415372,24.504848],[54.415232,24.504826],[54.415073,24.504983],[54.415251,24.505136],[54.415343,24.50516]]]}},{"type":"Feature","properties":{},"geometry":{"type":"Polygon","coordinates":[[[54.410803,24.506797],[54.410827,24.506733],[54.410762,24.506713],[54.410777,24.50662],[54.410708,24.50658],[54.410546,24.50654],[54.410371,24.50656],[54.410298,24.506611],[54.410298,24.506661],[54.410335,24.50673],[54.410383,24.506739],[54.410502,24.506803],[54.410618,24.506813],[54.410803,24.506797]]]}},{"type":"Feature","properties":{},"geometry":{"type":"Polygon","coordinates":[[[54.411074,24.506948],[54.410977,24.506911],[54.410947,24.506963],[54.410847,24.506938],[54.410793,24.506994],[54.410732,24.507106],[54.410726,24.507266],[54.410769,24.50734],[54.410853,24.507353],[54.410934,24.507331],[54.410952,24.50729],[54.41104,24.507194],[54.411074,24.506948]]]}},{"type":"Feature","properties":{},"geometry":{"type":"Polygon","coordinates":[[[54.410813,24.508596],[54.410809,24.508696],[54.411128,24.508711],[54.411131,24.508613],[54.410813,24.508596]]]}},{"type":"Feature","properties":{},"geometry":{"type":"Polygon","coordinates":[[[54.41158,24.508954],[54.411571,24.509162],[54.411724,24.509171],[54.411733,24.508963],[54.41158,24.508954]]]}},{"type":"Feature","properties":{},"geometry":{"type":"Polygon","coordinates":[[[54.410698,24.509064],[54.4107,24.509161],[54.410792,24.509165],[54.41079,24.509068],[54.410698,24.509064]]]}},{"type":"Feature","properties":{},"geometry":{"type":"Polygon","coordinates":[[[54.411507,24.509345],[54.411517,24.508989],[54.411248,24.508984],[54.411234,24.509309],[54.411307,24.509316],[54.411307,24.509336],[54.411507,24.509345]]]}},{"type":"Feature","properties":{},"geometry":{"type":"Polygon","coordinates":[[[54.411123,24.509147],[54.411122,24.509219],[54.4112,24.509225],[54.411201,24.509153],[54.411123,24.509147]]]}},{"type":"Feature","properties":{},"geometry":{"type":"Polygon","coordinates":[[[54.41156,24.509263],[54.411555,24.50948],[54.411703,24.509486],[54.411708,24.509269],[54.41156,24.509263]]]}},{"type":"Feature","properties":{},"geometry":{"type":"Polygon","coordinates":[[[54.411478,24.509528],[54.411475,24.509438],[54.410723,24.509449],[54.410727,24.509544],[54.411478,24.509528]]]}},{"type":"Feature","properties":{},"geometry":{"type":"Polygon","coordinates":[[[54.411355,24.509641],[54.411256,24.509681],[54.411333,24.509838],[54.411363,24.509843],[54.411462,24.509803],[54.411385,24.509646],[54.411355,24.509641]]]}},{"type":"Feature","properties":{},"geometry":{"type":"Polygon","coordinates":[[[54.418529,24.481901],[54.41853,24.481923],[54.418605,24.481925],[54.418603,24.481903],[54.418529,24.481901]]]}},{"type":"Feature","properties":{},"geometry":{"type":"Polygon","coordinates":[[[54.418814,24.482327],[54.41846,24.482285],[54.418442,24.482417],[54.418795,24.482459],[54.418814,24.482327]]]}},{"type":"Feature","properties":{},"geometry":{"type":"Polygon","coordinates":[[[54.418434,24.482447],[54.418417,24.482581],[54.418773,24.482618],[54.41879,24.482484],[54.418434,24.482447]]]}},{"type":"Feature","properties":{},"geometry":{"type":"Polygon","coordinates":[[[54.418396,24.482685],[54.418382,24.482821],[54.418738,24.482853],[54.418752,24.482718],[54.418396,24.482685]]]}},{"type":"Feature","properties":{},"geometry":{"type":"Polygon","coordinates":[[[54.418366,24.482861],[54.418361,24.482982],[54.418716,24.483],[54.418722,24.482878],[54.418366,24.482861]]]}},{"type":"Feature","properties":{},"geometry":{"type":"Polygon","coordinates":[[[54.417238,24.487724],[54.417239,24.487769],[54.417355,24.487773],[54.417354,24.487728],[54.417238,24.487724]]]}},{"type":"Feature","properties":{},"geometry":{"type":"Polygon","coordinates":[[[54.415855,24.487746],[54.415853,24.48779],[54.415915,24.487796],[54.415917,24.487752],[54.415855,24.487746]]]}},{"type":"Feature","properties":{},"geometry":{"type":"Polygon","coordinates":[[[54.415997,24.487765],[54.415996,24.487795],[54.416132,24.487803],[54.416134,24.487774],[54.415997,24.487765]]]}},{"type":"Feature","properties":{},"geometry":{"type":"Polygon","coordinates":[[[54.415997,24.487814],[54.416006,24.487944],[54.416292,24.487936],[54.416284,24.487806],[54.415997,24.487814]]]}},{"type":"Feature","properties":{},"geometry":{"type":"Polygon","coordinates":[[[54.416008,24.487961],[54.41601,24.488017],[54.416276,24.488015],[54.416274,24.487959],[54.416008,24.487961]]]}},{"type":"Feature","properties":{},"geometry":{"type":"Polygon","coordinates":[[[54.416335,24.488024],[54.416351,24.488306],[54.416476,24.488307],[54.416479,24.488365],[54.416556,24.488368],[54.416531,24.488234],[54.416591,24.488233],[54.416621,24.488248],[54.416706,24.488249],[54.416706,24.488305],[54.416779,24.488309],[54.416779,24.488253],[54.416712,24.488248],[54.41678,24.488245],[54.416776,24.488153],[54.416633,24.488148],[54.416633,24.488138],[54.416699,24.488138],[54.416695,24.488047],[54.416624,24.488043],[54.416625,24.488023],[54.416697,24.488025],[54.416695,24.487976],[54.416443,24.487975],[54.416442,24.488024],[54.416335,24.488024]],[[54.416452,24.488139],[54.416451,24.488123],[54.416615,24.488128],[54.416452,24.488139]]]}},{"type":"Feature","properties":{},"geometry":{"type":"Polygon","coordinates":[[[54.415648,24.488202],[54.415652,24.488313],[54.415744,24.488316],[54.41574,24.488205],[54.415648,24.488202]]]}},{"type":"Feature","properties":{},"geometry":{"type":"Polygon","coordinates":[[[54.4166,24.488263],[54.416596,24.488328],[54.41668,24.488335],[54.416684,24.488271],[54.4166,24.488263]]]}},{"type":"Feature","properties":{},"geometry":{"type":"Polygon","coordinates":[[[54.416146,24.488352],[54.41615,24.488389],[54.416221,24.48839],[54.416217,24.488354],[54.416146,24.488352]]]}},{"type":"Feature","properties":{},"geometry":{"type":"Polygon","coordinates":[[[54.415601,24.488338],[54.415602,24.488387],[54.415726,24.48839],[54.415725,24.488341],[54.415601,24.488338]]]}},{"type":"Feature","properties":{},"geometry":{"type":"Polygon","coordinates":[[[54.416755,24.488374],[54.416695,24.488368],[54.416694,24.488407],[54.416753,24.488413],[54.416755,24.488374]]]}},{"type":"Feature","properties":{},"geometry":{"type":"Polygon","coordinates":[[[54.416304,24.488387],[54.416306,24.488282],[54.416236,24.488277],[54.416232,24.488489],[54.416557,24.488498],[54.416558,24.488425],[54.416379,24.488418],[54.416379,24.488393],[54.416304,24.488387]]]}},{"type":"Feature","properties":{},"geometry":{"type":"Polygon","coordinates":[[[54.416652,24.488434],[54.416649,24.488477],[54.416724,24.488484],[54.416726,24.48844],[54.416652,24.488434]]]}},{"type":"Feature","properties":{},"geometry":{"type":"Polygon","coordinates":[[[54.416223,24.488882],[54.416227,24.488989],[54.416287,24.488993],[54.416282,24.488886],[54.416223,24.488882]]]}},{"type":"Feature","properties":{},"geometry":{"type":"Polygon","coordinates":[[[54.415999,24.488841],[54.416006,24.489041],[54.416095,24.489044],[54.416088,24.488844],[54.415999,24.488841]]]}},{"type":"Feature","properties":{},"geometry":{"type":"Polygon","coordinates":[[[54.41562,24.488852],[54.415624,24.489052],[54.415713,24.489056],[54.415709,24.488856],[54.41562,24.488852]]]}},{"type":"Feature","properties":{},"geometry":{"type":"Polygon","coordinates":[[[54.415906,24.489143],[54.415903,24.4891],[54.415719,24.489105],[54.415722,24.489146],[54.415906,24.489143]]]}},{"type":"Feature","properties":{},"geometry":{"type":"Polygon","coordinates":[[[54.415784,24.489169],[54.415782,24.48925],[54.415863,24.489256],[54.415865,24.489175],[54.415784,24.489169]]]}},{"type":"Feature","properties":{},"geometry":{"type":"Polygon","coordinates":[[[54.415421,24.489677],[54.415451,24.489682],[54.416322,24.48966],[54.41632,24.489591],[54.416299,24.489587],[54.416297,24.489507],[54.416267,24.489502],[54.415416,24.489523],[54.415421,24.489677]]]}},{"type":"Feature","properties":{},"geometry":{"type":"Polygon","coordinates":[[[54.41724,24.501685],[54.417163,24.501757],[54.41722,24.501818],[54.417181,24.501902],[54.417059,24.501949],[54.417254,24.502089],[54.417284,24.502094],[54.4175,24.50189],[54.41727,24.50169],[54.41724,24.501685]]]}},{"type":"Feature","properties":{},"geometry":{"type":"Polygon","coordinates":[[[54.416805,24.501887],[54.41682,24.501934],[54.416895,24.501927],[54.41688,24.50188],[54.416805,24.501887]]]}},{"type":"Feature","properties":{},"geometry":{"type":"Polygon","coordinates":[[[54.416788,24.501969],[54.416787,24.501921],[54.416572,24.501928],[54.416574,24.501975],[54.416788,24.501969]]]}},{"type":"Feature","properties":{},"geometry":{"type":"Polygon","coordinates":[[[54.41759,24.502323],[54.417548,24.502351],[54.417577,24.502387],[54.417607,24.502392],[54.417649,24.502364],[54.41762,24.502328],[54.41759,24.502323]]]}},{"type":"Feature","properties":{},"geometry":{"type":"Polygon","coordinates":[[[54.417885,24.502453],[54.417861,24.502478],[54.417908,24.502514],[54.417938,24.502519],[54.417962,24.502494],[54.417915,24.502458],[54.417885,24.502453]]]}},{"type":"Feature","properties":{},"geometry":{"type":"Polygon","coordinates":[[[54.415501,24.502417],[54.415496,24.502476],[54.415552,24.502483],[54.415556,24.502423],[54.415501,24.502417]]]}},{"type":"Feature","properties":{},"geometry":{"type":"Polygon","coordinates":[[[54.417421,24.502442],[54.417421,24.502556],[54.41753,24.502567],[54.417534,24.502447],[54.417421,24.502442]]]}},{"type":"Feature","properties":{},"geometry":{"type":"Polygon","coordinates":[[[54.416892,24.50263],[54.416893,24.502654],[54.417026,24.502657],[54.417025,24.502632],[54.416892,24.50263]]]}},{"type":"Feature","properties":{},"geometry":{"type":"Polygon","coordinates":[[[54.415496,24.502687],[54.415496,24.502649],[54.415452,24.502644],[54.4155,24.502641],[54.415498,24.502608],[54.41539,24.502607],[54.415392,24.50264],[54.415412,24.502643],[54.415395,24.502643],[54.415395,24.502682],[54.415496,24.502687]]]}},{"type":"Feature","properties":{},"geometry":{"type":"Polygon","coordinates":[[[54.417333,24.50279],[54.417329,24.502717],[54.417084,24.50272],[54.417054,24.502707],[54.416945,24.502702],[54.416942,24.502762],[54.417059,24.502771],[54.41706,24.502794],[54.417333,24.50279]]]}},{"type":"Feature","properties":{},"geometry":{"type":"Polygon","coordinates":[[[54.417432,24.502715],[54.417344,24.502715],[54.417349,24.502775],[54.417438,24.502776],[54.417432,24.502715]]]}},{"type":"Feature","properties":{},"geometry":{"type":"Polygon","coordinates":[[[54.415565,24.502779],[54.415561,24.502807],[54.415644,24.502817],[54.415648,24.50279],[54.415565,24.502779]]]}},{"type":"Feature","properties":{},"geometry":{"type":"Polygon","coordinates":[[[54.415396,24.502784],[54.415403,24.502838],[54.415495,24.502837],[54.415488,24.502783],[54.415396,24.502784]]]}},{"type":"Feature","properties":{},"geometry":{"type":"Polygon","coordinates":[[[54.415689,24.502779],[54.415685,24.502856],[54.415841,24.502866],[54.415845,24.502788],[54.415689,24.502779]]]}},{"type":"Feature","properties":{},"geometry":{"type":"Polygon","coordinates":[[[54.415439,24.50285],[54.415447,24.502901],[54.415535,24.502898],[54.415527,24.502848],[54.415439,24.50285]]]}},{"type":"Feature","properties":{},"geometry":{"type":"Polygon","coordinates":[[[54.417267,24.503056],[54.417265,24.503098],[54.417402,24.503107],[54.417404,24.503065],[54.417267,24.503056]]]}},{"type":"Feature","properties":{},"geometry":{"type":"Polygon","coordinates":[[[54.417556,24.503144],[54.417465,24.503137],[54.417461,24.503227],[54.417553,24.503234],[54.417556,24.503144]]]}},{"type":"Feature","properties":{},"geometry":{"type":"Polygon","coordinates":[[[54.417556,24.503169],[54.417557,24.50323],[54.417635,24.503234],[54.417634,24.503173],[54.417556,24.503169]]]}},{"type":"Feature","properties":{},"geometry":{"type":"Polygon","coordinates":[[[54.415635,24.503418],[54.415632,24.503473],[54.415756,24.503481],[54.415758,24.503426],[54.415635,24.503418]]]}},{"type":"Feature","properties":{},"geometry":{"type":"Polygon","coordinates":[[[54.415809,24.503559],[54.415813,24.503642],[54.415885,24.503645],[54.415882,24.503562],[54.415809,24.503559]]]}},{"type":"Feature","properties":{},"geometry":{"type":"Polygon","coordinates":[[[54.417664,24.503569],[54.417657,24.503786],[54.41772,24.503792],[54.417728,24.503575],[54.417664,24.503569]]]}},{"type":"Feature","properties":{},"geometry":{"type":"Polygon","coordinates":[[[54.415356,24.503984],[54.415365,24.504022],[54.415454,24.504014],[54.415445,24.503977],[54.415356,24.503984]]]}},{"type":"Feature","properties":{},"geometry":{"type":"Polygon","coordinates":[[[54.415612,24.504134],[54.415642,24.504139],[54.415713,24.504088],[54.41567,24.504037],[54.41564,24.504033],[54.415568,24.504083],[54.415612,24.504134]]]}},{"type":"Feature","properties":{},"geometry":{"type":"Polygon","coordinates":[[[54.415914,24.504347],[54.416091,24.504198],[54.415895,24.504037],[54.415792,24.50402],[54.415633,24.504178],[54.415811,24.504331],[54.415914,24.504347]]]}},{"type":"Feature","properties":{},"geometry":{"type":"Polygon","coordinates":[[[54.415441,24.504421],[54.415396,24.504457],[54.415445,24.504508],[54.415476,24.504513],[54.41552,24.504477],[54.415471,24.504426],[54.415441,24.504421]]]}},{"type":"Feature","properties":{},"geometry":{"type":"Polygon","coordinates":[[[54.415752,24.504828],[54.415929,24.50468],[54.415733,24.504518],[54.41561,24.504498],[54.415451,24.504656],[54.415629,24.504809],[54.415752,24.504828]]]}},{"type":"Feature","properties":{},"geometry":{"type":"Polygon","coordinates":[[[54.415784,24.50493],[54.415737,24.504966],[54.415794,24.505027],[54.415824,24.505031],[54.415871,24.504995],[54.415814,24.504935],[54.415784,24.50493]]]}},{"type":"Feature","properties":{},"geometry":{"type":"Polygon","coordinates":[[[54.418873,24.480042],[54.418867,24.480078],[54.418943,24.48009],[54.418942,24.480131],[54.41901,24.480137],[54.419011,24.480076],[54.418966,24.480071],[54.418969,24.480057],[54.418873,24.480042]]]}},{"type":"Feature","properties":{},"geometry":{"type":"Polygon","coordinates":[[[54.420687,24.480302],[54.42069,24.480241],[54.420569,24.480232],[54.420562,24.480364],[54.420688,24.480383],[54.420931,24.480393],[54.420934,24.480347],[54.420725,24.480335],[54.420726,24.480307],[54.420687,24.480302]]]}},{"type":"Feature","properties":{},"geometry":{"type":"Polygon","coordinates":[[[54.419929,24.480822],[54.419923,24.480877],[54.420017,24.480888],[54.420023,24.480833],[54.419929,24.480822]]]}},{"type":"Feature","properties":{},"geometry":{"type":"Polygon","coordinates":[[[54.418579,24.481524],[54.41856,24.481659],[54.41891,24.4817],[54.418928,24.481565],[54.418579,24.481524]]]}},{"type":"Feature","properties":{},"geometry":{"type":"Polygon","coordinates":[[[54.418982,24.481589],[54.41896,24.481742],[54.41933,24.481788],[54.419352,24.481635],[54.418982,24.481589]]]}},{"type":"Feature","properties":{},"geometry":{"type":"Polygon","coordinates":[[[54.419421,24.481631],[54.419401,24.481768],[54.419759,24.481812],[54.419778,24.481675],[54.419421,24.481631]]]}},{"type":"Feature","properties":{},"geometry":{"type":"Polygon","coordinates":[[[54.42007,24.481706],[54.420064,24.481769],[54.42023,24.481776],[54.420232,24.481725],[54.42007,24.481706]]]}},{"type":"Feature","properties":{},"geometry":{"type":"Polygon","coordinates":[[[54.418544,24.481691],[54.41855,24.481831],[54.418763,24.481829],[54.41876,24.481747],[54.418704,24.481743],[54.418702,24.481691],[54.418544,24.481691]]]}},{"type":"Feature","properties":{},"geometry":{"type":"Polygon","coordinates":[[[54.418826,24.48177],[54.418813,24.48185],[54.418885,24.48186],[54.418898,24.48178],[54.418826,24.48177]]]}},{"type":"Feature","properties":{},"geometry":{"type":"Polygon","coordinates":[[[54.420283,24.481748],[54.42026,24.481911],[54.420627,24.481956],[54.420651,24.481793],[54.420283,24.481748]]]}},{"type":"Feature","properties":{},"geometry":{"type":"Polygon","coordinates":[[[54.420715,24.481813],[54.420707,24.481946],[54.421062,24.481967],[54.42107,24.481835],[54.420715,24.481813]]]}},{"type":"Feature","properties":{},"geometry":{"type":"Polygon","coordinates":[[[54.419851,24.481856],[54.419834,24.481991],[54.420185,24.482029],[54.420202,24.481894],[54.419851,24.481856]]]}},{"type":"Feature","properties":{},"geometry":{"type":"Polygon","coordinates":[[[54.421037,24.482017],[54.420697,24.48197],[54.420677,24.482093],[54.421017,24.48214],[54.421037,24.482017]]]}},{"type":"Feature","properties":{},"geometry":{"type":"Polygon","coordinates":[[[54.419294,24.481947],[54.419275,24.482078],[54.41963,24.482121],[54.419648,24.48199],[54.419294,24.481947]]]}},{"type":"Feature","properties":{},"geometry":{"type":"Polygon","coordinates":[[[54.418851,24.482066],[54.418867,24.481996],[54.418801,24.481985],[54.418785,24.482055],[54.418851,24.482066]]]}},{"type":"Feature","properties":{},"geometry":{"type":"Polygon","coordinates":[[[54.420474,24.482114],[54.420499,24.482025],[54.420378,24.481999],[54.420353,24.482089],[54.420474,24.482114]]]}},{"type":"Feature","properties":{},"geometry":{"type":"Polygon","coordinates":[[[54.419752,24.482199],[54.419756,24.48218],[54.41983,24.482184],[54.41983,24.482135],[54.419733,24.482123],[54.419867,24.482121],[54.419865,24.482024],[54.419674,24.482022],[54.419676,24.482114],[54.419661,24.482112],[54.419648,24.482184],[54.419752,24.482199]]]}},{"type":"Feature","properties":{},"geometry":{"type":"Polygon","coordinates":[[[54.418884,24.482029],[54.418874,24.482108],[54.419226,24.482148],[54.419237,24.482069],[54.418884,24.482029]]]}},{"type":"Feature","properties":{},"geometry":{"type":"Polygon","coordinates":[[[54.419907,24.482023],[54.419887,24.482154],[54.420238,24.4822],[54.420258,24.482069],[54.419907,24.482023]]]}},{"type":"Feature","properties":{},"geometry":{"type":"Polygon","coordinates":[[[54.418494,24.482084],[54.418475,24.482211],[54.418828,24.482256],[54.418847,24.482129],[54.418494,24.482084]]]}},{"type":"Feature","properties":{},"geometry":{"type":"Polygon","coordinates":[[[54.419879,24.482189],[54.419874,24.482228],[54.419666,24.482202],[54.419667,24.482187],[54.419613,24.48218],[54.419616,24.482158],[54.419255,24.482114],[54.419228,24.482308],[54.419561,24.482349],[54.419372,24.482333],[54.419365,24.482406],[54.419393,24.48241],[54.419212,24.482394],[54.419192,24.482579],[54.419555,24.482614],[54.41956,24.48257],[54.419628,24.482577],[54.419663,24.48223],[54.419867,24.482266],[54.419872,24.482241],[54.419855,24.482394],[54.420221,24.482432],[54.420245,24.482227],[54.419879,24.482189]],[[54.419419,24.482413],[54.419551,24.482424],[54.419545,24.482424],[54.419419,24.482413]]]}},{"type":"Feature","properties":{},"geometry":{"type":"Polygon","coordinates":[[[54.42027,24.482219],[54.42026,24.482281],[54.420608,24.482329],[54.420618,24.482267],[54.42027,24.482219]]]}},{"type":"Feature","properties":{},"geometry":{"type":"Polygon","coordinates":[[[54.420657,24.482212],[54.420643,24.482332],[54.420984,24.482366],[54.420997,24.482245],[54.420657,24.482212]]]}},{"type":"Feature","properties":{},"geometry":{"type":"Polygon","coordinates":[[[54.420258,24.482308],[54.420239,24.48244],[54.420591,24.482483],[54.42061,24.482351],[54.420258,24.482308]]]}},{"type":"Feature","properties":{},"geometry":{"type":"Polygon","coordinates":[[[54.420635,24.482364],[54.420616,24.482487],[54.420956,24.482531],[54.420975,24.482409],[54.420635,24.482364]]]}},{"type":"Feature","properties":{},"geometry":{"type":"Polygon","coordinates":[[[54.418842,24.482331],[54.418821,24.482465],[54.419172,24.482511],[54.419193,24.482377],[54.418842,24.482331]]]}},{"type":"Feature","properties":{},"geometry":{"type":"Polygon","coordinates":[[[54.418814,24.482496],[54.418805,24.482555],[54.419157,24.482601],[54.419166,24.482542],[54.418814,24.482496]]]}},{"type":"Feature","properties":{},"geometry":{"type":"Polygon","coordinates":[[[54.420206,24.482504],[54.41984,24.482465],[54.419816,24.482661],[54.420182,24.482699],[54.420206,24.482504]]]}},{"type":"Feature","properties":{},"geometry":{"type":"Polygon","coordinates":[[[54.420223,24.482516],[54.420209,24.482647],[54.420561,24.48268],[54.420575,24.48255],[54.420223,24.482516]]]}},{"type":"Feature","properties":{},"geometry":{"type":"Polygon","coordinates":[[[54.420606,24.482548],[54.420587,24.482694],[54.420925,24.482732],[54.420947,24.482587],[54.420606,24.482548]]]}},{"type":"Feature","properties":{},"geometry":{"type":"Polygon","coordinates":[[[54.420194,24.48267],[54.420186,24.482738],[54.420544,24.482776],[54.420553,24.482708],[54.420194,24.48267]]]}},{"type":"Feature","properties":{},"geometry":{"type":"Polygon","coordinates":[[[54.419191,24.482619],[54.419171,24.48275],[54.419524,24.482796],[54.419544,24.482664],[54.419191,24.482619]]]}},{"type":"Feature","properties":{},"geometry":{"type":"Polygon","coordinates":[[[54.419056,24.482778],[54.419085,24.482692],[54.418957,24.482661],[54.418929,24.482747],[54.419056,24.482778]]]}},{"type":"Feature","properties":{},"geometry":{"type":"Polygon","coordinates":[[[54.419802,24.482698],[54.419782,24.48283],[54.420133,24.482874],[54.420153,24.482743],[54.419802,24.482698]]]}},{"type":"Feature","properties":{},"geometry":{"type":"Polygon","coordinates":[[[54.420918,24.482774],[54.420578,24.482733],[54.420561,24.482854],[54.420901,24.482895],[54.420918,24.482774]]]}},{"type":"Feature","properties":{},"geometry":{"type":"Polygon","coordinates":[[[54.420384,24.482953],[54.420418,24.482863],[54.4203,24.48283],[54.420265,24.48292],[54.420384,24.482953]]]}},{"type":"Feature","properties":{},"geometry":{"type":"Polygon","coordinates":[[[54.418763,24.482813],[54.418757,24.482922],[54.418864,24.482931],[54.418857,24.482995],[54.419219,24.48303],[54.41923,24.482928],[54.419581,24.482966],[54.419598,24.482834],[54.419245,24.482795],[54.419233,24.482887],[54.41888,24.482853],[54.418882,24.482822],[54.418763,24.482813]]]}},{"type":"Feature","properties":{},"geometry":{"type":"Polygon","coordinates":[[[54.4197,24.48285],[54.419682,24.482985],[54.420033,24.483025],[54.420051,24.482891],[54.4197,24.48285]]]}},{"type":"Feature","properties":{},"geometry":{"type":"Polygon","coordinates":[[[54.420544,24.48297],[54.420527,24.48309],[54.420865,24.483132],[54.420882,24.483012],[54.420544,24.48297]]]}},{"type":"Feature","properties":{},"geometry":{"type":"Polygon","coordinates":[[[54.420027,24.483048],[54.419673,24.483014],[54.41966,24.483134],[54.420014,24.483168],[54.420027,24.483048]]]}},{"type":"Feature","properties":{},"geometry":{"type":"Polygon","coordinates":[[[54.420094,24.483],[54.420075,24.483162],[54.420444,24.483198],[54.420462,24.483036],[54.420094,24.483]]]}},{"type":"Feature","properties":{},"geometry":{"type":"Polygon","coordinates":[[[54.42052,24.483123],[54.420507,24.483251],[54.420856,24.483282],[54.420869,24.483154],[54.42052,24.483123]]]}},{"type":"Feature","properties":{},"geometry":{"type":"Polygon","coordinates":[[[54.419482,24.489262],[54.419484,24.489303],[54.419572,24.489305],[54.41957,24.489264],[54.419482,24.489262]]]}},{"type":"Feature","properties":{},"geometry":{"type":"Polygon","coordinates":[[[54.41933,24.489268],[54.419331,24.489307],[54.419463,24.489308],[54.419462,24.489269],[54.41933,24.489268]]]}},{"type":"Feature","properties":{},"geometry":{"type":"Polygon","coordinates":[[[54.419591,24.489266],[54.419592,24.48932],[54.419725,24.489324],[54.419725,24.48927],[54.419591,24.489266]]]}},{"type":"Feature","properties":{},"geometry":{"type":"Polygon","coordinates":[[[54.418987,24.489305],[54.418994,24.489429],[54.419113,24.48943],[54.419107,24.489306],[54.418987,24.489305]]]}},{"type":"Feature","properties":{},"geometry":{"type":"Polygon","coordinates":[[[54.419557,24.489378],[54.419554,24.489481],[54.419688,24.489488],[54.419691,24.489386],[54.419557,24.489378]]]}},{"type":"Feature","properties":{},"geometry":{"type":"Polygon","coordinates":[[[54.419157,24.48954],[54.419166,24.489612],[54.419223,24.489614],[54.419213,24.489542],[54.419157,24.48954]]]}},{"type":"Feature","properties":{},"geometry":{"type":"Polygon","coordinates":[[[54.419563,24.489776],[54.419564,24.489821],[54.419715,24.489824],[54.419714,24.489778],[54.419563,24.489776]]]}},{"type":"Feature","properties":{},"geometry":{"type":"Polygon","coordinates":[[[54.419692,24.490298],[54.41969,24.490177],[54.419611,24.490173],[54.419613,24.490254],[54.419571,24.490258],[54.419579,24.490298],[54.419692,24.490298]]]}},{"type":"Feature","properties":{},"geometry":{"type":"Polygon","coordinates":[[[54.419381,24.490183],[54.419387,24.490305],[54.419468,24.490308],[54.419462,24.490186],[54.419381,24.490183]]]}},{"type":"Feature","properties":{},"geometry":{"type":"Polygon","coordinates":[[[54.419239,24.490277],[54.41924,24.490311],[54.419345,24.490313],[54.419344,24.490279],[54.419239,24.490277]]]}},{"type":"Feature","properties":{},"geometry":{"type":"Polygon","coordinates":[[[54.418376,24.5023],[54.418174,24.502378],[54.418218,24.502471],[54.418248,24.502476],[54.41845,24.502398],[54.418406,24.502305],[54.418376,24.5023]]]}}]}