{"type":"FeatureCollection","features":[{"type":"Feature","properties":{},"geometry":{"type":"Polygon","coordinates":[[[54.390697,24.482594],[54.390718,24.482472],[54.390552,24.482463],[54.390534,24.482586],[54.390697,24.482594]]]}},{"type":"Feature","properties":{},"geometry":{"type":"Polygon","coordinates":[[[54.391035,24.482607],[54.390942,24.482565],[54.390913,24.482569],[54.390797,24.482776],[54.390883,24.48282],[54.390912,24.482816],[54.391035,24.482607]]]}},{"type":"Feature","properties":{},"geometry":{"type":"Polygon","coordinates":[[[54.391149,24.48266],[54.391062,24.48262],[54.391034,24.482624],[54.390918,24.482832],[54.390999,24.482871],[54.391028,24.482867],[54.391149,24.48266]]]}},{"type":"Feature","properties":{},"geometry":{"type":"Polygon","coordinates":[[[54.390681,24.482877],[54.39071,24.482873],[54.390765,24.482792],[54.390518,24.482654],[54.39049,24.482658],[54.390432,24.482739],[54.390681,24.482877]]]}},{"type":"Feature","properties":{},"geometry":{"type":"Polygon","coordinates":[[[54.391195,24.482925],[54.391218,24.482888],[54.391354,24.48295],[54.39138,24.482946],[54.391299,24.483084],[54.391056,24.482942],[54.391028,24.482946],[54.390968,24.483029],[54.391209,24.483172],[54.391238,24.483168],[54.391288,24.483103],[54.391246,24.483174],[54.391474,24.483286],[54.391503,24.483283],[54.39158,24.48316],[54.39149,24.483096],[54.391556,24.482988],[54.391582,24.483001],[54.391667,24.483003],[54.391742,24.482883],[54.391509,24.482769],[54.391481,24.482773],[54.391426,24.482868],[54.391462,24.482801],[54.391195,24.48268],[54.391166,24.482684],[54.391126,24.482754],[54.391228,24.482802],[54.391218,24.48282],[54.391235,24.482829],[54.391221,24.482854],[54.391191,24.482839],[54.391162,24.482843],[54.391122,24.482906],[54.391166,24.482929],[54.391195,24.482925]]]}},{"type":"Feature","properties":{},"geometry":{"type":"Polygon","coordinates":[[[54.390062,24.482824],[54.389997,24.482755],[54.389969,24.482759],[54.389879,24.482829],[54.389944,24.482898],[54.389972,24.482894],[54.390062,24.482824]]]}},{"type":"Feature","properties":{},"geometry":{"type":"Polygon","coordinates":[[[54.392258,24.483115],[54.392281,24.483077],[54.392174,24.483027],[54.392145,24.483031],[54.392135,24.483049],[54.392042,24.483006],[54.392013,24.48301],[54.391993,24.483047],[54.392089,24.483093],[54.392121,24.483084],[54.392231,24.48313],[54.392178,24.483222],[54.392232,24.483247],[54.392261,24.483243],[54.392319,24.48314],[54.392258,24.483115]]]}},{"type":"Feature","properties":{},"geometry":{"type":"Polygon","coordinates":[[[54.392476,24.48318],[54.392379,24.483134],[54.392351,24.483138],[54.392253,24.483316],[54.392346,24.483358],[54.392375,24.483354],[54.392476,24.48318]]]}},{"type":"Feature","properties":{},"geometry":{"type":"Polygon","coordinates":[[[54.391532,24.483387],[54.391503,24.483391],[54.391488,24.483421],[54.391583,24.483461],[54.391612,24.483457],[54.391627,24.483427],[54.391532,24.483387]]]}},{"type":"Feature","properties":{},"geometry":{"type":"Polygon","coordinates":[[[54.391222,24.483708],[54.3913,24.483619],[54.391235,24.483566],[54.391244,24.483555],[54.391295,24.483598],[54.391324,24.483594],[54.391408,24.483498],[54.391224,24.483358],[54.391195,24.483362],[54.390986,24.483568],[54.391192,24.483715],[54.391219,24.483711],[54.391158,24.483764],[54.391295,24.4839],[54.391324,24.483896],[54.391411,24.48382],[54.391274,24.483685],[54.391222,24.483708]]]}},{"type":"Feature","properties":{},"geometry":{"type":"Polygon","coordinates":[[[54.39077,24.484567],[54.390799,24.484563],[54.39089,24.484485],[54.390771,24.484369],[54.390743,24.484373],[54.390651,24.484451],[54.39077,24.484567]]]}},{"type":"Feature","properties":{},"geometry":{"type":"Polygon","coordinates":[[[54.392352,24.488971],[54.392571,24.489058],[54.392678,24.489131],[54.39285,24.489324],[54.393221,24.489185],[54.393236,24.48928],[54.393803,24.489206],[54.39375,24.488869],[54.393172,24.488945],[54.393098,24.488906],[54.393043,24.488846],[54.393017,24.488786],[54.39301,24.488722],[54.393024,24.488658],[54.393057,24.488601],[54.393106,24.488554],[54.393177,24.48852],[54.393708,24.488472],[54.393649,24.487917],[54.392836,24.487989],[54.392874,24.488346],[54.392631,24.488645],[54.392483,24.488575],[54.392314,24.488534],[54.392278,24.488539],[54.392262,24.488618],[54.392179,24.48861],[54.392089,24.488945],[54.392352,24.488971]]]}},{"type":"Feature","properties":{},"geometry":{"type":"Polygon","coordinates":[[[54.392303,24.490933],[54.39237,24.490875],[54.392467,24.490875],[54.392534,24.491002],[54.392949,24.490948],[54.393265,24.491135],[54.393301,24.49113],[54.393375,24.491032],[54.39345,24.491119],[54.393542,24.491173],[54.393648,24.491198],[54.393738,24.491194],[54.393422,24.491577],[54.393475,24.491722],[54.393811,24.491954],[54.39383,24.491951],[54.395053,24.490483],[54.394882,24.49037],[54.394655,24.490384],[54.394478,24.490411],[54.394333,24.490471],[54.394055,24.490808],[54.394011,24.490704],[54.393938,24.490627],[54.393842,24.490574],[54.393734,24.490551],[54.39384,24.490494],[54.393978,24.490318],[54.393927,24.49002],[54.394071,24.490006],[54.394088,24.49015],[54.394669,24.490078],[54.394653,24.489937],[54.394745,24.489924],[54.394704,24.489573],[54.394603,24.489582],[54.394592,24.489484],[54.394016,24.489555],[54.394027,24.489649],[54.393877,24.489669],[54.393901,24.489869],[54.393891,24.489814],[54.393513,24.489847],[54.393237,24.48969],[54.392959,24.489703],[54.392863,24.490091],[54.392821,24.490183],[54.392738,24.490283],[54.392694,24.490286],[54.392562,24.490366],[54.392313,24.49048],[54.392135,24.490511],[54.391935,24.490511],[54.391736,24.490465],[54.3917,24.49047],[54.391685,24.490507],[54.391699,24.490582],[54.391664,24.490605],[54.391616,24.490715],[54.391688,24.490784],[54.391906,24.490827],[54.392267,24.490938],[54.392303,24.490933]]]}},{"type":"Feature","properties":{},"geometry":{"type":"Polygon","coordinates":[[[54.39214,24.491168],[54.392181,24.491494],[54.392502,24.49146],[54.392488,24.491343],[54.392896,24.4913],[54.392869,24.491091],[54.39214,24.491168]]]}},{"type":"Feature","properties":{},"geometry":{"type":"Polygon","coordinates":[[[54.392963,24.492093],[54.39299,24.491892],[54.392934,24.491532],[54.392431,24.491597],[54.392518,24.49215],[54.392963,24.492093]]]}},{"type":"Feature","properties":{},"geometry":{"type":"Polygon","coordinates":[[[54.39287,24.492786],[54.392808,24.492401],[54.392197,24.492483],[54.39226,24.492868],[54.39287,24.492786]]]}},{"type":"Feature","properties":{},"geometry":{"type":"Polygon","coordinates":[[[54.390693,24.492868],[54.390587,24.492771],[54.390558,24.492775],[54.39037,24.492946],[54.390476,24.493042],[54.390505,24.493039],[54.390693,24.492868]]]}},{"type":"Feature","properties":{},"geometry":{"type":"Polygon","coordinates":[[[54.390121,24.493761],[54.389283,24.493858],[54.389332,24.494212],[54.39017,24.494115],[54.390121,24.493761]]]}},{"type":"Feature","properties":{},"geometry":{"type":"Polygon","coordinates":[[[54.392647,24.495447],[54.392712,24.496084],[54.392741,24.49608],[54.392795,24.496039],[54.393656,24.495953],[54.393572,24.495316],[54.392647,24.495447]]]}},{"type":"Feature","properties":{},"geometry":{"type":"Polygon","coordinates":[[[54.390144,24.496109],[54.390176,24.496367],[54.390509,24.496344],[54.390506,24.49627],[54.390381,24.496275],[54.390376,24.49624],[54.390448,24.496231],[54.390434,24.496117],[54.390483,24.496112],[54.390486,24.49615],[54.390528,24.496148],[54.390539,24.496336],[54.390643,24.496328],[54.39063,24.496099],[54.390581,24.496102],[54.390627,24.496096],[54.390576,24.495677],[54.39008,24.495733],[54.390085,24.495841],[54.390212,24.495836],[54.390241,24.496073],[54.39023,24.496074],[54.390224,24.496025],[54.390118,24.496036],[54.390128,24.496111],[54.390144,24.496109]]]}},{"type":"Feature","properties":{},"geometry":{"type":"Polygon","coordinates":[[[54.391661,24.496974],[54.391512,24.496982],[54.391514,24.497021],[54.391663,24.497013],[54.391661,24.496974]]]}},{"type":"Feature","properties":{},"geometry":{"type":"Polygon","coordinates":[[[54.391497,24.496987],[54.391393,24.496989],[54.391392,24.497023],[54.391496,24.497021],[54.391497,24.496987]]]}},{"type":"Feature","properties":{},"geometry":{"type":"Polygon","coordinates":[[[54.391662,24.49708],[54.391579,24.497094],[54.391587,24.497131],[54.39167,24.497118],[54.391662,24.49708]]]}},{"type":"Feature","properties":{},"geometry":{"type":"Polygon","coordinates":[[[54.391304,24.497146],[54.391309,24.497052],[54.391157,24.497054],[54.391155,24.497148],[54.391304,24.497146]]]}},{"type":"Feature","properties":{},"geometry":{"type":"Polygon","coordinates":[[[54.391345,24.497181],[54.391203,24.497182],[54.391201,24.497245],[54.391343,24.497244],[54.391345,24.497181]]]}},{"type":"Feature","properties":{},"geometry":{"type":"Polygon","coordinates":[[[54.391626,24.498199],[54.391913,24.49816],[54.391881,24.497941],[54.391505,24.497815],[54.391218,24.497855],[54.391082,24.497922],[54.391117,24.498162],[54.39121,24.498218],[54.391626,24.498199]]]}},{"type":"Feature","properties":{},"geometry":{"type":"Polygon","coordinates":[[[54.393352,24.498198],[54.393355,24.498117],[54.393284,24.49812],[54.393281,24.498201],[54.393352,24.498198]]]}},{"type":"Feature","properties":{},"geometry":{"type":"Polygon","coordinates":[[[54.390929,24.498107],[54.389868,24.498219],[54.389912,24.498572],[54.390974,24.498461],[54.390929,24.498107]]]}},{"type":"Feature","properties":{},"geometry":{"type":"Polygon","coordinates":[[[54.391889,24.500727],[54.391594,24.500755],[54.391632,24.501003],[54.391921,24.500969],[54.391889,24.500727]]]}},{"type":"Feature","properties":{},"geometry":{"type":"Polygon","coordinates":[[[54.390278,24.502523],[54.390353,24.503107],[54.391157,24.503036],[54.3911,24.502522],[54.391418,24.50248],[54.39098,24.498843],[54.389824,24.498975],[54.390259,24.502378],[54.389825,24.502423],[54.389844,24.502572],[54.390278,24.502523]]]}},{"type":"Feature","properties":{},"geometry":{"type":"Polygon","coordinates":[[[54.392183,24.503621],[54.392063,24.503637],[54.392071,24.503686],[54.392191,24.50367],[54.392183,24.503621]]]}},{"type":"Feature","properties":{},"geometry":{"type":"Polygon","coordinates":[[[54.392554,24.503762],[54.392434,24.503767],[54.392435,24.503816],[54.392554,24.503811],[54.392554,24.503762]]]}},{"type":"Feature","properties":{},"geometry":{"type":"Polygon","coordinates":[[[54.392274,24.503831],[54.392268,24.503729],[54.392076,24.503741],[54.392082,24.503843],[54.392274,24.503831]]]}},{"type":"Feature","properties":{},"geometry":{"type":"Polygon","coordinates":[[[54.392558,24.503881],[54.392319,24.50391],[54.39235,24.504131],[54.39259,24.504102],[54.392558,24.503881]]]}},{"type":"Feature","properties":{},"geometry":{"type":"Polygon","coordinates":[[[54.392104,24.503938],[54.392025,24.503944],[54.392036,24.504136],[54.392116,24.50413],[54.392104,24.503938]]]}},{"type":"Feature","properties":{},"geometry":{"type":"Polygon","coordinates":[[[54.392272,24.503917],[54.392136,24.503931],[54.392193,24.504436],[54.392329,24.504421],[54.392272,24.503917]]]}},{"type":"Feature","properties":{},"geometry":{"type":"Polygon","coordinates":[[[54.392368,24.504411],[54.392504,24.504401],[54.392497,24.504307],[54.392592,24.504285],[54.39258,24.504249],[54.392495,24.504269],[54.392488,24.504165],[54.392352,24.504175],[54.392368,24.504411]]]}},{"type":"Feature","properties":{},"geometry":{"type":"Polygon","coordinates":[[[54.392139,24.504225],[54.392061,24.504231],[54.392069,24.504399],[54.392147,24.504393],[54.392139,24.504225]]]}},{"type":"Feature","properties":{},"geometry":{"type":"Polygon","coordinates":[[[54.39262,24.504452],[54.392149,24.5045],[54.392182,24.504775],[54.392653,24.504727],[54.39262,24.504452]]]}},{"type":"Feature","properties":{},"geometry":{"type":"Polygon","coordinates":[[[54.392228,24.504858],[54.392144,24.504867],[54.392152,24.504947],[54.392236,24.504938],[54.392228,24.504858]]]}},{"type":"Feature","properties":{},"geometry":{"type":"Polygon","coordinates":[[[54.392563,24.504815],[54.392424,24.504829],[54.392453,24.505078],[54.392592,24.505063],[54.392563,24.504815]]]}},{"type":"Feature","properties":{},"geometry":{"type":"Polygon","coordinates":[[[54.392431,24.505081],[54.39229,24.505087],[54.392293,24.505197],[54.392434,24.505191],[54.392431,24.505081]]]}},{"type":"Feature","properties":{},"geometry":{"type":"Polygon","coordinates":[[[54.392266,24.505103],[54.39218,24.505108],[54.392182,24.505217],[54.392269,24.505212],[54.392266,24.505103]]]}},{"type":"Feature","properties":{},"geometry":{"type":"Polygon","coordinates":[[[54.392737,24.505136],[54.392493,24.505153],[54.392529,24.505652],[54.392773,24.505636],[54.392737,24.505136]]]}},{"type":"Feature","properties":{},"geometry":{"type":"Polygon","coordinates":[[[54.389993,24.505205],[54.389766,24.505222],[54.389813,24.505815],[54.390056,24.505797],[54.390029,24.505456],[54.390013,24.505457],[54.389993,24.505205]]]}},{"type":"Feature","properties":{},"geometry":{"type":"Polygon","coordinates":[[[54.391859,24.506801],[54.391742,24.506814],[54.391747,24.50686],[54.391865,24.506847],[54.391859,24.506801]]]}},{"type":"Feature","properties":{},"geometry":{"type":"Polygon","coordinates":[[[54.392055,24.506897],[54.392098,24.506888],[54.392088,24.506846],[54.391949,24.506873],[54.391972,24.506963],[54.392067,24.506945],[54.392055,24.506897]]]}},{"type":"Feature","properties":{},"geometry":{"type":"Polygon","coordinates":[[[54.391916,24.506892],[54.391851,24.5069],[54.391859,24.506961],[54.391924,24.506953],[54.391916,24.506892]]]}},{"type":"Feature","properties":{},"geometry":{"type":"Polygon","coordinates":[[[54.392715,24.506783],[54.392501,24.506798],[54.392528,24.507141],[54.392741,24.507125],[54.392715,24.506783]]]}},{"type":"Feature","properties":{},"geometry":{"type":"Polygon","coordinates":[[[54.39194,24.507053],[54.391785,24.507059],[54.391787,24.507148],[54.391942,24.507142],[54.39194,24.507053]]]}},{"type":"Feature","properties":{},"geometry":{"type":"Polygon","coordinates":[[[54.392985,24.507152],[54.392875,24.507164],[54.392882,24.507218],[54.392992,24.507205],[54.392985,24.507152]]]}},{"type":"Feature","properties":{},"geometry":{"type":"Polygon","coordinates":[[[54.391934,24.507327],[54.391502,24.507356],[54.391512,24.507494],[54.391944,24.507466],[54.391934,24.507327]]]}},{"type":"Feature","properties":{},"geometry":{"type":"Polygon","coordinates":[[[54.39118,24.507431],[54.391018,24.507433],[54.391017,24.507514],[54.391179,24.507511],[54.39118,24.507431]]]}},{"type":"Feature","properties":{},"geometry":{"type":"Polygon","coordinates":[[[54.393216,24.508734],[54.393217,24.5087],[54.392941,24.508713],[54.392942,24.508743],[54.393216,24.508734]]]}},{"type":"Feature","properties":{},"geometry":{"type":"Polygon","coordinates":[[[54.393091,24.509737],[54.393021,24.509696],[54.392992,24.5097],[54.392964,24.509742],[54.393034,24.509782],[54.393063,24.509778],[54.393091,24.509737]]]}},{"type":"Feature","properties":{},"geometry":{"type":"Polygon","coordinates":[[[54.404445,24.481313],[54.404282,24.481036],[54.403644,24.481314],[54.403888,24.481587],[54.404445,24.481313]]]}},{"type":"Feature","properties":{},"geometry":{"type":"Polygon","coordinates":[[[54.403255,24.483046],[54.403079,24.482706],[54.402754,24.48227],[54.402706,24.482276],[54.402431,24.482388],[54.402362,24.482355],[54.402377,24.482242],[54.402291,24.482238],[54.402243,24.482245],[54.401374,24.48316],[54.401374,24.483277],[54.401416,24.483341],[54.40159,24.483381],[54.401638,24.483375],[54.401836,24.48329],[54.402124,24.483212],[54.402523,24.483222],[54.403047,24.483402],[54.403095,24.483396],[54.403021,24.483179],[54.403255,24.483046]]]}},{"type":"Feature","properties":{},"geometry":{"type":"Polygon","coordinates":[[[54.403923,24.485804],[54.403951,24.4858],[54.404147,24.485609],[54.404367,24.485274],[54.404472,24.48503],[54.404542,24.48481],[54.40454,24.484515],[54.403722,24.484455],[54.403591,24.484902],[54.403498,24.485078],[54.403311,24.485269],[54.403923,24.485804]]]}},{"type":"Feature","properties":{},"geometry":{"type":"Polygon","coordinates":[[[54.400292,24.48662],[54.40014,24.486796],[54.400607,24.487126],[54.400725,24.487162],[54.400866,24.487117],[54.401207,24.486363],[54.400743,24.486123],[54.400714,24.486127],[54.400602,24.486306],[54.400292,24.48662]]]}},{"type":"Feature","properties":{},"geometry":{"type":"Polygon","coordinates":[[[54.404417,24.486697],[54.404408,24.486649],[54.40406,24.486285],[54.404023,24.48626],[54.403971,24.486254],[54.403899,24.486264],[54.403163,24.486617],[54.403372,24.48717],[54.403406,24.487203],[54.403458,24.487217],[54.40353,24.487207],[54.403767,24.487123],[54.404122,24.486933],[54.40439,24.486736],[54.404417,24.486697]],[[54.403554,24.486721],[54.403892,24.486551],[54.404001,24.486685],[54.403616,24.486891],[54.403554,24.486721]]]}},{"type":"Feature","properties":{},"geometry":{"type":"Polygon","coordinates":[[[54.394484,24.487666],[54.394497,24.487664],[54.394415,24.487734],[54.394275,24.4876],[54.394247,24.487604],[54.394066,24.48776],[54.394084,24.487777],[54.394038,24.487817],[54.394387,24.488188],[54.394275,24.488279],[54.394457,24.488465],[54.394968,24.488395],[54.395185,24.488219],[54.395111,24.488144],[54.395209,24.488065],[54.395036,24.487889],[54.394842,24.48761],[54.394986,24.48759],[54.39537,24.487249],[54.395338,24.487219],[54.395256,24.487186],[54.395144,24.487174],[54.394668,24.48724],[54.394619,24.487284],[54.394661,24.487323],[54.394628,24.487352],[54.394591,24.487347],[54.394562,24.487371],[54.394526,24.487368],[54.39434,24.487519],[54.394484,24.487666]]]}},{"type":"Feature","properties":{},"geometry":{"type":"Polygon","coordinates":[[[54.401144,24.487765],[54.400111,24.487303],[54.399543,24.486934],[54.398968,24.486502],[54.398939,24.486506],[54.397705,24.487855],[54.398845,24.48871],[54.400167,24.489403],[54.400937,24.489717],[54.401728,24.489887],[54.4026,24.489943],[54.40288,24.489596],[54.402625,24.488136],[54.402288,24.488086],[54.401773,24.487981],[54.401144,24.487765]]]}},{"type":"Feature","properties":{},"geometry":{"type":"Polygon","coordinates":[[[54.394622,24.488843],[54.39452,24.488853],[54.394508,24.488755],[54.393933,24.488827],[54.393945,24.488921],[54.393796,24.488942],[54.393837,24.489289],[54.393991,24.489274],[54.394005,24.489392],[54.394585,24.489319],[54.394572,24.489209],[54.394664,24.489197],[54.394622,24.488843]]]}},{"type":"Feature","properties":{},"geometry":{"type":"Polygon","coordinates":[[[54.400402,24.490694],[54.400362,24.490428],[54.400029,24.490471],[54.40007,24.490736],[54.400402,24.490694]]]}},{"type":"Feature","properties":{},"geometry":{"type":"Polygon","coordinates":[[[54.394635,24.491295],[54.394876,24.491468],[54.39495,24.491458],[54.395013,24.491503],[54.395386,24.491452],[54.395487,24.491335],[54.395392,24.491267],[54.395435,24.491218],[54.395238,24.491076],[54.395424,24.49105],[54.395626,24.490818],[54.395387,24.490647],[54.395065,24.490691],[54.394863,24.490923],[54.39505,24.491057],[54.394813,24.491089],[54.394635,24.491295]]]}},{"type":"Feature","properties":{},"geometry":{"type":"Polygon","coordinates":[[[54.39456,24.491526],[54.394382,24.491731],[54.394597,24.491886],[54.394567,24.49189],[54.394529,24.491865],[54.394161,24.491915],[54.394033,24.492076],[54.393984,24.49204],[54.393616,24.492091],[54.393438,24.492296],[54.393679,24.49247],[54.393753,24.492459],[54.393816,24.492505],[54.394184,24.492454],[54.394285,24.492338],[54.394193,24.492266],[54.394216,24.492281],[54.394752,24.492202],[54.394827,24.492108],[54.394752,24.492059],[54.394815,24.491978],[54.394689,24.491895],[54.39476,24.49194],[54.395132,24.491889],[54.395234,24.491772],[54.395139,24.491703],[54.395182,24.491654],[54.394932,24.491475],[54.39456,24.491526]]]}},{"type":"Feature","properties":{},"geometry":{"type":"Polygon","coordinates":[[[54.398667,24.492158],[54.398624,24.49184],[54.398469,24.491858],[54.398512,24.49218],[54.398667,24.492158]]]}},{"type":"Feature","properties":{},"geometry":{"type":"Polygon","coordinates":[[[54.398825,24.492216],[54.398724,24.492229],[54.398752,24.492464],[54.399095,24.49242],[54.399082,24.49232],[54.398848,24.492349],[54.398825,24.492216]]]}},{"type":"Feature","properties":{},"geometry":{"type":"Polygon","coordinates":[[[54.398602,24.492224],[54.398497,24.492237],[54.398541,24.492566],[54.398647,24.492553],[54.398602,24.492224]]]}},{"type":"Feature","properties":{},"geometry":{"type":"Polygon","coordinates":[[[54.395997,24.492631],[54.396062,24.492332],[54.395625,24.492262],[54.395559,24.492561],[54.395997,24.492631]]]}},{"type":"Feature","properties":{},"geometry":{"type":"Polygon","coordinates":[[[54.400649,24.492935],[54.39989,24.493024],[54.399944,24.49341],[54.400704,24.493321],[54.400649,24.492935]]]}},{"type":"Feature","properties":{},"geometry":{"type":"Polygon","coordinates":[[[54.402849,24.494227],[54.40327,24.494173],[54.403293,24.494357],[54.403594,24.494326],[54.403624,24.494369],[54.403672,24.494394],[54.403728,24.494397],[54.403787,24.494381],[54.404017,24.494502],[54.404045,24.494498],[54.404185,24.494278],[54.404124,24.494246],[54.404554,24.493571],[54.404527,24.493557],[54.404581,24.493471],[54.404418,24.493385],[54.404389,24.493389],[54.404344,24.493459],[54.404296,24.493434],[54.404019,24.493462],[54.403957,24.493568],[54.403873,24.493527],[54.403708,24.493544],[54.403703,24.493509],[54.40333,24.493548],[54.403339,24.49362],[54.403245,24.493631],[54.403256,24.493721],[54.402994,24.493757],[54.402997,24.49378],[54.402798,24.493808],[54.402849,24.494227]]]}},{"type":"Feature","properties":{},"geometry":{"type":"Polygon","coordinates":[[[54.393338,24.494463],[54.393342,24.494487],[54.393281,24.494494],[54.393316,24.494734],[54.393613,24.494698],[54.393582,24.494482],[54.393522,24.49449],[54.393515,24.494441],[54.393338,24.494463]]]}},{"type":"Feature","properties":{},"geometry":{"type":"Polygon","coordinates":[[[54.393864,24.495994],[54.394068,24.495812],[54.394285,24.495786],[54.3942,24.495176],[54.393604,24.495246],[54.393711,24.496012],[54.393864,24.495994]]]}},{"type":"Feature","properties":{},"geometry":{"type":"Polygon","coordinates":[[[54.403869,24.497061],[54.403901,24.49713],[54.403859,24.497232],[54.403964,24.497267],[54.404013,24.497372],[54.403858,24.497437],[54.404056,24.497829],[54.404214,24.497807],[54.404298,24.497988],[54.404358,24.49798],[54.404599,24.497783],[54.405002,24.4973],[54.405251,24.496952],[54.405413,24.496686],[54.405411,24.496392],[54.404485,24.49605],[54.404425,24.496058],[54.404359,24.496241],[54.404252,24.496256],[54.404055,24.496752],[54.40416,24.496787],[54.404156,24.496798],[54.404031,24.496815],[54.403943,24.497027],[54.403869,24.497061]]]}},{"type":"Feature","properties":{},"geometry":{"type":"Polygon","coordinates":[[[54.394514,24.496825],[54.394281,24.49711],[54.394362,24.497394],[54.394613,24.497512],[54.394769,24.497442],[54.394885,24.497348],[54.394874,24.497274],[54.394918,24.497211],[54.394997,24.497172],[54.39503,24.497114],[54.394542,24.496821],[54.394514,24.496825]]]}},{"type":"Feature","properties":{},"geometry":{"type":"Polygon","coordinates":[[[54.404135,24.498077],[54.404083,24.498057],[54.404054,24.498061],[54.404041,24.498089],[54.404093,24.498109],[54.404122,24.498105],[54.404135,24.498077]]]}},{"type":"Feature","properties":{},"geometry":{"type":"Polygon","coordinates":[[[54.403927,24.498463],[54.404068,24.498379],[54.404149,24.498291],[54.404172,24.498239],[54.404153,24.498207],[54.404167,24.498192],[54.404081,24.49813],[54.404046,24.498135],[54.403978,24.498096],[54.403942,24.498101],[54.403172,24.498418],[54.402962,24.498465],[54.402811,24.49857],[54.402703,24.498751],[54.40269,24.498896],[54.402394,24.498955],[54.402281,24.499019],[54.402174,24.499128],[54.402135,24.499193],[54.402191,24.499229],[54.402215,24.499263],[54.402229,24.499308],[54.402221,24.499366],[54.402386,24.499391],[54.403167,24.499287],[54.403283,24.499245],[54.403411,24.499157],[54.403515,24.499023],[54.403464,24.498982],[54.403434,24.49893],[54.403429,24.498854],[54.403445,24.498825],[54.403547,24.498701],[54.403653,24.49863],[54.40363,24.498579],[54.403927,24.498463]]]}},{"type":"Feature","properties":{},"geometry":{"type":"Polygon","coordinates":[[[54.396129,24.498519],[54.396044,24.498521],[54.396042,24.498587],[54.396127,24.498585],[54.396129,24.498519]]]}},{"type":"Feature","properties":{},"geometry":{"type":"Polygon","coordinates":[[[54.404627,24.499306],[54.404893,24.499256],[54.405087,24.49919],[54.405252,24.499057],[54.405358,24.498901],[54.40544,24.498736],[54.405445,24.498549],[54.405429,24.498461],[54.405388,24.498458],[54.405412,24.498398],[54.405332,24.498066],[54.405283,24.498019],[54.405209,24.498001],[54.404956,24.498036],[54.404876,24.498063],[54.404836,24.498115],[54.404887,24.498272],[54.404822,24.498341],[54.404797,24.49841],[54.404801,24.49848],[54.404777,24.498585],[54.404718,24.498679],[54.404645,24.498743],[54.404522,24.498796],[54.404451,24.498802],[54.404327,24.498776],[54.404273,24.498784],[54.40418,24.498816],[54.404074,24.498885],[54.404117,24.498927],[54.404092,24.498947],[54.403812,24.498976],[54.403753,24.499004],[54.403717,24.499047],[54.403706,24.499126],[54.403739,24.499197],[54.403849,24.499247],[54.404092,24.499318],[54.404351,24.499282],[54.404353,24.499299],[54.404627,24.499306]]]}},{"type":"Feature","properties":{},"geometry":{"type":"Polygon","coordinates":[[[54.393437,24.498664],[54.393593,24.499669],[54.39537,24.499471],[54.39526,24.498664],[54.395136,24.498542],[54.393437,24.498664]]]}},{"type":"Feature","properties":{},"geometry":{"type":"Polygon","coordinates":[[[54.403277,24.499791],[54.403422,24.49995],[54.403527,24.50002],[54.403644,24.500073],[54.403818,24.500112],[54.40382,24.500143],[54.403848,24.500145],[54.403872,24.50017],[54.403847,24.500197],[54.403851,24.500219],[54.403921,24.500265],[54.404037,24.500266],[54.4043,24.50023],[54.404336,24.500214],[54.404353,24.500188],[54.404328,24.500137],[54.404329,24.499803],[54.404345,24.49978],[54.404325,24.499746],[54.404286,24.499723],[54.404159,24.499696],[54.403974,24.499717],[54.403894,24.499653],[54.403777,24.499622],[54.403635,24.49964],[54.403592,24.499661],[54.403549,24.499625],[54.403592,24.4996],[54.403589,24.499584],[54.403649,24.499568],[54.403672,24.499531],[54.403644,24.499465],[54.403558,24.499379],[54.403484,24.499365],[54.403221,24.499401],[54.403185,24.499442],[54.402897,24.499626],[54.402831,24.499641],[54.402817,24.499669],[54.402824,24.499704],[54.402892,24.49979],[54.402986,24.499839],[54.403277,24.499791]]]}},{"type":"Feature","properties":{},"geometry":{"type":"Polygon","coordinates":[[[54.395534,24.499827],[54.395391,24.499848],[54.395419,24.500001],[54.395562,24.49998],[54.395534,24.499827]]]}},{"type":"Feature","properties":{},"geometry":{"type":"Polygon","coordinates":[[[54.395273,24.500002],[54.395212,24.500012],[54.395235,24.500117],[54.395296,24.500107],[54.395273,24.500002]]]}},{"type":"Feature","properties":{},"geometry":{"type":"Polygon","coordinates":[[[54.39484,24.50034],[54.394861,24.500455],[54.394937,24.500444],[54.394916,24.50033],[54.39484,24.50034]]]}},{"type":"Feature","properties":{},"geometry":{"type":"Polygon","coordinates":[[[54.395488,24.500472],[54.394893,24.500554],[54.395035,24.501403],[54.39563,24.50132],[54.395488,24.500472]]]}},{"type":"Feature","properties":{},"geometry":{"type":"Polygon","coordinates":[[[54.395747,24.501897],[54.395633,24.501899],[54.395629,24.502001],[54.395744,24.502],[54.395747,24.501897]]]}},{"type":"Feature","properties":{},"geometry":{"type":"Polygon","coordinates":[[[54.395873,24.502153],[54.395413,24.502215],[54.395463,24.502523],[54.395924,24.502461],[54.395873,24.502153]]]}},{"type":"Feature","properties":{},"geometry":{"type":"Polygon","coordinates":[[[54.397473,24.504684],[54.397373,24.504691],[54.397378,24.504792],[54.397479,24.504785],[54.397473,24.504684]]]}},{"type":"Feature","properties":{},"geometry":{"type":"Polygon","coordinates":[[[54.39334,24.509228],[54.393352,24.509247],[54.393289,24.509276],[54.393406,24.509446],[54.393462,24.509427],[54.393477,24.509451],[54.393335,24.509523],[54.393322,24.509502],[54.393382,24.509472],[54.393334,24.509406],[54.393305,24.50941],[54.393259,24.509437],[54.393293,24.509485],[54.393067,24.509591],[54.393115,24.509672],[54.393174,24.509654],[54.393259,24.509791],[54.393625,24.509616],[54.393613,24.509596],[54.393795,24.509504],[54.393581,24.509155],[54.393658,24.509149],[54.393655,24.509094],[54.393576,24.5091],[54.393578,24.50915],[54.393563,24.509125],[54.39334,24.509228]]]}},{"type":"Feature","properties":{},"geometry":{"type":"Polygon","coordinates":[[[54.393826,24.509452],[54.393889,24.50943],[54.393853,24.509371],[54.393789,24.509392],[54.393826,24.509452]]]}},{"type":"Feature","properties":{},"geometry":{"type":"Polygon","coordinates":[[[54.394018,24.509606],[54.393949,24.509633],[54.393983,24.509682],[54.394004,24.509679],[54.393989,24.509687],[54.394049,24.509778],[54.394119,24.509751],[54.394058,24.50966],[54.394036,24.509663],[54.394052,24.509655],[54.394018,24.509606]]]}},{"type":"Feature","properties":{},"geometry":{"type":"Polygon","coordinates":[[[54.394003,24.509811],[54.394048,24.509898],[54.394173,24.509852],[54.394128,24.509765],[54.394003,24.509811]]]}},{"type":"Feature","properties":{},"geometry":{"type":"Polygon","coordinates":[[[54.393911,24.50995],[54.39384,24.509959],[54.393846,24.509995],[54.393916,24.509985],[54.393911,24.50995]]]}},{"type":"Feature","properties":{},"geometry":{"type":"Polygon","coordinates":[[[54.394195,24.509998],[54.394163,24.509938],[54.393819,24.510078],[54.393851,24.510138],[54.394195,24.509998]]]}},{"type":"Feature","properties":{},"geometry":{"type":"Polygon","coordinates":[[[54.406324,24.480095],[54.406255,24.479987],[54.40643,24.479895],[54.406373,24.479805],[54.406263,24.479852],[54.406249,24.479829],[54.406281,24.479812],[54.406176,24.479648],[54.405898,24.479783],[54.405954,24.479871],[54.405747,24.47998],[54.405784,24.480038],[54.405708,24.480079],[54.405771,24.480177],[54.405791,24.480175],[54.405877,24.48031],[54.406324,24.480095]]]}},{"type":"Feature","properties":{},"geometry":{"type":"Polygon","coordinates":[[[54.406836,24.48],[54.406771,24.479935],[54.406743,24.479939],[54.40665,24.480016],[54.406714,24.48008],[54.406743,24.480076],[54.406836,24.48]]]}},{"type":"Feature","properties":{},"geometry":{"type":"Polygon","coordinates":[[[54.406404,24.480249],[54.406375,24.480253],[54.406339,24.480326],[54.40632,24.480328],[54.406278,24.480386],[54.406075,24.480533],[54.406107,24.480573],[54.406146,24.480562],[54.406186,24.4806],[54.406237,24.480577],[54.406408,24.480745],[54.406437,24.480741],[54.406583,24.480618],[54.406416,24.480454],[54.406444,24.48045],[54.406479,24.480403],[54.406414,24.480363],[54.406484,24.480376],[54.406523,24.480297],[54.406404,24.480249]],[[54.406361,24.480447],[54.406357,24.48045],[54.406355,24.480448],[54.406361,24.480447]],[[54.406385,24.480436],[54.406388,24.480438],[54.406383,24.480438],[54.406385,24.480436]],[[54.406224,24.480508],[54.406253,24.480485],[54.40628,24.480511],[54.406252,24.480533],[54.406224,24.480508]]]}},{"type":"Feature","properties":{},"geometry":{"type":"Polygon","coordinates":[[[54.405748,24.480415],[54.405644,24.480456],[54.405671,24.480501],[54.405775,24.48046],[54.405748,24.480415]]]}},{"type":"Feature","properties":{},"geometry":{"type":"Polygon","coordinates":[[[54.405239,24.480777],[54.405221,24.480756],[54.405265,24.480723],[54.405317,24.480781],[54.405349,24.480775],[54.40536,24.480788],[54.405389,24.480784],[54.405508,24.480697],[54.405367,24.480537],[54.405338,24.480541],[54.405254,24.480602],[54.405173,24.48051],[54.405144,24.480514],[54.405018,24.480607],[54.404982,24.480566],[54.404954,24.48057],[54.404722,24.48074],[54.404919,24.480962],[54.405002,24.480933],[54.4051,24.480861],[54.405129,24.480857],[54.405239,24.480777]]]}},{"type":"Feature","properties":{},"geometry":{"type":"Polygon","coordinates":[[[54.404697,24.481102],[54.404612,24.481129],[54.404629,24.481164],[54.404714,24.481136],[54.404697,24.481102]]]}},{"type":"Feature","properties":{},"geometry":{"type":"Polygon","coordinates":[[[54.405047,24.482149],[54.405073,24.482289],[54.405121,24.482373],[54.405152,24.482369],[54.405202,24.482469],[54.405417,24.48244],[54.405651,24.482324],[54.405622,24.482223],[54.405591,24.482227],[54.405555,24.482066],[54.4056,24.482166],[54.405665,24.482226],[54.40588,24.482196],[54.40612,24.482046],[54.406055,24.481975],[54.406228,24.481951],[54.406456,24.481804],[54.406244,24.481517],[54.406178,24.481406],[54.405964,24.481435],[54.405786,24.481539],[54.405708,24.481607],[54.405747,24.481653],[54.405631,24.481669],[54.405406,24.481781],[54.405365,24.481829],[54.405397,24.481893],[54.405183,24.481922],[54.405075,24.482027],[54.405047,24.482149]]]}},{"type":"Feature","properties":{},"geometry":{"type":"Polygon","coordinates":[[[54.406679,24.483107],[54.406884,24.483008],[54.40655,24.482498],[54.406517,24.482505],[54.406525,24.4825],[54.406485,24.482446],[54.406457,24.48245],[54.406282,24.482557],[54.406289,24.482567],[54.406078,24.482673],[54.406114,24.482731],[54.406143,24.482727],[54.406349,24.482621],[54.40635,24.482607],[54.406679,24.483107]]]}},{"type":"Feature","properties":{},"geometry":{"type":"Polygon","coordinates":[[[54.405097,24.483269],[54.405289,24.483917],[54.40491,24.484021],[54.404965,24.484363],[54.405703,24.48437],[54.405703,24.483852],[54.405455,24.483133],[54.405097,24.483269]]]}},{"type":"Feature","properties":{},"geometry":{"type":"Polygon","coordinates":[[[54.405743,24.48448],[54.404989,24.484397],[54.404911,24.484738],[54.40559,24.484877],[54.405619,24.484873],[54.405743,24.48448]]]}},{"type":"Feature","properties":{},"geometry":{"type":"Polygon","coordinates":[[[54.406859,24.48561],[54.406754,24.485552],[54.406726,24.485555],[54.406684,24.485617],[54.406789,24.485675],[54.406818,24.485672],[54.406859,24.48561]]]}},{"type":"Feature","properties":{},"geometry":{"type":"Polygon","coordinates":[[[54.405533,24.487623],[54.40583,24.487843],[54.405983,24.487822],[54.406127,24.487642],[54.405832,24.487429],[54.405679,24.48745],[54.405533,24.487623]]]}},{"type":"Feature","properties":{},"geometry":{"type":"Polygon","coordinates":[[[54.407598,24.488281],[54.407318,24.487873],[54.40729,24.487877],[54.406468,24.488341],[54.406748,24.488749],[54.406776,24.488745],[54.407598,24.488281]]]}},{"type":"Feature","properties":{},"geometry":{"type":"Polygon","coordinates":[[[54.407021,24.490271],[54.406932,24.490296],[54.40696,24.490377],[54.407054,24.490352],[54.407021,24.490271]]]}},{"type":"Feature","properties":{},"geometry":{"type":"Polygon","coordinates":[[[54.406476,24.49296],[54.406379,24.492879],[54.40635,24.492883],[54.40622,24.493011],[54.406318,24.493092],[54.406346,24.493088],[54.406476,24.49296]]]}},{"type":"Feature","properties":{},"geometry":{"type":"Polygon","coordinates":[[[54.406217,24.492258],[54.405346,24.492719],[54.405311,24.493004],[54.40617,24.493733],[54.4062,24.493728],[54.406527,24.493456],[54.405951,24.492978],[54.406315,24.492642],[54.406142,24.492521],[54.406355,24.492421],[54.406247,24.492254],[54.406217,24.492258]]]}},{"type":"Feature","properties":{},"geometry":{"type":"Polygon","coordinates":[[[54.406417,24.495276],[54.40635,24.49524],[54.406321,24.495244],[54.406276,24.495312],[54.406343,24.495348],[54.406371,24.495344],[54.406417,24.495276]]]}},{"type":"Feature","properties":{},"geometry":{"type":"Polygon","coordinates":[[[54.406598,24.495288],[54.406443,24.495302],[54.406446,24.495323],[54.4066,24.495316],[54.406598,24.495288]]]}},{"type":"Feature","properties":{},"geometry":{"type":"Polygon","coordinates":[[[54.406672,24.495447],[54.406562,24.495341],[54.406534,24.495345],[54.406458,24.49541],[54.406567,24.495516],[54.406596,24.495512],[54.406672,24.495447]]]}},{"type":"Feature","properties":{},"geometry":{"type":"Polygon","coordinates":[[[54.406336,24.495637],[54.406448,24.495591],[54.406395,24.495503],[54.406283,24.495549],[54.406336,24.495637]]]}},{"type":"Feature","properties":{},"geometry":{"type":"Polygon","coordinates":[[[54.406385,24.495626],[54.406333,24.495728],[54.406517,24.495807],[54.406546,24.495803],[54.406617,24.495665],[54.406485,24.495609],[54.406456,24.495613],[54.406445,24.495635],[54.406385,24.495626]]]}},{"type":"Feature","properties":{},"geometry":{"type":"Polygon","coordinates":[[[54.406297,24.495754],[54.40627,24.495738],[54.406241,24.495742],[54.406196,24.495807],[54.406222,24.495823],[54.406251,24.495819],[54.406297,24.495754]]]}},{"type":"Feature","properties":{},"geometry":{"type":"Polygon","coordinates":[[[54.406014,24.496368],[54.406073,24.496378],[54.406737,24.496292],[54.406898,24.496231],[54.407031,24.496133],[54.407139,24.496212],[54.40749,24.496242],[54.407532,24.496296],[54.407635,24.496382],[54.407829,24.49648],[54.407975,24.496517],[54.408136,24.496523],[54.408833,24.496427],[54.4089,24.496399],[54.408918,24.496381],[54.408932,24.49632],[54.408856,24.496195],[54.408693,24.496072],[54.408481,24.495984],[54.408504,24.495925],[54.408263,24.495794],[54.408658,24.495212],[54.408841,24.495309],[54.409142,24.495358],[54.409621,24.495322],[54.409964,24.495229],[54.409867,24.495048],[54.409653,24.494565],[54.40954,24.494014],[54.409518,24.493451],[54.409564,24.493205],[54.409532,24.493029],[54.408902,24.493116],[54.408434,24.493222],[54.407919,24.493394],[54.407352,24.493709],[54.407001,24.493972],[54.406727,24.494294],[54.406742,24.494304],[54.406688,24.494375],[54.40693,24.494536],[54.4075,24.494458],[54.408474,24.49505],[54.408527,24.495116],[54.408121,24.495714],[54.406894,24.495031],[54.406858,24.495036],[54.406679,24.495529],[54.406607,24.495928],[54.406374,24.49596],[54.406222,24.496015],[54.406202,24.496007],[54.40619,24.495968],[54.406138,24.495975],[54.406144,24.496014],[54.406176,24.49604],[54.406084,24.496102],[54.406023,24.496168],[54.405978,24.496239],[54.40597,24.496306],[54.406014,24.496368]]]}},{"type":"Feature","properties":{},"geometry":{"type":"Polygon","coordinates":[[[54.405962,24.496854],[54.405934,24.496858],[54.405869,24.496908],[54.405948,24.496997],[54.405977,24.496993],[54.406044,24.496945],[54.405962,24.496854]]]}},{"type":"Feature","properties":{},"geometry":{"type":"Polygon","coordinates":[[[54.407045,24.497058],[54.407045,24.497072],[54.40726,24.497092],[54.407344,24.497081],[54.407376,24.496766],[54.407053,24.496779],[54.407048,24.496948],[54.407014,24.496758],[54.40667,24.496832],[54.406656,24.496773],[54.406628,24.496777],[54.406301,24.496857],[54.406403,24.497227],[54.407045,24.497058]]]}},{"type":"Feature","properties":{},"geometry":{"type":"Polygon","coordinates":[[[54.405771,24.497291],[54.405711,24.497552],[54.406,24.497594],[54.406012,24.49754],[54.406053,24.497539],[54.406089,24.497391],[54.405991,24.497375],[54.406007,24.497326],[54.405771,24.497291]]]}},{"type":"Feature","properties":{},"geometry":{"type":"Polygon","coordinates":[[[54.405329,24.499442],[54.405015,24.499612],[54.404713,24.499699],[54.404452,24.49973],[54.404449,24.49992],[54.404414,24.499925],[54.404364,24.500001],[54.404408,24.500026],[54.404371,24.500099],[54.404377,24.500202],[54.404417,24.500246],[54.404445,24.500249],[54.404445,24.500291],[54.404761,24.500267],[54.405188,24.500172],[54.405667,24.499947],[54.405928,24.49974],[54.406139,24.499496],[54.406255,24.499347],[54.406373,24.499138],[54.406474,24.49889],[54.406529,24.498602],[54.406545,24.49833],[54.406522,24.498107],[54.406444,24.497802],[54.405643,24.497652],[54.405605,24.497657],[54.405753,24.497857],[54.405833,24.498025],[54.405884,24.498296],[54.405892,24.498514],[54.405881,24.498719],[54.405844,24.498872],[54.405753,24.49904],[54.405639,24.499179],[54.405329,24.499442]]]}},{"type":"Feature","properties":{},"geometry":{"type":"Polygon","coordinates":[[[54.406525,24.504539],[54.406403,24.504541],[54.406399,24.504683],[54.406523,24.504681],[54.406525,24.504539]]]}},{"type":"Feature","properties":{},"geometry":{"type":"Polygon","coordinates":[[[54.406184,24.50457],[54.40606,24.504596],[54.406113,24.504763],[54.406233,24.504739],[54.406184,24.50457]]]}},{"type":"Feature","properties":{},"geometry":{"type":"Polygon","coordinates":[[[54.406605,24.505462],[54.406344,24.50524],[54.406316,24.505244],[54.406054,24.505499],[54.406242,24.505659],[54.406166,24.505736],[54.406439,24.505958],[54.406702,24.505922],[54.406793,24.505817],[54.406828,24.505695],[54.406787,24.505553],[54.406674,24.505453],[54.406605,24.505462]]]}},{"type":"Feature","properties":{},"geometry":{"type":"Polygon","coordinates":[[[54.405586,24.505474],[54.405385,24.505424],[54.405356,24.505428],[54.405262,24.505743],[54.405463,24.505793],[54.405492,24.505789],[54.405586,24.505474]]]}},{"type":"Feature","properties":{},"geometry":{"type":"Polygon","coordinates":[[[54.405359,24.506221],[54.405475,24.505923],[54.405179,24.505828],[54.40515,24.505832],[54.405035,24.50613],[54.40533,24.506225],[54.405359,24.506221]]]}},{"type":"Feature","properties":{},"geometry":{"type":"Polygon","coordinates":[[[54.405345,24.506365],[54.405066,24.506279],[54.405038,24.506283],[54.404945,24.506531],[54.405223,24.506617],[54.405252,24.506613],[54.405345,24.506365]]]}},{"type":"Feature","properties":{},"geometry":{"type":"Polygon","coordinates":[[[54.405237,24.506716],[54.404948,24.50662],[54.404919,24.506623],[54.404777,24.507023],[54.405033,24.507115],[54.405062,24.507112],[54.405237,24.506716]]]}},{"type":"Feature","properties":{},"geometry":{"type":"Polygon","coordinates":[[[54.404468,24.507358],[54.404497,24.507354],[54.40453,24.507326],[54.404437,24.507235],[54.404408,24.507239],[54.404375,24.507267],[54.404468,24.507358]]]}},{"type":"Feature","properties":{},"geometry":{"type":"Polygon","coordinates":[[[54.406692,24.507525],[54.406764,24.507492],[54.406644,24.507341],[54.406572,24.507374],[54.406692,24.507525]]]}},{"type":"Feature","properties":{},"geometry":{"type":"Polygon","coordinates":[[[54.404706,24.50817],[54.405356,24.508068],[54.405862,24.507159],[54.405855,24.507079],[54.405593,24.506955],[54.405243,24.507006],[54.404611,24.508105],[54.404706,24.50817]]]}},{"type":"Feature","properties":{},"geometry":{"type":"Polygon","coordinates":[[[54.406367,24.507886],[54.406137,24.507917],[54.40602,24.508025],[54.406416,24.508417],[54.406645,24.508385],[54.406757,24.508271],[54.406367,24.507886]]]}},{"type":"Feature","properties":{},"geometry":{"type":"Polygon","coordinates":[[[54.406098,24.508287],[54.405869,24.508319],[54.405751,24.508426],[54.406148,24.508818],[54.406377,24.508786],[54.406489,24.508672],[54.406098,24.508287]]]}},{"type":"Feature","properties":{},"geometry":{"type":"Polygon","coordinates":[[[54.405842,24.508615],[54.405613,24.508646],[54.405495,24.508753],[54.405892,24.509145],[54.406121,24.509114],[54.406232,24.508999],[54.405842,24.508615]]]}},{"type":"Feature","properties":{},"geometry":{"type":"Polygon","coordinates":[[[54.406299,24.509036],[54.40627,24.50904],[54.406229,24.509085],[54.406315,24.509149],[54.406344,24.509146],[54.406384,24.509101],[54.406299,24.509036]]]}},{"type":"Feature","properties":{},"geometry":{"type":"Polygon","coordinates":[[[54.405268,24.509396],[54.405231,24.509371],[54.405004,24.509402],[54.404878,24.509571],[54.405026,24.509715],[54.405149,24.509698],[54.405191,24.509726],[54.405418,24.509695],[54.405598,24.509432],[54.405477,24.509367],[54.405268,24.509396]]]}},{"type":"Feature","properties":{},"geometry":{"type":"Polygon","coordinates":[[[54.410495,24.480084],[54.410524,24.48008],[54.410593,24.480014],[54.410443,24.479885],[54.410414,24.479889],[54.410345,24.479956],[54.410495,24.480084]]]}},{"type":"Feature","properties":{},"geometry":{"type":"Polygon","coordinates":[[[54.406945,24.482104],[54.406803,24.48217],[54.406943,24.48236],[54.407063,24.482462],[54.407177,24.482643],[54.407416,24.48261],[54.407605,24.482539],[54.407647,24.482408],[54.407249,24.481963],[54.40701,24.481996],[54.406945,24.482104]]]}},{"type":"Feature","properties":{},"geometry":{"type":"Polygon","coordinates":[[[54.409403,24.482883],[54.409278,24.482891],[54.409283,24.483005],[54.409408,24.482998],[54.409403,24.482883]]]}},{"type":"Feature","properties":{},"geometry":{"type":"Polygon","coordinates":[[[54.408676,24.484904],[54.408829,24.484883],[54.409038,24.484742],[54.408793,24.48444],[54.408641,24.484461],[54.408431,24.484602],[54.408676,24.484904]]]}},{"type":"Feature","properties":{},"geometry":{"type":"Polygon","coordinates":[[[54.408334,24.484777],[54.408181,24.484798],[54.407976,24.484952],[54.407989,24.485017],[54.408208,24.485128],[54.408287,24.485117],[54.408336,24.485181],[54.408489,24.48516],[54.408602,24.485076],[54.408334,24.484777]]]}},{"type":"Feature","properties":{},"geometry":{"type":"Polygon","coordinates":[[[54.407336,24.485327],[54.407262,24.485263],[54.407233,24.485267],[54.406939,24.485554],[54.407013,24.485618],[54.407042,24.485614],[54.407336,24.485327]]]}},{"type":"Feature","properties":{},"geometry":{"type":"Polygon","coordinates":[[[54.409042,24.485617],[54.409001,24.485574],[54.408973,24.485578],[54.408894,24.485639],[54.408934,24.485682],[54.408963,24.485678],[54.409042,24.485617]]]}},{"type":"Feature","properties":{},"geometry":{"type":"Polygon","coordinates":[[[54.407412,24.485466],[54.407225,24.48566],[54.407285,24.485707],[54.407305,24.485704],[54.407545,24.4859],[54.407698,24.485879],[54.407889,24.48568],[54.407828,24.485631],[54.407795,24.485636],[54.407564,24.485445],[54.407412,24.485466]]]}},{"type":"Feature","properties":{},"geometry":{"type":"Polygon","coordinates":[[[54.40979,24.485963],[54.409837,24.485885],[54.409867,24.485772],[54.409862,24.485681],[54.410442,24.486677],[54.410504,24.486668],[54.410863,24.4865],[54.410363,24.485619],[54.410402,24.485593],[54.410413,24.48552],[54.410404,24.485468],[54.410388,24.485446],[54.41025,24.485463],[54.41025,24.485431],[54.410362,24.485422],[54.410404,24.485395],[54.410434,24.485322],[54.410978,24.485104],[54.410804,24.484786],[54.410742,24.484794],[54.409774,24.485261],[54.409757,24.485292],[54.409673,24.485244],[54.409611,24.485253],[54.409537,24.485338],[54.409361,24.485409],[54.409274,24.485492],[54.409238,24.485586],[54.409236,24.485772],[54.409255,24.485865],[54.409335,24.485994],[54.409422,24.486069],[54.409562,24.486079],[54.409707,24.486047],[54.40979,24.485963]]]}},{"type":"Feature","properties":{},"geometry":{"type":"Polygon","coordinates":[[[54.4091,24.485849],[54.409188,24.485811],[54.409107,24.485694],[54.409162,24.485662],[54.409136,24.485626],[54.408993,24.485696],[54.4091,24.485849]]]}},{"type":"Feature","properties":{},"geometry":{"type":"Polygon","coordinates":[[[54.4077,24.485931],[54.407651,24.485895],[54.407622,24.485899],[54.407528,24.486001],[54.407577,24.486038],[54.407605,24.486034],[54.4077,24.485931]]]}},{"type":"Feature","properties":{},"geometry":{"type":"Polygon","coordinates":[[[54.409363,24.48769],[54.409247,24.487364],[54.409218,24.487368],[54.408856,24.487651],[54.408306,24.488014],[54.408608,24.488497],[54.409511,24.488057],[54.40936,24.487784],[54.409331,24.487788],[54.408627,24.488182],[54.40859,24.488122],[54.409363,24.48769]]]}},{"type":"Feature","properties":{},"geometry":{"type":"Polygon","coordinates":[[[54.410862,24.48833],[54.410522,24.48836],[54.410527,24.488407],[54.410393,24.48842],[54.410398,24.488467],[54.410109,24.488496],[54.410154,24.488932],[54.41065,24.488887],[54.410638,24.488769],[54.410905,24.488745],[54.410862,24.48833]]]}},{"type":"Feature","properties":{},"geometry":{"type":"Polygon","coordinates":[[[54.407768,24.488343],[54.407739,24.488347],[54.407332,24.488566],[54.407616,24.488953],[54.407644,24.488949],[54.40802,24.488719],[54.407768,24.488343]]]}},{"type":"Feature","properties":{},"geometry":{"type":"Polygon","coordinates":[[[54.407309,24.488565],[54.40728,24.488569],[54.406875,24.488799],[54.407154,24.489207],[54.407183,24.489203],[54.407589,24.488973],[54.407309,24.488565]]]}},{"type":"Feature","properties":{},"geometry":{"type":"Polygon","coordinates":[[[54.409221,24.491266],[54.409268,24.491263],[54.409272,24.491156],[54.409037,24.491149],[54.409009,24.491153],[54.409008,24.491181],[54.40893,24.491184],[54.408918,24.491298],[54.40898,24.4913],[54.408979,24.491327],[54.409219,24.491329],[54.409221,24.491266]]]}},{"type":"Feature","properties":{},"geometry":{"type":"Polygon","coordinates":[[[54.410775,24.496187],[54.410614,24.495998],[54.410432,24.496023],[54.410337,24.495938],[54.410146,24.495964],[54.409855,24.496195],[54.409959,24.496315],[54.409878,24.496369],[54.409988,24.49651],[54.410179,24.496484],[54.410343,24.49638],[54.410247,24.496256],[54.410287,24.496221],[54.410361,24.496318],[54.410552,24.496292],[54.410775,24.496187]]]}},{"type":"Feature","properties":{},"geometry":{"type":"Polygon","coordinates":[[[54.408611,24.496961],[54.40838,24.496868],[54.408221,24.49689],[54.408244,24.496834],[54.408035,24.496764],[54.407724,24.496686],[54.407491,24.496658],[54.407407,24.496669],[54.407384,24.497095],[54.408023,24.497173],[54.408106,24.497162],[54.408114,24.497143],[54.40847,24.497341],[54.408709,24.497309],[54.40953,24.496918],[54.409385,24.496689],[54.409146,24.496721],[54.408611,24.496961]]]}},{"type":"Feature","properties":{},"geometry":{"type":"Polygon","coordinates":[[[54.407973,24.497239],[54.40793,24.49728],[54.408023,24.497344],[54.408096,24.497352],[54.408151,24.49732],[54.408105,24.497266],[54.408002,24.497236],[54.407973,24.497239]]]}},{"type":"Feature","properties":{},"geometry":{"type":"Polygon","coordinates":[[[54.409383,24.498324],[54.409415,24.497947],[54.409165,24.497863],[54.409017,24.497884],[54.408842,24.49795],[54.408844,24.498411],[54.409383,24.498324]]]}},{"type":"Feature","properties":{},"geometry":{"type":"Polygon","coordinates":[[[54.409382,24.499166],[54.409435,24.498769],[54.408993,24.498738],[54.408917,24.498749],[54.408924,24.498611],[54.408823,24.498604],[54.408807,24.498664],[54.408845,24.498778],[54.40891,24.498779],[54.408921,24.499104],[54.408835,24.499468],[54.409192,24.499563],[54.409276,24.499552],[54.409382,24.499166]]]}},{"type":"Feature","properties":{},"geometry":{"type":"Polygon","coordinates":[[[54.409871,24.500412],[54.409926,24.500296],[54.409975,24.49974],[54.410012,24.49951],[54.409978,24.499439],[54.4099,24.49938],[54.409787,24.499363],[54.409587,24.499377],[54.409519,24.499423],[54.40932,24.500044],[54.409271,24.500257],[54.409313,24.500385],[54.409404,24.500452],[54.409584,24.500483],[54.409746,24.500476],[54.409871,24.500412]]]}},{"type":"Feature","properties":{},"geometry":{"type":"Polygon","coordinates":[[[54.408056,24.50088],[54.408025,24.500912],[54.408024,24.500958],[54.407996,24.501016],[54.408035,24.501048],[54.408063,24.501044],[54.408114,24.500971],[54.408147,24.500887],[54.408056,24.50088]]]}},{"type":"Feature","properties":{},"geometry":{"type":"Polygon","coordinates":[[[54.409605,24.501431],[54.408694,24.501475],[54.40865,24.501803],[54.408723,24.501954],[54.408992,24.501966],[54.409339,24.501953],[54.40943,24.501922],[54.409545,24.501851],[54.409584,24.501746],[54.40961,24.501599],[54.409605,24.501431]]]}},{"type":"Feature","properties":{},"geometry":{"type":"Polygon","coordinates":[[[54.407667,24.502407],[54.408086,24.502581],[54.408114,24.502577],[54.408295,24.5021],[54.408422,24.501858],[54.408025,24.50174],[54.407996,24.501744],[54.407667,24.502407]]]}},{"type":"Feature","properties":{},"geometry":{"type":"Polygon","coordinates":[[[54.407486,24.502395],[54.407478,24.502442],[54.407551,24.502448],[54.407608,24.502389],[54.407648,24.502313],[54.407557,24.502314],[54.407486,24.502395]]]}},{"type":"Feature","properties":{},"geometry":{"type":"Polygon","coordinates":[[[54.40726,24.502943],[54.40724,24.502926],[54.407211,24.50293],[54.407087,24.503081],[54.40715,24.503117],[54.407179,24.503113],[54.407308,24.502998],[54.407335,24.502994],[54.407403,24.502885],[54.407316,24.502875],[54.40726,24.502943]]]}},{"type":"Feature","properties":{},"geometry":{"type":"Polygon","coordinates":[[[54.406889,24.503489],[54.406997,24.503468],[54.406943,24.503344],[54.406851,24.503367],[54.406889,24.503489]]]}},{"type":"Feature","properties":{},"geometry":{"type":"Polygon","coordinates":[[[54.40972,24.503497],[54.409494,24.503528],[54.40935,24.503637],[54.409682,24.504003],[54.409909,24.503972],[54.410053,24.503863],[54.40972,24.503497]]]}},{"type":"Feature","properties":{},"geometry":{"type":"Polygon","coordinates":[[[54.407074,24.503829],[54.407134,24.50368],[54.407036,24.503648],[54.407008,24.503652],[54.406956,24.503809],[54.407074,24.503829]]]}},{"type":"Feature","properties":{},"geometry":{"type":"Polygon","coordinates":[[[54.409259,24.504094],[54.408925,24.504139],[54.40872,24.5044],[54.409015,24.504738],[54.409349,24.504692],[54.40961,24.504393],[54.409259,24.504094]]]}},{"type":"Feature","properties":{},"geometry":{"type":"Polygon","coordinates":[[[54.408028,24.505741],[54.407838,24.505729],[54.407839,24.505822],[54.408033,24.505842],[54.408028,24.505741]]]}},{"type":"Feature","properties":{},"geometry":{"type":"Polygon","coordinates":[[[54.409472,24.506175],[54.409587,24.506114],[54.409672,24.506021],[54.409717,24.505908],[54.409719,24.505787],[54.40968,24.50568],[54.409606,24.50559],[54.409506,24.505526],[54.409388,24.505493],[54.409236,24.505499],[54.40912,24.505536],[54.409022,24.505605],[54.408952,24.505697],[54.408918,24.505805],[54.408925,24.505926],[54.408976,24.506037],[54.409065,24.506127],[54.409182,24.506184],[54.409313,24.506202],[54.409472,24.506175]]]}},{"type":"Feature","properties":{},"geometry":{"type":"Polygon","coordinates":[[[54.407336,24.506699],[54.407629,24.506391],[54.407472,24.506231],[54.407244,24.506239],[54.406921,24.506284],[54.406706,24.506508],[54.407014,24.506744],[54.407336,24.506699]]]}},{"type":"Feature","properties":{},"geometry":{"type":"Polygon","coordinates":[[[54.407231,24.50734],[54.407333,24.507251],[54.406919,24.506861],[54.406896,24.506864],[54.406799,24.506952],[54.406832,24.506986],[54.406726,24.507077],[54.40676,24.507114],[54.406654,24.5072],[54.406996,24.507517],[54.407019,24.507514],[54.40712,24.507428],[54.407102,24.50741],[54.407195,24.507331],[54.407231,24.50734]]]}},{"type":"Feature","properties":{},"geometry":{"type":"Polygon","coordinates":[[[54.409709,24.507832],[54.409692,24.507556],[54.409481,24.507344],[54.409453,24.507348],[54.409259,24.507517],[54.409619,24.507878],[54.409648,24.507874],[54.409709,24.507832]]]}},{"type":"Feature","properties":{},"geometry":{"type":"Polygon","coordinates":[[[54.407171,24.507807],[54.407201,24.507774],[54.407167,24.507749],[54.407138,24.507753],[54.407108,24.507786],[54.407143,24.507811],[54.407171,24.507807]]]}},{"type":"Feature","properties":{},"geometry":{"type":"Polygon","coordinates":[[[54.410332,24.507855],[54.410313,24.507789],[54.410246,24.507802],[54.410204,24.507719],[54.410093,24.507725],[54.409961,24.50776],[54.409827,24.507863],[54.409796,24.507942],[54.409825,24.507984],[54.409898,24.508023],[54.409967,24.508006],[54.41011,24.507998],[54.410332,24.507855]]]}},{"type":"Feature","properties":{},"geometry":{"type":"Polygon","coordinates":[[[54.408927,24.507904],[54.408925,24.507856],[54.408848,24.507861],[54.408851,24.507921],[54.408817,24.507925],[54.408822,24.508031],[54.40889,24.508025],[54.408889,24.507998],[54.408918,24.507994],[54.408914,24.507906],[54.408927,24.507904]]]}},{"type":"Feature","properties":{},"geometry":{"type":"Polygon","coordinates":[[[54.40932,24.508159],[54.409278,24.508116],[54.409249,24.50812],[54.40916,24.508194],[54.409203,24.508237],[54.409231,24.508233],[54.40932,24.508159]]]}},{"type":"Feature","properties":{},"geometry":{"type":"Polygon","coordinates":[[[54.409117,24.508675],[54.409097,24.508646],[54.409118,24.508633],[54.40913,24.50865],[54.409158,24.508646],[54.409334,24.508542],[54.409273,24.508456],[54.409213,24.508478],[54.409158,24.5084],[54.409129,24.508404],[54.408985,24.508488],[54.409032,24.508554],[54.408958,24.508612],[54.408976,24.508638],[54.40894,24.508659],[54.408971,24.508702],[54.409012,24.508691],[54.409028,24.508714],[54.409117,24.508675]]]}},{"type":"Feature","properties":{},"geometry":{"type":"Polygon","coordinates":[[[54.407615,24.508841],[54.407587,24.508811],[54.407559,24.508815],[54.407494,24.508865],[54.407521,24.508894],[54.40755,24.50889],[54.407615,24.508841]]]}},{"type":"Feature","properties":{},"geometry":{"type":"Polygon","coordinates":[[[54.407783,24.50917],[54.407812,24.509166],[54.407864,24.509122],[54.407708,24.508969],[54.407679,24.508973],[54.407628,24.509017],[54.407783,24.50917]]]}},{"type":"Feature","properties":{},"geometry":{"type":"Polygon","coordinates":[[[54.407274,24.509285],[54.40717,24.509197],[54.407141,24.509201],[54.4071,24.509242],[54.407173,24.509303],[54.406971,24.509331],[54.406831,24.509466],[54.407217,24.509825],[54.407446,24.509794],[54.40758,24.509657],[54.407233,24.509325],[54.407274,24.509285]]]}},{"type":"Feature","properties":{},"geometry":{"type":"Polygon","coordinates":[[[54.407538,24.50905],[54.407309,24.509082],[54.407187,24.509191],[54.407555,24.509533],[54.407784,24.509501],[54.4079,24.509383],[54.407538,24.50905]]]}},{"type":"Feature","properties":{},"geometry":{"type":"Polygon","coordinates":[[[54.406811,24.509574],[54.406582,24.509605],[54.406423,24.509738],[54.406785,24.510069],[54.407014,24.510038],[54.407179,24.509921],[54.406811,24.509574]]]}},{"type":"Feature","properties":{},"geometry":{"type":"Polygon","coordinates":[[[54.41019,24.509994],[54.410005,24.509826],[54.409976,24.50983],[54.409633,24.510142],[54.409818,24.51031],[54.409847,24.510306],[54.41019,24.509994]]]}},{"type":"Feature","properties":{},"geometry":{"type":"Polygon","coordinates":[[[54.411193,24.481939],[54.411278,24.482013],[54.411307,24.482009],[54.411484,24.481839],[54.411116,24.48152],[54.411088,24.481524],[54.410914,24.48169],[54.410995,24.48176],[54.411024,24.481756],[54.411105,24.481678],[54.411169,24.481734],[54.411141,24.481762],[54.411185,24.4818],[54.411225,24.481786],[54.411293,24.481845],[54.411193,24.481939]]]}},{"type":"Feature","properties":{},"geometry":{"type":"Polygon","coordinates":[[[54.410887,24.481833],[54.410916,24.481829],[54.410945,24.481801],[54.410906,24.481767],[54.410877,24.481771],[54.410847,24.481799],[54.410887,24.481833]]]}},{"type":"Feature","properties":{},"geometry":{"type":"Polygon","coordinates":[[[54.412563,24.482207],[54.412739,24.481932],[54.412378,24.481741],[54.412349,24.481745],[54.412173,24.48202],[54.412534,24.482211],[54.412563,24.482207]]]}},{"type":"Feature","properties":{},"geometry":{"type":"Polygon","coordinates":[[[54.41143,24.482077],[54.411398,24.482052],[54.41137,24.482056],[54.411291,24.482136],[54.411322,24.482161],[54.411351,24.482158],[54.41143,24.482077]]]}},{"type":"Feature","properties":{},"geometry":{"type":"Polygon","coordinates":[[[54.410832,24.485218],[54.410695,24.48528],[54.410745,24.485358],[54.410882,24.485296],[54.410832,24.485218]]]}},{"type":"Feature","properties":{},"geometry":{"type":"Polygon","coordinates":[[[54.411468,24.48562],[54.411454,24.485589],[54.411321,24.485634],[54.411336,24.485665],[54.411468,24.48562]]]}},{"type":"Feature","properties":{},"geometry":{"type":"Polygon","coordinates":[[[54.411385,24.48578],[54.411471,24.485757],[54.411432,24.48566],[54.411347,24.485682],[54.411385,24.48578]]]}},{"type":"Feature","properties":{},"geometry":{"type":"Polygon","coordinates":[[[54.413256,24.487228],[54.413079,24.487237],[54.413156,24.487456],[54.4134,24.487443],[54.413388,24.487195],[54.413254,24.487203],[54.413256,24.487228]]]}},{"type":"Feature","properties":{},"geometry":{"type":"Polygon","coordinates":[[[54.413524,24.4877],[54.413521,24.487621],[54.413488,24.487622],[54.413484,24.487532],[54.413516,24.487528],[54.413513,24.487454],[54.413216,24.487468],[54.413227,24.487714],[54.413524,24.4877]]]}},{"type":"Feature","properties":{},"geometry":{"type":"Polygon","coordinates":[[[54.4131,24.487731],[54.413046,24.487541],[54.41293,24.487566],[54.412985,24.487755],[54.4131,24.487731]]]}},{"type":"Feature","properties":{},"geometry":{"type":"Polygon","coordinates":[[[54.413587,24.48789],[54.41349,24.487897],[54.413493,24.487958],[54.41359,24.487952],[54.413587,24.48789]]]}},{"type":"Feature","properties":{},"geometry":{"type":"Polygon","coordinates":[[[54.415674,24.487944],[54.415674,24.487974],[54.415751,24.487968],[54.415745,24.487766],[54.415094,24.487775],[54.415094,24.487819],[54.415158,24.487819],[54.415159,24.488217],[54.41537,24.488213],[54.41537,24.487965],[54.41559,24.487965],[54.415619,24.487961],[54.415619,24.487946],[54.415674,24.487944]]]}},{"type":"Feature","properties":{},"geometry":{"type":"Polygon","coordinates":[[[54.414972,24.488235],[54.414811,24.488235],[54.414807,24.48833],[54.414968,24.48833],[54.414972,24.488235]]]}},{"type":"Feature","properties":{},"geometry":{"type":"Polygon","coordinates":[[[54.415566,24.488292],[54.415443,24.4883],[54.415445,24.488338],[54.415568,24.48833],[54.415566,24.488292]]]}},{"type":"Feature","properties":{},"geometry":{"type":"Polygon","coordinates":[[[54.415435,24.488313],[54.415289,24.488318],[54.41529,24.488401],[54.415436,24.488396],[54.415435,24.488313]]]}},{"type":"Feature","properties":{},"geometry":{"type":"Polygon","coordinates":[[[54.414976,24.488355],[54.414824,24.488362],[54.414827,24.488482],[54.414979,24.488475],[54.414976,24.488355]]]}},{"type":"Feature","properties":{},"geometry":{"type":"Polygon","coordinates":[[[54.415432,24.488438],[54.415384,24.488442],[54.415383,24.488488],[54.415431,24.488484],[54.415432,24.488438]]]}},{"type":"Feature","properties":{},"geometry":{"type":"Polygon","coordinates":[[[54.415543,24.488642],[54.415434,24.488648],[54.415436,24.488697],[54.415545,24.48869],[54.415543,24.488642]]]}},{"type":"Feature","properties":{},"geometry":{"type":"Polygon","coordinates":[[[54.411145,24.488874],[54.411118,24.488935],[54.411169,24.489003],[54.41128,24.488999],[54.411405,24.489165],[54.411233,24.489257],[54.411285,24.48934],[54.411314,24.489336],[54.411992,24.48896],[54.412034,24.489042],[54.411462,24.489358],[54.411556,24.489511],[54.411624,24.489492],[54.411684,24.489597],[54.411943,24.489646],[54.411927,24.489723],[54.412092,24.489759],[54.41212,24.489755],[54.412284,24.489132],[54.412411,24.48913],[54.412468,24.489103],[54.412774,24.489684],[54.412803,24.48968],[54.412956,24.4896],[54.412923,24.48955],[54.413136,24.489455],[54.413191,24.489331],[54.413232,24.489352],[54.413261,24.489348],[54.413305,24.489173],[54.412655,24.488956],[54.412659,24.488905],[54.412852,24.488942],[54.413489,24.488848],[54.413445,24.488556],[54.412861,24.488626],[54.412817,24.488588],[54.412675,24.488652],[54.412595,24.488585],[54.412673,24.488545],[54.412558,24.488398],[54.412692,24.487981],[54.412846,24.488046],[54.41294,24.488105],[54.412969,24.488101],[54.413104,24.487954],[54.412745,24.487759],[54.412516,24.487718],[54.412242,24.487705],[54.412214,24.487709],[54.412235,24.487929],[54.41234,24.487938],[54.412369,24.487934],[54.41238,24.487911],[54.412448,24.487917],[54.41231,24.488488],[54.412268,24.488495],[54.411981,24.487983],[54.412183,24.487944],[54.412157,24.487708],[54.41184,24.487786],[54.411553,24.487961],[54.411385,24.488134],[54.411542,24.488245],[54.411571,24.488241],[54.411767,24.488081],[54.411999,24.488477],[54.411914,24.488721],[54.411214,24.488505],[54.411186,24.488509],[54.411142,24.488604],[54.411327,24.488672],[54.41129,24.488855],[54.411145,24.488874]],[[54.411999,24.489499],[54.411834,24.489464],[54.41175,24.489351],[54.411936,24.489245],[54.411933,24.489306],[54.412034,24.489327],[54.411999,24.489499]],[[54.412987,24.489337],[54.412885,24.489386],[54.412827,24.489256],[54.412864,24.489157],[54.413035,24.489211],[54.412987,24.489337]]]}},{"type":"Feature","properties":{},"geometry":{"type":"Polygon","coordinates":[[[54.410593,24.48915],[54.410646,24.489619],[54.410826,24.489601],[54.410762,24.489025],[54.410175,24.48908],[54.410187,24.489188],[54.410593,24.48915]]]}},{"type":"Feature","properties":{},"geometry":{"type":"Polygon","coordinates":[[[54.410884,24.489736],[54.410806,24.489743],[54.41081,24.489786],[54.410888,24.489778],[54.410884,24.489736]]]}},{"type":"Feature","properties":{},"geometry":{"type":"Polygon","coordinates":[[[54.410297,24.490094],[54.410885,24.490035],[54.41087,24.489907],[54.41051,24.489942],[54.410508,24.489927],[54.410457,24.489932],[54.410405,24.48949],[54.410228,24.489508],[54.410297,24.490094]]]}},{"type":"Feature","properties":{},"geometry":{"type":"Polygon","coordinates":[[[54.412498,24.489945],[54.412399,24.489953],[54.412404,24.490015],[54.412502,24.490007],[54.412498,24.489945]]]}},{"type":"Feature","properties":{},"geometry":{"type":"Polygon","coordinates":[[[54.411147,24.490714],[54.411148,24.490662],[54.411023,24.490665],[54.411022,24.490717],[54.411147,24.490714]]]}},{"type":"Feature","properties":{},"geometry":{"type":"Polygon","coordinates":[[[54.411224,24.490795],[54.411126,24.490799],[54.411126,24.490892],[54.411224,24.490888],[54.411224,24.490795]]]}},{"type":"Feature","properties":{},"geometry":{"type":"Polygon","coordinates":[[[54.412895,24.490643],[54.412888,24.491136],[54.413395,24.491138],[54.413397,24.490975],[54.413113,24.490971],[54.413115,24.490814],[54.413411,24.490814],[54.413413,24.490645],[54.412895,24.490643]]]}},{"type":"Feature","properties":{},"geometry":{"type":"Polygon","coordinates":[[[54.41057,24.490813],[54.410387,24.490821],[54.410384,24.491034],[54.410699,24.491033],[54.410706,24.490766],[54.410571,24.49077],[54.41057,24.490813]]]}},{"type":"Feature","properties":{},"geometry":{"type":"Polygon","coordinates":[[[54.411221,24.490892],[54.411118,24.490898],[54.411119,24.490955],[54.411223,24.490949],[54.411221,24.490892]]]}},{"type":"Feature","properties":{},"geometry":{"type":"Polygon","coordinates":[[[54.412875,24.491187],[54.412801,24.491189],[54.412799,24.491228],[54.412874,24.491226],[54.412875,24.491187]]]}},{"type":"Feature","properties":{},"geometry":{"type":"Polygon","coordinates":[[[54.411222,24.491426],[54.411156,24.491428],[54.411152,24.491505],[54.411219,24.491503],[54.411222,24.491426]]]}},{"type":"Feature","properties":{},"geometry":{"type":"Polygon","coordinates":[[[54.410816,24.491635],[54.41083,24.491311],[54.410429,24.491302],[54.410415,24.491626],[54.410816,24.491635]]]}},{"type":"Feature","properties":{},"geometry":{"type":"Polygon","coordinates":[[[54.411931,24.491223],[54.411406,24.491194],[54.411335,24.492103],[54.41186,24.492132],[54.411931,24.491223]]]}},{"type":"Feature","properties":{},"geometry":{"type":"Polygon","coordinates":[[[54.412186,24.491699],[54.412079,24.491701],[54.412078,24.49173],[54.412185,24.491729],[54.412186,24.491699]]]}},{"type":"Feature","properties":{},"geometry":{"type":"Polygon","coordinates":[[[54.411709,24.492296],[54.411553,24.492296],[54.41155,24.492384],[54.411706,24.492383],[54.411709,24.492296]]]}},{"type":"Feature","properties":{},"geometry":{"type":"Polygon","coordinates":[[[54.412155,24.492461],[54.411944,24.492463],[54.411943,24.492561],[54.412154,24.492558],[54.412155,24.492461]]]}},{"type":"Feature","properties":{},"geometry":{"type":"Polygon","coordinates":[[[54.415103,24.496914],[54.41501,24.49686],[54.414982,24.496864],[54.414871,24.497021],[54.414963,24.497075],[54.414992,24.497071],[54.415103,24.496914]]]}},{"type":"Feature","properties":{},"geometry":{"type":"Polygon","coordinates":[[[54.41167,24.498186],[54.411796,24.498916],[54.411943,24.498902],[54.412125,24.498673],[54.412019,24.498054],[54.412041,24.498045],[54.41181,24.4975],[54.411496,24.497386],[54.411374,24.497426],[54.41167,24.498186]]]}},{"type":"Feature","properties":{},"geometry":{"type":"Polygon","coordinates":[[[54.410769,24.497564],[54.410596,24.497712],[54.410582,24.498875],[54.41072,24.499021],[54.410993,24.499029],[54.410985,24.497515],[54.410769,24.497564]]]}},{"type":"Feature","properties":{},"geometry":{"type":"Polygon","coordinates":[[[54.410437,24.50152],[54.410223,24.50155],[54.410222,24.501619],[54.41012,24.501632],[54.410119,24.501881],[54.410219,24.501883],[54.410433,24.501853],[54.410432,24.50181],[54.410568,24.501791],[54.410573,24.501566],[54.410542,24.501564],[54.410544,24.501523],[54.410437,24.50152]]]}},{"type":"Feature","properties":{},"geometry":{"type":"Polygon","coordinates":[[[54.41317,24.503099],[54.41329,24.502809],[54.413379,24.502328],[54.412899,24.502033],[54.412741,24.501881],[54.412655,24.501769],[54.412574,24.501625],[54.412526,24.501486],[54.411982,24.501472],[54.41191,24.501482],[54.411946,24.501682],[54.411993,24.501817],[54.412066,24.502],[54.41215,24.502157],[54.412302,24.502364],[54.412558,24.502665],[54.412803,24.50283],[54.412941,24.502983],[54.413026,24.503128],[54.41317,24.503099]]]}},{"type":"Feature","properties":{},"geometry":{"type":"Polygon","coordinates":[[[54.411529,24.502276],[54.4115,24.50228],[54.411428,24.502353],[54.411642,24.502526],[54.41167,24.502522],[54.411742,24.502449],[54.411529,24.502276]]]}},{"type":"Feature","properties":{},"geometry":{"type":"Polygon","coordinates":[[[54.411356,24.502864],[54.411354,24.502702],[54.411224,24.502679],[54.411155,24.502628],[54.411149,24.502248],[54.410919,24.502248],[54.410884,24.502842],[54.411356,24.502864]]]}},{"type":"Feature","properties":{},"geometry":{"type":"Polygon","coordinates":[[[54.411512,24.502535],[54.411434,24.502538],[54.411431,24.502662],[54.411509,24.502659],[54.411512,24.502535]]]}},{"type":"Feature","properties":{},"geometry":{"type":"Polygon","coordinates":[[[54.411826,24.502809],[54.411957,24.502748],[54.411796,24.502509],[54.411665,24.50257],[54.411826,24.502809]]]}},{"type":"Feature","properties":{},"geometry":{"type":"Polygon","coordinates":[[[54.411657,24.50276],[54.411544,24.502799],[54.41162,24.502951],[54.411733,24.502911],[54.411657,24.50276]]]}},{"type":"Feature","properties":{},"geometry":{"type":"Polygon","coordinates":[[[54.415022,24.504167],[54.414826,24.504005],[54.414656,24.504029],[54.414497,24.504186],[54.414675,24.504339],[54.414844,24.504316],[54.415022,24.504167]]]}},{"type":"Feature","properties":{},"geometry":{"type":"Polygon","coordinates":[[[54.410705,24.504046],[54.410233,24.503968],[54.410006,24.503999],[54.409974,24.504158],[54.410446,24.504236],[54.410673,24.504204],[54.410705,24.504046]]]}},{"type":"Feature","properties":{},"geometry":{"type":"Polygon","coordinates":[[[54.415507,24.504192],[54.415396,24.504101],[54.415448,24.50408],[54.415408,24.504032],[54.415354,24.504053],[54.415388,24.504094],[54.415311,24.504031],[54.415158,24.504052],[54.415,24.504209],[54.415177,24.504362],[54.41533,24.504341],[54.415507,24.504192]]]}},{"type":"Feature","properties":{},"geometry":{"type":"Polygon","coordinates":[[[54.414508,24.504375],[54.414312,24.504214],[54.414097,24.504243],[54.413938,24.504401],[54.414116,24.504553],[54.414331,24.504524],[54.414508,24.504375]]]}},{"type":"Feature","properties":{},"geometry":{"type":"Polygon","coordinates":[[[54.414868,24.50483],[54.414671,24.504668],[54.414519,24.504689],[54.41436,24.504847],[54.414537,24.505],[54.41469,24.504979],[54.414868,24.50483]]]}},{"type":"Feature","properties":{},"geometry":{"type":"Polygon","coordinates":[[[54.415259,24.505129],[54.415285,24.505159],[54.415313,24.505155],[54.415377,24.50511],[54.415342,24.505069],[54.415328,24.505071],[54.415428,24.504987],[54.415232,24.504826],[54.415098,24.504844],[54.414939,24.505001],[54.415117,24.505154],[54.415259,24.505129]]]}},{"type":"Feature","properties":{},"geometry":{"type":"Polygon","coordinates":[[[54.410773,24.506792],[54.410797,24.506728],[54.410732,24.506708],[54.410747,24.506615],[54.410678,24.506576],[54.410546,24.50654],[54.410342,24.506564],[54.41027,24.506615],[54.410269,24.506665],[54.410307,24.506733],[54.410355,24.506743],[54.410473,24.506806],[54.410773,24.506792]]]}},{"type":"Feature","properties":{},"geometry":{"type":"Polygon","coordinates":[[[54.411043,24.506943],[54.410977,24.506911],[54.410949,24.506915],[54.410923,24.50696],[54.410818,24.506942],[54.410764,24.506998],[54.410704,24.50711],[54.410698,24.50727],[54.410741,24.507344],[54.410794,24.507352],[54.410904,24.507326],[54.410922,24.507285],[54.41101,24.507189],[54.411043,24.506943]]]}},{"type":"Feature","properties":{},"geometry":{"type":"Polygon","coordinates":[[[54.410784,24.5086],[54.41078,24.5087],[54.411097,24.508706],[54.4111,24.508608],[54.410784,24.5086]]]}},{"type":"Feature","properties":{},"geometry":{"type":"Polygon","coordinates":[[[54.411703,24.508958],[54.411551,24.508958],[54.411542,24.509166],[54.411694,24.509167],[54.411703,24.508958]]]}},{"type":"Feature","properties":{},"geometry":{"type":"Polygon","coordinates":[[[54.41076,24.509063],[54.41067,24.509068],[54.410672,24.509165],[54.410762,24.50916],[54.41076,24.509063]]]}},{"type":"Feature","properties":{},"geometry":{"type":"Polygon","coordinates":[[[54.411477,24.50934],[54.411487,24.508984],[54.411219,24.508988],[54.411205,24.509313],[54.411279,24.509313],[54.411278,24.50934],[54.411477,24.50934]]]}},{"type":"Feature","properties":{},"geometry":{"type":"Polygon","coordinates":[[[54.411171,24.509148],[54.411094,24.509151],[54.411093,24.509223],[54.41117,24.50922],[54.411171,24.509148]]]}},{"type":"Feature","properties":{},"geometry":{"type":"Polygon","coordinates":[[[54.411678,24.509265],[54.411531,24.509267],[54.411527,24.509484],[54.411673,24.509482],[54.411678,24.509265]]]}},{"type":"Feature","properties":{},"geometry":{"type":"Polygon","coordinates":[[[54.410698,24.509547],[54.411448,24.509523],[54.411445,24.509433],[54.410695,24.509453],[54.410698,24.509547]]]}},{"type":"Feature","properties":{},"geometry":{"type":"Polygon","coordinates":[[[54.411355,24.509641],[54.411228,24.509685],[54.411305,24.509842],[54.411432,24.509798],[54.411355,24.509641]]]}},{"type":"Feature","properties":{},"geometry":{"type":"Polygon","coordinates":[[[54.418573,24.481898],[54.4185,24.481905],[54.418502,24.481927],[54.418575,24.48192],[54.418573,24.481898]]]}},{"type":"Feature","properties":{},"geometry":{"type":"Polygon","coordinates":[[[54.418765,24.482454],[54.418784,24.482322],[54.418432,24.482289],[54.418413,24.482421],[54.418765,24.482454]]]}},{"type":"Feature","properties":{},"geometry":{"type":"Polygon","coordinates":[[[54.41876,24.48248],[54.418405,24.482451],[54.418389,24.482585],[54.418743,24.482614],[54.41876,24.48248]]]}},{"type":"Feature","properties":{},"geometry":{"type":"Polygon","coordinates":[[[54.418722,24.482713],[54.418367,24.482689],[54.418353,24.482825],[54.418708,24.482848],[54.418722,24.482713]]]}},{"type":"Feature","properties":{},"geometry":{"type":"Polygon","coordinates":[[[54.418692,24.482873],[54.418338,24.482865],[54.418332,24.482986],[54.418686,24.482995],[54.418692,24.482873]]]}},{"type":"Feature","properties":{},"geometry":{"type":"Polygon","coordinates":[[[54.415671,24.487682],[54.415584,24.487689],[54.415587,24.487733],[54.415674,24.487726],[54.415671,24.487682]]]}},{"type":"Feature","properties":{},"geometry":{"type":"Polygon","coordinates":[[[54.417324,24.487723],[54.41721,24.487728],[54.41721,24.487773],[54.417325,24.487769],[54.417324,24.487723]]]}},{"type":"Feature","properties":{},"geometry":{"type":"Polygon","coordinates":[[[54.415887,24.487747],[54.415826,24.48775],[54.415824,24.487794],[54.415885,24.487791],[54.415887,24.487747]]]}},{"type":"Feature","properties":{},"geometry":{"type":"Polygon","coordinates":[[[54.416103,24.487769],[54.415969,24.487769],[54.415967,24.487798],[54.416102,24.487798],[54.416103,24.487769]]]}},{"type":"Feature","properties":{},"geometry":{"type":"Polygon","coordinates":[[[54.416254,24.487801],[54.415969,24.487818],[54.415977,24.487948],[54.416262,24.487931],[54.416254,24.487801]]]}},{"type":"Feature","properties":{},"geometry":{"type":"Polygon","coordinates":[[[54.416244,24.487954],[54.415979,24.487964],[54.415981,24.488021],[54.416245,24.48801],[54.416244,24.487954]]]}},{"type":"Feature","properties":{},"geometry":{"type":"Polygon","coordinates":[[[54.416665,24.488042],[54.416594,24.488046],[54.416594,24.488025],[54.416666,24.48802],[54.416665,24.487971],[54.416414,24.487979],[54.416413,24.48802],[54.416307,24.488028],[54.416323,24.48831],[54.416447,24.488305],[54.41645,24.488369],[54.416526,24.488363],[54.416501,24.488237],[54.416563,24.488228],[54.416562,24.488247],[54.41675,24.488241],[54.416746,24.488148],[54.416603,24.488148],[54.416603,24.488138],[54.416669,24.488133],[54.416665,24.488042]],[[54.416586,24.488133],[54.416422,24.48814],[54.416421,24.488125],[54.416586,24.488133]],[[54.416564,24.488178],[54.416498,24.48819],[54.416498,24.488183],[54.416564,24.488178]]]}},{"type":"Feature","properties":{},"geometry":{"type":"Polygon","coordinates":[[[54.41571,24.4882],[54.415619,24.488206],[54.415623,24.488317],[54.415714,24.488311],[54.41571,24.4882]]]}},{"type":"Feature","properties":{},"geometry":{"type":"Polygon","coordinates":[[[54.416748,24.488248],[54.416677,24.488252],[54.416677,24.488308],[54.416749,24.488305],[54.416748,24.488248]]]}},{"type":"Feature","properties":{},"geometry":{"type":"Polygon","coordinates":[[[54.416654,24.488266],[54.416571,24.488267],[54.416567,24.488331],[54.41665,24.48833],[54.416654,24.488266]]]}},{"type":"Feature","properties":{},"geometry":{"type":"Polygon","coordinates":[[[54.416187,24.488349],[54.416117,24.488356],[54.416121,24.488393],[54.41619,24.488385],[54.416187,24.488349]]]}},{"type":"Feature","properties":{},"geometry":{"type":"Polygon","coordinates":[[[54.415696,24.488385],[54.415695,24.488336],[54.415573,24.488342],[54.415574,24.488391],[54.415696,24.488385]]]}},{"type":"Feature","properties":{},"geometry":{"type":"Polygon","coordinates":[[[54.416725,24.488369],[54.416666,24.488372],[54.416665,24.488411],[54.416723,24.488408],[54.416725,24.488369]]]}},{"type":"Feature","properties":{},"geometry":{"type":"Polygon","coordinates":[[[54.416203,24.488493],[54.416527,24.488493],[54.416528,24.48842],[54.416348,24.488417],[54.416349,24.488388],[54.416274,24.488387],[54.416276,24.488277],[54.416207,24.48828],[54.416203,24.488493]]]}},{"type":"Feature","properties":{},"geometry":{"type":"Polygon","coordinates":[[[54.416696,24.488436],[54.416623,24.488438],[54.416621,24.488481],[54.416694,24.488479],[54.416696,24.488436]]]}},{"type":"Feature","properties":{},"geometry":{"type":"Polygon","coordinates":[[[54.416252,24.488881],[54.416194,24.488886],[54.416199,24.488993],[54.416257,24.488988],[54.416252,24.488881]]]}},{"type":"Feature","properties":{},"geometry":{"type":"Polygon","coordinates":[[[54.416058,24.48884],[54.415971,24.488845],[54.415977,24.489045],[54.416065,24.48904],[54.416058,24.48884]]]}},{"type":"Feature","properties":{},"geometry":{"type":"Polygon","coordinates":[[[54.415679,24.488851],[54.415591,24.488856],[54.415595,24.489056],[54.415683,24.489051],[54.415679,24.488851]]]}},{"type":"Feature","properties":{},"geometry":{"type":"Polygon","coordinates":[[[54.415693,24.48915],[54.415876,24.489139],[54.415873,24.489095],[54.41569,24.489109],[54.415693,24.48915]]]}},{"type":"Feature","properties":{},"geometry":{"type":"Polygon","coordinates":[[[54.415835,24.489171],[54.415755,24.489173],[54.415753,24.489254],[54.415833,24.489251],[54.415835,24.489171]]]}},{"type":"Feature","properties":{},"geometry":{"type":"Polygon","coordinates":[[[54.416267,24.489502],[54.415387,24.489527],[54.415392,24.489681],[54.416292,24.489655],[54.41629,24.489586],[54.416269,24.489586],[54.416267,24.489502]]]}},{"type":"Feature","properties":{},"geometry":{"type":"Polygon","coordinates":[[[54.417211,24.501689],[54.417134,24.501761],[54.417191,24.501822],[54.417152,24.501906],[54.41703,24.501953],[54.417225,24.502093],[54.417254,24.502089],[54.41747,24.501885],[54.41724,24.501685],[54.417211,24.501689]]]}},{"type":"Feature","properties":{},"geometry":{"type":"Polygon","coordinates":[[[54.41685,24.501875],[54.416777,24.501891],[54.416792,24.501938],[54.416865,24.501923],[54.41685,24.501875]]]}},{"type":"Feature","properties":{},"geometry":{"type":"Polygon","coordinates":[[[54.416545,24.501979],[54.416758,24.501965],[54.416757,24.501916],[54.416543,24.501932],[54.416545,24.501979]]]}},{"type":"Feature","properties":{},"geometry":{"type":"Polygon","coordinates":[[[54.41759,24.502323],[54.417519,24.502355],[54.417549,24.502391],[54.417619,24.50236],[54.41759,24.502323]]]}},{"type":"Feature","properties":{},"geometry":{"type":"Polygon","coordinates":[[[54.417885,24.502453],[54.417856,24.502457],[54.417833,24.502482],[54.417879,24.502518],[54.417908,24.502514],[54.417932,24.502489],[54.417885,24.502453]]]}},{"type":"Feature","properties":{},"geometry":{"type":"Polygon","coordinates":[[[54.415526,24.502419],[54.415472,24.502421],[54.415468,24.50248],[54.415522,24.502478],[54.415526,24.502419]]]}},{"type":"Feature","properties":{},"geometry":{"type":"Polygon","coordinates":[[[54.417504,24.502442],[54.417392,24.502446],[54.417392,24.50256],[54.4175,24.502562],[54.417504,24.502442]]]}},{"type":"Feature","properties":{},"geometry":{"type":"Polygon","coordinates":[[[54.416995,24.502628],[54.416863,24.502634],[54.416864,24.502658],[54.416996,24.502652],[54.416995,24.502628]]]}},{"type":"Feature","properties":{},"geometry":{"type":"Polygon","coordinates":[[[54.415468,24.502603],[54.415361,24.502611],[54.415363,24.502644],[54.415469,24.502637],[54.415468,24.502603]]]}},{"type":"Feature","properties":{},"geometry":{"type":"Polygon","coordinates":[[[54.415466,24.502644],[54.415366,24.502647],[54.415366,24.502685],[54.415466,24.502682],[54.415466,24.502644]]]}},{"type":"Feature","properties":{},"geometry":{"type":"Polygon","coordinates":[[[54.417054,24.502707],[54.416916,24.502706],[54.416913,24.502766],[54.41703,24.50277],[54.417031,24.502798],[54.417302,24.502785],[54.417299,24.502712],[54.417057,24.502721],[54.417054,24.502707]]]}},{"type":"Feature","properties":{},"geometry":{"type":"Polygon","coordinates":[[[54.417402,24.50271],[54.417315,24.502719],[54.417321,24.502779],[54.417408,24.502771],[54.417402,24.50271]]]}},{"type":"Feature","properties":{},"geometry":{"type":"Polygon","coordinates":[[[54.415618,24.502785],[54.415536,24.502783],[54.415533,24.502811],[54.415614,24.502812],[54.415618,24.502785]]]}},{"type":"Feature","properties":{},"geometry":{"type":"Polygon","coordinates":[[[54.415458,24.502778],[54.415367,24.502788],[54.415374,24.502842],[54.415465,24.502832],[54.415458,24.502778]]]}},{"type":"Feature","properties":{},"geometry":{"type":"Polygon","coordinates":[[[54.415815,24.502783],[54.41566,24.502782],[54.415657,24.50286],[54.415811,24.502861],[54.415815,24.502783]]]}},{"type":"Feature","properties":{},"geometry":{"type":"Polygon","coordinates":[[[54.415497,24.502843],[54.41541,24.502854],[54.415418,24.502905],[54.415505,24.502893],[54.415497,24.502843]]]}},{"type":"Feature","properties":{},"geometry":{"type":"Polygon","coordinates":[[[54.417372,24.503102],[54.417374,24.50306],[54.417238,24.50306],[54.417236,24.503102],[54.417372,24.503102]]]}},{"type":"Feature","properties":{},"geometry":{"type":"Polygon","coordinates":[[[54.417526,24.503139],[54.417436,24.503141],[54.417433,24.503231],[54.417523,24.503229],[54.417526,24.503139]]]}},{"type":"Feature","properties":{},"geometry":{"type":"Polygon","coordinates":[[[54.417604,24.503168],[54.417527,24.503173],[54.417528,24.503234],[54.417605,24.503229],[54.417604,24.503168]]]}},{"type":"Feature","properties":{},"geometry":{"type":"Polygon","coordinates":[[[54.415728,24.503421],[54.415606,24.503422],[54.415604,24.503477],[54.415726,24.503477],[54.415728,24.503421]]]}},{"type":"Feature","properties":{},"geometry":{"type":"Polygon","coordinates":[[[54.415852,24.503558],[54.415781,24.503563],[54.415784,24.503646],[54.415855,24.50364],[54.415852,24.503558]]]}},{"type":"Feature","properties":{},"geometry":{"type":"Polygon","coordinates":[[[54.417698,24.50357],[54.417635,24.503573],[54.417628,24.50379],[54.41769,24.503787],[54.417698,24.50357]]]}},{"type":"Feature","properties":{},"geometry":{"type":"Polygon","coordinates":[[[54.415415,24.503972],[54.415327,24.503988],[54.415336,24.504025],[54.415424,24.504009],[54.415415,24.503972]]]}},{"type":"Feature","properties":{},"geometry":{"type":"Polygon","coordinates":[[[54.415665,24.504062],[54.41564,24.504033],[54.415611,24.504036],[54.41554,24.504087],[54.41559,24.504137],[54.415536,24.504191],[54.415713,24.504344],[54.415811,24.504331],[54.415988,24.504182],[54.415792,24.50402],[54.415694,24.504034],[54.415665,24.504062]]]}},{"type":"Feature","properties":{},"geometry":{"type":"Polygon","coordinates":[[[54.415417,24.504512],[54.415445,24.504508],[54.41549,24.504472],[54.415441,24.504421],[54.415412,24.504425],[54.415368,24.504461],[54.415417,24.504512]]]}},{"type":"Feature","properties":{},"geometry":{"type":"Polygon","coordinates":[[[54.415806,24.50466],[54.41561,24.504498],[54.415493,24.504514],[54.415334,24.504672],[54.415512,24.504825],[54.415629,24.504809],[54.415806,24.50466]]]}},{"type":"Feature","properties":{},"geometry":{"type":"Polygon","coordinates":[[[54.415784,24.50493],[54.415755,24.504934],[54.415708,24.50497],[54.415765,24.505031],[54.415794,24.505027],[54.415841,24.50499],[54.415784,24.50493]]]}},{"type":"Feature","properties":{},"geometry":{"type":"Polygon","coordinates":[[[54.418939,24.480052],[54.418873,24.480042],[54.418844,24.480046],[54.418838,24.480082],[54.418914,24.48009],[54.418913,24.480135],[54.41898,24.480132],[54.418981,24.480071],[54.418935,24.480071],[54.418939,24.480052]]]}},{"type":"Feature","properties":{},"geometry":{"type":"Polygon","coordinates":[[[54.420657,24.480301],[54.42066,24.480236],[54.42054,24.480236],[54.420533,24.480368],[54.42063,24.480371],[54.420629,24.480383],[54.420901,24.480388],[54.420903,24.480342],[54.420695,24.480334],[54.420696,24.480302],[54.420657,24.480301]]]}},{"type":"Feature","properties":{},"geometry":{"type":"Polygon","coordinates":[[[54.419993,24.480828],[54.419901,24.480826],[54.419895,24.480881],[54.419987,24.480883],[54.419993,24.480828]]]}},{"type":"Feature","properties":{},"geometry":{"type":"Polygon","coordinates":[[[54.418898,24.481561],[54.41855,24.481528],[54.418531,24.481663],[54.41888,24.481695],[54.418898,24.481561]]]}},{"type":"Feature","properties":{},"geometry":{"type":"Polygon","coordinates":[[[54.419322,24.48163],[54.418954,24.481593],[54.418931,24.481746],[54.4193,24.481784],[54.419322,24.48163]]]}},{"type":"Feature","properties":{},"geometry":{"type":"Polygon","coordinates":[[[54.419748,24.48167],[54.419392,24.481635],[54.419373,24.481772],[54.419728,24.481807],[54.419748,24.48167]]]}},{"type":"Feature","properties":{},"geometry":{"type":"Polygon","coordinates":[[[54.420041,24.48171],[54.420035,24.481773],[54.4202,24.481772],[54.420202,24.48172],[54.420041,24.48171]]]}},{"type":"Feature","properties":{},"geometry":{"type":"Polygon","coordinates":[[[54.418672,24.481686],[54.418515,24.481695],[54.418521,24.481835],[54.418733,24.481824],[54.41873,24.481743],[54.418675,24.481744],[54.418672,24.481686]]]}},{"type":"Feature","properties":{},"geometry":{"type":"Polygon","coordinates":[[[54.418868,24.481775],[54.418797,24.481774],[54.418784,24.481854],[54.418855,24.481855],[54.418868,24.481775]]]}},{"type":"Feature","properties":{},"geometry":{"type":"Polygon","coordinates":[[[54.420621,24.481788],[54.420254,24.481752],[54.420231,24.481915],[54.420597,24.481951],[54.420621,24.481788]]]}},{"type":"Feature","properties":{},"geometry":{"type":"Polygon","coordinates":[[[54.42104,24.48183],[54.420687,24.481817],[54.420678,24.48195],[54.421032,24.481962],[54.42104,24.48183]]]}},{"type":"Feature","properties":{},"geometry":{"type":"Polygon","coordinates":[[[54.420171,24.481889],[54.419822,24.48186],[54.419806,24.481995],[54.420155,24.482024],[54.420171,24.481889]]]}},{"type":"Feature","properties":{},"geometry":{"type":"Polygon","coordinates":[[[54.420987,24.482135],[54.421007,24.482012],[54.420668,24.481974],[54.420648,24.482097],[54.420987,24.482135]]]}},{"type":"Feature","properties":{},"geometry":{"type":"Polygon","coordinates":[[[54.419618,24.481986],[54.419265,24.481951],[54.419246,24.482082],[54.4196,24.482116],[54.419618,24.481986]]]}},{"type":"Feature","properties":{},"geometry":{"type":"Polygon","coordinates":[[[54.418837,24.481991],[54.418772,24.481989],[54.418757,24.482059],[54.418821,24.482062],[54.418837,24.481991]]]}},{"type":"Feature","properties":{},"geometry":{"type":"Polygon","coordinates":[[[54.420468,24.48202],[54.420349,24.482003],[54.420324,24.482093],[54.420444,24.482109],[54.420468,24.48202]]]}},{"type":"Feature","properties":{},"geometry":{"type":"Polygon","coordinates":[[[54.419583,24.482177],[54.419586,24.482153],[54.419227,24.482118],[54.419199,24.482312],[54.419386,24.482334],[54.419344,24.482337],[54.419337,24.482405],[54.419183,24.482398],[54.419163,24.482583],[54.419496,24.482613],[54.419525,24.482609],[54.419529,24.482572],[54.419598,24.482572],[54.419634,24.482218],[54.419635,24.482244],[54.419696,24.48224],[54.419808,24.482265],[54.419837,24.482261],[54.419845,24.482224],[54.419713,24.4822],[54.419635,24.482206],[54.419636,24.48219],[54.419694,24.482198],[54.419722,24.482194],[54.419724,24.482183],[54.4198,24.482179],[54.4198,24.48213],[54.419733,24.482132],[54.419722,24.482121],[54.419837,24.482116],[54.419835,24.482019],[54.419645,24.482026],[54.419647,24.482114],[54.419632,24.482116],[54.41962,24.482181],[54.419583,24.482177]]]}},{"type":"Feature","properties":{},"geometry":{"type":"Polygon","coordinates":[[[54.419207,24.482064],[54.418855,24.482033],[54.418845,24.482112],[54.419196,24.482143],[54.419207,24.482064]]]}},{"type":"Feature","properties":{},"geometry":{"type":"Polygon","coordinates":[[[54.420228,24.482064],[54.419878,24.482027],[54.419858,24.482158],[54.420207,24.482195],[54.420228,24.482064]]]}},{"type":"Feature","properties":{},"geometry":{"type":"Polygon","coordinates":[[[54.418817,24.482124],[54.418466,24.482088],[54.418446,24.482215],[54.418798,24.482252],[54.418817,24.482124]]]}},{"type":"Feature","properties":{},"geometry":{"type":"Polygon","coordinates":[[[54.420588,24.482262],[54.420242,24.482223],[54.420231,24.482285],[54.420578,24.482324],[54.420588,24.482262]]]}},{"type":"Feature","properties":{},"geometry":{"type":"Polygon","coordinates":[[[54.420967,24.48224],[54.420628,24.482215],[54.420615,24.482336],[54.420954,24.482361],[54.420967,24.48224]]]}},{"type":"Feature","properties":{},"geometry":{"type":"Polygon","coordinates":[[[54.420215,24.482222],[54.41985,24.482193],[54.419826,24.482398],[54.420191,24.482427],[54.420215,24.482222]]]}},{"type":"Feature","properties":{},"geometry":{"type":"Polygon","coordinates":[[[54.42058,24.482347],[54.42023,24.482312],[54.420211,24.482444],[54.420561,24.482479],[54.42058,24.482347]]]}},{"type":"Feature","properties":{},"geometry":{"type":"Polygon","coordinates":[[[54.420945,24.482404],[54.420606,24.482368],[54.420587,24.48249],[54.420926,24.482526],[54.420945,24.482404]]]}},{"type":"Feature","properties":{},"geometry":{"type":"Polygon","coordinates":[[[54.419163,24.482372],[54.418814,24.482335],[54.418793,24.482469],[54.419142,24.482506],[54.419163,24.482372]]]}},{"type":"Feature","properties":{},"geometry":{"type":"Polygon","coordinates":[[[54.419136,24.482537],[54.418785,24.4825],[54.418776,24.482559],[54.419127,24.482596],[54.419136,24.482537]]]}},{"type":"Feature","properties":{},"geometry":{"type":"Polygon","coordinates":[[[54.420152,24.482694],[54.420176,24.482499],[54.419811,24.482469],[54.419787,24.482664],[54.420152,24.482694]]]}},{"type":"Feature","properties":{},"geometry":{"type":"Polygon","coordinates":[[[54.420545,24.482545],[54.420195,24.48252],[54.420181,24.482651],[54.420531,24.482676],[54.420545,24.482545]]]}},{"type":"Feature","properties":{},"geometry":{"type":"Polygon","coordinates":[[[54.420577,24.482552],[54.420558,24.482698],[54.420895,24.482727],[54.420916,24.482582],[54.420577,24.482552]]]}},{"type":"Feature","properties":{},"geometry":{"type":"Polygon","coordinates":[[[54.420522,24.482703],[54.420165,24.482674],[54.420157,24.482742],[54.420514,24.482771],[54.420522,24.482703]]]}},{"type":"Feature","properties":{},"geometry":{"type":"Polygon","coordinates":[[[54.419514,24.482659],[54.419163,24.482623],[54.419143,24.482754],[54.419494,24.482791],[54.419514,24.482659]]]}},{"type":"Feature","properties":{},"geometry":{"type":"Polygon","coordinates":[[[54.419055,24.482687],[54.418929,24.482665],[54.4189,24.482751],[54.419026,24.482773],[54.419055,24.482687]]]}},{"type":"Feature","properties":{},"geometry":{"type":"Polygon","coordinates":[[[54.420123,24.482738],[54.419773,24.482702],[54.419753,24.482834],[54.420103,24.48287],[54.420123,24.482738]]]}},{"type":"Feature","properties":{},"geometry":{"type":"Polygon","coordinates":[[[54.420871,24.48289],[54.420888,24.482769],[54.420549,24.482737],[54.420532,24.482858],[54.420871,24.48289]]]}},{"type":"Feature","properties":{},"geometry":{"type":"Polygon","coordinates":[[[54.420388,24.482858],[54.4203,24.48283],[54.420271,24.482834],[54.420236,24.482924],[54.420325,24.482952],[54.420354,24.482948],[54.420388,24.482858]]]}},{"type":"Feature","properties":{},"geometry":{"type":"Polygon","coordinates":[[[54.418849,24.482855],[54.418851,24.482817],[54.418734,24.482817],[54.418728,24.482926],[54.418836,24.482928],[54.418829,24.482999],[54.419161,24.483029],[54.419189,24.483025],[54.419199,24.482931],[54.419551,24.482961],[54.419568,24.482829],[54.419216,24.482799],[54.419205,24.482882],[54.418849,24.482855]]]}},{"type":"Feature","properties":{},"geometry":{"type":"Polygon","coordinates":[[[54.420021,24.482886],[54.419671,24.482854],[54.419653,24.482989],[54.420003,24.48302],[54.420021,24.482886]]]}},{"type":"Feature","properties":{},"geometry":{"type":"Polygon","coordinates":[[[54.420852,24.483007],[54.420515,24.482974],[54.420498,24.483094],[54.420835,24.483127],[54.420852,24.483007]]]}},{"type":"Feature","properties":{},"geometry":{"type":"Polygon","coordinates":[[[54.419984,24.483163],[54.419997,24.483043],[54.419644,24.483018],[54.419631,24.483138],[54.419984,24.483163]]]}},{"type":"Feature","properties":{},"geometry":{"type":"Polygon","coordinates":[[[54.420432,24.483032],[54.420065,24.483004],[54.420047,24.483166],[54.420414,24.483194],[54.420432,24.483032]]]}},{"type":"Feature","properties":{},"geometry":{"type":"Polygon","coordinates":[[[54.420839,24.483149],[54.420491,24.483127],[54.420478,24.483255],[54.420826,24.483278],[54.420839,24.483149]]]}},{"type":"Feature","properties":{},"geometry":{"type":"Polygon","coordinates":[[[54.41954,24.489259],[54.419454,24.489266],[54.419456,24.489307],[54.419542,24.4893],[54.41954,24.489259]]]}},{"type":"Feature","properties":{},"geometry":{"type":"Polygon","coordinates":[[[54.419432,24.489265],[54.419301,24.489272],[54.419302,24.489311],[54.419433,24.489303],[54.419432,24.489265]]]}},{"type":"Feature","properties":{},"geometry":{"type":"Polygon","coordinates":[[[54.419694,24.489265],[54.419562,24.48927],[54.419563,24.489324],[54.419695,24.489319],[54.419694,24.489265]]]}},{"type":"Feature","properties":{},"geometry":{"type":"Polygon","coordinates":[[[54.419077,24.489301],[54.418959,24.489309],[54.418965,24.489433],[54.419083,24.489425],[54.419077,24.489301]]]}},{"type":"Feature","properties":{},"geometry":{"type":"Polygon","coordinates":[[[54.419661,24.489381],[54.419528,24.489382],[54.419525,24.489485],[54.419658,24.489483],[54.419661,24.489381]]]}},{"type":"Feature","properties":{},"geometry":{"type":"Polygon","coordinates":[[[54.419183,24.489537],[54.419128,24.489544],[54.419137,24.489616],[54.419193,24.489609],[54.419183,24.489537]]]}},{"type":"Feature","properties":{},"geometry":{"type":"Polygon","coordinates":[[[54.419684,24.489774],[54.419534,24.48978],[54.419535,24.489825],[54.419685,24.489819],[54.419684,24.489774]]]}},{"type":"Feature","properties":{},"geometry":{"type":"Polygon","coordinates":[[[54.41955,24.490302],[54.419662,24.490293],[54.419659,24.490172],[54.419582,24.490177],[54.419584,24.490255],[54.419542,24.490261],[54.41955,24.490302]]]}},{"type":"Feature","properties":{},"geometry":{"type":"Polygon","coordinates":[[[54.419432,24.490181],[54.419353,24.490187],[54.419358,24.490309],[54.419438,24.490303],[54.419432,24.490181]]]}},{"type":"Feature","properties":{},"geometry":{"type":"Polygon","coordinates":[[[54.419314,24.490275],[54.41921,24.490281],[54.419211,24.490315],[54.419315,24.490309],[54.419314,24.490275]]]}},{"type":"Feature","properties":{},"geometry":{"type":"Polygon","coordinates":[[[54.418376,24.5023],[54.418145,24.502382],[54.418189,24.502475],[54.41842,24.502393],[54.418376,24.5023]]]}}]}