{"type":"FeatureCollection","features":[{"type":"Feature","properties":{},"geometry":{"type":"Polygon","coordinates":[[[55.125104,25.068467],[55.12512,25.068515],[55.123772,25.068627],[55.123576,25.068681],[55.123616,25.068801],[55.123519,25.068809],[55.123315,25.068865],[55.12339,25.069088],[55.122601,25.069154],[55.122337,25.069214],[55.122466,25.069679],[55.1247,25.069494],[55.124793,25.069804],[55.127232,25.069602],[55.127266,25.069707],[55.127463,25.069691],[55.127243,25.069749],[55.127271,25.069838],[55.126926,25.069866],[55.12662,25.069954],[55.126238,25.069986],[55.12598,25.070049],[55.126082,25.070311],[55.126168,25.070369],[55.126298,25.070359],[55.126341,25.070526],[55.126475,25.070577],[55.131713,25.070143],[55.131786,25.070217],[55.127981,25.070532],[55.127706,25.070753],[55.127833,25.070882],[55.12719,25.070938],[55.12697,25.071127],[55.12697,25.071171],[55.127015,25.071237],[55.124684,25.07143],[55.124351,25.07148],[55.124356,25.071503],[55.123982,25.071534],[55.123981,25.071551],[55.123833,25.071563],[55.123622,25.071735],[55.123842,25.071979],[55.123901,25.072023],[55.124037,25.072082],[55.124212,25.07212],[55.124299,25.072128],[55.126057,25.071982],[55.125914,25.07209],[55.12612,25.072312],[55.128194,25.07214],[55.128329,25.072263],[55.124259,25.0726],[55.124224,25.07282],[55.124538,25.07286],[55.12475,25.072842],[55.124734,25.072971],[55.123807,25.073048],[55.123582,25.073209],[55.123734,25.073384],[55.123648,25.073455],[55.123827,25.073637],[55.125336,25.073512],[55.125682,25.073839],[55.126686,25.073756],[55.126619,25.07381],[55.126521,25.073818],[55.126357,25.073949],[55.126456,25.074051],[55.12551,25.074129],[55.125487,25.074433],[55.125958,25.074462],[55.126195,25.074443],[55.126192,25.074487],[55.12612,25.074493],[55.126114,25.074578],[55.126552,25.074602],[55.128463,25.074444],[55.128447,25.074457],[55.126861,25.074588],[55.126612,25.074663],[55.126695,25.074878],[55.126822,25.074868],[55.126819,25.074928],[55.127063,25.07494],[55.12807,25.074856],[55.12829,25.075081],[55.126563,25.075224],[55.126553,25.075467],[55.126963,25.075481],[55.126394,25.075528],[55.126084,25.075758],[55.126205,25.075891],[55.12777,25.075761],[55.127679,25.075916],[55.12649,25.076014],[55.126478,25.076221],[55.126853,25.076237],[55.126819,25.076646],[55.127243,25.076675],[55.129644,25.076476],[55.129719,25.076562],[55.127482,25.076748],[55.127461,25.077156],[55.127829,25.077171],[55.128047,25.077153],[55.128036,25.077326],[55.127941,25.077334],[55.127935,25.077422],[55.128361,25.077445],[55.130163,25.077296],[55.130201,25.07734],[55.129543,25.077394],[55.12939,25.077513],[55.128138,25.077617],[55.128123,25.07791],[55.128345,25.077919],[55.129569,25.077818],[55.12959,25.077841],[55.128833,25.077903],[55.128851,25.078119],[55.129802,25.078044],[55.129836,25.078329],[55.128927,25.078404],[55.128947,25.078808],[55.130006,25.078732],[55.13002,25.078776],[55.130052,25.07879],[55.13031,25.078769],[55.130314,25.078806],[55.129365,25.078884],[55.129374,25.079093],[55.129797,25.079078],[55.130336,25.079033],[55.130346,25.079144],[55.13139,25.079059],[55.131401,25.079072],[55.131696,25.079048],[55.13168,25.079061],[55.129841,25.079213],[55.129844,25.079413],[55.130135,25.07941],[55.134763,25.079027],[55.134787,25.079051],[55.134271,25.079094],[55.134137,25.079152],[55.134224,25.079243],[55.132216,25.07941],[55.131932,25.079628],[55.131965,25.079664],[55.128347,25.079964],[55.128169,25.080104],[55.128539,25.080488],[55.129422,25.080415],[55.129054,25.080717],[55.12914,25.080842],[55.129613,25.080803],[55.129362,25.081204],[55.129478,25.081307],[55.131242,25.081161],[55.13131,25.081236],[55.131483,25.081222],[55.131352,25.081332],[55.131588,25.081562],[55.13294,25.081458],[55.131949,25.08154],[55.131806,25.081735],[55.132162,25.08193],[55.132366,25.081956],[55.13334,25.081875],[55.133641,25.082168],[55.134259,25.082117],[55.134278,25.082135],[55.13439,25.082126],[55.134373,25.082139],[55.132958,25.082264],[55.132993,25.082542],[55.13437,25.082428],[55.134279,25.082498],[55.134482,25.082714],[55.135976,25.08259],[55.135945,25.082614],[55.136011,25.082682],[55.135273,25.082743],[55.135241,25.082712],[55.134617,25.082764],[55.134571,25.082802],[55.133569,25.082885],[55.133586,25.083132],[55.134568,25.083061],[55.134571,25.083081],[55.136282,25.082939],[55.136246,25.08297],[55.136106,25.083026],[55.136117,25.083048],[55.133711,25.08325],[55.133742,25.083522],[55.133655,25.083531],[55.133664,25.083616],[55.134917,25.083513],[55.134714,25.083671],[55.134688,25.083706],[55.134653,25.083797],[55.134659,25.083873],[55.135214,25.084444],[55.135106,25.084453],[55.135014,25.0845],[55.134894,25.084591],[55.134857,25.084642],[55.134844,25.084706],[55.134945,25.084804],[55.13738,25.084602],[55.137452,25.084672],[55.137861,25.084638],[55.137892,25.084707],[55.137907,25.084797],[55.137859,25.084734],[55.137235,25.084785],[55.137184,25.084817],[55.137242,25.084893],[55.137866,25.084841],[55.137906,25.084815],[55.137851,25.084997],[55.137877,25.085043],[55.137963,25.085081],[55.138246,25.085058],[55.138272,25.085085],[55.138321,25.085094],[55.138488,25.08508],[55.138532,25.085059],[55.138547,25.085033],[55.138676,25.085022],[55.138646,25.08503],[55.138722,25.085103],[55.138702,25.085198],[55.138767,25.085212],[55.138832,25.085208],[55.13896,25.085329],[55.13893,25.08535],[55.137868,25.085446],[55.137798,25.085495],[55.137775,25.08553],[55.137763,25.085609],[55.137802,25.085693],[55.137881,25.085742],[55.137971,25.085747],[55.14053,25.085535],[55.140623,25.085487],[55.140657,25.085439],[55.140668,25.085382],[55.140828,25.085369],[55.141141,25.085121],[55.141254,25.08525],[55.14108,25.085378],[55.141586,25.085938],[55.142085,25.085897],[55.142396,25.085667],[55.14234,25.085606],[55.142448,25.085597],[55.142535,25.085536],[55.142619,25.085069],[55.142659,25.084988],[55.142311,25.084919],[55.143009,25.084861],[55.143213,25.085158],[55.143996,25.085093],[55.143941,25.085138],[55.143932,25.085129],[55.143817,25.085138],[55.143803,25.085123],[55.143304,25.085164],[55.142958,25.085437],[55.142985,25.085464],[55.142931,25.085507],[55.143046,25.085627],[55.142571,25.085666],[55.142457,25.085757],[55.14251,25.086241],[55.142627,25.086392],[55.142837,25.086613],[55.141373,25.086734],[55.141036,25.086882],[55.140762,25.086904],[55.140788,25.086857],[55.140795,25.086804],[55.140782,25.086752],[55.14075,25.086707],[55.140703,25.086675],[55.140646,25.086659],[55.139963,25.086714],[55.139872,25.086763],[55.139835,25.086836],[55.139276,25.086882],[55.139176,25.086938],[55.139183,25.087024],[55.138692,25.087064],[55.138659,25.087089],[55.13829,25.087119],[55.138076,25.087218],[55.134883,25.087482],[55.134422,25.087831],[55.134423,25.087886],[55.134468,25.087896],[55.134471,25.087965],[55.134528,25.087988],[55.13858,25.087652],[55.138391,25.087833],[55.138385,25.087872],[55.138367,25.087843],[55.137743,25.087895],[55.137698,25.087918],[55.13773,25.087968],[55.138354,25.087916],[55.138379,25.087903],[55.138371,25.087949],[55.138718,25.088041],[55.138098,25.088093],[55.137987,25.088129],[55.138005,25.088174],[55.138629,25.088122],[55.13874,25.088086],[55.138723,25.088043],[55.139091,25.088141],[55.139505,25.088107],[55.139569,25.088159],[55.140752,25.088061],[55.140796,25.088112],[55.140071,25.088172],[55.139798,25.08843],[55.14007,25.088667],[55.140396,25.08864],[55.140056,25.088946],[55.140164,25.089044],[55.140722,25.088998],[55.140576,25.089132],[55.140756,25.089292],[55.138098,25.089512],[55.137998,25.089636],[55.137582,25.089671],[55.137469,25.089928],[55.138073,25.090146],[55.138161,25.090139],[55.138142,25.090178],[55.137856,25.090202],[55.137819,25.090282],[55.13788,25.090304],[55.137856,25.090364],[55.138073,25.090435],[55.137854,25.090453],[55.137818,25.090527],[55.137429,25.09056],[55.137322,25.090654],[55.137222,25.090694],[55.137235,25.090712],[55.137081,25.090781],[55.137003,25.090787],[55.136914,25.090845],[55.136939,25.090896],[55.136863,25.090937],[55.13648,25.090968],[55.136247,25.091092],[55.136303,25.091186],[55.136463,25.091173],[55.136483,25.091209],[55.136936,25.091172],[55.136957,25.091191],[55.137013,25.091196],[55.137637,25.091144],[55.137823,25.09097],[55.137788,25.090893],[55.137877,25.090849],[55.137968,25.090841],[55.138083,25.090782],[55.138071,25.090747],[55.138188,25.090643],[55.13864,25.090605],[55.138697,25.090487],[55.138604,25.090451],[55.138843,25.090431],[55.138883,25.090331],[55.14177,25.090091],[55.141809,25.090132],[55.138965,25.090368],[55.138861,25.090446],[55.139128,25.090805],[55.142219,25.090549],[55.142338,25.090682],[55.143256,25.090606],[55.143286,25.090637],[55.143897,25.090587],[55.143569,25.090836],[55.143583,25.090851],[55.14287,25.09091],[55.142583,25.091126],[55.142611,25.091156],[55.140465,25.091334],[55.140146,25.0916],[55.140256,25.091707],[55.139989,25.09173],[55.13967,25.091995],[55.13984,25.092162],[55.140671,25.092093],[55.140683,25.092106],[55.140641,25.092188],[55.140656,25.092218],[55.140682,25.092231],[55.142844,25.092052],[55.142586,25.092266],[55.139059,25.092558],[55.138938,25.092584],[55.138859,25.092659],[55.138861,25.092703],[55.138944,25.092766],[55.139064,25.092771],[55.142301,25.092503],[55.142076,25.09269],[55.138536,25.092984],[55.138415,25.09301],[55.138336,25.093084],[55.138338,25.093128],[55.138421,25.093191],[55.138541,25.093197],[55.141791,25.092927],[55.141582,25.093101],[55.13803,25.093395],[55.137909,25.093421],[55.13783,25.093495],[55.137832,25.093539],[55.137915,25.093602],[55.138035,25.093608],[55.14134,25.093334],[55.14161,25.093601],[55.141977,25.09357],[55.140366,25.094869],[55.140595,25.095101],[55.141219,25.09505],[55.143046,25.093577],[55.14296,25.093489],[55.143274,25.093463],[55.144921,25.092094],[55.144867,25.092041],[55.144973,25.092032],[55.144946,25.092053],[55.144967,25.092075],[55.145224,25.092053],[55.145246,25.09208],[55.145042,25.092097],[55.145004,25.092123],[55.145028,25.092151],[55.14505,25.092149],[55.145037,25.092159],[55.145062,25.092186],[55.145201,25.092175],[55.145239,25.092194],[55.145352,25.092185],[55.145523,25.09236],[55.145588,25.092355],[55.145717,25.092487],[55.145133,25.092535],[55.14509,25.092598],[55.14513,25.09262],[55.145754,25.092569],[55.145776,25.092536],[55.145906,25.092525],[55.145927,25.092547],[55.146658,25.092486],[55.14652,25.092593],[55.146406,25.092602],[55.146199,25.092816],[55.145994,25.092833],[55.145954,25.09286],[55.145988,25.092901],[55.146127,25.092889],[55.146096,25.092922],[55.146151,25.092973],[55.145751,25.093006],[55.145723,25.093031],[55.145751,25.093056],[55.146202,25.093018],[55.146248,25.09306],[55.146461,25.093043],[55.146492,25.093067],[55.14644,25.093113],[55.146225,25.093139],[55.146052,25.09332],[55.146237,25.093465],[55.146626,25.093433],[55.146582,25.093479],[55.146861,25.093725],[55.147152,25.093701],[55.147077,25.093767],[55.147197,25.093902],[55.14727,25.093896],[55.147348,25.093988],[55.147185,25.094136],[55.147312,25.094249],[55.147905,25.09421],[55.147924,25.094233],[55.148548,25.094181],[55.148605,25.094142],[55.148809,25.094125],[55.149721,25.093369],[55.149271,25.092957],[55.148846,25.092992],[55.148733,25.092887],[55.148604,25.092898],[55.148432,25.092852],[55.148921,25.092506],[55.148509,25.09209],[55.1476,25.092165],[55.14744,25.091988],[55.147412,25.09192],[55.147305,25.09191],[55.147207,25.091876],[55.147164,25.091837],[55.147262,25.091727],[55.147198,25.091672],[55.147048,25.091685],[55.147005,25.091564],[55.147496,25.091523],[55.147549,25.091483],[55.147534,25.091467],[55.147497,25.09147],[55.147477,25.091447],[55.147605,25.091436],[55.147663,25.091395],[55.147649,25.09138],[55.147472,25.091394],[55.14762,25.09138],[55.147651,25.091355],[55.147638,25.091341],[55.147721,25.091281],[55.149116,25.091163],[55.149184,25.091129],[55.149226,25.091079],[55.149246,25.091011],[55.149229,25.090932],[55.149179,25.090873],[55.149091,25.090837],[55.148837,25.090856],[55.14898,25.090749],[55.14989,25.090673],[55.150299,25.090352],[55.150328,25.090349],[55.150666,25.090087],[55.150647,25.090066],[55.15069,25.090062],[55.151039,25.089804],[55.151046,25.089646],[55.150759,25.089352],[55.150128,25.089404],[55.150222,25.089362],[55.15039,25.089348],[55.150444,25.089323],[55.150312,25.089085],[55.149688,25.089137],[55.149502,25.089221],[55.149545,25.0893],[55.149437,25.089349],[55.149482,25.089432],[55.149344,25.089443],[55.149399,25.0894],[55.148991,25.088984],[55.150736,25.08884],[55.150575,25.08897],[55.15061,25.089005],[55.150698,25.088998],[55.150687,25.089007],[55.150722,25.089042],[55.150884,25.089029],[55.150885,25.089087],[55.150715,25.089101],[55.150662,25.089143],[55.150771,25.089257],[55.151395,25.089205],[55.151431,25.089177],[55.151648,25.089152],[55.151741,25.089111],[55.151724,25.089073],[55.151782,25.089059],[55.151779,25.089048],[55.151908,25.089037],[55.15203,25.088929],[55.152067,25.088877],[55.151833,25.088757],[55.151556,25.088772],[55.152075,25.088729],[55.152218,25.088608],[55.152261,25.088552],[55.152292,25.088357],[55.152269,25.088279],[55.151742,25.087751],[55.151404,25.087779],[55.151657,25.087576],[55.151034,25.086939],[55.149703,25.08705],[55.149342,25.08734],[55.149883,25.087893],[55.149864,25.087907],[55.149392,25.087946],[55.149148,25.087705],[55.148992,25.087701],[55.148368,25.087752],[55.147999,25.08805],[55.148009,25.08806],[55.147799,25.088078],[55.147835,25.088051],[55.147418,25.087589],[55.14676,25.087644],[55.146818,25.087601],[55.147718,25.087526],[55.147838,25.087654],[55.148462,25.087602],[55.148728,25.08736],[55.148748,25.087227],[55.148512,25.086995],[55.149121,25.086945],[55.149167,25.08689],[55.14921,25.086887],[55.149229,25.086846],[55.149213,25.086841],[55.149223,25.086819],[55.149255,25.086816],[55.149296,25.086763],[55.149335,25.08676],[55.149357,25.086711],[55.149334,25.086702],[55.149342,25.086685],[55.149371,25.086683],[55.149383,25.086658],[55.149403,25.086656],[55.149473,25.086545],[55.14938,25.086509],[55.149547,25.086496],[55.149571,25.086449],[55.149539,25.086436],[55.149544,25.086426],[55.149589,25.086422],[55.149612,25.086376],[55.149591,25.086368],[55.149617,25.086318],[55.149642,25.086316],[55.149689,25.086223],[55.149663,25.086212],[55.149678,25.086182],[55.149571,25.086137],[55.148958,25.086188],[55.148804,25.086133],[55.148513,25.086157],[55.148541,25.086139],[55.14841,25.085977],[55.148434,25.085961],[55.148332,25.085835],[55.14877,25.085798],[55.148894,25.085545],[55.149127,25.085526],[55.149152,25.085539],[55.149115,25.085615],[55.149136,25.085624],[55.149074,25.085773],[55.149098,25.085783],[55.149035,25.085938],[55.149125,25.085975],[55.148865,25.085996],[55.148785,25.086032],[55.148823,25.086103],[55.149447,25.086051],[55.149527,25.086016],[55.149498,25.085961],[55.149784,25.085937],[55.149809,25.085886],[55.149796,25.085881],[55.149809,25.085856],[55.149796,25.085851],[55.149804,25.085834],[55.149829,25.085832],[55.149853,25.085785],[55.149835,25.085777],[55.149856,25.085736],[55.149837,25.085728],[55.149877,25.085645],[55.14986,25.085639],[55.149871,25.085616],[55.14985,25.085608],[55.149862,25.085581],[55.149882,25.08558],[55.149915,25.08549],[55.149889,25.08548],[55.149919,25.085394],[55.1499,25.085387],[55.149934,25.085314],[55.149909,25.085304],[55.149923,25.085274],[55.149891,25.085262],[55.149901,25.085241],[55.149927,25.085238],[55.149948,25.085192],[55.14982,25.085143],[55.149407,25.085178],[55.149205,25.085095],[55.148988,25.085113],[55.149014,25.085053],[55.148993,25.085045],[55.148522,25.085033],[55.148524,25.084988],[55.148417,25.084985],[55.147793,25.085036],[55.14779,25.085092],[55.147815,25.085093],[55.147706,25.085102],[55.147662,25.085136],[55.147581,25.085143],[55.14756,25.085186],[55.14758,25.085197],[55.147516,25.085202],[55.147471,25.085239],[55.145098,25.085436],[55.144972,25.085012],[55.149108,25.084669],[55.149119,25.084688],[55.149091,25.084701],[55.149134,25.084776],[55.149758,25.084724],[55.149883,25.084665],[55.149855,25.084618],[55.149837,25.08462],[55.149824,25.084597],[55.149848,25.084586],[55.149829,25.084553],[55.149853,25.084541],[55.149811,25.08447],[55.149828,25.084462],[55.149805,25.084424],[55.149846,25.084404],[55.149791,25.084338],[55.149777,25.084307],[55.149787,25.084302],[55.149742,25.084232],[55.149759,25.084224],[55.149716,25.084152],[55.149732,25.084145],[55.149676,25.084079],[55.149698,25.084068],[55.149648,25.083982],[55.149633,25.083983],[55.149619,25.083959],[55.149603,25.083929],[55.149619,25.083921],[55.149593,25.083877],[55.149571,25.083879],[55.149558,25.083858],[55.149572,25.083851],[55.149544,25.083806],[55.149285,25.083827],[55.149305,25.083759],[55.149209,25.083736],[55.148585,25.083788],[55.148559,25.083874],[55.148656,25.083897],[55.148877,25.083879],[55.148801,25.083917],[55.148962,25.084215],[55.148781,25.08423],[55.148606,25.083943],[55.148013,25.083992],[55.148013,25.083966],[55.14806,25.083963],[55.14806,25.083938],[55.148081,25.083936],[55.148067,25.083853],[55.148087,25.083851],[55.148088,25.083746],[55.148062,25.083746],[55.148062,25.083733],[55.148528,25.083695],[55.148633,25.083641],[55.148669,25.083692],[55.149293,25.08364],[55.149413,25.083571],[55.149382,25.083526],[55.149364,25.083528],[55.149302,25.08344],[55.149274,25.083442],[55.149181,25.08331],[55.148744,25.083346],[55.148692,25.083263],[55.147643,25.08335],[55.147728,25.083163],[55.147511,25.083082],[55.147541,25.083036],[55.147334,25.082866],[55.146701,25.082927],[55.146612,25.082808],[55.146603,25.082681],[55.146706,25.082628],[55.146769,25.082576],[55.146883,25.082437],[55.146774,25.082391],[55.14675,25.082286],[55.143844,25.082527],[55.144011,25.082383],[55.14388,25.082259],[55.143801,25.082265],[55.143762,25.082228],[55.141899,25.082383],[55.141771,25.082285],[55.141147,25.082336],[55.14107,25.082402],[55.141113,25.082448],[55.14087,25.082468],[55.140899,25.082444],[55.140927,25.082275],[55.141937,25.082191],[55.141894,25.082228],[55.142026,25.082356],[55.1446,25.082142],[55.144808,25.082356],[55.144852,25.082376],[55.145532,25.082325],[55.145584,25.082305],[55.146047,25.08193],[55.146848,25.081863],[55.147125,25.081658],[55.146977,25.081493],[55.143805,25.081757],[55.143672,25.081855],[55.142188,25.081978],[55.142133,25.082025],[55.141597,25.082069],[55.141486,25.081949],[55.141399,25.081899],[55.140777,25.081945],[55.144804,25.081612],[55.144902,25.081568],[55.145014,25.081494],[55.145802,25.081429],[55.145914,25.081546],[55.146538,25.081494],[55.14669,25.081374],[55.146572,25.081251],[55.146455,25.081261],[55.146416,25.081222],[55.146468,25.081173],[55.146377,25.081082],[55.146491,25.081175],[55.147115,25.081124],[55.147224,25.081023],[55.147191,25.080995],[55.15146,25.080641],[55.151714,25.080435],[55.151682,25.080403],[55.151705,25.080402],[55.151778,25.080345],[55.151652,25.080211],[55.151504,25.080223],[55.151432,25.080149],[55.150294,25.080244],[55.150137,25.080085],[55.149513,25.080136],[55.149277,25.080328],[55.14592,25.080607],[55.145666,25.080812],[55.145885,25.081034],[55.142967,25.081276],[55.142836,25.081383],[55.140469,25.081577],[55.140252,25.081373],[55.140851,25.081323],[55.140947,25.081261],[55.140918,25.081104],[55.140924,25.080998],[55.14123,25.080973],[55.141158,25.081055],[55.141292,25.081189],[55.145556,25.080836],[55.145712,25.080749],[55.145782,25.080685],[55.145835,25.080606],[55.145701,25.080472],[55.144448,25.080576],[55.144524,25.080509],[55.145586,25.080421],[55.145607,25.080444],[55.147241,25.080308],[55.147285,25.080318],[55.147909,25.080266],[55.147947,25.080262],[55.147948,25.080249],[55.15153,25.079952],[55.151843,25.079707],[55.151659,25.079508],[55.15097,25.079565],[55.151009,25.079534],[55.15081,25.07933],[55.150186,25.079382],[55.150105,25.079447],[55.15013,25.079472],[55.147404,25.079699],[55.147266,25.079623],[55.147105,25.079564],[55.146481,25.079616],[55.146392,25.079628],[55.146403,25.079689],[55.146468,25.079776],[55.14498,25.0799],[55.144751,25.079684],[55.143712,25.07977],[55.143675,25.079724],[55.14417,25.079683],[55.144191,25.079667],[55.148623,25.079299],[55.148654,25.079332],[55.148753,25.079344],[55.149377,25.079293],[55.149478,25.079229],[55.150069,25.079179],[55.150134,25.079126],[55.150174,25.079122],[55.150266,25.079033],[55.150175,25.078814],[55.149333,25.078884],[55.14926,25.07881],[55.148697,25.078856],[55.148647,25.078805],[55.148546,25.078813],[55.148506,25.078772],[55.143983,25.079139],[55.144106,25.07903],[55.143925,25.078863],[55.145004,25.078773],[55.145104,25.078881],[55.145869,25.078818],[55.145994,25.07895],[55.151916,25.078459],[55.152152,25.078276],[55.151907,25.078017],[55.15125,25.078072],[55.151131,25.077942],[55.148695,25.078145],[55.148663,25.078112],[55.148063,25.078162],[55.148011,25.078108],[55.14791,25.078116],[55.14787,25.078075],[55.146835,25.078161],[55.146806,25.078131],[55.151221,25.077765],[55.151489,25.077551],[55.151404,25.077464],[55.151339,25.077469],[55.151203,25.07733],[55.150661,25.077375],[55.150722,25.077325],[55.150465,25.077069],[55.149752,25.077128],[55.149686,25.077056],[55.147673,25.077223],[55.14778,25.077096],[55.147771,25.077038],[55.149864,25.076865],[55.150113,25.076672],[55.150045,25.0766],[55.149982,25.076605],[55.149832,25.076447],[55.149296,25.076491],[55.149317,25.076471],[55.1493,25.076457],[55.148676,25.076508],[55.148649,25.076534],[55.148661,25.076544],[55.146464,25.076726],[55.146484,25.076711],[55.146469,25.076695],[55.142087,25.077057],[55.141948,25.076925],[55.141713,25.076945],[55.141692,25.07689],[55.146029,25.07653],[55.146122,25.076613],[55.146289,25.076599],[55.146482,25.076441],[55.14648,25.076398],[55.146359,25.07627],[55.146341,25.076272],[55.146212,25.076125],[55.146252,25.0761],[55.146256,25.076038],[55.146212,25.075992],[55.146142,25.075987],[55.145976,25.076],[55.145754,25.076178],[55.145495,25.076199],[55.145524,25.076175],[55.145385,25.076034],[55.145219,25.076048],[55.145143,25.076109],[55.144628,25.076152],[55.144547,25.076072],[55.143923,25.076124],[55.143872,25.076166],[55.143917,25.076211],[55.141126,25.076443],[55.141122,25.076236],[55.141008,25.076015],[55.145281,25.075661],[55.145544,25.075483],[55.145352,25.07526],[55.145031,25.075287],[55.145015,25.075267],[55.144391,25.075319],[55.144354,25.075343],[55.140748,25.075642],[55.140676,25.075556],[55.1401,25.075592],[55.140183,25.07554],[55.143519,25.075263],[55.14359,25.075331],[55.144214,25.07528],[55.144259,25.075241],[55.144222,25.075205],[55.145497,25.075099],[55.145759,25.074904],[55.145531,25.074654],[55.144843,25.074708],[55.144721,25.074578],[55.144084,25.074631],[55.143866,25.074414],[55.137944,25.074905],[55.137856,25.074978],[55.134595,25.075248],[55.134611,25.075212],[55.134313,25.075104],[55.134092,25.075123],[55.134153,25.075031],[55.135425,25.074926],[55.13545,25.07495],[55.137114,25.074812],[55.137149,25.074783],[55.143993,25.074226],[55.144299,25.073969],[55.144099,25.073774],[55.143311,25.07384],[55.14325,25.073777],[55.139278,25.074106],[55.139107,25.073918],[55.138483,25.07397],[55.138198,25.074196],[55.138013,25.074211],[55.137961,25.074156],[55.138016,25.074113],[55.13795,25.074043],[55.136894,25.074131],[55.136996,25.074043],[55.137533,25.073998],[55.137594,25.074059],[55.138426,25.07399],[55.138884,25.073615],[55.138901,25.073457],[55.138807,25.073351],[55.142365,25.073056],[55.142638,25.072851],[55.142594,25.072803],[55.14489,25.072613],[55.145079,25.072806],[55.145004,25.072866],[55.145467,25.073342],[55.146091,25.07329],[55.146158,25.073236],[55.14632,25.073222],[55.146365,25.073203],[55.146351,25.073177],[55.146464,25.073127],[55.146435,25.073085],[55.146337,25.073093],[55.146398,25.073045],[55.146377,25.073023],[55.146538,25.07301],[55.146718,25.072861],[55.146706,25.072849],[55.14678,25.072843],[55.146916,25.072736],[55.146817,25.072633],[55.147033,25.072615],[55.147439,25.072291],[55.147252,25.072094],[55.147109,25.072106],[55.147103,25.07201],[55.147091,25.072011],[55.147043,25.071906],[55.147023,25.071908],[55.147009,25.071875],[55.146832,25.071879],[55.14686,25.071856],[55.146819,25.071815],[55.146751,25.071821],[55.14688,25.071721],[55.146761,25.071594],[55.146601,25.071607],[55.146677,25.071548],[55.146651,25.07152],[55.146689,25.071499],[55.146456,25.07127],[55.145832,25.071322],[55.145808,25.071341],[55.145837,25.071369],[55.145798,25.071398],[55.145765,25.071362],[55.145141,25.071414],[55.145099,25.071446],[55.145068,25.071449],[55.145016,25.071495],[55.14507,25.071546],[55.145112,25.071542],[55.145003,25.071624],[55.14487,25.071635],[55.144829,25.071666],[55.143795,25.071752],[55.143897,25.071677],[55.143706,25.071465],[55.141685,25.071633],[55.141949,25.071439],[55.141851,25.071329],[55.143714,25.071174],[55.143985,25.070967],[55.143719,25.070683],[55.140986,25.07091],[55.141171,25.070795],[55.140963,25.070521],[55.138719,25.070707],[55.138668,25.070658],[55.144007,25.070215],[55.144388,25.069935],[55.144195,25.069719],[55.141292,25.06996],[55.141272,25.069936],[55.141226,25.069924],[55.140545,25.069978],[55.140577,25.06995],[55.140427,25.069769],[55.140457,25.069766],[55.140637,25.069859],[55.141677,25.069773],[55.141636,25.069648],[55.143287,25.069511],[55.143339,25.069504],[55.143378,25.069481],[55.145852,25.069276],[55.145973,25.069255],[55.146059,25.069213],[55.14605,25.069194],[55.146095,25.069172],[55.145992,25.069024],[55.14578,25.068844],[55.142676,25.069102],[55.142694,25.069085],[55.14262,25.06902],[55.142567,25.069024],[55.142541,25.068991],[55.141769,25.069055],[55.14148,25.068948],[55.141465,25.068906],[55.143083,25.068781],[55.143162,25.068724],[55.143098,25.068652],[55.145072,25.068488],[55.145193,25.068468],[55.145279,25.068426],[55.145269,25.068407],[55.145315,25.068385],[55.14527,25.068309],[55.145146,25.068172],[55.145,25.068057],[55.141142,25.068377],[55.141138,25.068358],[55.140098,25.068444],[55.140089,25.068464],[55.139725,25.068494],[55.139681,25.068453],[55.138276,25.068556],[55.138534,25.068382],[55.138283,25.068077],[55.133732,25.068454],[55.133766,25.068417],[55.133709,25.068335],[55.133624,25.068284],[55.133249,25.068306],[55.133349,25.068113],[55.13316,25.068032],[55.132714,25.068069],[55.132745,25.067977],[55.132553,25.067924],[55.132161,25.067957],[55.132201,25.067796],[55.132002,25.067755],[55.12608,25.068245],[55.126054,25.068351],[55.1253,25.068413],[55.125104,25.068467]],[[55.142206,25.084374],[55.142731,25.084331],[55.142721,25.084259],[55.144798,25.084086],[55.145146,25.083992],[55.145141,25.083976],[55.147287,25.083798],[55.147286,25.083899],[55.147353,25.0839],[55.147353,25.083914],[55.147281,25.08392],[55.14728,25.083979],[55.147296,25.083979],[55.147296,25.084002],[55.147259,25.084005],[55.147243,25.084056],[55.144186,25.084309],[55.144003,25.084401],[55.141975,25.084569],[55.142206,25.084374]],[[55.141949,25.083432],[55.1421,25.083307],[55.142824,25.083247],[55.14294,25.083298],[55.143252,25.083272],[55.143481,25.083217],[55.143489,25.083191],[55.144481,25.083109],[55.144674,25.082969],[55.144559,25.082839],[55.14565,25.082748],[55.145619,25.082845],[55.145625,25.082921],[55.145637,25.082972],[55.145675,25.082969],[55.145717,25.083129],[55.144767,25.083208],[55.14473,25.083166],[55.144106,25.083218],[55.144039,25.083268],[55.141949,25.083432]],[[55.143267,25.078256],[55.143114,25.078259],[55.140541,25.078472],[55.14052,25.078428],[55.140449,25.07837],[55.140838,25.078338],[55.141016,25.078222],[55.141044,25.078179],[55.141113,25.078133],[55.141135,25.078098],[55.141062,25.078007],[55.141125,25.077966],[55.141298,25.077952],[55.141375,25.0779],[55.141912,25.077855],[55.141993,25.077794],[55.143616,25.077659],[55.143482,25.077761],[55.14367,25.077964],[55.144493,25.077895],[55.144588,25.07799],[55.145125,25.077946],[55.145099,25.077967],[55.145273,25.078145],[55.145226,25.078183],[55.145299,25.078257],[55.146007,25.078198],[55.146036,25.078227],[55.143454,25.078441],[55.143267,25.078256]],[[55.145817,25.072419],[55.145712,25.072428],[55.145965,25.072216],[55.145831,25.072077],[55.145871,25.072074],[55.145973,25.071995],[55.145941,25.071961],[55.146008,25.071909],[55.146016,25.071879],[55.146059,25.071925],[55.146128,25.071919],[55.146027,25.071996],[55.146033,25.07205],[55.146319,25.072028],[55.146301,25.072041],[55.146316,25.072107],[55.146258,25.072112],[55.146259,25.072162],[55.146292,25.072165],[55.146273,25.07221],[55.146214,25.072266],[55.146234,25.072282],[55.146194,25.072297],[55.146211,25.072332],[55.145898,25.072358],[55.145817,25.072419]],[[55.141068,25.079511],[55.139431,25.079647],[55.139297,25.079553],[55.141219,25.079394],[55.141068,25.079511]],[[55.137086,25.079477],[55.137107,25.079464],[55.137119,25.07947],[55.137099,25.0795],[55.137156,25.079499],[55.1371,25.079545],[55.136939,25.079558],[55.136967,25.079538],[55.136921,25.079491],[55.137086,25.079477]],[[55.138514,25.078431],[55.138465,25.078236],[55.138287,25.078082],[55.138241,25.078086],[55.138214,25.078065],[55.137515,25.078132],[55.137531,25.078193],[55.137709,25.078335],[55.137797,25.078328],[55.13781,25.078378],[55.137595,25.078396],[55.137454,25.078223],[55.137224,25.078242],[55.137131,25.07813],[55.136965,25.078144],[55.13685,25.078222],[55.136889,25.07827],[55.136397,25.078311],[55.136294,25.078128],[55.136272,25.078044],[55.139837,25.077749],[55.140012,25.077623],[55.140056,25.077674],[55.140701,25.07762],[55.14069,25.077635],[55.140741,25.077684],[55.140416,25.077711],[55.140316,25.077776],[55.140449,25.077944],[55.14026,25.078061],[55.140123,25.078276],[55.140189,25.078359],[55.138283,25.078517],[55.138318,25.078491],[55.138285,25.078456],[55.138514,25.078431]],[[55.136048,25.077374],[55.135831,25.077007],[55.136297,25.076968],[55.136419,25.077211],[55.136586,25.077197],[55.136672,25.077161],[55.136564,25.076946],[55.136661,25.076938],[55.13729,25.076707],[55.137204,25.076529],[55.136399,25.076596],[55.136617,25.076419],[55.136555,25.076356],[55.13662,25.07635],[55.136716,25.07627],[55.13656,25.076115],[55.138593,25.075947],[55.138321,25.076103],[55.137417,25.076178],[55.137341,25.076197],[55.137276,25.076249],[55.137252,25.076295],[55.137255,25.076396],[55.137322,25.076476],[55.137373,25.076499],[55.137429,25.076506],[55.138054,25.076454],[55.137999,25.076573],[55.137991,25.076626],[55.138019,25.076813],[55.138088,25.077039],[55.138274,25.077315],[55.137343,25.077392],[55.137333,25.077275],[55.136048,25.077374]],[[55.137874,25.075251],[55.137869,25.075251],[55.137872,25.075249],[55.137874,25.075251]],[[55.141669,25.072674],[55.138179,25.072964],[55.138236,25.072917],[55.14163,25.072636],[55.141669,25.072674]],[[55.136942,25.072087],[55.136973,25.072119],[55.136997,25.072121],[55.137621,25.072069],[55.137638,25.072045],[55.137636,25.071992],[55.137748,25.071983],[55.137592,25.072098],[55.137156,25.072134],[55.137119,25.072163],[55.137203,25.072252],[55.136839,25.072282],[55.136795,25.07217],[55.136702,25.072178],[55.136942,25.072087]],[[55.137778,25.071188],[55.137526,25.071382],[55.137561,25.071419],[55.136896,25.071474],[55.137048,25.071354],[55.136954,25.071257],[55.137778,25.071188]],[[55.135823,25.070764],[55.135864,25.070732],[55.137673,25.070582],[55.137774,25.070786],[55.136492,25.070892],[55.136562,25.070837],[55.136442,25.070713],[55.135823,25.070764]],[[55.135314,25.070091],[55.135458,25.069975],[55.136449,25.069892],[55.136457,25.069908],[55.137141,25.069851],[55.137248,25.069936],[55.135265,25.0701],[55.135314,25.070091]],[[55.135128,25.069387],[55.135073,25.069331],[55.136582,25.069206],[55.136675,25.069267],[55.136784,25.069294],[55.139342,25.069082],[55.139577,25.069179],[55.139643,25.069179],[55.139658,25.06923],[55.139559,25.069238],[55.139472,25.06914],[55.134968,25.069513],[55.135128,25.069387]],[[55.133236,25.074173],[55.133116,25.07386],[55.132492,25.073911],[55.132323,25.073975],[55.132383,25.074131],[55.13197,25.074165],[55.131944,25.073957],[55.132418,25.073918],[55.132517,25.073876],[55.13651,25.073545],[55.136453,25.073595],[55.13649,25.073631],[55.135767,25.073691],[55.135598,25.073828],[55.13574,25.073972],[55.135543,25.074142],[55.135555,25.074242],[55.133315,25.074427],[55.133397,25.07438],[55.133262,25.074205],[55.133075,25.07422],[55.133236,25.074173]],[[55.134212,25.070869],[55.134237,25.070896],[55.133935,25.070921],[55.133916,25.0709],[55.134212,25.070869]],[[55.133471,25.069325],[55.133477,25.069351],[55.133398,25.069358],[55.133406,25.069351],[55.133387,25.069332],[55.133471,25.069325]],[[55.129756,25.069688],[55.129899,25.0696],[55.129851,25.069451],[55.129941,25.069387],[55.129917,25.069353],[55.130032,25.069252],[55.131379,25.069141],[55.131473,25.069159],[55.132097,25.069107],[55.13211,25.069082],[55.132319,25.069264],[55.131752,25.069311],[55.131586,25.069446],[55.13163,25.069491],[55.131525,25.0695],[55.131312,25.069673],[55.131359,25.069721],[55.129262,25.069894],[55.129297,25.069885],[55.129251,25.069745],[55.129674,25.06971],[55.129756,25.069688]],[[55.129181,25.06936],[55.128944,25.06938],[55.128934,25.069343],[55.129246,25.069318],[55.129181,25.06936]],[[55.130213,25.074922],[55.130048,25.074754],[55.130485,25.074718],[55.130507,25.074741],[55.130395,25.074826],[55.130464,25.074901],[55.130213,25.074922]],[[55.132171,25.074701],[55.132119,25.074582],[55.132251,25.074571],[55.13221,25.074597],[55.132258,25.074662],[55.132171,25.074701]],[[55.130777,25.072165],[55.130725,25.072141],[55.13094,25.072124],[55.130849,25.072197],[55.130777,25.072165]],[[55.13244,25.071578],[55.132255,25.071668],[55.132164,25.071728],[55.132359,25.07158],[55.132334,25.071553],[55.132781,25.071516],[55.132812,25.071548],[55.13244,25.071578]],[[55.130469,25.071186],[55.133206,25.070959],[55.133174,25.070984],[55.130541,25.071202],[55.130469,25.071186]],[[55.134471,25.070165],[55.134407,25.070187],[55.133973,25.070223],[55.134002,25.070199],[55.134471,25.070165]],[[55.13109,25.077266],[55.131052,25.077222],[55.131455,25.077189],[55.131347,25.077245],[55.13109,25.077266]],[[55.13588,25.076287],[55.135043,25.076356],[55.134974,25.076314],[55.134785,25.076262],[55.135773,25.07618],[55.13588,25.076287]],[[55.13273,25.075088],[55.13261,25.075098],[55.13251,25.075202],[55.132374,25.075042],[55.132755,25.075011],[55.132779,25.075036],[55.13273,25.075088]],[[55.135958,25.079571],[55.136012,25.07958],[55.136078,25.079626],[55.13609,25.079733],[55.135644,25.07977],[55.135579,25.079715],[55.13508,25.079756],[55.134995,25.079824],[55.134637,25.079853],[55.134379,25.079586],[55.134538,25.079573],[55.134607,25.079646],[55.134757,25.07967],[55.135958,25.079571]],[[55.140487,25.08468],[55.140498,25.084692],[55.140487,25.084692],[55.140487,25.08468]],[[55.140613,25.084574],[55.140487,25.084674],[55.140483,25.084606],[55.140613,25.084574]],[[55.141186,25.08444],[55.140737,25.084477],[55.140635,25.084557],[55.140588,25.084435],[55.141138,25.08439],[55.141186,25.08444]],[[55.141158,25.083385],[55.141264,25.083489],[55.14112,25.083501],[55.141044,25.083423],[55.141062,25.083393],[55.141158,25.083385]],[[55.140484,25.083005],[55.140176,25.08303],[55.140231,25.082987],[55.140447,25.082969],[55.140484,25.083005]],[[55.140896,25.080597],[55.140628,25.08062],[55.140762,25.080514],[55.140804,25.080511],[55.140896,25.080597]],[[55.141979,25.079833],[55.142007,25.079862],[55.142919,25.079787],[55.142836,25.079843],[55.141527,25.079951],[55.14137,25.080088],[55.138727,25.080307],[55.138387,25.08013],[55.141979,25.079833]],[[55.14248,25.079394],[55.142389,25.079402],[55.142553,25.079287],[55.142453,25.079366],[55.14248,25.079394]],[[55.141819,25.078672],[55.141862,25.078716],[55.141811,25.078757],[55.141842,25.07879],[55.140978,25.078856],[55.14154,25.07881],[55.141693,25.078683],[55.141819,25.078672]],[[55.142587,25.079263],[55.142806,25.079109],[55.142825,25.079127],[55.143112,25.079103],[55.143228,25.07921],[55.142587,25.079263]],[[55.140313,25.086992],[55.140537,25.086974],[55.140539,25.086987],[55.140336,25.087004],[55.140313,25.086992]],[[55.139977,25.087017],[55.139914,25.087022],[55.139935,25.087008],[55.139977,25.087017]],[[55.139048,25.089842],[55.139105,25.089805],[55.139062,25.089751],[55.141426,25.089555],[55.141296,25.089655],[55.141326,25.089711],[55.138937,25.089909],[55.138879,25.089887],[55.138785,25.089895],[55.138799,25.089862],[55.139048,25.089842]],[[55.143704,25.086281],[55.144084,25.08625],[55.14418,25.086179],[55.147574,25.085898],[55.147626,25.0859],[55.147633,25.085908],[55.147587,25.085938],[55.147623,25.085983],[55.147673,25.085984],[55.147625,25.086016],[55.147657,25.086055],[55.147672,25.086054],[55.147698,25.086086],[55.14775,25.086082],[55.147761,25.086095],[55.147707,25.086131],[55.147777,25.086218],[55.147387,25.08625],[55.147296,25.086243],[55.143606,25.086549],[55.143808,25.086389],[55.143704,25.086281]],[[55.145061,25.091868],[55.145053,25.091879],[55.14473,25.091905],[55.144721,25.091896],[55.145061,25.091868]],[[55.148193,25.089565],[55.148146,25.089568],[55.148175,25.089546],[55.148193,25.089565]],[[55.148144,25.086625],[55.148711,25.086578],[55.148696,25.08661],[55.148667,25.086612],[55.148635,25.086681],[55.14861,25.086683],[55.148579,25.08675],[55.148554,25.086752],[55.148528,25.086808],[55.148482,25.086812],[55.148453,25.086874],[55.148422,25.086876],[55.148412,25.086897],[55.148371,25.086857],[55.14776,25.086908],[55.148144,25.086625]],[[55.147724,25.08909],[55.147888,25.089255],[55.147478,25.089289],[55.147709,25.089111],[55.147692,25.089092],[55.147724,25.08909]]]}},{"type":"Feature","properties":{},"geometry":{"type":"Polygon","coordinates":[[[55.128847,25.092288],[55.128223,25.09234],[55.127913,25.092943],[55.128907,25.093361],[55.129531,25.093309],[55.12984,25.092706],[55.128847,25.092288]]]}},{"type":"Feature","properties":{},"geometry":{"type":"Polygon","coordinates":[[[55.130805,25.093108],[55.130181,25.09316],[55.129994,25.093519],[55.130182,25.093599],[55.130806,25.093547],[55.130993,25.093188],[55.130805,25.093108]]]}},{"type":"Feature","properties":{},"geometry":{"type":"Polygon","coordinates":[[[55.131253,25.093615],[55.130944,25.094219],[55.131937,25.094637],[55.132561,25.094585],[55.132699,25.094316],[55.133231,25.094272],[55.133245,25.094228],[55.133178,25.094212],[55.132733,25.094249],[55.13287,25.093982],[55.131877,25.093564],[55.131253,25.093615]]]}},{"type":"Feature","properties":{},"geometry":{"type":"Polygon","coordinates":[[[55.133928,25.09504],[55.133948,25.095002],[55.13379,25.094936],[55.133166,25.094988],[55.133106,25.095106],[55.133264,25.095172],[55.133801,25.095127],[55.133688,25.095344],[55.133862,25.095419],[55.134486,25.095367],[55.134642,25.09507],[55.134468,25.094995],[55.133928,25.09504]]]}},{"type":"Feature","properties":{},"geometry":{"type":"Polygon","coordinates":[[[55.134704,25.075168],[55.134698,25.075188],[55.134892,25.075181],[55.134898,25.075162],[55.134704,25.075168]]]}},{"type":"Feature","properties":{},"geometry":{"type":"Polygon","coordinates":[[[55.136721,25.088578],[55.13671,25.088674],[55.136909,25.088663],[55.136892,25.088676],[55.136982,25.088773],[55.137606,25.088721],[55.137662,25.088679],[55.137572,25.088582],[55.13737,25.088598],[55.137378,25.088529],[55.136721,25.088578]]]}},{"type":"Feature","properties":{},"geometry":{"type":"Polygon","coordinates":[[[55.137647,25.089641],[55.138044,25.08937],[55.1383,25.089349],[55.138588,25.089163],[55.138526,25.089084],[55.137918,25.089134],[55.137872,25.089079],[55.138173,25.089054],[55.138257,25.088995],[55.13824,25.088975],[55.138282,25.088946],[55.138253,25.088912],[55.137431,25.088969],[55.137478,25.088938],[55.137426,25.088875],[55.136802,25.088926],[55.136735,25.088972],[55.136787,25.089035],[55.137114,25.089007],[55.136692,25.089296],[55.137023,25.089693],[55.137647,25.089641]]]}},{"type":"Feature","properties":{},"geometry":{"type":"Polygon","coordinates":[[[55.136212,25.089718],[55.136267,25.089741],[55.136892,25.089689],[55.136934,25.089606],[55.136661,25.089493],[55.136036,25.089544],[55.135994,25.089627],[55.13605,25.089651],[55.13603,25.089652],[55.136014,25.089688],[55.136118,25.089726],[55.136212,25.089718]]]}},{"type":"Feature","properties":{},"geometry":{"type":"Polygon","coordinates":[[[55.137243,25.094357],[55.137143,25.094211],[55.137001,25.09412],[55.136817,25.094043],[55.136603,25.094036],[55.135979,25.094088],[55.1358,25.094133],[55.13565,25.094211],[55.1355,25.09442],[55.135507,25.094451],[55.135542,25.094467],[55.135893,25.094461],[55.13616,25.094439],[55.136186,25.094462],[55.136565,25.094457],[55.137189,25.094405],[55.137229,25.094389],[55.137243,25.094357]]]}},{"type":"Feature","properties":{},"geometry":{"type":"Polygon","coordinates":[[[55.136373,25.094602],[55.136325,25.094707],[55.136765,25.094874],[55.13739,25.094822],[55.137438,25.094717],[55.136997,25.09455],[55.136373,25.094602]]]}},{"type":"Feature","properties":{},"geometry":{"type":"Polygon","coordinates":[[[55.137874,25.095188],[55.137918,25.095151],[55.13786,25.095093],[55.137903,25.095056],[55.137825,25.094978],[55.137741,25.094985],[55.137792,25.094935],[55.137638,25.094805],[55.137014,25.094857],[55.13691,25.094959],[55.137064,25.095088],[55.137137,25.095082],[55.137112,25.095103],[55.13725,25.095239],[55.137874,25.095188]]]}},{"type":"Feature","properties":{},"geometry":{"type":"Polygon","coordinates":[[[55.139491,25.085885],[55.139416,25.085948],[55.139497,25.086028],[55.140121,25.085976],[55.140197,25.085913],[55.140115,25.085833],[55.139491,25.085885]]]}},{"type":"Feature","properties":{},"geometry":{"type":"Polygon","coordinates":[[[55.138621,25.086206],[55.138437,25.086222],[55.138439,25.086501],[55.138702,25.0865],[55.139326,25.086448],[55.139323,25.086117],[55.138622,25.086169],[55.138621,25.086206]]]}},{"type":"Feature","properties":{},"geometry":{"type":"Polygon","coordinates":[[[55.137853,25.086285],[55.137229,25.086337],[55.137171,25.086441],[55.137281,25.086492],[55.137905,25.08644],[55.137964,25.086336],[55.137853,25.086285]]]}},{"type":"Feature","properties":{},"geometry":{"type":"Polygon","coordinates":[[[55.138741,25.086543],[55.138748,25.086752],[55.138666,25.086808],[55.138738,25.086893],[55.139362,25.086842],[55.139742,25.086582],[55.13973,25.086568],[55.139834,25.086496],[55.139775,25.086425],[55.139151,25.086476],[55.139081,25.086524],[55.138741,25.086543]]]}},{"type":"Feature","properties":{},"geometry":{"type":"Polygon","coordinates":[[[55.13821,25.088547],[55.138071,25.088648],[55.138099,25.088679],[55.138124,25.088677],[55.138113,25.088683],[55.138184,25.088777],[55.138808,25.088725],[55.139011,25.088599],[55.138941,25.088505],[55.13885,25.088513],[55.138834,25.088495],[55.13821,25.088547]]]}},{"type":"Feature","properties":{},"geometry":{"type":"Polygon","coordinates":[[[55.142613,25.078167],[55.142612,25.078127],[55.142663,25.078123],[55.142844,25.077983],[55.14284,25.077826],[55.142791,25.077774],[55.142106,25.077827],[55.141964,25.077925],[55.141965,25.07797],[55.141667,25.078194],[55.141705,25.078235],[55.141649,25.078261],[55.14175,25.078368],[55.142421,25.078315],[55.142613,25.078167]]]}},{"type":"Feature","properties":{},"geometry":{"type":"Polygon","coordinates":[[[55.141097,25.086509],[55.141429,25.086481],[55.141712,25.086279],[55.141137,25.085626],[55.141159,25.085611],[55.141098,25.085541],[55.141068,25.085543],[55.141054,25.085529],[55.140721,25.085556],[55.140455,25.08576],[55.140564,25.085885],[55.140491,25.085939],[55.140703,25.086184],[55.140781,25.0862],[55.140734,25.086287],[55.140733,25.086328],[55.140761,25.086386],[55.14083,25.086458],[55.140977,25.086446],[55.141097,25.086509]]]}},{"type":"Feature","properties":{},"geometry":{"type":"Polygon","coordinates":[[[55.145917,25.067586],[55.146328,25.067515],[55.146391,25.06743],[55.146481,25.067423],[55.146508,25.067269],[55.146404,25.067254],[55.146466,25.066898],[55.1464,25.066588],[55.146208,25.06647],[55.146083,25.066452],[55.145459,25.066504],[55.145291,25.066729],[55.145303,25.066785],[55.14528,25.066801],[55.145022,25.066823],[55.144965,25.067149],[55.14516,25.068074],[55.145772,25.068768],[55.146061,25.068945],[55.146685,25.068893],[55.146788,25.068819],[55.14678,25.068781],[55.147148,25.06875],[55.147251,25.068724],[55.147262,25.068549],[55.147133,25.068141],[55.146815,25.068003],[55.146818,25.067953],[55.146765,25.06793],[55.146837,25.067911],[55.14671,25.06751],[55.146086,25.067561],[55.145958,25.067595],[55.145962,25.067608],[55.145896,25.067614],[55.145917,25.067586]]]}},{"type":"Feature","properties":{},"geometry":{"type":"Polygon","coordinates":[[[55.145427,25.071089],[55.145261,25.070919],[55.145384,25.070908],[55.145744,25.070628],[55.145363,25.070216],[55.144739,25.070268],[55.144375,25.070568],[55.144557,25.070753],[55.144437,25.070763],[55.14409,25.071039],[55.144456,25.071416],[55.14508,25.071365],[55.145427,25.071089]]]}},{"type":"Feature","properties":{},"geometry":{"type":"Polygon","coordinates":[[[55.145078,25.073344],[55.145098,25.073311],[55.145041,25.073283],[55.144417,25.073335],[55.144397,25.073367],[55.144454,25.073396],[55.145078,25.073344]]]}},{"type":"Feature","properties":{},"geometry":{"type":"Polygon","coordinates":[[[55.145622,25.073854],[55.145552,25.073854],[55.145549,25.07382],[55.144925,25.073872],[55.144847,25.073883],[55.144849,25.073916],[55.144723,25.07393],[55.144732,25.074014],[55.144931,25.073998],[55.144846,25.07401],[55.144851,25.074036],[55.145475,25.073984],[55.145608,25.073965],[55.145603,25.073939],[55.145441,25.073953],[55.145631,25.07393],[55.145622,25.073854]]]}},{"type":"Feature","properties":{},"geometry":{"type":"Polygon","coordinates":[[[55.145858,25.074222],[55.145859,25.074177],[55.145188,25.074227],[55.145186,25.074272],[55.145858,25.074222]]]}},{"type":"Feature","properties":{},"geometry":{"type":"Polygon","coordinates":[[[55.14585,25.092584],[55.145226,25.092636],[55.145092,25.092765],[55.145155,25.092818],[55.145779,25.092766],[55.145913,25.092638],[55.14585,25.092584]]]}},{"type":"Feature","properties":{},"geometry":{"type":"Polygon","coordinates":[[[55.147427,25.067738],[55.147282,25.067773],[55.147415,25.068227],[55.148039,25.068175],[55.148183,25.068141],[55.148051,25.067686],[55.147427,25.067738]]]}},{"type":"Feature","properties":{},"geometry":{"type":"Polygon","coordinates":[[[55.148017,25.068593],[55.147393,25.068645],[55.147263,25.068955],[55.147439,25.069015],[55.147602,25.069002],[55.147429,25.069145],[55.147472,25.069188],[55.147407,25.069193],[55.147351,25.069225],[55.147375,25.06926],[55.147305,25.069266],[55.147262,25.069301],[55.147212,25.069305],[55.146623,25.069761],[55.146731,25.069875],[55.147231,25.069833],[55.147159,25.06989],[55.147212,25.069946],[55.147109,25.069954],[55.146912,25.070108],[55.146934,25.070131],[55.146849,25.070138],[55.146751,25.070215],[55.146778,25.070243],[55.146712,25.070248],[55.146648,25.070298],[55.146444,25.070315],[55.146408,25.07037],[55.146436,25.070384],[55.146661,25.070374],[55.146572,25.070381],[55.146475,25.070458],[55.146485,25.070469],[55.146415,25.070474],[55.146315,25.070562],[55.146423,25.070664],[55.147021,25.070615],[55.147054,25.070649],[55.147596,25.070604],[55.147592,25.070612],[55.146299,25.070712],[55.146311,25.070845],[55.146969,25.070792],[55.146998,25.070805],[55.146547,25.070842],[55.146464,25.070929],[55.14659,25.071028],[55.147161,25.070981],[55.147083,25.071041],[55.147165,25.071127],[55.146937,25.071146],[55.146925,25.071285],[55.147102,25.071298],[55.147523,25.071263],[55.147557,25.0713],[55.147067,25.071341],[55.146928,25.071455],[55.147035,25.071563],[55.147522,25.071522],[55.147551,25.071554],[55.147625,25.071548],[55.147592,25.071576],[55.147621,25.071605],[55.147267,25.071635],[55.147183,25.071705],[55.147278,25.071799],[55.147778,25.071757],[55.147801,25.07178],[55.147875,25.071774],[55.147824,25.071817],[55.147842,25.071835],[55.147525,25.071862],[55.147421,25.071942],[55.147508,25.072034],[55.14761,25.072025],[55.147543,25.072078],[55.147623,25.072162],[55.148137,25.072119],[55.148129,25.072126],[55.148168,25.072162],[55.147871,25.072186],[55.147734,25.072289],[55.147832,25.072396],[55.14788,25.072392],[55.147861,25.072407],[55.147876,25.072422],[55.147843,25.072425],[55.147779,25.072477],[55.147843,25.072541],[55.148046,25.072524],[55.148,25.072561],[55.148102,25.072664],[55.148555,25.072626],[55.148563,25.072636],[55.148656,25.072628],[55.148696,25.072665],[55.148851,25.072652],[55.148865,25.072664],[55.148387,25.072704],[55.148254,25.072795],[55.148336,25.072893],[55.148419,25.072886],[55.148369,25.072927],[55.148457,25.073013],[55.14855,25.073006],[55.148476,25.073058],[55.148564,25.073159],[55.148721,25.073146],[55.14869,25.073174],[55.148779,25.073255],[55.149403,25.073203],[55.149481,25.073133],[55.149732,25.073113],[55.149746,25.073126],[55.149704,25.07313],[55.149622,25.073199],[55.149298,25.073226],[55.149203,25.073302],[55.149259,25.073359],[55.149162,25.073367],[55.149071,25.073448],[55.14916,25.07353],[55.149784,25.073478],[55.149875,25.073396],[55.149849,25.073373],[55.15007,25.073338],[55.150023,25.07338],[55.150055,25.073409],[55.149949,25.073418],[55.149857,25.073492],[55.149884,25.07352],[55.149178,25.073571],[55.149087,25.073652],[55.149176,25.073734],[55.149314,25.073722],[55.14924,25.073788],[55.149329,25.07387],[55.149503,25.073855],[55.149527,25.073877],[55.150151,25.073825],[55.150229,25.073756],[55.150299,25.07375],[55.15039,25.073669],[55.150362,25.073643],[55.150449,25.073636],[55.150536,25.073558],[55.150591,25.073553],[55.150683,25.073479],[55.150624,25.073419],[55.150736,25.07341],[55.150827,25.073328],[55.150795,25.073299],[55.150838,25.073296],[55.150929,25.073214],[55.150898,25.073186],[55.150948,25.073181],[55.151039,25.0731],[55.150982,25.073048],[55.151074,25.07304],[55.151165,25.072959],[55.151076,25.072878],[55.151211,25.072867],[55.151271,25.072766],[55.151255,25.072758],[55.151348,25.07275],[55.151401,25.07266],[55.151431,25.072658],[55.151491,25.072557],[55.151422,25.072524],[55.15156,25.072512],[55.15162,25.072411],[55.15153,25.072368],[55.151662,25.072357],[55.151722,25.072256],[55.151703,25.072247],[55.151753,25.072242],[55.151813,25.072141],[55.151708,25.072091],[55.151812,25.072082],[55.151872,25.071981],[55.151764,25.071929],[55.151911,25.071917],[55.151971,25.071816],[55.151858,25.071761],[55.151523,25.071789],[55.151533,25.071769],[55.151978,25.071732],[55.152038,25.071631],[55.152016,25.071621],[55.152048,25.071618],[55.152108,25.071517],[55.151995,25.071462],[55.151707,25.071486],[55.151669,25.071472],[55.151603,25.071474],[55.151651,25.07147],[55.151665,25.071435],[55.15164,25.071417],[55.151741,25.071403],[55.151763,25.07135],[55.151729,25.071338],[55.151741,25.071337],[55.15177,25.071277],[55.151836,25.071272],[55.151861,25.071221],[55.151802,25.071197],[55.151729,25.071204],[55.151691,25.071189],[55.151791,25.071181],[55.15182,25.071121],[55.151885,25.071115],[55.15191,25.071064],[55.151852,25.071041],[55.151778,25.071047],[55.151715,25.071022],[55.151556,25.071034],[55.151866,25.071008],[55.151925,25.070907],[55.151834,25.070863],[55.151954,25.070853],[55.152014,25.070752],[55.151985,25.070738],[55.152091,25.070729],[55.152151,25.070628],[55.152038,25.070573],[55.151742,25.070598],[55.151774,25.070544],[55.152037,25.070522],[55.152097,25.070421],[55.151984,25.070367],[55.151759,25.070385],[55.151764,25.070359],[55.152107,25.07033],[55.152167,25.07023],[55.152054,25.070175],[55.151833,25.070193],[55.151845,25.070174],[55.151754,25.070129],[55.151847,25.070122],[55.151907,25.070021],[55.151826,25.069981],[55.151922,25.069973],[55.151982,25.069872],[55.151869,25.069818],[55.151521,25.069847],[55.151427,25.069801],[55.150803,25.069852],[55.150785,25.069882],[55.150363,25.069917],[55.150477,25.069821],[55.150392,25.069739],[55.150292,25.069747],[55.150306,25.069735],[55.150226,25.069656],[55.150053,25.069671],[55.150094,25.069636],[55.150069,25.069611],[55.150119,25.069607],[55.150189,25.069548],[55.150777,25.069499],[55.150865,25.069435],[55.150771,25.069329],[55.150697,25.069336],[55.150752,25.069292],[55.150665,25.069201],[55.150572,25.069209],[55.150632,25.069161],[55.150545,25.06907],[55.150528,25.069072],[55.150548,25.069056],[55.150461,25.068965],[55.150402,25.06897],[55.150438,25.068937],[55.15088,25.0689],[55.151013,25.068843],[55.15099,25.068799],[55.15112,25.068788],[55.151355,25.068603],[55.15132,25.068568],[55.151371,25.068564],[55.151482,25.068472],[55.151519,25.068469],[55.15163,25.068378],[55.151618,25.068366],[55.151646,25.068363],[55.151758,25.068272],[55.15174,25.068254],[55.151788,25.06825],[55.15189,25.068167],[55.151909,25.068165],[55.15202,25.068074],[55.151995,25.068048],[55.152036,25.068045],[55.152148,25.067954],[55.152075,25.06788],[55.151485,25.067929],[55.15144,25.067878],[55.150961,25.067918],[55.150896,25.067842],[55.150272,25.067893],[55.150182,25.067957],[55.150139,25.067909],[55.149515,25.06796],[55.149414,25.068032],[55.149506,25.068139],[55.150069,25.068093],[55.150095,25.068123],[55.149478,25.068175],[55.149476,25.068317],[55.149625,25.068318],[55.150021,25.068285],[55.150039,25.068306],[55.150337,25.068281],[55.150296,25.06831],[55.14967,25.068359],[55.149623,25.068397],[55.149177,25.068434],[55.149101,25.068452],[55.149312,25.068286],[55.149199,25.068168],[55.148575,25.06822],[55.148189,25.068524],[55.148197,25.06828],[55.14842,25.068262],[55.148439,25.068207],[55.148383,25.068191],[55.147759,25.068242],[55.147751,25.068267],[55.147397,25.068296],[55.147388,25.068613],[55.147564,25.068618],[55.14813,25.068571],[55.148076,25.068613],[55.148017,25.068593]],[[55.148263,25.071951],[55.148162,25.071959],[55.148236,25.071902],[55.148216,25.071881],[55.148425,25.071864],[55.148411,25.071876],[55.1485,25.071958],[55.148575,25.071951],[55.148537,25.071986],[55.14857,25.072016],[55.148343,25.072035],[55.148263,25.071951]],[[55.14857,25.071664],[55.148496,25.07167],[55.148545,25.07163],[55.148457,25.071542],[55.148354,25.07155],[55.148409,25.071503],[55.148372,25.071467],[55.148753,25.071436],[55.148789,25.07139],[55.149018,25.071367],[55.149004,25.071268],[55.149153,25.071255],[55.149228,25.071151],[55.149095,25.071073],[55.148553,25.071118],[55.148578,25.071108],[55.148544,25.071037],[55.149541,25.070949],[55.149658,25.070854],[55.149579,25.070773],[55.149486,25.070781],[55.149523,25.070751],[55.149509,25.070737],[55.149862,25.070708],[55.149958,25.070624],[55.149869,25.070541],[55.149775,25.070548],[55.149829,25.070502],[55.149742,25.07042],[55.150141,25.070387],[55.150172,25.070328],[55.150275,25.070319],[55.150393,25.070285],[55.150363,25.070199],[55.150509,25.070187],[55.15058,25.07006],[55.150529,25.070037],[55.150731,25.07002],[55.150676,25.070114],[55.150756,25.070153],[55.150714,25.070156],[55.150654,25.070257],[55.150698,25.070278],[55.150558,25.07029],[55.150499,25.070391],[55.150611,25.070445],[55.151005,25.070413],[55.150478,25.070462],[55.150418,25.070563],[55.150531,25.070618],[55.151016,25.070578],[55.150451,25.070627],[55.150392,25.070728],[55.150504,25.070783],[55.150889,25.070751],[55.150671,25.070771],[55.150611,25.070872],[55.150724,25.070926],[55.15128,25.07088],[55.151309,25.070894],[55.151189,25.070904],[55.151151,25.070968],[55.151099,25.070942],[55.150921,25.070957],[55.150861,25.070928],[55.150237,25.07098],[55.150177,25.071081],[55.15026,25.071121],[55.150086,25.071135],[55.150027,25.071236],[55.150139,25.071291],[55.15062,25.071251],[55.150651,25.071266],[55.150532,25.071276],[55.150529,25.071325],[55.15104,25.071288],[55.151026,25.071318],[55.15104,25.071327],[55.150623,25.071361],[55.15061,25.071382],[55.150102,25.071424],[55.150043,25.071525],[55.150125,25.071565],[55.149976,25.071577],[55.149917,25.071678],[55.150002,25.07172],[55.149901,25.071728],[55.149842,25.071829],[55.149918,25.071866],[55.149855,25.071871],[55.149837,25.071855],[55.149723,25.071864],[55.149754,25.071837],[55.149665,25.071755],[55.149589,25.071761],[55.149644,25.071713],[55.149555,25.071631],[55.149459,25.071639],[55.149513,25.071591],[55.149424,25.07151],[55.1488,25.071562],[55.148709,25.071643],[55.148798,25.071724],[55.148894,25.071716],[55.148843,25.071767],[55.148622,25.071785],[55.14866,25.071754],[55.14857,25.071664]],[[55.148664,25.07072],[55.148671,25.070728],[55.14836,25.070762],[55.14836,25.070745],[55.148664,25.07072]],[[55.148764,25.070235],[55.149273,25.070193],[55.149258,25.070206],[55.148898,25.070235],[55.148816,25.070307],[55.148677,25.070316],[55.148764,25.070235]],[[55.148764,25.069861],[55.149036,25.069839],[55.14898,25.069889],[55.149001,25.069908],[55.148935,25.069914],[55.148839,25.069997],[55.148903,25.070057],[55.148824,25.070064],[55.148757,25.069995],[55.148572,25.070011],[55.148764,25.069861]],[[55.150173,25.069934],[55.150138,25.069979],[55.150155,25.069989],[55.150135,25.069991],[55.150103,25.070031],[55.149925,25.070046],[55.149837,25.069963],[55.149606,25.069982],[55.149648,25.069946],[55.149625,25.069924],[55.149684,25.069919],[55.149737,25.06997],[55.150173,25.069934]],[[55.14873,25.069789],[55.148718,25.069777],[55.149247,25.069714],[55.149326,25.069644],[55.149343,25.06966],[55.149286,25.069708],[55.14936,25.06978],[55.149533,25.069766],[55.149256,25.069792],[55.149221,25.069749],[55.14873,25.069789]],[[55.149821,25.069311],[55.14988,25.069258],[55.149911,25.06929],[55.150004,25.069282],[55.149945,25.069331],[55.149744,25.069348],[55.149762,25.069332],[55.149746,25.069317],[55.149821,25.069311]],[[55.149698,25.069046],[55.149708,25.069056],[55.149605,25.069065],[55.149698,25.069046]],[[55.149149,25.068875],[55.149201,25.06887],[55.149299,25.068794],[55.149267,25.06876],[55.14933,25.068755],[55.149411,25.068691],[55.14938,25.068718],[55.149467,25.068809],[55.149539,25.068803],[55.149479,25.06885],[55.149488,25.06886],[55.149158,25.068885],[55.149149,25.068875]],[[55.14775,25.070541],[55.147751,25.070543],[55.147747,25.070543],[55.14775,25.070541]],[[55.148509,25.06964],[55.14818,25.069667],[55.148204,25.069648],[55.148613,25.069614],[55.148591,25.069635],[55.148509,25.06964]],[[55.147866,25.069285],[55.147893,25.069282],[55.147876,25.069295],[55.147866,25.069285]],[[55.147958,25.069259],[55.14797,25.069271],[55.147918,25.069275],[55.147958,25.069244],[55.147947,25.069232],[55.147997,25.069228],[55.147958,25.069259]],[[55.147797,25.07112],[55.147737,25.071125],[55.147738,25.071107],[55.147788,25.071102],[55.147797,25.07112]],[[55.147236,25.070842],[55.147193,25.070808],[55.147606,25.070774],[55.147605,25.070883],[55.147735,25.070884],[55.148263,25.07084],[55.147828,25.070884],[55.147742,25.070914],[55.147529,25.070932],[55.147507,25.070819],[55.147236,25.070842]],[[55.147693,25.070706],[55.147752,25.07073],[55.147676,25.070736],[55.147693,25.070706]],[[55.147877,25.071342],[55.147754,25.071352],[55.147708,25.071306],[55.147853,25.071294],[55.147877,25.071342]],[[55.148388,25.069548],[55.148778,25.069516],[55.148738,25.069552],[55.148326,25.069586],[55.14837,25.069552],[55.148341,25.069521],[55.14836,25.06952],[55.148388,25.069548]],[[55.148734,25.069187],[55.148759,25.069202],[55.148749,25.069203],[55.148734,25.069187]],[[55.148882,25.069078],[55.14891,25.069103],[55.148907,25.069104],[55.148882,25.069078]],[[55.148329,25.071164],[55.14845,25.071154],[55.148441,25.071166],[55.148313,25.071177],[55.148329,25.071164]],[[55.148414,25.070995],[55.148416,25.070999],[55.148401,25.071],[55.148414,25.070995]],[[55.149856,25.07274],[55.149822,25.07271],[55.150104,25.072687],[55.150131,25.072709],[55.150009,25.072719],[55.149949,25.07282],[55.150062,25.072875],[55.150489,25.072839],[55.150079,25.07288],[55.150042,25.072918],[55.150078,25.072947],[55.150564,25.072907],[55.150587,25.072918],[55.150452,25.072929],[55.150426,25.072953],[55.149815,25.073004],[55.149788,25.073022],[55.149824,25.072991],[55.149735,25.072909],[55.149627,25.072918],[55.149576,25.072901],[55.149282,25.072925],[55.149255,25.072895],[55.14915,25.072904],[55.149191,25.072869],[55.149765,25.072822],[55.149856,25.07274]],[[55.149063,25.072714],[55.14955,25.072677],[55.149143,25.072711],[55.149062,25.072784],[55.149042,25.072785],[55.149093,25.07275],[55.149063,25.072714]],[[55.150801,25.069981],[55.150846,25.070004],[55.15078,25.070009],[55.150801,25.069981]],[[55.150379,25.072017],[55.15035,25.07199],[55.150503,25.071978],[55.150563,25.071877],[55.150486,25.071839],[55.150578,25.071832],[55.150635,25.071737],[55.150676,25.071754],[55.150793,25.071744],[55.150815,25.071753],[55.150798,25.071828],[55.150888,25.071864],[55.151221,25.071836],[55.151175,25.071914],[55.151282,25.071966],[55.150884,25.07201],[55.150836,25.071987],[55.150368,25.072026],[55.150379,25.072017]],[[55.150553,25.07169],[55.150646,25.071682],[55.150624,25.071724],[55.150553,25.07169]],[[55.149777,25.072466],[55.149841,25.072409],[55.149882,25.072446],[55.149777,25.072466]],[[55.149507,25.072235],[55.149558,25.072189],[55.149486,25.072123],[55.149622,25.072112],[55.149664,25.07215],[55.150172,25.072107],[55.150153,25.07214],[55.150258,25.072191],[55.150097,25.072204],[55.150042,25.072307],[55.149921,25.072317],[55.149839,25.07239],[55.149762,25.072319],[55.149645,25.072329],[55.149665,25.07231],[55.149577,25.072229],[55.149507,25.072235]],[[55.151379,25.070332],[55.151266,25.070341],[55.151281,25.070316],[55.151382,25.070308],[55.151379,25.070332]],[[55.151183,25.070519],[55.15119,25.070507],[55.151314,25.070497],[55.151307,25.070508],[55.151183,25.070519]],[[55.151157,25.070683],[55.151393,25.070661],[55.151391,25.070663],[55.151157,25.070683]],[[55.150823,25.071138],[55.150801,25.071127],[55.150887,25.07112],[55.150918,25.07113],[55.150823,25.071138]],[[55.150541,25.068562],[55.150423,25.068571],[55.150493,25.068517],[55.150469,25.068492],[55.150672,25.068475],[55.150636,25.068504],[55.15071,25.068578],[55.150568,25.06859],[55.150541,25.068562]]]}},{"type":"Feature","properties":{},"geometry":{"type":"Polygon","coordinates":[[[55.146385,25.074216],[55.146429,25.074262],[55.14653,25.074254],[55.146618,25.074346],[55.147242,25.074294],[55.147459,25.074126],[55.147508,25.074122],[55.147593,25.074055],[55.146945,25.07337],[55.146321,25.073422],[55.145963,25.0737],[55.146096,25.073841],[55.14605,25.073877],[55.146161,25.073995],[55.146415,25.073974],[55.146427,25.073987],[55.146533,25.073978],[55.146551,25.073997],[55.146357,25.074147],[55.14605,25.074172],[55.14601,25.074207],[55.146049,25.074244],[55.146385,25.074216]]]}},{"type":"Feature","properties":{},"geometry":{"type":"Polygon","coordinates":[[[55.147348,25.0744],[55.147387,25.074442],[55.147688,25.074417],[55.147455,25.074602],[55.147508,25.074657],[55.147182,25.074684],[55.147141,25.07471],[55.146928,25.074728],[55.146829,25.074787],[55.146856,25.074825],[55.146906,25.074821],[55.146835,25.074867],[55.146861,25.074899],[55.146838,25.074914],[55.146936,25.075037],[55.147425,25.074996],[55.147347,25.075058],[55.147362,25.075074],[55.147392,25.075072],[55.147468,25.075149],[55.14745,25.075163],[55.147559,25.075275],[55.147542,25.075288],[55.147567,25.075313],[55.147541,25.075334],[55.147628,25.075402],[55.147615,25.075413],[55.147644,25.075443],[55.147669,25.075441],[55.147684,25.075456],[55.147411,25.075478],[55.147355,25.075525],[55.147449,25.075618],[55.147861,25.075584],[55.147888,25.075612],[55.147869,25.075627],[55.147916,25.075675],[55.14854,25.075624],[55.148583,25.075589],[55.149045,25.075551],[55.149534,25.075163],[55.149354,25.074977],[55.1491,25.074998],[55.149334,25.074813],[55.149157,25.074631],[55.149019,25.074642],[55.149113,25.074567],[55.148925,25.074373],[55.148692,25.074392],[55.148667,25.074363],[55.148746,25.0743],[55.148593,25.074142],[55.148336,25.074164],[55.148346,25.074156],[55.148293,25.0741],[55.147669,25.074152],[55.147348,25.0744]],[[55.147789,25.074845],[55.147786,25.074847],[55.147735,25.074851],[55.147754,25.074838],[55.14772,25.074796],[55.147733,25.074787],[55.147789,25.074845]]]}},{"type":"Feature","properties":{},"geometry":{"type":"Polygon","coordinates":[[[55.146718,25.075094],[55.146773,25.075054],[55.146697,25.074967],[55.146658,25.07497],[55.146602,25.074906],[55.146103,25.074948],[55.146004,25.075018],[55.146222,25.075268],[55.146721,25.075227],[55.14679,25.075177],[55.146718,25.075094]]]}},{"type":"Feature","properties":{},"geometry":{"type":"Polygon","coordinates":[[[55.147053,25.075409],[55.147026,25.075372],[55.146402,25.075424],[55.146363,25.075447],[55.14639,25.075484],[55.147014,25.075432],[55.147053,25.075409]]]}},{"type":"Feature","properties":{},"geometry":{"type":"Polygon","coordinates":[[[55.14681,25.075927],[55.146878,25.075917],[55.146872,25.075882],[55.146248,25.075933],[55.14618,25.075943],[55.146186,25.075979],[55.14681,25.075927]]]}},{"type":"Feature","properties":{},"geometry":{"type":"Polygon","coordinates":[[[55.146977,25.08191],[55.146803,25.082061],[55.146889,25.082142],[55.147025,25.082131],[55.14705,25.082154],[55.146992,25.082205],[55.147248,25.082447],[55.14755,25.082422],[55.147417,25.08253],[55.14744,25.082553],[55.147247,25.082569],[55.14722,25.082592],[55.1473,25.082671],[55.147538,25.082651],[55.1476,25.082714],[55.147436,25.082848],[55.147518,25.082931],[55.147654,25.08296],[55.148153,25.082918],[55.148368,25.082743],[55.148284,25.082659],[55.148326,25.082624],[55.148068,25.082365],[55.147598,25.082404],[55.147766,25.082258],[55.14751,25.082016],[55.147456,25.08202],[55.14731,25.081882],[55.146977,25.08191]]]}},{"type":"Feature","properties":{},"geometry":{"type":"Polygon","coordinates":[[[55.147217,25.093942],[55.147222,25.093908],[55.146572,25.093956],[55.146567,25.093991],[55.147217,25.093942]]]}},{"type":"Feature","properties":{},"geometry":{"type":"Polygon","coordinates":[[[55.148877,25.083089],[55.148837,25.083025],[55.148802,25.083027],[55.148752,25.082974],[55.148128,25.083026],[55.148023,25.08308],[55.148067,25.083151],[55.148082,25.08315],[55.148109,25.083192],[55.148166,25.083204],[55.148205,25.083267],[55.148829,25.083216],[55.148955,25.083153],[55.148926,25.083105],[55.148877,25.083089]]]}},{"type":"Feature","properties":{},"geometry":{"type":"Polygon","coordinates":[[[55.148381,25.091994],[55.148312,25.091924],[55.148263,25.091928],[55.148305,25.091895],[55.148145,25.091733],[55.148122,25.091735],[55.148084,25.091697],[55.148224,25.091584],[55.148178,25.091538],[55.147554,25.09159],[55.147336,25.091766],[55.147382,25.091812],[55.147448,25.091807],[55.147469,25.091827],[55.147432,25.091858],[55.147591,25.092019],[55.147661,25.092016],[55.147721,25.092075],[55.148345,25.092024],[55.148381,25.091994]]]}},{"type":"Feature","properties":{},"geometry":{"type":"Polygon","coordinates":[[[55.147702,25.094573],[55.147739,25.094649],[55.147784,25.094645],[55.147806,25.09469],[55.148492,25.094637],[55.148573,25.094781],[55.148672,25.094772],[55.148708,25.094847],[55.148614,25.094884],[55.148708,25.095077],[55.148642,25.095103],[55.148657,25.095135],[55.14856,25.095174],[55.148597,25.095251],[55.148554,25.095269],[55.148652,25.095471],[55.148689,25.095468],[55.148707,25.095507],[55.148836,25.095496],[55.148848,25.095524],[55.148894,25.09552],[55.148967,25.095672],[55.148998,25.095669],[55.149126,25.095935],[55.149027,25.095974],[55.149101,25.096128],[55.149138,25.096125],[55.149168,25.096187],[55.149227,25.096182],[55.14925,25.09623],[55.15055,25.096122],[55.150629,25.096091],[55.150504,25.095832],[55.150582,25.095802],[55.150675,25.095794],[55.150844,25.095727],[55.15074,25.09551],[55.150835,25.095472],[55.150808,25.095415],[55.150936,25.095364],[55.150833,25.095151],[55.150862,25.095139],[55.15079,25.09499],[55.150422,25.09502],[55.150413,25.095001],[55.150259,25.095014],[55.150231,25.094957],[55.150697,25.094911],[55.150754,25.094889],[55.15068,25.094733],[55.150652,25.094735],[55.150605,25.094639],[55.15058,25.094641],[55.150545,25.09457],[55.15057,25.09456],[55.150432,25.094274],[55.149706,25.094334],[55.149694,25.09431],[55.149098,25.09436],[55.149058,25.094296],[55.147758,25.094404],[55.147626,25.094456],[55.147664,25.094521],[55.147641,25.094523],[55.147631,25.094547],[55.147702,25.094573]]]}},{"type":"Feature","properties":{},"geometry":{"type":"Polygon","coordinates":[[[55.149526,25.071348],[55.148902,25.0714],[55.148854,25.071435],[55.148893,25.071479],[55.149517,25.071427],[55.149565,25.071392],[55.149526,25.071348]]]}},{"type":"Feature","properties":{},"geometry":{"type":"Polygon","coordinates":[[[55.149441,25.076252],[55.149498,25.076208],[55.149468,25.076177],[55.148844,25.076229],[55.148788,25.076273],[55.148817,25.076304],[55.149441,25.076252]]]}},{"type":"Feature","properties":{},"geometry":{"type":"Polygon","coordinates":[[[55.149248,25.076393],[55.148762,25.076434],[55.148718,25.076469],[55.148744,25.076495],[55.149892,25.076403],[55.150031,25.076286],[55.149989,25.076244],[55.149365,25.076296],[55.149248,25.076393]]]}},{"type":"Feature","properties":{},"geometry":{"type":"Polygon","coordinates":[[[55.151445,25.074237],[55.151535,25.074155],[55.151501,25.074124],[55.151575,25.074118],[55.151665,25.074036],[55.151634,25.074008],[55.151694,25.074003],[55.151784,25.073921],[55.151754,25.073893],[55.151837,25.073886],[55.151927,25.073804],[55.151883,25.073764],[55.151956,25.073758],[55.152046,25.073676],[55.151995,25.07363],[55.152098,25.073622],[55.152179,25.073532],[55.152081,25.07346],[55.151633,25.073497],[55.151705,25.073433],[55.151672,25.073403],[55.151722,25.073398],[55.151814,25.073318],[55.151775,25.073282],[55.151809,25.07328],[55.151901,25.073199],[55.151859,25.07316],[55.151914,25.073155],[55.152006,25.073074],[55.151954,25.073027],[55.15203,25.073021],[55.152101,25.072925],[55.151997,25.072861],[55.151373,25.072912],[55.151301,25.073008],[55.151352,25.073039],[55.151293,25.073044],[55.151202,25.073125],[55.151244,25.073164],[55.151189,25.073168],[55.151097,25.073249],[55.151135,25.073285],[55.151101,25.073287],[55.15101,25.073368],[55.151022,25.07338],[55.150869,25.073393],[55.150822,25.073439],[55.150866,25.073475],[55.150916,25.073471],[55.150901,25.073484],[55.150944,25.073524],[55.150859,25.073531],[55.150767,25.073611],[55.150778,25.073621],[55.150713,25.073627],[55.150621,25.073707],[55.150673,25.073755],[55.1506,25.073761],[55.150508,25.073842],[55.150539,25.073871],[55.150494,25.073875],[55.150404,25.073957],[55.150417,25.073969],[55.150365,25.073973],[55.150272,25.074053],[55.150347,25.074123],[55.150187,25.074136],[55.150153,25.074248],[55.150275,25.074278],[55.150764,25.074238],[55.150821,25.074289],[55.151445,25.074237]],[[55.150867,25.074094],[55.150874,25.0741],[55.150852,25.074095],[55.150867,25.074094]]]}},{"type":"Feature","properties":{},"geometry":{"type":"Polygon","coordinates":[[[55.150296,25.074514],[55.150246,25.074615],[55.150347,25.074656],[55.151012,25.074608],[55.151149,25.074614],[55.150775,25.074645],[55.150736,25.074686],[55.15078,25.074721],[55.150986,25.074704],[55.150994,25.074754],[55.150957,25.074759],[55.150965,25.074813],[55.151782,25.074736],[55.151766,25.074631],[55.151412,25.07466],[55.151443,25.074628],[55.151404,25.074597],[55.151819,25.074563],[55.15182,25.074509],[55.15176,25.074508],[55.151761,25.074464],[55.151269,25.074493],[55.151265,25.074484],[55.151864,25.074435],[55.151906,25.074416],[55.151893,25.074391],[55.15201,25.074381],[55.152019,25.074346],[55.152069,25.074342],[55.152095,25.074233],[55.151987,25.074212],[55.151363,25.074264],[55.151353,25.074305],[55.150867,25.074339],[55.150856,25.074311],[55.150613,25.074331],[55.150744,25.074312],[55.150744,25.074267],[55.150509,25.074269],[55.149885,25.07432],[55.149886,25.074473],[55.150137,25.074461],[55.150157,25.074511],[55.150359,25.074494],[55.150351,25.074509],[55.150296,25.074514]]]}},{"type":"Feature","properties":{},"geometry":{"type":"Polygon","coordinates":[[[55.149885,25.092121],[55.149528,25.092242],[55.149769,25.092827],[55.151225,25.092706],[55.151583,25.092585],[55.151342,25.092],[55.149885,25.092121]]]}},{"type":"Feature","properties":{},"geometry":{"type":"Polygon","coordinates":[[[55.150335,25.093733],[55.14971,25.093785],[55.14967,25.093817],[55.149706,25.093854],[55.15033,25.093802],[55.15037,25.09377],[55.150335,25.093733]]]}},{"type":"Feature","properties":{},"geometry":{"type":"Polygon","coordinates":[[[55.151794,25.069572],[55.151757,25.069575],[55.151799,25.069503],[55.151687,25.069448],[55.151605,25.069455],[55.151644,25.069389],[55.151531,25.069334],[55.150907,25.069386],[55.150847,25.069487],[55.15096,25.069542],[55.151042,25.069535],[55.151003,25.069601],[55.151116,25.069656],[55.151153,25.069653],[55.15111,25.069725],[55.151223,25.06978],[55.151847,25.069728],[55.151907,25.069627],[55.151794,25.069572]]]}},{"type":"Feature","properties":{},"geometry":{"type":"Polygon","coordinates":[[[55.15133,25.074959],[55.151312,25.075003],[55.151414,25.075036],[55.152038,25.074985],[55.152077,25.074885],[55.151976,25.074852],[55.151892,25.074859],[55.151927,25.074804],[55.151881,25.07478],[55.151817,25.074779],[55.151193,25.074831],[55.151152,25.074896],[55.150888,25.074918],[55.150868,25.074968],[55.150926,25.074987],[55.15133,25.074959]]]}},{"type":"Feature","properties":{},"geometry":{"type":"Polygon","coordinates":[[[55.152494,25.07664],[55.152406,25.076859],[55.152866,25.07701],[55.15349,25.076958],[55.153549,25.076811],[55.153494,25.076793],[55.153557,25.076634],[55.153141,25.076498],[55.153197,25.07636],[55.152356,25.076084],[55.152273,25.07609],[55.15228,25.076072],[55.151958,25.075967],[55.151334,25.076019],[55.151292,25.076126],[55.151359,25.076148],[55.151281,25.076155],[55.151226,25.076294],[55.151166,25.076299],[55.151113,25.07643],[55.151567,25.076579],[55.152024,25.076541],[55.152273,25.076623],[55.152409,25.076612],[55.152494,25.07664]]]}},{"type":"Feature","properties":{},"geometry":{"type":"Polygon","coordinates":[[[55.151853,25.078711],[55.151921,25.078699],[55.151909,25.078643],[55.151285,25.078695],[55.151218,25.078706],[55.151229,25.078762],[55.151853,25.078711]]]}},{"type":"Feature","properties":{},"geometry":{"type":"Polygon","coordinates":[[[55.152014,25.09224],[55.151806,25.092257],[55.151769,25.092307],[55.151834,25.092347],[55.152042,25.09233],[55.152079,25.09228],[55.152014,25.09224]]]}},{"type":"Feature","properties":{},"geometry":{"type":"Polygon","coordinates":[[[55.149999,25.093107],[55.150428,25.093589],[55.151884,25.093468],[55.152124,25.093266],[55.151695,25.0928],[55.150239,25.092921],[55.149999,25.093107]]]}}]}