{"type":"FeatureCollection","features":[{"type":"Feature","properties":{},"geometry":{"type":"Polygon","coordinates":[[[54.390782,24.482525],[54.390718,24.482472],[54.39058,24.482459],[54.390563,24.482582],[54.390627,24.482635],[54.390761,24.482647],[54.390782,24.482525]]]}},{"type":"Feature","properties":{},"geometry":{"type":"Polygon","coordinates":[[[54.391241,24.482867],[54.391191,24.482839],[54.39115,24.482902],[54.391259,24.482978],[54.391292,24.482925],[54.39139,24.482973],[54.391317,24.483098],[54.391056,24.482942],[54.390997,24.483025],[54.391061,24.483078],[54.391302,24.483221],[54.391316,24.483203],[54.391567,24.483335],[54.391644,24.483213],[54.39156,24.483139],[54.391628,24.483026],[54.391675,24.48305],[54.391685,24.483032],[54.391732,24.483056],[54.391806,24.482936],[54.391742,24.482883],[54.391509,24.482769],[54.391481,24.482817],[54.391195,24.48268],[54.391188,24.482692],[54.391149,24.48266],[54.390942,24.482565],[54.390825,24.482772],[54.390889,24.482825],[54.390976,24.482869],[54.390983,24.482857],[54.391092,24.482919],[54.391179,24.48277],[54.391262,24.482828],[54.391241,24.482867]]]}},{"type":"Feature","properties":{},"geometry":{"type":"Polygon","coordinates":[[[54.390518,24.482654],[54.390461,24.482735],[54.390525,24.482788],[54.390774,24.482926],[54.39083,24.482844],[54.390765,24.482792],[54.390518,24.482654]]]}},{"type":"Feature","properties":{},"geometry":{"type":"Polygon","coordinates":[[[54.390037,24.482947],[54.390127,24.482877],[54.389997,24.482755],[54.389907,24.482825],[54.390037,24.482947]]]}},{"type":"Feature","properties":{},"geometry":{"type":"Polygon","coordinates":[[[54.392297,24.483283],[54.392282,24.483312],[54.392346,24.483364],[54.392439,24.483407],[54.39254,24.483233],[54.392476,24.48318],[54.392379,24.483134],[54.392358,24.483172],[54.392332,24.483151],[54.392345,24.48313],[54.392281,24.483077],[54.392174,24.483027],[54.392155,24.483062],[54.392042,24.483006],[54.392022,24.483043],[54.392086,24.483096],[54.392182,24.483142],[54.392196,24.483119],[54.392247,24.483148],[54.392207,24.483218],[54.392297,24.483283]]]}},{"type":"Feature","properties":{},"geometry":{"type":"Polygon","coordinates":[[[54.391676,24.48351],[54.391691,24.48348],[54.391627,24.483427],[54.391532,24.483387],[54.391516,24.483417],[54.391581,24.48347],[54.391676,24.48351]]]}},{"type":"Feature","properties":{},"geometry":{"type":"Polygon","coordinates":[[[54.39132,24.483723],[54.391364,24.483672],[54.391299,24.483618],[54.391322,24.483592],[54.391388,24.483647],[54.391472,24.483551],[54.391224,24.483358],[54.391015,24.483564],[54.391229,24.483724],[54.391186,24.48376],[54.391388,24.483949],[54.391475,24.483873],[54.39132,24.483723]]]}},{"type":"Feature","properties":{},"geometry":{"type":"Polygon","coordinates":[[[54.390771,24.484369],[54.39068,24.484447],[54.390863,24.484616],[54.390955,24.484538],[54.390771,24.484369]]]}},{"type":"Feature","properties":{},"geometry":{"type":"Polygon","coordinates":[[[54.392543,24.489054],[54.392736,24.48915],[54.392886,24.489319],[54.392966,24.489385],[54.39327,24.489263],[54.393352,24.489341],[54.393883,24.489272],[54.39383,24.488935],[54.39375,24.488869],[54.393172,24.488945],[54.393124,24.488912],[54.393097,24.488852],[54.39309,24.488788],[54.393104,24.488724],[54.393137,24.488667],[54.393186,24.48862],[54.393262,24.488584],[54.393788,24.488538],[54.39373,24.487983],[54.393649,24.487917],[54.392872,24.487985],[54.392909,24.488341],[54.392655,24.488656],[54.392483,24.488575],[54.392314,24.488534],[54.392295,24.488626],[54.392215,24.488605],[54.392125,24.48894],[54.392205,24.489006],[54.392384,24.489015],[54.392543,24.489054]]]}},{"type":"Feature","properties":{},"geometry":{"type":"Polygon","coordinates":[[[54.392383,24.490999],[54.392456,24.490936],[54.392538,24.490936],[54.39257,24.490997],[54.39265,24.491063],[54.393065,24.491009],[54.393381,24.491196],[54.393456,24.491097],[54.393527,24.49116],[54.39362,24.491214],[54.393719,24.491237],[54.393441,24.491575],[54.393494,24.491719],[54.393873,24.491987],[54.39505,24.490574],[54.395288,24.49076],[54.395185,24.490879],[54.395908,24.491473],[54.396147,24.491645],[54.396348,24.491413],[54.395547,24.490762],[54.395536,24.49066],[54.395628,24.490651],[54.395587,24.490299],[54.395299,24.490063],[54.395468,24.490046],[54.395455,24.489933],[54.395547,24.489923],[54.395505,24.48957],[54.394508,24.488755],[54.394327,24.488773],[54.394339,24.488873],[54.39419,24.488888],[54.394231,24.489235],[54.394539,24.489489],[54.39441,24.489501],[54.394421,24.489601],[54.394271,24.489615],[54.394312,24.489967],[54.394808,24.490375],[54.394497,24.490409],[54.394352,24.490468],[54.394085,24.490793],[54.394065,24.490748],[54.393992,24.490671],[54.393871,24.49059],[54.39392,24.49056],[54.394058,24.490384],[54.393971,24.48988],[54.393891,24.489814],[54.393513,24.489847],[54.393237,24.48969],[54.392995,24.489698],[54.392899,24.490086],[54.392856,24.490178],[54.392767,24.490289],[54.392729,24.490281],[54.392598,24.490361],[54.392349,24.490475],[54.392143,24.490511],[54.391935,24.490511],[54.391736,24.490465],[54.391721,24.490502],[54.391735,24.490577],[54.3917,24.4906],[54.391651,24.49071],[54.391804,24.490845],[54.392022,24.490888],[54.392383,24.490999]]]}},{"type":"Feature","properties":{},"geometry":{"type":"Polygon","coordinates":[[[54.392869,24.491091],[54.392169,24.491164],[54.39221,24.49149],[54.392274,24.491543],[54.392567,24.491513],[54.392552,24.491395],[54.39296,24.491353],[54.392933,24.491144],[54.392869,24.491091]]]}},{"type":"Feature","properties":{},"geometry":{"type":"Polygon","coordinates":[[[54.393054,24.491945],[54.392998,24.491585],[54.392934,24.491532],[54.39246,24.491593],[54.392547,24.492146],[54.392611,24.492199],[54.393027,24.492145],[54.393054,24.491945]]]}},{"type":"Feature","properties":{},"geometry":{"type":"Polygon","coordinates":[[[54.392872,24.492454],[54.392808,24.492401],[54.392226,24.492479],[54.392288,24.492864],[54.392353,24.492917],[54.392934,24.492839],[54.392872,24.492454]]]}},{"type":"Feature","properties":{},"geometry":{"type":"Polygon","coordinates":[[[54.390569,24.493091],[54.390757,24.49292],[54.390587,24.492771],[54.390399,24.492942],[54.390569,24.493091]]]}},{"type":"Feature","properties":{},"geometry":{"type":"Polygon","coordinates":[[[54.390121,24.493761],[54.389311,24.493854],[54.389361,24.494209],[54.389425,24.494261],[54.390235,24.494168],[54.390185,24.493813],[54.390121,24.493761]]]}},{"type":"Feature","properties":{},"geometry":{"type":"Polygon","coordinates":[[[54.392741,24.49608],[54.392805,24.496133],[54.392861,24.496091],[54.393721,24.496006],[54.393636,24.495368],[54.393572,24.495316],[54.392676,24.495443],[54.392741,24.49608]]]}},{"type":"Feature","properties":{},"geometry":{"type":"Polygon","coordinates":[[[54.390573,24.496397],[54.390571,24.496334],[54.390632,24.496385],[54.390707,24.496381],[54.390694,24.496152],[54.39064,24.495729],[54.390576,24.495677],[54.390226,24.495712],[54.390228,24.495726],[54.390109,24.495729],[54.390113,24.495837],[54.390177,24.49589],[54.390247,24.495887],[54.390269,24.496062],[54.390224,24.496025],[54.390147,24.496033],[54.390156,24.496107],[54.390175,24.496123],[54.390205,24.496364],[54.390269,24.496416],[54.390573,24.496397]],[[54.390511,24.496274],[54.390498,24.496169],[54.390536,24.496165],[54.390559,24.496184],[54.390567,24.49632],[54.390511,24.496274]]]}},{"type":"Feature","properties":{},"geometry":{"type":"Polygon","coordinates":[[[54.391661,24.496974],[54.391541,24.496979],[54.391543,24.497018],[54.391607,24.49707],[54.391728,24.497065],[54.391726,24.497026],[54.391661,24.496974]]]}},{"type":"Feature","properties":{},"geometry":{"type":"Polygon","coordinates":[[[54.391497,24.496987],[54.391422,24.496985],[54.391421,24.497019],[54.391485,24.497072],[54.39156,24.497074],[54.391561,24.49704],[54.391497,24.496987]]]}},{"type":"Feature","properties":{},"geometry":{"type":"Polygon","coordinates":[[[54.39168,24.49718],[54.391734,24.497171],[54.391726,24.497133],[54.391662,24.49708],[54.391607,24.49709],[54.391615,24.497128],[54.39168,24.49718]]]}},{"type":"Feature","properties":{},"geometry":{"type":"Polygon","coordinates":[[[54.391294,24.497294],[54.391407,24.497297],[54.391409,24.497233],[54.391367,24.497199],[54.391373,24.497105],[54.391309,24.497052],[54.391186,24.49705],[54.391184,24.497144],[54.391232,24.497184],[54.39123,24.497241],[54.391294,24.497294]]]}},{"type":"Feature","properties":{},"geometry":{"type":"Polygon","coordinates":[[[54.393355,24.498117],[54.393313,24.498116],[54.39331,24.498197],[54.393374,24.498249],[54.393416,24.498251],[54.393419,24.49817],[54.393355,24.498117]]]}},{"type":"Feature","properties":{},"geometry":{"type":"Polygon","coordinates":[[[54.391404,24.498122],[54.392046,24.498651],[54.392139,24.498707],[54.392555,24.498688],[54.392523,24.49847],[54.391881,24.497941],[54.391505,24.497815],[54.391368,24.497883],[54.391404,24.498122]]]}},{"type":"Feature","properties":{},"geometry":{"type":"Polygon","coordinates":[[[54.390929,24.498107],[54.389896,24.498215],[54.389941,24.498568],[54.390005,24.498621],[54.391038,24.498514],[54.390993,24.49816],[54.390929,24.498107]]]}},{"type":"Feature","properties":{},"geometry":{"type":"Polygon","coordinates":[[[54.391623,24.500751],[54.39166,24.500999],[54.391724,24.501051],[54.391985,24.501022],[54.391953,24.500779],[54.391889,24.500727],[54.391623,24.500751]]]}},{"type":"Feature","properties":{},"geometry":{"type":"Polygon","coordinates":[[[54.390342,24.502605],[54.390406,24.5031],[54.390523,24.503196],[54.391275,24.503133],[54.391218,24.502619],[54.391536,24.502577],[54.391098,24.49894],[54.39098,24.498843],[54.389877,24.498968],[54.390312,24.502373],[54.389868,24.502417],[54.389887,24.502566],[54.389983,24.502646],[54.390342,24.502605]]]}},{"type":"Feature","properties":{},"geometry":{"type":"Polygon","coordinates":[[[54.392162,24.503734],[54.392105,24.503737],[54.392111,24.503839],[54.392175,24.503892],[54.392338,24.503884],[54.392332,24.503782],[54.392268,24.503729],[54.392178,24.503733],[54.392255,24.503723],[54.392247,24.503673],[54.392183,24.503621],[54.392091,24.503633],[54.392099,24.503682],[54.392162,24.503734]]]}},{"type":"Feature","properties":{},"geometry":{"type":"Polygon","coordinates":[[[54.392527,24.503865],[54.392619,24.503864],[54.392618,24.503815],[54.392554,24.503762],[54.392463,24.503763],[54.392463,24.503812],[54.392527,24.503865]]]}},{"type":"Feature","properties":{},"geometry":{"type":"Polygon","coordinates":[[[54.392461,24.50446],[54.392568,24.504454],[54.39256,24.504334],[54.392587,24.504357],[54.392656,24.504338],[54.392644,24.504302],[54.39258,24.504249],[54.392555,24.504256],[54.392552,24.504218],[54.392498,24.504173],[54.392654,24.504155],[54.392623,24.503934],[54.392558,24.503881],[54.392347,24.503906],[54.392379,24.504127],[54.392429,24.504168],[54.392381,24.504171],[54.392397,24.504407],[54.392461,24.50446]]]}},{"type":"Feature","properties":{},"geometry":{"type":"Polygon","coordinates":[[[54.392104,24.503938],[54.392054,24.50394],[54.392065,24.504132],[54.392129,24.504185],[54.39218,24.504183],[54.392169,24.50399],[54.392104,24.503938]]]}},{"type":"Feature","properties":{},"geometry":{"type":"Polygon","coordinates":[[[54.392272,24.503917],[54.392164,24.503927],[54.392222,24.504432],[54.392286,24.504484],[54.392394,24.504474],[54.392336,24.50397],[54.392272,24.503917]]]}},{"type":"Feature","properties":{},"geometry":{"type":"Polygon","coordinates":[[[54.392139,24.504225],[54.39209,24.504227],[54.392098,24.504395],[54.392162,24.504448],[54.392212,24.504446],[54.392204,24.504278],[54.392139,24.504225]]]}},{"type":"Feature","properties":{},"geometry":{"type":"Polygon","coordinates":[[[54.39262,24.504452],[54.392177,24.504496],[54.39221,24.504771],[54.392274,24.504824],[54.392717,24.50478],[54.392684,24.504505],[54.39262,24.504452]]]}},{"type":"Feature","properties":{},"geometry":{"type":"Polygon","coordinates":[[[54.392228,24.504858],[54.392173,24.504863],[54.392181,24.504943],[54.392245,24.504996],[54.3923,24.504991],[54.392292,24.504911],[54.392228,24.504858]]]}},{"type":"Feature","properties":{},"geometry":{"type":"Polygon","coordinates":[[[54.392563,24.504815],[54.392452,24.504825],[54.392482,24.505074],[54.392546,24.505127],[54.392656,24.505116],[54.392627,24.504867],[54.392563,24.504815]]]}},{"type":"Feature","properties":{},"geometry":{"type":"Polygon","coordinates":[[[54.392275,24.505266],[54.392333,24.505265],[54.392332,24.505201],[54.392386,24.505246],[54.392499,24.505244],[54.392496,24.505134],[54.392431,24.505081],[54.392319,24.505083],[54.392321,24.505148],[54.392266,24.505103],[54.392208,24.505104],[54.392211,24.505213],[54.392275,24.505266]]]}},{"type":"Feature","properties":{},"geometry":{"type":"Polygon","coordinates":[[[54.392737,24.505136],[54.392522,24.505149],[54.392558,24.505648],[54.392622,24.505701],[54.392837,24.505688],[54.392801,24.505189],[54.392737,24.505136]]]}},{"type":"Feature","properties":{},"geometry":{"type":"Polygon","coordinates":[[[54.389993,24.505205],[54.389795,24.505218],[54.389842,24.505811],[54.389906,24.505864],[54.39012,24.50585],[54.390057,24.505257],[54.389993,24.505205]]]}},{"type":"Feature","properties":{},"geometry":{"type":"Polygon","coordinates":[[[54.39184,24.506909],[54.391881,24.506904],[54.391888,24.506957],[54.391952,24.50701],[54.391988,24.507006],[54.39198,24.506945],[54.391925,24.5069],[54.391924,24.506854],[54.391859,24.506801],[54.39177,24.50681],[54.391776,24.506856],[54.39184,24.506909]]]}},{"type":"Feature","properties":{},"geometry":{"type":"Polygon","coordinates":[[[54.392152,24.506899],[54.392088,24.506846],[54.391978,24.506869],[54.392001,24.506959],[54.392065,24.507012],[54.392131,24.506998],[54.392119,24.506949],[54.392162,24.50694],[54.392152,24.506899]]]}},{"type":"Feature","properties":{},"geometry":{"type":"Polygon","coordinates":[[[54.392715,24.506783],[54.39253,24.506794],[54.392556,24.507137],[54.392621,24.50719],[54.392806,24.507178],[54.392779,24.506835],[54.392715,24.506783]]]}},{"type":"Feature","properties":{},"geometry":{"type":"Polygon","coordinates":[[[54.39194,24.507053],[54.391814,24.507055],[54.391816,24.507144],[54.39188,24.507197],[54.392006,24.507195],[54.392004,24.507106],[54.39194,24.507053]]]}},{"type":"Feature","properties":{},"geometry":{"type":"Polygon","coordinates":[[[54.392985,24.507152],[54.392904,24.50716],[54.392911,24.507214],[54.392975,24.507267],[54.393056,24.507258],[54.393049,24.507205],[54.392985,24.507152]]]}},{"type":"Feature","properties":{},"geometry":{"type":"Polygon","coordinates":[[[54.391934,24.507327],[54.391531,24.507352],[54.391541,24.50749],[54.391605,24.507543],[54.392009,24.507519],[54.391998,24.50738],[54.391934,24.507327]]]}},{"type":"Feature","properties":{},"geometry":{"type":"Polygon","coordinates":[[[54.39118,24.507431],[54.391047,24.507429],[54.391046,24.50751],[54.39111,24.507563],[54.391243,24.507564],[54.391244,24.507483],[54.39118,24.507431]]]}},{"type":"Feature","properties":{},"geometry":{"type":"Polygon","coordinates":[[[54.39297,24.508739],[54.393035,24.508792],[54.393153,24.50879],[54.393152,24.508771],[54.393166,24.508783],[54.39328,24.508787],[54.393281,24.508753],[54.393217,24.5087],[54.393104,24.508696],[54.393103,24.508719],[54.393088,24.508707],[54.39297,24.508709],[54.39297,24.508739]]]}},{"type":"Feature","properties":{},"geometry":{"type":"Polygon","coordinates":[[[54.393021,24.509696],[54.392992,24.509738],[54.393127,24.50983],[54.393155,24.509789],[54.393021,24.509696]]]}},{"type":"Feature","properties":{},"geometry":{"type":"Polygon","coordinates":[[[54.404722,24.481212],[54.404778,24.481189],[54.404761,24.481155],[54.404697,24.481102],[54.40464,24.481125],[54.404658,24.48116],[54.404722,24.481212]]]}},{"type":"Feature","properties":{},"geometry":{"type":"Polygon","coordinates":[[[54.403917,24.481584],[54.403981,24.481636],[54.404509,24.481366],[54.404347,24.481089],[54.404282,24.481036],[54.403673,24.48131],[54.403917,24.481584]]]}},{"type":"Feature","properties":{},"geometry":{"type":"Polygon","coordinates":[[[54.403128,24.483267],[54.403362,24.483134],[54.403351,24.483105],[54.403186,24.482794],[54.402861,24.482358],[54.402754,24.48227],[54.402477,24.482382],[54.402484,24.48233],[54.402377,24.482242],[54.402291,24.482238],[54.401421,24.483154],[54.401422,24.483271],[54.401463,24.483334],[54.40157,24.483422],[54.401745,24.483463],[54.401943,24.483378],[54.402258,24.483293],[54.402677,24.483303],[54.403202,24.483484],[54.403128,24.483267]]]}},{"type":"Feature","properties":{},"geometry":{"type":"Polygon","coordinates":[[[54.404431,24.485326],[54.404537,24.485083],[54.404606,24.484863],[54.404604,24.484568],[54.40454,24.484515],[54.403751,24.484451],[54.40362,24.484898],[54.403526,24.485074],[54.40334,24.485265],[54.404016,24.485853],[54.404212,24.485662],[54.404431,24.485326]]]}},{"type":"Feature","properties":{},"geometry":{"type":"Polygon","coordinates":[[[54.400631,24.486302],[54.40032,24.486616],[54.400169,24.486792],[54.4007,24.487175],[54.400818,24.487211],[54.400931,24.48717],[54.401271,24.486415],[54.401207,24.486363],[54.400743,24.486123],[54.400631,24.486302]]]}},{"type":"Feature","properties":{},"geometry":{"type":"Polygon","coordinates":[[[54.40422,24.486417],[54.404023,24.48626],[54.403971,24.486254],[54.403234,24.486607],[54.403444,24.48716],[54.403638,24.487326],[54.40369,24.48734],[54.403928,24.487255],[54.404282,24.487065],[54.40455,24.486868],[54.404578,24.486829],[54.404569,24.486782],[54.40422,24.486417]],[[54.403843,24.486806],[54.403719,24.486866],[54.403715,24.486853],[54.404071,24.486673],[54.403843,24.486806]]]}},{"type":"Feature","properties":{},"geometry":{"type":"Polygon","coordinates":[[[54.394198,24.487939],[54.394521,24.488303],[54.394585,24.488356],[54.394668,24.488291],[54.394793,24.488419],[54.395548,24.48904],[54.395651,24.488957],[54.395722,24.489016],[54.395939,24.48884],[54.395866,24.488765],[54.395964,24.488686],[54.395791,24.48851],[54.3951,24.487941],[54.394811,24.487526],[54.39462,24.487343],[54.394574,24.48738],[54.394555,24.487364],[54.394369,24.487515],[54.394519,24.487666],[54.394431,24.487741],[54.394275,24.4876],[54.394095,24.487756],[54.394113,24.487773],[54.394066,24.487813],[54.394198,24.487939]]]}},{"type":"Feature","properties":{},"geometry":{"type":"Polygon","coordinates":[[[54.39497,24.487235],[54.395012,24.487275],[54.394866,24.487404],[54.394906,24.48744],[54.394864,24.487477],[54.395773,24.488238],[54.396157,24.487896],[54.395338,24.487219],[54.395256,24.487186],[54.395144,24.487174],[54.395019,24.487192],[54.39497,24.487235]]]}},{"type":"Feature","properties":{},"geometry":{"type":"Polygon","coordinates":[[[54.402689,24.488189],[54.402625,24.488136],[54.402288,24.488086],[54.401773,24.487981],[54.401144,24.487765],[54.400111,24.487303],[54.399543,24.486934],[54.398968,24.486502],[54.397734,24.487851],[54.398938,24.488759],[54.40026,24.489452],[54.40103,24.489766],[54.401821,24.489936],[54.402664,24.489996],[54.402944,24.489649],[54.402689,24.488189]]]}},{"type":"Feature","properties":{},"geometry":{"type":"Polygon","coordinates":[[[54.400466,24.490746],[54.400426,24.490481],[54.400362,24.490428],[54.400058,24.490467],[54.400098,24.490732],[54.400163,24.490785],[54.400466,24.490746]]]}},{"type":"Feature","properties":{},"geometry":{"type":"Polygon","coordinates":[[[54.395186,24.491038],[54.395007,24.491243],[54.395842,24.49193],[54.396084,24.492104],[54.396117,24.492065],[54.396221,24.492139],[54.396322,24.492022],[54.396232,24.491948],[54.39627,24.491905],[54.395435,24.491218],[54.395186,24.491038]]]}},{"type":"Feature","properties":{},"geometry":{"type":"Polygon","coordinates":[[[54.39857,24.492562],[54.398634,24.492615],[54.398711,24.492606],[54.398666,24.492277],[54.398607,24.492229],[54.398731,24.492211],[54.398689,24.491893],[54.398624,24.49184],[54.398498,24.491854],[54.398541,24.492176],[54.3986,24.492224],[54.398525,24.492233],[54.39857,24.492562]]]}},{"type":"Feature","properties":{},"geometry":{"type":"Polygon","coordinates":[[[54.395652,24.49261],[54.396061,24.492684],[54.396127,24.492385],[54.396062,24.492332],[54.39599,24.492319],[54.395182,24.491654],[54.394932,24.491475],[54.394754,24.49168],[54.395624,24.492392],[54.395588,24.492557],[54.395652,24.49261]]]}},{"type":"Feature","properties":{},"geometry":{"type":"Polygon","coordinates":[[[54.399159,24.492473],[54.399146,24.492373],[54.399082,24.49232],[54.398902,24.492342],[54.398889,24.492268],[54.398825,24.492216],[54.398753,24.492225],[54.398781,24.49246],[54.398845,24.492513],[54.399159,24.492473]]]}},{"type":"Feature","properties":{},"geometry":{"type":"Polygon","coordinates":[[[54.394623,24.491927],[54.394529,24.491865],[54.394395,24.492033],[54.394479,24.492102],[54.394448,24.492141],[54.395272,24.49282],[54.395408,24.492909],[54.395481,24.492817],[54.395576,24.49288],[54.395651,24.492787],[54.395582,24.49273],[54.39564,24.492657],[54.394815,24.491978],[54.394662,24.491877],[54.394623,24.491927]]]}},{"type":"Feature","properties":{},"geometry":{"type":"Polygon","coordinates":[[[54.393984,24.49204],[54.393805,24.492246],[54.39463,24.492924],[54.394871,24.493097],[54.394905,24.493058],[54.395008,24.493133],[54.39511,24.493016],[54.395019,24.492942],[54.395057,24.492898],[54.394233,24.49222],[54.393984,24.49204]]]}},{"type":"Feature","properties":{},"geometry":{"type":"Polygon","coordinates":[[[54.400649,24.492935],[54.399918,24.49302],[54.399973,24.493406],[54.400037,24.493459],[54.400768,24.493374],[54.400714,24.492988],[54.400649,24.492935]]]}},{"type":"Feature","properties":{},"geometry":{"type":"Polygon","coordinates":[[[54.404554,24.49505],[54.404547,24.49499],[54.4046,24.494985],[54.404633,24.495012],[54.404732,24.495002],[54.404712,24.494832],[54.404812,24.494914],[54.404894,24.494957],[54.405177,24.494513],[54.404439,24.493905],[54.404618,24.493624],[54.404594,24.493605],[54.404646,24.493524],[54.404581,24.493471],[54.404418,24.493385],[54.404364,24.49347],[54.404296,24.493434],[54.404047,24.493458],[54.403978,24.493577],[54.403873,24.493527],[54.403741,24.493541],[54.403703,24.493509],[54.403359,24.493544],[54.403368,24.493617],[54.403273,24.493627],[54.403326,24.494059],[54.403286,24.494063],[54.403322,24.494353],[54.403386,24.494406],[54.40361,24.494383],[54.404435,24.495062],[54.404554,24.49505]]]}},{"type":"Feature","properties":{},"geometry":{"type":"Polygon","coordinates":[[[54.393515,24.494441],[54.393367,24.494459],[54.393371,24.494483],[54.39331,24.49449],[54.393345,24.49473],[54.393409,24.494783],[54.393678,24.494751],[54.393646,24.494535],[54.393515,24.494441]]]}},{"type":"Feature","properties":{},"geometry":{"type":"Polygon","coordinates":[[[54.393632,24.495242],[54.393739,24.496008],[54.393804,24.496061],[54.393928,24.496047],[54.394133,24.495864],[54.39435,24.495839],[54.394264,24.495229],[54.3942,24.495176],[54.393632,24.495242]]]}},{"type":"Feature","properties":{},"geometry":{"type":"Polygon","coordinates":[[[54.39431,24.497106],[54.39439,24.49739],[54.394454,24.497443],[54.394705,24.497561],[54.394833,24.497495],[54.39495,24.497401],[54.394938,24.497327],[54.394982,24.497264],[54.395061,24.497225],[54.395094,24.497166],[54.39503,24.497114],[54.394542,24.496821],[54.39431,24.497106]]]}},{"type":"Feature","properties":{},"geometry":{"type":"Polygon","coordinates":[[[54.404083,24.498057],[54.404069,24.498085],[54.404133,24.498138],[54.404186,24.498158],[54.4042,24.49813],[54.404135,24.498077],[54.404083,24.498057]]]}},{"type":"Feature","properties":{},"geometry":{"type":"Polygon","coordinates":[[[54.404252,24.498305],[54.404234,24.498273],[54.404247,24.498258],[54.404081,24.49813],[54.404068,24.498147],[54.403978,24.498096],[54.403208,24.498413],[54.403016,24.498458],[54.402864,24.498563],[54.402757,24.498744],[54.40274,24.498873],[54.402759,24.498984],[54.402809,24.499041],[54.40277,24.499106],[54.40285,24.499176],[54.402864,24.49922],[54.402856,24.499279],[54.403201,24.499563],[54.403154,24.499593],[54.403093,24.499605],[54.40308,24.499633],[54.403087,24.499668],[54.403154,24.499754],[54.403795,24.50027],[54.403858,24.500283],[54.403876,24.500267],[54.403873,24.500231],[54.403901,24.500244],[54.403977,24.500201],[54.40428,24.500451],[54.404465,24.500473],[54.404772,24.500713],[54.404888,24.500714],[54.404925,24.500699],[54.404941,24.500673],[54.404917,24.500621],[54.404918,24.500421],[54.40523,24.500674],[54.405307,24.500666],[54.405425,24.500581],[54.405448,24.500595],[54.40553,24.500507],[54.405492,24.500475],[54.405521,24.500383],[54.405506,24.500303],[54.405377,24.500194],[54.405454,24.500157],[54.405797,24.500439],[54.405918,24.500461],[54.405923,24.500436],[54.406038,24.50045],[54.406122,24.500424],[54.406152,24.500373],[54.406129,24.500305],[54.406016,24.500201],[54.406024,24.500181],[54.40579,24.499988],[54.405826,24.499959],[54.405876,24.499946],[54.405941,24.499868],[54.406326,24.500183],[54.406387,24.500197],[54.406419,24.500179],[54.406462,24.500102],[54.406482,24.500016],[54.406511,24.500015],[54.406519,24.4999],[54.40645,24.499843],[54.406401,24.499769],[54.406195,24.4996],[54.406341,24.499417],[54.406459,24.499208],[54.406559,24.498961],[54.406614,24.498673],[54.40663,24.498401],[54.406607,24.498177],[54.40653,24.497872],[54.406444,24.497802],[54.405689,24.497661],[54.405744,24.497531],[54.40574,24.497548],[54.405804,24.497601],[54.406064,24.497647],[54.406079,24.497584],[54.406118,24.497592],[54.406153,24.497443],[54.406007,24.497326],[54.405843,24.497296],[54.405894,24.497174],[54.405537,24.496881],[54.405543,24.496864],[54.405518,24.496843],[54.405547,24.496796],[54.405545,24.496502],[54.405411,24.496392],[54.404485,24.49605],[54.404158,24.496949],[54.403928,24.497053],[54.404358,24.49798],[54.404492,24.49809],[54.4046,24.498001],[54.404932,24.498274],[54.404875,24.498333],[54.404851,24.498402],[54.404855,24.498473],[54.40483,24.498577],[54.404772,24.498671],[54.404698,24.498736],[54.404569,24.498791],[54.404451,24.498802],[54.404327,24.498776],[54.404234,24.498809],[54.404127,24.498878],[54.40417,24.49892],[54.404128,24.498955],[54.404065,24.498942],[54.404006,24.498969],[54.40397,24.499012],[54.403959,24.499091],[54.403992,24.499162],[54.40456,24.499629],[54.404721,24.499698],[54.40449,24.499726],[54.403529,24.498936],[54.403572,24.498829],[54.403627,24.498767],[54.403733,24.498696],[54.403711,24.498645],[54.404007,24.498529],[54.404148,24.498445],[54.40423,24.498357],[54.404252,24.498305]],[[54.404929,24.499372],[54.405151,24.499554],[54.405064,24.499601],[54.405055,24.499564],[54.404843,24.499389],[54.404929,24.499372]],[[54.405661,24.497676],[54.405791,24.497852],[54.405871,24.49802],[54.405922,24.498291],[54.405924,24.498635],[54.405899,24.498533],[54.40585,24.498486],[54.405283,24.498019],[54.405209,24.498001],[54.405151,24.498021],[54.405032,24.497804],[54.405156,24.497846],[54.40531,24.497473],[54.405467,24.497602],[54.405661,24.497676]],[[54.40556,24.498835],[54.405562,24.498764],[54.405762,24.498929],[54.405829,24.498965],[54.405702,24.499149],[54.40549,24.498975],[54.40556,24.498835]]]}},{"type":"Feature","properties":{},"geometry":{"type":"Polygon","coordinates":[[[54.396129,24.498519],[54.396073,24.498517],[54.39607,24.498583],[54.396135,24.498636],[54.396191,24.498637],[54.396193,24.498572],[54.396129,24.498519]]]}},{"type":"Feature","properties":{},"geometry":{"type":"Polygon","coordinates":[[[54.395136,24.498542],[54.393466,24.49866],[54.393621,24.499665],[54.393686,24.499718],[54.395434,24.499524],[54.395324,24.498716],[54.395136,24.498542]]]}},{"type":"Feature","properties":{},"geometry":{"type":"Polygon","coordinates":[[[54.395534,24.499827],[54.395419,24.499844],[54.395447,24.499997],[54.395511,24.50005],[54.395626,24.500033],[54.395599,24.49988],[54.395534,24.499827]]]}},{"type":"Feature","properties":{},"geometry":{"type":"Polygon","coordinates":[[[54.395273,24.500002],[54.395241,24.500009],[54.395264,24.500113],[54.395328,24.500166],[54.395361,24.50016],[54.395337,24.500055],[54.395273,24.500002]]]}},{"type":"Feature","properties":{},"geometry":{"type":"Polygon","coordinates":[[[54.394916,24.50033],[54.394869,24.500337],[54.39489,24.500451],[54.394954,24.500503],[54.395001,24.500496],[54.39498,24.500382],[54.394916,24.50033]]]}},{"type":"Feature","properties":{},"geometry":{"type":"Polygon","coordinates":[[[54.395552,24.500525],[54.395488,24.500472],[54.394922,24.50055],[54.395064,24.501399],[54.395128,24.501452],[54.395694,24.501373],[54.395552,24.500525]]]}},{"type":"Feature","properties":{},"geometry":{"type":"Polygon","coordinates":[[[54.395747,24.501897],[54.395661,24.501895],[54.395658,24.501997],[54.395722,24.50205],[54.395808,24.502052],[54.395811,24.50195],[54.395747,24.501897]]]}},{"type":"Feature","properties":{},"geometry":{"type":"Polygon","coordinates":[[[54.395873,24.502153],[54.395441,24.502211],[54.395492,24.502519],[54.395556,24.502572],[54.395988,24.502513],[54.395937,24.502205],[54.395873,24.502153]]]}},{"type":"Feature","properties":{},"geometry":{"type":"Polygon","coordinates":[[[54.397473,24.504684],[54.397401,24.504687],[54.397407,24.504788],[54.397471,24.504841],[54.397543,24.504838],[54.397538,24.504737],[54.397473,24.504684]]]}},{"type":"Feature","properties":{},"geometry":{"type":"Polygon","coordinates":[[[54.404437,24.507235],[54.404404,24.507263],[54.404561,24.507407],[54.404594,24.507379],[54.404437,24.507235]]]}},{"type":"Feature","properties":{},"geometry":{"type":"Polygon","coordinates":[[[54.393655,24.509094],[54.393604,24.509096],[54.393607,24.509151],[54.393671,24.509204],[54.393722,24.509202],[54.393719,24.509147],[54.393655,24.509094]]]}},{"type":"Feature","properties":{},"geometry":{"type":"Polygon","coordinates":[[[54.393287,24.509433],[54.393361,24.509521],[54.393311,24.509483],[54.393096,24.509587],[54.393144,24.509669],[54.393208,24.509721],[54.393238,24.509707],[54.393287,24.509787],[54.393352,24.50984],[54.393689,24.509669],[54.393677,24.509649],[54.393859,24.509557],[54.393627,24.509178],[54.393563,24.509125],[54.393369,24.509224],[54.393398,24.509271],[54.393366,24.509245],[54.393317,24.509272],[54.393465,24.509468],[54.393421,24.50949],[54.393334,24.509406],[54.393287,24.509433]]]}},{"type":"Feature","properties":{},"geometry":{"type":"Polygon","coordinates":[[[54.393853,24.509371],[54.393818,24.509388],[54.393855,24.509448],[54.393919,24.509501],[54.393954,24.509483],[54.393917,24.509424],[54.393853,24.509371]]]}},{"type":"Feature","properties":{},"geometry":{"type":"Polygon","coordinates":[[[54.394141,24.509947],[54.394237,24.509905],[54.394123,24.509713],[54.394018,24.509606],[54.393978,24.509629],[54.394088,24.509782],[54.394031,24.509807],[54.394077,24.509894],[54.394141,24.509947]]]}},{"type":"Feature","properties":{},"geometry":{"type":"Polygon","coordinates":[[[54.394163,24.509938],[54.393977,24.510018],[54.393911,24.50995],[54.393869,24.509955],[54.393874,24.509991],[54.393932,24.510038],[54.393848,24.510074],[54.393879,24.510134],[54.393943,24.510187],[54.394259,24.510051],[54.394228,24.509991],[54.394163,24.509938]]]}},{"type":"Feature","properties":{},"geometry":{"type":"Polygon","coordinates":[[[54.406388,24.480148],[54.406319,24.48004],[54.406494,24.479948],[54.406437,24.479858],[54.406373,24.479805],[54.406323,24.479831],[54.40624,24.479701],[54.406176,24.479648],[54.405927,24.479779],[54.405983,24.479867],[54.405776,24.479976],[54.405813,24.480035],[54.405737,24.480075],[54.405905,24.480306],[54.405969,24.480359],[54.406388,24.480148]]]}},{"type":"Feature","properties":{},"geometry":{"type":"Polygon","coordinates":[[[54.406807,24.480129],[54.4069,24.480052],[54.406771,24.479935],[54.406679,24.480012],[54.406807,24.480129]]]}},{"type":"Feature","properties":{},"geometry":{"type":"Polygon","coordinates":[[[54.406587,24.480349],[54.406523,24.480297],[54.406404,24.480249],[54.406365,24.480328],[54.40639,24.480349],[54.406349,24.480324],[54.406299,24.480392],[54.406291,24.480385],[54.406233,24.480433],[54.406308,24.480507],[54.406226,24.480438],[54.406187,24.480469],[54.406216,24.4805],[54.406185,24.480475],[54.406104,24.480529],[54.4062,24.480621],[54.406225,24.480605],[54.406279,24.480649],[54.406313,24.48062],[54.406501,24.480794],[54.406647,24.480671],[54.406454,24.480482],[54.40646,24.480474],[54.406508,24.480503],[54.406543,24.480456],[54.40647,24.480398],[54.406548,24.480429],[54.406587,24.480349]]]}},{"type":"Feature","properties":{},"geometry":{"type":"Polygon","coordinates":[[[54.405748,24.480415],[54.405672,24.480452],[54.405699,24.480497],[54.405764,24.48055],[54.405839,24.480512],[54.405812,24.480467],[54.405748,24.480415]]]}},{"type":"Feature","properties":{},"geometry":{"type":"Polygon","coordinates":[[[54.405339,24.48077],[54.40541,24.48083],[54.405428,24.480816],[54.405453,24.480837],[54.405572,24.48075],[54.405431,24.48059],[54.405367,24.480537],[54.405274,24.480605],[54.405173,24.48051],[54.405036,24.48061],[54.404982,24.480566],[54.404751,24.480736],[54.404947,24.480958],[54.405012,24.481011],[54.405182,24.480901],[54.405193,24.48091],[54.405303,24.48083],[54.405285,24.480809],[54.405339,24.48077]]]}},{"type":"Feature","properties":{},"geometry":{"type":"Polygon","coordinates":[[[54.406314,24.482564],[54.406117,24.482665],[54.406103,24.482619],[54.406064,24.482587],[54.406023,24.482403],[54.405542,24.482007],[54.405398,24.481892],[54.40529,24.481997],[54.405261,24.482119],[54.405287,24.48226],[54.405336,24.482344],[54.405392,24.48239],[54.405417,24.48244],[54.405898,24.482836],[54.406133,24.482721],[54.406128,24.482703],[54.406207,24.48278],[54.406414,24.482674],[54.406395,24.482644],[54.406708,24.483103],[54.406772,24.483156],[54.406948,24.48306],[54.406614,24.482551],[54.406534,24.482485],[54.406602,24.482443],[54.406433,24.48226],[54.406328,24.482036],[54.406618,24.482272],[54.40671,24.482348],[54.406937,24.482201],[54.406726,24.481913],[54.40666,24.481802],[54.406178,24.481406],[54.406001,24.481509],[54.405923,24.481577],[54.406003,24.481671],[54.406141,24.481882],[54.405846,24.481639],[54.405621,24.481752],[54.40558,24.481799],[54.405601,24.481854],[54.405747,24.481985],[54.405815,24.482137],[54.406314,24.482564]]]}},{"type":"Feature","properties":{},"geometry":{"type":"Polygon","coordinates":[[[54.405807,24.484533],[54.405743,24.48448],[54.405192,24.484414],[54.405767,24.484423],[54.405767,24.483905],[54.405519,24.483185],[54.405455,24.483133],[54.405126,24.483265],[54.405318,24.483913],[54.404939,24.484017],[54.404994,24.484359],[54.405038,24.484395],[54.405017,24.484393],[54.404939,24.484734],[54.405004,24.484787],[54.405683,24.484925],[54.405807,24.484533]]]}},{"type":"Feature","properties":{},"geometry":{"type":"Polygon","coordinates":[[[54.407106,24.485667],[54.4074,24.48538],[54.407262,24.485263],[54.406967,24.48555],[54.407106,24.485667]]]}},{"type":"Feature","properties":{},"geometry":{"type":"Polygon","coordinates":[[[54.406754,24.485552],[54.406713,24.485613],[54.406882,24.485724],[54.406924,24.485663],[54.406754,24.485552]]]}},{"type":"Feature","properties":{},"geometry":{"type":"Polygon","coordinates":[[[54.406127,24.487642],[54.405832,24.487429],[54.405686,24.487602],[54.406028,24.487884],[54.406325,24.488104],[54.40647,24.487924],[54.406127,24.487642]]]}},{"type":"Feature","properties":{},"geometry":{"type":"Polygon","coordinates":[[[54.407256,24.488564],[54.407662,24.488334],[54.407383,24.487926],[54.407318,24.487873],[54.406913,24.488103],[54.406932,24.488132],[54.406903,24.488107],[54.406497,24.488337],[54.406776,24.488745],[54.406841,24.488798],[54.407246,24.488568],[54.407227,24.48854],[54.407256,24.488564]]]}},{"type":"Feature","properties":{},"geometry":{"type":"Polygon","coordinates":[[[54.407021,24.490271],[54.406961,24.490292],[54.406989,24.490373],[54.407053,24.490426],[54.407119,24.490404],[54.407085,24.490324],[54.407021,24.490271]]]}},{"type":"Feature","properties":{},"geometry":{"type":"Polygon","coordinates":[[[54.406411,24.493141],[54.40654,24.493013],[54.406379,24.492879],[54.406249,24.493007],[54.406411,24.493141]]]}},{"type":"Feature","properties":{},"geometry":{"type":"Polygon","coordinates":[[[54.406316,24.49231],[54.406247,24.492254],[54.405376,24.492715],[54.405341,24.492999],[54.406269,24.493785],[54.406596,24.493513],[54.406019,24.493035],[54.406383,24.492699],[54.406218,24.492574],[54.406423,24.492478],[54.406316,24.49231]]]}},{"type":"Feature","properties":{},"geometry":{"type":"Polygon","coordinates":[[[54.40635,24.49524],[54.406305,24.495308],[54.406436,24.495397],[54.406481,24.495329],[54.40635,24.49524]]]}},{"type":"Feature","properties":{},"geometry":{"type":"Polygon","coordinates":[[[54.406532,24.495366],[54.406486,24.495406],[54.40666,24.495565],[54.406718,24.495516],[54.40668,24.495717],[54.406617,24.495665],[54.406493,24.495612],[54.406459,24.495556],[54.406395,24.495503],[54.406312,24.495545],[54.406365,24.495633],[54.406395,24.495658],[54.406361,24.495724],[54.406425,24.495777],[54.40661,24.495856],[54.406679,24.495723],[54.406613,24.496087],[54.406559,24.496192],[54.406567,24.496251],[54.407186,24.496768],[54.407136,24.496768],[54.407134,24.496856],[54.407014,24.496758],[54.406722,24.496827],[54.406805,24.497122],[54.406966,24.497254],[54.407228,24.497185],[54.407219,24.497134],[54.407316,24.497214],[54.407531,24.497235],[54.40754,24.497143],[54.407655,24.497238],[54.407771,24.497249],[54.407926,24.497374],[54.407985,24.497385],[54.408082,24.497373],[54.40816,24.497404],[54.408215,24.497373],[54.408184,24.497336],[54.408238,24.497307],[54.408293,24.497316],[54.408322,24.497248],[54.4084,24.497165],[54.408829,24.497518],[54.409244,24.497749],[54.40979,24.497489],[54.409983,24.497621],[54.410172,24.497695],[54.410305,24.497715],[54.410396,24.497712],[54.410481,24.497667],[54.410495,24.497633],[54.410485,24.49757],[54.410454,24.497519],[54.410372,24.497438],[54.408809,24.496152],[54.408693,24.496072],[54.408574,24.496018],[54.408585,24.495991],[54.408504,24.495925],[54.408324,24.495827],[54.408624,24.495386],[54.408895,24.495571],[54.408965,24.495492],[54.409023,24.495531],[54.409099,24.495444],[54.409228,24.495513],[54.409529,24.495561],[54.409888,24.495542],[54.410232,24.495449],[54.410135,24.495269],[54.409948,24.495114],[54.409819,24.494825],[54.410068,24.494669],[54.410529,24.49452],[54.410974,24.494402],[54.410945,24.494192],[54.409532,24.493029],[54.409064,24.493135],[54.408549,24.493307],[54.408054,24.493578],[54.407631,24.493885],[54.407294,24.494291],[54.408458,24.495249],[54.408136,24.495723],[54.406894,24.495031],[54.406727,24.495491],[54.406599,24.495371],[54.406664,24.495369],[54.406662,24.495341],[54.406598,24.495288],[54.406472,24.495298],[54.406475,24.495319],[54.406532,24.495366]],[[54.409017,24.496853],[54.408698,24.496996],[54.40838,24.496868],[54.408356,24.496926],[54.407585,24.496301],[54.407904,24.496329],[54.408287,24.496446],[54.408359,24.496312],[54.409017,24.496853]]]}},{"type":"Feature","properties":{},"geometry":{"type":"Polygon","coordinates":[[[54.40627,24.495738],[54.406224,24.495803],[54.406315,24.495872],[54.406361,24.495807],[54.40627,24.495738]]]}},{"type":"Feature","properties":{},"geometry":{"type":"Polygon","coordinates":[[[54.406266,24.496088],[54.406305,24.496095],[54.406303,24.496074],[54.406254,24.496021],[54.40619,24.495968],[54.406167,24.495971],[54.406173,24.49601],[54.406266,24.496088]]]}},{"type":"Feature","properties":{},"geometry":{"type":"Polygon","coordinates":[[[54.406327,24.496131],[54.406312,24.496158],[54.406376,24.496211],[54.406449,24.496246],[54.406465,24.496219],[54.4064,24.496166],[54.406327,24.496131]]]}},{"type":"Feature","properties":{},"geometry":{"type":"Polygon","coordinates":[[[54.405962,24.496854],[54.405897,24.496904],[54.406041,24.497046],[54.406108,24.496998],[54.405962,24.496854]]]}},{"type":"Feature","properties":{},"geometry":{"type":"Polygon","coordinates":[[[54.406656,24.496773],[54.406329,24.496853],[54.406432,24.497223],[54.406496,24.497276],[54.406804,24.497195],[54.40672,24.496825],[54.406656,24.496773]]]}},{"type":"Feature","properties":{},"geometry":{"type":"Polygon","coordinates":[[[54.406943,24.503344],[54.40688,24.503364],[54.406917,24.503485],[54.406982,24.503537],[54.407061,24.50352],[54.407007,24.503397],[54.406943,24.503344]]]}},{"type":"Feature","properties":{},"geometry":{"type":"Polygon","coordinates":[[[54.406525,24.504539],[54.406432,24.504537],[54.406428,24.504679],[54.406492,24.504732],[54.406588,24.504734],[54.40659,24.504592],[54.406525,24.504539]]]}},{"type":"Feature","properties":{},"geometry":{"type":"Polygon","coordinates":[[[54.406184,24.50457],[54.406088,24.504593],[54.406141,24.504759],[54.406205,24.504812],[54.406297,24.504791],[54.406248,24.504623],[54.406184,24.50457]]]}},{"type":"Feature","properties":{},"geometry":{"type":"Polygon","coordinates":[[[54.406429,24.505788],[54.406477,24.50574],[54.407174,24.506312],[54.407028,24.506464],[54.407751,24.507058],[54.408059,24.507294],[54.408351,24.506985],[54.408194,24.506826],[54.407472,24.506231],[54.407401,24.506234],[54.407416,24.506179],[54.407376,24.506038],[54.407263,24.505937],[54.406674,24.505453],[54.406638,24.505488],[54.406344,24.50524],[54.406082,24.505495],[54.406429,24.505788]]]}},{"type":"Feature","properties":{},"geometry":{"type":"Polygon","coordinates":[[[54.40565,24.505527],[54.405586,24.505474],[54.405385,24.505424],[54.405291,24.505739],[54.405355,24.505792],[54.405556,24.505842],[54.40565,24.505527]]]}},{"type":"Feature","properties":{},"geometry":{"type":"Polygon","coordinates":[[[54.405475,24.505923],[54.405179,24.505828],[54.405064,24.506126],[54.405128,24.506179],[54.405423,24.506274],[54.405539,24.505976],[54.405475,24.505923]]]}},{"type":"Feature","properties":{},"geometry":{"type":"Polygon","coordinates":[[[54.405345,24.506365],[54.405066,24.506279],[54.404973,24.506527],[54.405037,24.50658],[54.405316,24.506666],[54.405409,24.506418],[54.405345,24.506365]]]}},{"type":"Feature","properties":{},"geometry":{"type":"Polygon","coordinates":[[[54.405237,24.506716],[54.404948,24.50662],[54.404806,24.507019],[54.40487,24.507072],[54.405126,24.507164],[54.405301,24.506769],[54.405237,24.506716]]]}},{"type":"Feature","properties":{},"geometry":{"type":"Polygon","coordinates":[[[54.406644,24.507341],[54.406601,24.50737],[54.406721,24.507521],[54.406785,24.507574],[54.406828,24.507545],[54.406709,24.507394],[54.406644,24.507341]]]}},{"type":"Feature","properties":{},"geometry":{"type":"Polygon","coordinates":[[[54.406635,24.509537],[54.406746,24.509422],[54.406356,24.509037],[54.405851,24.508622],[54.405998,24.508596],[54.406064,24.508478],[54.406377,24.508786],[54.406891,24.509209],[54.407002,24.509095],[54.406612,24.50871],[54.406148,24.508328],[54.406304,24.508047],[54.406645,24.508385],[54.407159,24.508808],[54.407271,24.508693],[54.40688,24.508309],[54.406385,24.507901],[54.406504,24.507687],[54.406497,24.507607],[54.405855,24.507079],[54.405593,24.506955],[54.405529,24.506966],[54.404898,24.508066],[54.405635,24.508659],[54.40583,24.508626],[54.405724,24.508722],[54.406121,24.509114],[54.406635,24.509537]]]}},{"type":"Feature","properties":{},"geometry":{"type":"Polygon","coordinates":[[[54.405105,24.509539],[54.405253,24.509684],[54.405761,24.510102],[54.405824,24.510045],[54.405926,24.510113],[54.406107,24.50985],[54.405598,24.509432],[54.405477,24.509367],[54.405383,24.509473],[54.405231,24.509371],[54.405105,24.509539]]]}},{"type":"Feature","properties":{},"geometry":{"type":"Polygon","coordinates":[[[54.410443,24.479885],[54.410374,24.479952],[54.410588,24.480133],[54.410657,24.480066],[54.410443,24.479885]]]}},{"type":"Feature","properties":{},"geometry":{"type":"Polygon","coordinates":[[[54.407181,24.482327],[54.407302,24.482429],[54.407416,24.48261],[54.407951,24.48305],[54.408141,24.482979],[54.408182,24.482848],[54.407784,24.482403],[54.407249,24.481963],[54.407183,24.482071],[54.407041,24.482137],[54.407181,24.482327]]]}},{"type":"Feature","properties":{},"geometry":{"type":"Polygon","coordinates":[[[54.409403,24.482883],[54.409307,24.482887],[54.409312,24.483001],[54.409376,24.483054],[54.409472,24.483051],[54.409467,24.482936],[54.409403,24.482883]]]}},{"type":"Feature","properties":{},"geometry":{"type":"Polygon","coordinates":[[[54.408793,24.48444],[54.408584,24.484581],[54.408829,24.484883],[54.409171,24.485165],[54.409381,24.485024],[54.409136,24.484722],[54.408793,24.48444]]]}},{"type":"Feature","properties":{},"geometry":{"type":"Polygon","coordinates":[[[54.408142,24.484996],[54.408484,24.485278],[54.408703,24.485389],[54.408742,24.485367],[54.408832,24.485441],[54.408945,24.485358],[54.408676,24.485059],[54.408334,24.484777],[54.408129,24.484931],[54.408142,24.484996]]]}},{"type":"Feature","properties":{},"geometry":{"type":"Polygon","coordinates":[[[54.409226,24.485715],[54.409136,24.485626],[54.40909,24.485653],[54.409001,24.485574],[54.408922,24.485635],[54.409027,24.485731],[54.409041,24.48572],[54.409129,24.485845],[54.409193,24.485898],[54.409252,24.485864],[54.409171,24.485747],[54.409226,24.485715]]]}},{"type":"Feature","properties":{},"geometry":{"type":"Polygon","coordinates":[[[54.409623,24.486175],[54.409764,24.486185],[54.409846,24.486161],[54.409929,24.486078],[54.409976,24.486],[54.410007,24.485886],[54.410002,24.485806],[54.410504,24.486668],[54.410643,24.486783],[54.411002,24.486615],[54.410502,24.485734],[54.410541,24.485708],[54.410552,24.485635],[54.410543,24.485582],[54.410498,24.485536],[54.410543,24.485509],[54.410573,24.485437],[54.410776,24.485356],[54.410838,24.485407],[54.410947,24.485349],[54.410915,24.4853],[54.411117,24.485219],[54.410943,24.4849],[54.410804,24.484786],[54.409836,24.485253],[54.409801,24.485318],[54.409673,24.485244],[54.409599,24.48533],[54.409423,24.4854],[54.409337,24.485483],[54.4093,24.485577],[54.409298,24.485763],[54.409317,24.485856],[54.409397,24.485985],[54.409623,24.486175]]]}},{"type":"Feature","properties":{},"geometry":{"type":"Polygon","coordinates":[[[54.40778,24.485968],[54.407788,24.485959],[54.408041,24.486161],[54.408232,24.485962],[54.407828,24.485631],[54.40781,24.485647],[54.407564,24.485445],[54.407378,24.485639],[54.40778,24.485968]]]}},{"type":"Feature","properties":{},"geometry":{"type":"Polygon","coordinates":[[[54.407651,24.485895],[54.407557,24.485997],[54.407669,24.486087],[54.407764,24.485984],[54.407651,24.485895]]]}},{"type":"Feature","properties":{},"geometry":{"type":"Polygon","coordinates":[[[54.408884,24.487647],[54.408334,24.48801],[54.408637,24.488493],[54.408701,24.488546],[54.409575,24.48811],[54.409424,24.487837],[54.40936,24.487784],[54.408654,24.488175],[54.409428,24.487743],[54.409311,24.487417],[54.409247,24.487364],[54.408884,24.487647]]]}},{"type":"Feature","properties":{},"geometry":{"type":"Polygon","coordinates":[[[54.410556,24.488405],[54.410422,24.488416],[54.410427,24.488464],[54.410138,24.488492],[54.410183,24.488928],[54.410247,24.48898],[54.410715,24.48894],[54.410702,24.488821],[54.410969,24.488798],[54.410926,24.488383],[54.410862,24.48833],[54.410551,24.488356],[54.410556,24.488405]]]}},{"type":"Feature","properties":{},"geometry":{"type":"Polygon","coordinates":[[[54.407768,24.488343],[54.407361,24.488562],[54.407644,24.488949],[54.407709,24.489002],[54.408085,24.488772],[54.407832,24.488396],[54.407768,24.488343]]]}},{"type":"Feature","properties":{},"geometry":{"type":"Polygon","coordinates":[[[54.407309,24.488565],[54.406903,24.488795],[54.407183,24.489203],[54.407247,24.489256],[54.407653,24.489026],[54.407373,24.488617],[54.407309,24.488565]]]}},{"type":"Feature","properties":{},"geometry":{"type":"Polygon","coordinates":[[[54.410216,24.489184],[54.41028,24.489237],[54.410628,24.489204],[54.410674,24.489615],[54.410738,24.489668],[54.41089,24.489654],[54.410826,24.489077],[54.410762,24.489025],[54.410204,24.489076],[54.410216,24.489184]]]}},{"type":"Feature","properties":{},"geometry":{"type":"Polygon","coordinates":[[[54.409332,24.491316],[54.409336,24.491209],[54.409272,24.491156],[54.409037,24.491149],[54.409036,24.491182],[54.408959,24.49118],[54.408947,24.491294],[54.409072,24.491376],[54.409283,24.491382],[54.409286,24.491315],[54.409332,24.491316]]]}},{"type":"Feature","properties":{},"geometry":{"type":"Polygon","coordinates":[[[54.409747,24.49822],[54.409415,24.497947],[54.409165,24.497863],[54.40899,24.49793],[54.408992,24.498391],[54.409324,24.498664],[54.409714,24.498597],[54.409747,24.49822]]]}},{"type":"Feature","properties":{},"geometry":{"type":"Polygon","coordinates":[[[54.408874,24.498774],[54.408938,24.498827],[54.408978,24.498831],[54.408989,24.498664],[54.408924,24.498611],[54.408852,24.4986],[54.408836,24.49866],[54.408874,24.498774]]]}},{"type":"Feature","properties":{},"geometry":{"type":"Polygon","coordinates":[[[54.4093,24.500253],[54.409341,24.500381],[54.409497,24.500501],[54.409677,24.500532],[54.40981,24.500529],[54.409935,24.500465],[54.40999,24.500349],[54.41004,24.499793],[54.410076,24.499563],[54.410042,24.499492],[54.4099,24.49938],[54.409787,24.499363],[54.409615,24.499373],[54.409548,24.499419],[54.409531,24.499464],[54.409571,24.499321],[54.409624,24.498924],[54.409435,24.498769],[54.408993,24.498738],[54.409005,24.499092],[54.408919,24.499457],[54.409107,24.499612],[54.409452,24.499703],[54.4093,24.500253]]]}},{"type":"Feature","properties":{},"geometry":{"type":"Polygon","coordinates":[[[54.408085,24.500876],[54.408054,24.500908],[54.408053,24.500954],[54.408025,24.501013],[54.408128,24.501097],[54.408179,24.501024],[54.408211,24.50094],[54.408147,24.500887],[54.408085,24.500876]]]}},{"type":"Feature","properties":{},"geometry":{"type":"Polygon","coordinates":[[[54.409669,24.501484],[54.409605,24.501431],[54.408723,24.501471],[54.408679,24.501799],[54.408731,24.501922],[54.408816,24.502003],[54.409085,24.502015],[54.409403,24.502006],[54.409494,24.501975],[54.409609,24.501904],[54.409648,24.501799],[54.409674,24.501652],[54.409669,24.501484]]]}},{"type":"Feature","properties":{},"geometry":{"type":"Polygon","coordinates":[[[54.408422,24.501858],[54.408025,24.50174],[54.407696,24.502403],[54.40776,24.502455],[54.408178,24.50263],[54.408359,24.502152],[54.408486,24.50191],[54.408422,24.501858]]]}},{"type":"Feature","properties":{},"geometry":{"type":"Polygon","coordinates":[[[54.407515,24.502391],[54.407507,24.502438],[54.407571,24.502491],[54.407615,24.502501],[54.407672,24.502442],[54.407712,24.502366],[54.407648,24.502313],[54.407586,24.50231],[54.407515,24.502391]]]}},{"type":"Feature","properties":{},"geometry":{"type":"Polygon","coordinates":[[[54.407403,24.502885],[54.407345,24.502871],[54.407275,24.502955],[54.40724,24.502926],[54.407116,24.503077],[54.407243,24.503166],[54.407374,24.503049],[54.407399,24.503047],[54.407467,24.502938],[54.407403,24.502885]]]}},{"type":"Feature","properties":{},"geometry":{"type":"Polygon","coordinates":[[[54.407134,24.50368],[54.407036,24.503648],[54.406985,24.503805],[54.407049,24.503858],[54.407138,24.503882],[54.407199,24.503733],[54.407134,24.50368]]]}},{"type":"Feature","properties":{},"geometry":{"type":"Polygon","coordinates":[[[54.410417,24.50439],[54.410472,24.504349],[54.41071,24.504545],[54.411182,24.504623],[54.411213,24.504465],[54.410705,24.504046],[54.410285,24.503977],[54.410229,24.503915],[54.40972,24.503497],[54.409576,24.503605],[54.409909,24.503972],[54.410417,24.50439]]]}},{"type":"Feature","properties":{},"geometry":{"type":"Polygon","coordinates":[[[54.409349,24.504692],[54.410098,24.505308],[54.41036,24.50501],[54.409259,24.504094],[54.409054,24.504354],[54.409349,24.504692]]]}},{"type":"Feature","properties":{},"geometry":{"type":"Polygon","coordinates":[[[54.408028,24.505741],[54.407866,24.505725],[54.407868,24.505818],[54.407932,24.505871],[54.408097,24.505895],[54.408092,24.505794],[54.408028,24.505741]]]}},{"type":"Feature","properties":{},"geometry":{"type":"Polygon","coordinates":[[[54.409537,24.506228],[54.409651,24.506167],[54.409736,24.506074],[54.409782,24.50596],[54.409783,24.50584],[54.409744,24.505733],[54.409671,24.505643],[54.409606,24.50559],[54.409506,24.505526],[54.409388,24.505493],[54.409265,24.505495],[54.409148,24.505532],[54.40905,24.505601],[54.408981,24.505693],[54.408947,24.505801],[54.408954,24.505922],[54.409005,24.506033],[54.409158,24.506176],[54.409275,24.506233],[54.409406,24.506251],[54.409537,24.506228]]]}},{"type":"Feature","properties":{},"geometry":{"type":"Polygon","coordinates":[[[54.407282,24.507382],[54.407384,24.507293],[54.406919,24.506861],[54.406822,24.506949],[54.406855,24.506983],[54.406749,24.507074],[54.406783,24.507111],[54.406677,24.507196],[54.40707,24.507556],[54.407171,24.50747],[54.407153,24.507453],[54.407259,24.507363],[54.407282,24.507382]]]}},{"type":"Feature","properties":{},"geometry":{"type":"Polygon","coordinates":[[[54.409757,24.507609],[54.409481,24.507344],[54.409287,24.507513],[54.409712,24.507927],[54.409774,24.507885],[54.409757,24.507609]]]}},{"type":"Feature","properties":{},"geometry":{"type":"Polygon","coordinates":[[[54.407167,24.507749],[54.407137,24.507782],[54.407235,24.50786],[54.407265,24.507827],[54.407167,24.507749]]]}},{"type":"Feature","properties":{},"geometry":{"type":"Polygon","coordinates":[[[54.410377,24.507842],[54.410313,24.507789],[54.410281,24.507797],[54.410204,24.507719],[54.410122,24.507721],[54.40999,24.507756],[54.409856,24.507859],[54.409825,24.507938],[54.409918,24.508033],[54.409991,24.508072],[54.410037,24.508057],[54.410174,24.508051],[54.410396,24.507908],[54.410377,24.507842]]]}},{"type":"Feature","properties":{},"geometry":{"type":"Polygon","coordinates":[[[54.40888,24.50792],[54.408846,24.507921],[54.408851,24.508027],[54.408915,24.50808],[54.408954,24.508078],[54.408953,24.508048],[54.408982,24.508047],[54.408989,24.507908],[54.408925,24.507856],[54.408877,24.507857],[54.40888,24.50792]]]}},{"type":"Feature","properties":{},"geometry":{"type":"Polygon","coordinates":[[[54.409295,24.508285],[54.409385,24.508211],[54.409278,24.508116],[54.409189,24.50819],[54.409295,24.508285]]]}},{"type":"Feature","properties":{},"geometry":{"type":"Polygon","coordinates":[[[54.409182,24.508728],[54.409161,24.508699],[54.409197,24.508677],[54.409223,24.508699],[54.409398,24.508595],[54.409337,24.508509],[54.409273,24.508456],[54.409239,24.508476],[54.409158,24.5084],[54.409014,24.508484],[54.409061,24.50855],[54.408987,24.508608],[54.409005,24.508634],[54.408969,24.508655],[54.409064,24.508751],[54.409088,24.508736],[54.409121,24.508763],[54.409182,24.508728]]]}},{"type":"Feature","properties":{},"geometry":{"type":"Polygon","coordinates":[[[54.407614,24.508943],[54.407679,24.508893],[54.407587,24.508811],[54.407523,24.508861],[54.407614,24.508943]]]}},{"type":"Feature","properties":{},"geometry":{"type":"Polygon","coordinates":[[[54.407708,24.508969],[54.407656,24.509013],[54.407876,24.509218],[54.407928,24.509175],[54.407708,24.508969]]]}},{"type":"Feature","properties":{},"geometry":{"type":"Polygon","coordinates":[[[54.40717,24.509197],[54.407129,24.509238],[54.407297,24.509378],[54.407338,24.509338],[54.40717,24.509197]]]}},{"type":"Feature","properties":{},"geometry":{"type":"Polygon","coordinates":[[[54.408298,24.509924],[54.408413,24.509806],[54.408052,24.509473],[54.407538,24.50905],[54.407416,24.509159],[54.407784,24.509501],[54.408298,24.509924]]]}},{"type":"Feature","properties":{},"geometry":{"type":"Polygon","coordinates":[[[54.4072,24.5093],[54.40706,24.509435],[54.407446,24.509794],[54.40796,24.510216],[54.408094,24.510079],[54.407714,24.509722],[54.4072,24.5093]]]}},{"type":"Feature","properties":{},"geometry":{"type":"Polygon","coordinates":[[[54.407528,24.510461],[54.407693,24.510344],[54.407325,24.509996],[54.406811,24.509574],[54.406652,24.509706],[54.407014,24.510038],[54.407528,24.510461]]]}},{"type":"Feature","properties":{},"geometry":{"type":"Polygon","coordinates":[[[54.409911,24.510359],[54.410254,24.510047],[54.410005,24.509826],[54.409662,24.510138],[54.409911,24.510359]]]}},{"type":"Feature","properties":{},"geometry":{"type":"Polygon","coordinates":[[[54.411321,24.481841],[54.411222,24.481936],[54.411371,24.482061],[54.411548,24.481892],[54.411116,24.48152],[54.410943,24.481686],[54.411088,24.481809],[54.411183,24.481718],[54.411198,24.48173],[54.411169,24.481758],[54.411278,24.481849],[54.411303,24.481825],[54.411321,24.481841]]]}},{"type":"Feature","properties":{},"geometry":{"type":"Polygon","coordinates":[[[54.410906,24.481767],[54.410876,24.481795],[54.41098,24.481882],[54.411009,24.481854],[54.410906,24.481767]]]}},{"type":"Feature","properties":{},"geometry":{"type":"Polygon","coordinates":[[[54.412803,24.481985],[54.412739,24.481932],[54.412378,24.481741],[54.412202,24.482016],[54.412266,24.482069],[54.412627,24.48226],[54.412803,24.481985]]]}},{"type":"Feature","properties":{},"geometry":{"type":"Polygon","coordinates":[[[54.411398,24.482052],[54.41132,24.482132],[54.411415,24.48221],[54.411494,24.48213],[54.411398,24.482052]]]}},{"type":"Feature","properties":{},"geometry":{"type":"Polygon","coordinates":[[[54.411476,24.485695],[54.411533,24.485673],[54.411518,24.485642],[54.411454,24.485589],[54.41135,24.48563],[54.411383,24.485676],[54.411414,24.485776],[54.411478,24.485828],[54.411535,24.48581],[54.411497,24.485712],[54.411476,24.485695]]]}},{"type":"Feature","properties":{},"geometry":{"type":"Polygon","coordinates":[[[54.413548,24.487582],[54.413581,24.487581],[54.413577,24.487507],[54.413513,24.487454],[54.413462,24.487456],[54.413453,24.487248],[54.413388,24.487195],[54.413283,24.487199],[54.413284,24.487227],[54.413107,24.487233],[54.413184,24.487452],[54.413247,24.487503],[54.413256,24.48771],[54.41332,24.487763],[54.413588,24.487753],[54.413585,24.487674],[54.413551,24.487647],[54.413548,24.487582]]]}},{"type":"Feature","properties":{},"geometry":{"type":"Polygon","coordinates":[[[54.41311,24.487594],[54.413046,24.487541],[54.412959,24.487562],[54.413014,24.487751],[54.413078,24.487804],[54.413165,24.487783],[54.41311,24.487594]]]}},{"type":"Feature","properties":{},"geometry":{"type":"Polygon","coordinates":[[[54.415663,24.487768],[54.41563,24.487769],[54.41563,24.48778],[54.415619,24.487771],[54.415123,24.487771],[54.415123,24.487815],[54.415187,24.487868],[54.415187,24.488213],[54.415252,24.488266],[54.415434,24.488266],[54.415434,24.488014],[54.415683,24.488014],[54.415683,24.487982],[54.415733,24.487994],[54.415767,24.488023],[54.415816,24.488021],[54.415809,24.487819],[54.415738,24.487766],[54.415736,24.487735],[54.415671,24.487682],[54.415613,24.487685],[54.415615,24.487729],[54.415663,24.487768]]]}},{"type":"Feature","properties":{},"geometry":{"type":"Polygon","coordinates":[[[54.413587,24.48789],[54.413519,24.487893],[54.413522,24.487954],[54.413586,24.488007],[54.413654,24.488005],[54.413651,24.487943],[54.413587,24.48789]]]}},{"type":"Feature","properties":{},"geometry":{"type":"Polygon","coordinates":[[[54.41492,24.488531],[54.415043,24.488528],[54.41504,24.488408],[54.415008,24.488382],[54.415033,24.488383],[54.415036,24.488288],[54.414972,24.488235],[54.414839,24.488231],[54.414836,24.488326],[54.414874,24.488358],[54.414852,24.488358],[54.414856,24.488478],[54.41492,24.488531]]]}},{"type":"Feature","properties":{},"geometry":{"type":"Polygon","coordinates":[[[54.415731,24.488366],[54.415778,24.488364],[54.415775,24.488253],[54.41571,24.4882],[54.415648,24.488202],[54.415652,24.488313],[54.41568,24.488336],[54.415621,24.488338],[54.415566,24.488292],[54.415472,24.488296],[54.415474,24.488334],[54.415538,24.488387],[54.415602,24.488384],[54.415666,24.48844],[54.41576,24.488438],[54.415759,24.488389],[54.415731,24.488366]]]}},{"type":"Feature","properties":{},"geometry":{"type":"Polygon","coordinates":[[[54.415435,24.488313],[54.415318,24.488314],[54.415319,24.488397],[54.415383,24.48845],[54.415412,24.48845],[54.415411,24.488484],[54.415476,24.488537],[54.415496,24.488537],[54.415497,24.488491],[54.415446,24.488449],[54.4155,24.488449],[54.415499,24.488366],[54.415435,24.488313]]]}},{"type":"Feature","properties":{},"geometry":{"type":"Polygon","coordinates":[[[54.415529,24.488746],[54.415609,24.488743],[54.415607,24.488694],[54.415543,24.488642],[54.415463,24.488644],[54.415465,24.488693],[54.415529,24.488746]]]}},{"type":"Feature","properties":{},"geometry":{"type":"Polygon","coordinates":[[[54.411174,24.48887],[54.411147,24.488931],[54.411198,24.488999],[54.411262,24.489051],[54.411349,24.489049],[54.411433,24.489161],[54.411262,24.489253],[54.411314,24.489336],[54.411378,24.489388],[54.412051,24.489015],[54.412063,24.489038],[54.411491,24.489354],[54.411585,24.489507],[54.411649,24.48956],[54.411686,24.489546],[54.411713,24.489593],[54.411777,24.489646],[54.411963,24.489681],[54.411955,24.489719],[54.412019,24.489772],[54.412185,24.489808],[54.41235,24.48918],[54.412476,24.489183],[54.412528,24.489158],[54.412803,24.48968],[54.412867,24.489733],[54.41302,24.489653],[54.412987,24.489602],[54.4132,24.489508],[54.413262,24.489369],[54.413325,24.489401],[54.413369,24.489226],[54.413305,24.489173],[54.412721,24.488979],[54.412724,24.488949],[54.412944,24.488991],[54.413553,24.488901],[54.413509,24.488608],[54.413445,24.488556],[54.412863,24.488626],[54.412817,24.488588],[54.412683,24.488658],[54.412659,24.488638],[54.412737,24.488598],[54.412622,24.488451],[54.41276,24.488022],[54.412939,24.488095],[54.413033,24.488153],[54.413168,24.488006],[54.413104,24.487954],[54.412745,24.487759],[54.412516,24.487718],[54.412242,24.487705],[54.412264,24.487925],[54.412328,24.487978],[54.412433,24.487986],[54.412448,24.487957],[54.412466,24.487959],[54.412339,24.488484],[54.4123,24.488491],[54.412045,24.488036],[54.412247,24.487997],[54.412222,24.487761],[54.412157,24.487708],[54.411868,24.487782],[54.411582,24.487957],[54.411414,24.48813],[54.411635,24.488294],[54.41183,24.488135],[54.412028,24.488474],[54.411938,24.488729],[54.411214,24.488505],[54.411171,24.4886],[54.411235,24.488653],[54.41135,24.488695],[54.411319,24.488851],[54.411174,24.48887]],[[54.412055,24.489361],[54.412026,24.489504],[54.411864,24.489471],[54.411814,24.489404],[54.411975,24.489312],[54.412026,24.489355],[54.412055,24.489361]],[[54.412932,24.489199],[54.413052,24.489236],[54.413016,24.489333],[54.412922,24.489378],[54.412892,24.489309],[54.412932,24.489199]]]}},{"type":"Feature","properties":{},"geometry":{"type":"Polygon","coordinates":[[[54.410903,24.489835],[54.410952,24.489831],[54.410948,24.489789],[54.410884,24.489736],[54.410835,24.489739],[54.410839,24.489782],[54.410903,24.489835]]]}},{"type":"Feature","properties":{},"geometry":{"type":"Polygon","coordinates":[[[54.410405,24.48949],[54.410256,24.489504],[54.410326,24.49009],[54.41039,24.490143],[54.410949,24.490088],[54.410934,24.48996],[54.41087,24.489907],[54.410515,24.489933],[54.410469,24.489543],[54.410405,24.48949]]]}},{"type":"Feature","properties":{},"geometry":{"type":"Polygon","coordinates":[[[54.412562,24.489997],[54.412498,24.489945],[54.412428,24.489949],[54.412432,24.490011],[54.412497,24.490064],[54.412566,24.49006],[54.412562,24.489997]]]}},{"type":"Feature","properties":{},"geometry":{"type":"Polygon","coordinates":[[[54.411148,24.490662],[54.411052,24.490661],[54.411051,24.490713],[54.411115,24.490766],[54.411212,24.490767],[54.411212,24.490714],[54.411148,24.490662]]]}},{"type":"Feature","properties":{},"geometry":{"type":"Polygon","coordinates":[[[54.411212,24.491004],[54.411287,24.491002],[54.411289,24.490848],[54.411224,24.490795],[54.411155,24.490795],[54.411161,24.490893],[54.411147,24.490894],[54.411148,24.490951],[54.411212,24.491004]]]}},{"type":"Feature","properties":{},"geometry":{"type":"Polygon","coordinates":[[[54.413477,24.490698],[54.413413,24.490645],[54.412924,24.490639],[54.412916,24.491132],[54.412981,24.491185],[54.413459,24.491191],[54.413462,24.491028],[54.413397,24.490975],[54.413178,24.490972],[54.41318,24.490863],[54.413475,24.490867],[54.413477,24.490698]]]}},{"type":"Feature","properties":{},"geometry":{"type":"Polygon","coordinates":[[[54.410416,24.490817],[54.410413,24.49103],[54.410477,24.491083],[54.410763,24.491086],[54.41077,24.490819],[54.410706,24.490766],[54.4106,24.490766],[54.410598,24.490812],[54.410416,24.490817]]]}},{"type":"Feature","properties":{},"geometry":{"type":"Polygon","coordinates":[[[54.412875,24.491187],[54.412829,24.491185],[54.412828,24.491224],[54.412892,24.491277],[54.412938,24.491279],[54.412939,24.49124],[54.412875,24.491187]]]}},{"type":"Feature","properties":{},"geometry":{"type":"Polygon","coordinates":[[[54.411286,24.491479],[54.411222,24.491426],[54.411185,24.491424],[54.411181,24.491501],[54.411245,24.491554],[54.411283,24.491556],[54.411286,24.491479]]]}},{"type":"Feature","properties":{},"geometry":{"type":"Polygon","coordinates":[[[54.41083,24.491311],[54.410457,24.491298],[54.410444,24.491622],[54.410508,24.491675],[54.41088,24.491688],[54.410894,24.491364],[54.41083,24.491311]]]}},{"type":"Feature","properties":{},"geometry":{"type":"Polygon","coordinates":[[[54.411931,24.491223],[54.411435,24.491191],[54.411364,24.492099],[54.411428,24.492152],[54.411924,24.492184],[54.411995,24.491276],[54.411931,24.491223]]]}},{"type":"Feature","properties":{},"geometry":{"type":"Polygon","coordinates":[[[54.412108,24.491697],[54.412107,24.491726],[54.412171,24.491779],[54.412249,24.491781],[54.41225,24.491752],[54.412186,24.491699],[54.412108,24.491697]]]}},{"type":"Feature","properties":{},"geometry":{"type":"Polygon","coordinates":[[[54.411709,24.492296],[54.411581,24.492292],[54.411578,24.49238],[54.411643,24.492433],[54.41177,24.492436],[54.411773,24.492348],[54.411709,24.492296]]]}},{"type":"Feature","properties":{},"geometry":{"type":"Polygon","coordinates":[[[54.412155,24.492461],[54.411973,24.492459],[54.411972,24.492557],[54.412036,24.49261],[54.412218,24.492611],[54.412219,24.492513],[54.412155,24.492461]]]}},{"type":"Feature","properties":{},"geometry":{"type":"Polygon","coordinates":[[[54.410337,24.495938],[54.410046,24.496169],[54.41015,24.496288],[54.410069,24.496343],[54.410179,24.496484],[54.410607,24.496836],[54.410771,24.496733],[54.410675,24.496608],[54.410803,24.496499],[54.41098,24.496644],[54.411203,24.49654],[54.411042,24.49635],[54.410614,24.495998],[54.410495,24.496068],[54.410337,24.495938]]]}},{"type":"Feature","properties":{},"geometry":{"type":"Polygon","coordinates":[[[54.415167,24.496966],[54.41501,24.49686],[54.4149,24.497017],[54.415056,24.497124],[54.415167,24.496966]]]}},{"type":"Feature","properties":{},"geometry":{"type":"Polygon","coordinates":[[[54.411889,24.498965],[54.412007,24.498955],[54.412189,24.498726],[54.412083,24.498106],[54.412106,24.498097],[54.411874,24.497553],[54.41181,24.4975],[54.411496,24.497386],[54.411403,24.497422],[54.411699,24.498182],[54.411825,24.498912],[54.411889,24.498965]]]}},{"type":"Feature","properties":{},"geometry":{"type":"Polygon","coordinates":[[[54.410624,24.497708],[54.41061,24.498871],[54.410813,24.49907],[54.411057,24.499082],[54.41105,24.497568],[54.410985,24.497515],[54.410798,24.49756],[54.410624,24.497708]]]}},{"type":"Feature","properties":{},"geometry":{"type":"Polygon","coordinates":[[[54.411025,24.501919],[54.410544,24.501523],[54.410437,24.50152],[54.410436,24.501607],[54.410335,24.501603],[54.410333,24.501852],[54.410815,24.502248],[54.410915,24.50225],[54.410914,24.502187],[54.41105,24.502187],[54.411055,24.501962],[54.411025,24.501937],[54.411025,24.501919]]]}},{"type":"Feature","properties":{},"geometry":{"type":"Polygon","coordinates":[[[54.412942,24.50289],[54.413013,24.502973],[54.413098,24.503119],[54.413258,24.503251],[54.41333,24.503231],[54.413451,24.502941],[54.413539,24.50246],[54.413379,24.502328],[54.412962,24.502072],[54.412901,24.502013],[54.412815,24.501901],[54.412735,24.501757],[54.412686,24.501618],[54.412526,24.501486],[54.411982,24.501472],[54.412018,24.501673],[54.412065,24.501807],[54.412137,24.50199],[54.412222,24.502147],[54.412374,24.502354],[54.412629,24.502656],[54.41279,24.502788],[54.412942,24.50289]]]}},{"type":"Feature","properties":{},"geometry":{"type":"Polygon","coordinates":[[[54.411919,24.502858],[54.412022,24.502801],[54.411861,24.502561],[54.411798,24.50251],[54.411806,24.502502],[54.411529,24.502276],[54.411457,24.502349],[54.411711,24.502556],[54.411694,24.502566],[54.411855,24.502805],[54.411919,24.502858]]]}},{"type":"Feature","properties":{},"geometry":{"type":"Polygon","coordinates":[[[54.411149,24.502248],[54.410947,24.502245],[54.410913,24.502838],[54.410977,24.502891],[54.41142,24.502917],[54.411418,24.502755],[54.411354,24.502702],[54.411219,24.502675],[54.411213,24.502301],[54.411149,24.502248]]]}},{"type":"Feature","properties":{},"geometry":{"type":"Polygon","coordinates":[[[54.411512,24.502535],[54.411463,24.502535],[54.41146,24.502658],[54.411524,24.502711],[54.411574,24.502712],[54.411576,24.502588],[54.411512,24.502535]]]}},{"type":"Feature","properties":{},"geometry":{"type":"Polygon","coordinates":[[[54.411657,24.50276],[54.411573,24.502795],[54.411649,24.502947],[54.411713,24.502999],[54.411798,24.502964],[54.411721,24.502813],[54.411657,24.50276]]]}},{"type":"Feature","properties":{},"geometry":{"type":"Polygon","coordinates":[[[54.415224,24.504628],[54.415402,24.50448],[54.414826,24.504005],[54.414667,24.504163],[54.415224,24.504628]]]}},{"type":"Feature","properties":{},"geometry":{"type":"Polygon","coordinates":[[[54.414894,24.504852],[54.41499,24.504772],[54.414312,24.504214],[54.414153,24.504371],[54.414596,24.504743],[54.414513,24.504826],[54.415033,24.50526],[54.41521,24.505112],[54.414894,24.504852]]]}},{"type":"Feature","properties":{},"geometry":{"type":"Polygon","coordinates":[[[54.410861,24.506781],[54.410801,24.506731],[54.410811,24.506668],[54.410678,24.506576],[54.410546,24.50654],[54.410371,24.50656],[54.410298,24.506611],[54.410298,24.506661],[54.410335,24.50673],[54.410399,24.506782],[54.410447,24.506792],[54.410566,24.506855],[54.410838,24.506845],[54.410861,24.506781]]]}},{"type":"Feature","properties":{},"geometry":{"type":"Polygon","coordinates":[[[54.411108,24.506996],[54.410977,24.506911],[54.410945,24.506966],[54.410847,24.506938],[54.410793,24.506994],[54.410732,24.507106],[54.410726,24.507266],[54.410769,24.50734],[54.410833,24.507393],[54.410887,24.507401],[54.410968,24.507379],[54.410987,24.507338],[54.411074,24.507242],[54.411108,24.506996]]]}},{"type":"Feature","properties":{},"geometry":{"type":"Polygon","coordinates":[[[54.410813,24.508596],[54.410809,24.508696],[54.410873,24.508749],[54.411162,24.508759],[54.411165,24.508661],[54.4111,24.508608],[54.410813,24.508596]]]}},{"type":"Feature","properties":{},"geometry":{"type":"Polygon","coordinates":[[[54.411703,24.508958],[54.41158,24.508954],[54.411571,24.509162],[54.411635,24.509215],[54.411759,24.509219],[54.411767,24.509011],[54.411703,24.508958]]]}},{"type":"Feature","properties":{},"geometry":{"type":"Polygon","coordinates":[[[54.41076,24.509063],[54.410698,24.509064],[54.4107,24.509161],[54.410765,24.509214],[54.410826,24.509213],[54.410824,24.509116],[54.41076,24.509063]]]}},{"type":"Feature","properties":{},"geometry":{"type":"Polygon","coordinates":[[[54.411541,24.509393],[54.411551,24.509037],[54.411487,24.508984],[54.411317,24.50898],[54.411317,24.508998],[54.411302,24.508986],[54.411248,24.508984],[54.411234,24.509309],[54.411298,24.509362],[54.41134,24.509364],[54.411371,24.509389],[54.411541,24.509393]]]}},{"type":"Feature","properties":{},"geometry":{"type":"Polygon","coordinates":[[[54.411171,24.509148],[54.411123,24.509147],[54.411122,24.509219],[54.411186,24.509272],[54.411234,24.509273],[54.411235,24.509201],[54.411171,24.509148]]]}},{"type":"Feature","properties":{},"geometry":{"type":"Polygon","coordinates":[[[54.411678,24.509265],[54.41156,24.509263],[54.411555,24.50948],[54.411619,24.509533],[54.411737,24.509534],[54.411742,24.509317],[54.411678,24.509265]]]}},{"type":"Feature","properties":{},"geometry":{"type":"Polygon","coordinates":[[[54.410791,24.509596],[54.411117,24.509587],[54.411116,24.509575],[54.411129,24.509585],[54.411512,24.509576],[54.411509,24.509486],[54.411445,24.509433],[54.410723,24.509449],[54.410727,24.509544],[54.410791,24.509596]]]}},{"type":"Feature","properties":{},"geometry":{"type":"Polygon","coordinates":[[[54.411355,24.509641],[54.411256,24.509681],[54.411333,24.509838],[54.411397,24.509891],[54.411496,24.509851],[54.411419,24.509694],[54.411355,24.509641]]]}},{"type":"Feature","properties":{},"geometry":{"type":"Polygon","coordinates":[[[54.418595,24.481976],[54.418639,24.481973],[54.418637,24.481951],[54.418573,24.481898],[54.418529,24.481901],[54.41853,24.481923],[54.418595,24.481976]]]}},{"type":"Feature","properties":{},"geometry":{"type":"Polygon","coordinates":[[[54.418442,24.482417],[54.418484,24.482452],[54.418434,24.482447],[54.418417,24.482581],[54.418481,24.482634],[54.418807,24.482666],[54.418819,24.482567],[54.418869,24.482608],[54.419187,24.482648],[54.419171,24.48275],[54.419243,24.482804],[54.419231,24.482903],[54.419205,24.482882],[54.418896,24.482854],[54.418851,24.482817],[54.418781,24.482814],[54.418786,24.482766],[54.418722,24.482713],[54.418396,24.482685],[54.418382,24.482821],[54.418434,24.482863],[54.418366,24.482861],[54.418361,24.482982],[54.418425,24.483035],[54.41875,24.483048],[54.418756,24.482926],[54.41872,24.482897],[54.418758,24.4829],[54.418757,24.482922],[54.418821,24.482975],[54.418859,24.482977],[54.418857,24.482995],[54.418921,24.483047],[54.419253,24.483078],[54.419266,24.482959],[54.419292,24.48298],[54.419615,24.483014],[54.419632,24.482882],[54.41956,24.482828],[54.419578,24.482712],[54.419514,24.482659],[54.419396,24.482644],[54.419589,24.482662],[54.419594,24.482614],[54.419662,24.482625],[54.419698,24.482268],[54.419728,24.482292],[54.419778,24.482285],[54.419865,24.482307],[54.419855,24.482394],[54.419919,24.482447],[54.420256,24.48248],[54.420258,24.482456],[54.420303,24.482493],[54.420625,24.482531],[54.42063,24.482498],[54.42068,24.482539],[54.42099,24.482579],[54.421009,24.482457],[54.420949,24.482408],[54.421018,24.482414],[54.421032,24.482293],[54.420967,24.48224],[54.420657,24.482212],[54.420646,24.48231],[54.420588,24.482262],[54.420276,24.482219],[54.420292,24.482117],[54.420221,24.482064],[54.420236,24.481942],[54.420171,24.481889],[54.419851,24.481856],[54.419834,24.481991],[54.419903,24.482044],[54.419899,24.482072],[54.419835,24.482019],[54.419674,24.482022],[54.419674,24.482032],[54.419618,24.481986],[54.419294,24.481947],[54.419275,24.482078],[54.419329,24.482123],[54.419269,24.482115],[54.419207,24.482064],[54.418884,24.48203],[54.418837,24.481991],[54.418801,24.481985],[54.418785,24.482055],[54.418938,24.482161],[54.419244,24.482194],[54.419228,24.482308],[54.419292,24.482361],[54.419369,24.48237],[54.419368,24.482408],[54.419212,24.482394],[54.41921,24.482411],[54.419163,24.482372],[54.418842,24.482331],[54.418837,24.482366],[54.418784,24.482322],[54.41846,24.482285],[54.418442,24.482417]],[[54.41881,24.482521],[54.418787,24.482502],[54.418812,24.482505],[54.41881,24.482521]],[[54.418831,24.482498],[54.418834,24.482475],[54.418868,24.482503],[54.418831,24.482498]],[[54.419249,24.482626],[54.419196,24.482619],[54.4192,24.48259],[54.419154,24.482552],[54.419194,24.482557],[54.419192,24.482579],[54.419249,24.482626]],[[54.419637,24.482182],[54.419597,24.482161],[54.419651,24.482168],[54.419662,24.482202],[54.419637,24.482182]],[[54.419672,24.482114],[54.419675,24.482088],[54.419676,24.482114],[54.419672,24.482114]],[[54.419855,24.482232],[54.419864,24.482183],[54.419848,24.482169],[54.419901,24.482166],[54.419936,24.482195],[54.419879,24.482189],[54.419872,24.482246],[54.419855,24.482232]],[[54.420242,24.482244],[54.420266,24.482247],[54.420263,24.482261],[54.420242,24.482244]],[[54.420299,24.482313],[54.420275,24.48231],[54.420277,24.482295],[54.420299,24.482313]],[[54.420633,24.482375],[54.420631,24.482388],[54.420612,24.482373],[54.420633,24.482375]],[[54.420648,24.482336],[54.420691,24.482372],[54.420644,24.482366],[54.420648,24.482336]]]}},{"type":"Feature","properties":{},"geometry":{"type":"Polygon","coordinates":[[[54.417303,24.487822],[54.417389,24.487821],[54.417388,24.487776],[54.417324,24.487723],[54.417238,24.487724],[54.417239,24.487769],[54.417303,24.487822]]]}},{"type":"Feature","properties":{},"geometry":{"type":"Polygon","coordinates":[[[54.415887,24.487747],[54.415855,24.487746],[54.415853,24.48779],[54.415917,24.487843],[54.415949,24.487844],[54.415951,24.4878],[54.415887,24.487747]]]}},{"type":"Feature","properties":{},"geometry":{"type":"Polygon","coordinates":[[[54.416025,24.48796],[54.416008,24.487961],[54.41601,24.488017],[54.416074,24.488069],[54.41631,24.488063],[54.416308,24.488007],[54.416282,24.487986],[54.416326,24.487984],[54.416318,24.487854],[54.416254,24.487801],[54.416149,24.487806],[54.416103,24.487769],[54.415997,24.487765],[54.415996,24.487795],[54.416019,24.487813],[54.415997,24.487814],[54.416006,24.487944],[54.416025,24.48796]]]}},{"type":"Feature","properties":{},"geometry":{"type":"Polygon","coordinates":[[[54.416416,24.48802],[54.416335,24.488024],[54.416351,24.488306],[54.416415,24.488359],[54.416478,24.488356],[54.416543,24.488418],[54.41659,24.488416],[54.416564,24.488265],[54.416598,24.488285],[54.416596,24.488328],[54.41666,24.48838],[54.416694,24.488382],[54.416694,24.488407],[54.416758,24.48846],[54.416787,24.488461],[54.416789,24.488422],[54.416715,24.488369],[54.416718,24.488319],[54.416691,24.488296],[54.41677,24.488357],[54.416813,24.488357],[54.41681,24.488201],[54.416732,24.488148],[54.416729,24.488095],[54.416703,24.488074],[54.416731,24.488073],[54.416729,24.488024],[54.416665,24.487971],[54.416611,24.487972],[54.416612,24.487991],[54.416595,24.487977],[54.416443,24.487975],[54.416441,24.488042],[54.416416,24.48802]]]}},{"type":"Feature","properties":{},"geometry":{"type":"Polygon","coordinates":[[[54.416528,24.48842],[54.416385,24.488418],[54.416339,24.488388],[54.41634,24.48833],[54.416276,24.488277],[54.416236,24.488277],[54.416234,24.488387],[54.416187,24.488349],[54.416146,24.488352],[54.41615,24.488389],[54.416214,24.488442],[54.416233,24.48844],[54.416232,24.488489],[54.416296,24.488542],[54.416591,24.488546],[54.416592,24.488473],[54.416528,24.48842]]]}},{"type":"Feature","properties":{},"geometry":{"type":"Polygon","coordinates":[[[54.416652,24.488434],[54.416649,24.488477],[54.416713,24.48853],[54.416758,24.488532],[54.41676,24.488488],[54.416696,24.488436],[54.416652,24.488434]]]}},{"type":"Feature","properties":{},"geometry":{"type":"Polygon","coordinates":[[[54.416252,24.488881],[54.416223,24.488882],[54.416227,24.488989],[54.416291,24.489042],[54.416321,24.489041],[54.416316,24.488934],[54.416252,24.488881]]]}},{"type":"Feature","properties":{},"geometry":{"type":"Polygon","coordinates":[[[54.416058,24.48884],[54.415999,24.488841],[54.416006,24.489041],[54.41607,24.489094],[54.416129,24.489092],[54.416122,24.488892],[54.416058,24.48884]]]}},{"type":"Feature","properties":{},"geometry":{"type":"Polygon","coordinates":[[[54.415866,24.489196],[54.41594,24.489191],[54.415937,24.489148],[54.415873,24.489095],[54.415747,24.489104],[54.415743,24.488904],[54.415679,24.488851],[54.41562,24.488852],[54.415624,24.489052],[54.415688,24.489105],[54.415744,24.489104],[54.415719,24.489105],[54.415722,24.489146],[54.415783,24.489197],[54.415782,24.48925],[54.415846,24.489303],[54.415897,24.489304],[54.415899,24.489223],[54.415866,24.489196]]]}},{"type":"Feature","properties":{},"geometry":{"type":"Polygon","coordinates":[[[54.416267,24.489502],[54.415416,24.489523],[54.415421,24.489677],[54.415485,24.48973],[54.416356,24.489708],[54.416331,24.489555],[54.416267,24.489502]]]}},{"type":"Feature","properties":{},"geometry":{"type":"Polygon","coordinates":[[[54.41724,24.501685],[54.417163,24.501757],[54.41722,24.501818],[54.417181,24.501902],[54.417059,24.501949],[54.417318,24.502142],[54.417535,24.501938],[54.41724,24.501685]]]}},{"type":"Feature","properties":{},"geometry":{"type":"Polygon","coordinates":[[[54.416885,24.501987],[54.416929,24.501975],[54.416914,24.501928],[54.41685,24.501875],[54.416805,24.501887],[54.41682,24.501934],[54.416885,24.501987]]]}},{"type":"Feature","properties":{},"geometry":{"type":"Polygon","coordinates":[[[54.416747,24.502018],[54.416822,24.502017],[54.416821,24.501969],[54.416757,24.501916],[54.416682,24.501917],[54.416682,24.501937],[54.416668,24.501925],[54.416572,24.501928],[54.416574,24.501975],[54.416638,24.502027],[54.416734,24.502024],[54.416734,24.502007],[54.416747,24.502018]]]}},{"type":"Feature","properties":{},"geometry":{"type":"Polygon","coordinates":[[[54.417641,24.50244],[54.417684,24.502412],[54.41759,24.502323],[54.417548,24.502351],[54.417641,24.50244]]]}},{"type":"Feature","properties":{},"geometry":{"type":"Polygon","coordinates":[[[54.417885,24.502453],[54.417861,24.502478],[54.417972,24.502567],[54.417996,24.502542],[54.417885,24.502453]]]}},{"type":"Feature","properties":{},"geometry":{"type":"Polygon","coordinates":[[[54.415526,24.502419],[54.415501,24.502417],[54.415496,24.502476],[54.415561,24.502529],[54.415586,24.502531],[54.41559,24.502471],[54.415526,24.502419]]]}},{"type":"Feature","properties":{},"geometry":{"type":"Polygon","coordinates":[[[54.417504,24.502442],[54.417421,24.502442],[54.417421,24.502556],[54.417485,24.502609],[54.417564,24.502615],[54.417568,24.502495],[54.417504,24.502442]]]}},{"type":"Feature","properties":{},"geometry":{"type":"Polygon","coordinates":[[[54.417367,24.502838],[54.417364,24.502788],[54.417414,24.502828],[54.417472,24.502824],[54.417466,24.502763],[54.417402,24.50271],[54.417344,24.502715],[54.417347,24.502751],[54.417299,24.502712],[54.417071,24.50272],[54.417022,24.502706],[54.41706,24.502705],[54.41706,24.50268],[54.416995,24.502628],[54.416892,24.50263],[54.416893,24.502654],[54.416952,24.502703],[54.416942,24.502762],[54.417006,24.502815],[54.41709,24.502819],[54.417124,24.502847],[54.417367,24.502838]]]}},{"type":"Feature","properties":{},"geometry":{"type":"Polygon","coordinates":[[[54.415532,24.502656],[54.415468,24.502603],[54.41539,24.502607],[54.415395,24.502682],[54.415459,24.502734],[54.41553,24.502735],[54.415532,24.502656]]]}},{"type":"Feature","properties":{},"geometry":{"type":"Polygon","coordinates":[[[54.415565,24.502779],[54.415561,24.502807],[54.415625,24.50286],[54.415678,24.502865],[54.415682,24.502838],[54.415618,24.502785],[54.415565,24.502779]]]}},{"type":"Feature","properties":{},"geometry":{"type":"Polygon","coordinates":[[[54.415569,24.502946],[54.415561,24.502896],[54.415527,24.502868],[54.415523,24.502831],[54.415458,24.502778],[54.415396,24.502784],[54.415403,24.502838],[54.415442,24.502871],[54.415447,24.502901],[54.415511,24.502953],[54.415569,24.502946]]]}},{"type":"Feature","properties":{},"geometry":{"type":"Polygon","coordinates":[[[54.415815,24.502783],[54.415689,24.502779],[54.415685,24.502856],[54.41575,24.502909],[54.415875,24.502914],[54.415879,24.502836],[54.415815,24.502783]]]}},{"type":"Feature","properties":{},"geometry":{"type":"Polygon","coordinates":[[[54.417267,24.503056],[54.417265,24.503098],[54.417329,24.503151],[54.417436,24.503155],[54.417438,24.503113],[54.417374,24.50306],[54.417267,24.503056]]]}},{"type":"Feature","properties":{},"geometry":{"type":"Polygon","coordinates":[[[54.417621,24.503283],[54.417669,24.503282],[54.417668,24.503221],[54.417604,24.503168],[54.417563,24.503169],[54.417526,24.503139],[54.417465,24.503137],[54.417461,24.503227],[54.417525,24.50328],[54.417587,24.503282],[54.417588,24.503256],[54.417621,24.503283]]]}},{"type":"Feature","properties":{},"geometry":{"type":"Polygon","coordinates":[[[54.415728,24.503421],[54.415635,24.503418],[54.415632,24.503473],[54.415696,24.503526],[54.41579,24.503529],[54.415792,24.503474],[54.415728,24.503421]]]}},{"type":"Feature","properties":{},"geometry":{"type":"Polygon","coordinates":[[[54.415852,24.503558],[54.415809,24.503559],[54.415813,24.503642],[54.415877,24.503695],[54.41592,24.503693],[54.415916,24.50361],[54.415852,24.503558]]]}},{"type":"Feature","properties":{},"geometry":{"type":"Polygon","coordinates":[[[54.417698,24.50357],[54.417664,24.503569],[54.417657,24.503786],[54.417721,24.503839],[54.417754,24.50384],[54.417762,24.503623],[54.417698,24.50357]]]}},{"type":"Feature","properties":{},"geometry":{"type":"Polygon","coordinates":[[[54.415454,24.504069],[54.415488,24.504062],[54.415479,24.504025],[54.415415,24.503972],[54.415356,24.503984],[54.415365,24.504022],[54.415391,24.504043],[54.415383,24.504049],[54.415487,24.50415],[54.415512,24.504133],[54.415454,24.504069]]]}},{"type":"Feature","properties":{},"geometry":{"type":"Polygon","coordinates":[[[54.415633,24.504178],[54.41603,24.504511],[54.416208,24.504362],[54.415792,24.50402],[54.415714,24.504097],[54.41564,24.504033],[54.415568,24.504083],[54.415648,24.504163],[54.415633,24.504178]]]}},{"type":"Feature","properties":{},"geometry":{"type":"Polygon","coordinates":[[[54.415451,24.504656],[54.41578,24.504933],[54.415737,24.504966],[54.415858,24.505079],[54.415905,24.505043],[54.415874,24.50501],[54.415891,24.505024],[54.416069,24.504876],[54.415717,24.504586],[54.41585,24.504474],[54.415311,24.504031],[54.415152,24.504188],[54.415434,24.504427],[54.415396,24.504457],[54.415445,24.504508],[54.41551,24.504561],[54.415554,24.504525],[54.41557,24.504538],[54.415451,24.504656]]]}},{"type":"Feature","properties":{},"geometry":{"type":"Polygon","coordinates":[[[54.41555,24.505382],[54.415728,24.505234],[54.415232,24.504826],[54.415073,24.504983],[54.41555,24.505382]]]}},{"type":"Feature","properties":{},"geometry":{"type":"Polygon","coordinates":[[[54.419006,24.480184],[54.419044,24.480185],[54.419045,24.480124],[54.418981,24.480071],[54.418873,24.480042],[54.418867,24.480078],[54.419006,24.480184]]]}},{"type":"Feature","properties":{},"geometry":{"type":"Polygon","coordinates":[[[54.42066,24.480236],[54.420569,24.480232],[54.420562,24.480364],[54.420626,24.480417],[54.420965,24.480441],[54.420968,24.480395],[54.420903,24.480342],[54.420737,24.480335],[54.420722,24.480324],[54.420724,24.480289],[54.42066,24.480236]]]}},{"type":"Feature","properties":{},"geometry":{"type":"Polygon","coordinates":[[[54.419993,24.480828],[54.419929,24.480822],[54.419923,24.480877],[54.419987,24.48093],[54.420051,24.480936],[54.420057,24.480881],[54.419993,24.480828]]]}},{"type":"Feature","properties":{},"geometry":{"type":"Polygon","coordinates":[[[54.418614,24.481884],[54.418797,24.481877],[54.418794,24.481795],[54.418716,24.481722],[54.418944,24.481748],[54.418962,24.481613],[54.418898,24.481561],[54.418579,24.481524],[54.41856,24.481659],[54.418596,24.481689],[54.418544,24.481691],[54.41855,24.481831],[54.418614,24.481884]]]}},{"type":"Feature","properties":{},"geometry":{"type":"Polygon","coordinates":[[[54.419322,24.48163],[54.418982,24.481589],[54.41896,24.481742],[54.419024,24.481795],[54.419364,24.481836],[54.419387,24.481683],[54.419322,24.48163]]]}},{"type":"Feature","properties":{},"geometry":{"type":"Polygon","coordinates":[[[54.419748,24.48167],[54.419421,24.481631],[54.419401,24.481768],[54.419466,24.481821],[54.419793,24.48186],[54.419812,24.481723],[54.419748,24.48167]]]}},{"type":"Feature","properties":{},"geometry":{"type":"Polygon","coordinates":[[[54.42007,24.481706],[54.420064,24.481769],[54.420128,24.481822],[54.420264,24.481824],[54.420267,24.481773],[54.420202,24.48172],[54.42007,24.481706]]]}},{"type":"Feature","properties":{},"geometry":{"type":"Polygon","coordinates":[[[54.418868,24.481775],[54.418826,24.48177],[54.418813,24.48185],[54.418877,24.481903],[54.418919,24.481908],[54.418932,24.481828],[54.418868,24.481775]]]}},{"type":"Feature","properties":{},"geometry":{"type":"Polygon","coordinates":[[[54.420621,24.481788],[54.420283,24.481748],[54.42026,24.481911],[54.420324,24.481964],[54.420661,24.482004],[54.420685,24.481841],[54.420621,24.481788]]]}},{"type":"Feature","properties":{},"geometry":{"type":"Polygon","coordinates":[[[54.420741,24.482146],[54.421051,24.482188],[54.421071,24.482065],[54.42099,24.48201],[54.421096,24.482015],[54.421104,24.481883],[54.42104,24.48183],[54.420715,24.481813],[54.420707,24.481946],[54.420745,24.481977],[54.420697,24.48197],[54.420677,24.482093],[54.420741,24.482146]]]}},{"type":"Feature","properties":{},"geometry":{"type":"Polygon","coordinates":[[[54.420468,24.48202],[54.420378,24.481999],[54.420353,24.482089],[54.420417,24.482142],[54.420508,24.482162],[54.420533,24.482073],[54.420468,24.48202]]]}},{"type":"Feature","properties":{},"geometry":{"type":"Polygon","coordinates":[[[54.418817,24.482124],[54.418494,24.482084],[54.418475,24.482211],[54.418539,24.482264],[54.418862,24.482304],[54.418881,24.482177],[54.418817,24.482124]]]}},{"type":"Feature","properties":{},"geometry":{"type":"Polygon","coordinates":[[[54.420893,24.482773],[54.420959,24.48278],[54.420981,24.482635],[54.420916,24.482582],[54.420606,24.482548],[54.420601,24.482591],[54.420545,24.482545],[54.420223,24.482516],[54.420221,24.482536],[54.420176,24.482499],[54.41984,24.482465],[54.419816,24.482661],[54.419872,24.482707],[54.419802,24.482698],[54.419782,24.48283],[54.419823,24.482864],[54.4197,24.48285],[54.419682,24.482985],[54.419723,24.483019],[54.419673,24.483014],[54.41966,24.483134],[54.419724,24.483187],[54.420048,24.483216],[54.420061,24.483096],[54.420029,24.483069],[54.420067,24.483073],[54.420085,24.482939],[54.420047,24.482908],[54.420168,24.482922],[54.420187,24.482791],[54.420123,24.482738],[54.420194,24.482745],[54.42025,24.482791],[54.420565,24.482823],[54.420561,24.482854],[54.420625,24.482907],[54.420935,24.482943],[54.420952,24.482822],[54.420893,24.482773]],[[54.420548,24.482724],[54.420595,24.482728],[54.420598,24.482703],[54.420643,24.482741],[54.420578,24.482733],[54.420576,24.482748],[54.420548,24.482724]],[[54.420244,24.482675],[54.420225,24.482673],[54.420227,24.482661],[54.420244,24.482675]]]}},{"type":"Feature","properties":{},"geometry":{"type":"Polygon","coordinates":[[[54.419055,24.482687],[54.418957,24.482661],[54.418929,24.482747],[54.418993,24.4828],[54.41909,24.482826],[54.419119,24.48274],[54.419055,24.482687]]]}},{"type":"Feature","properties":{},"geometry":{"type":"Polygon","coordinates":[[[54.420388,24.482858],[54.4203,24.48283],[54.420265,24.48292],[54.420329,24.482973],[54.420418,24.483001],[54.420452,24.482911],[54.420388,24.482858]]]}},{"type":"Feature","properties":{},"geometry":{"type":"Polygon","coordinates":[[[54.420571,24.483304],[54.42089,24.48333],[54.420903,24.483202],[54.420872,24.483176],[54.420899,24.48318],[54.420917,24.48306],[54.420852,24.483007],[54.420544,24.48297],[54.420527,24.48309],[54.420572,24.483127],[54.42052,24.483123],[54.420507,24.483251],[54.420571,24.483304]]]}},{"type":"Feature","properties":{},"geometry":{"type":"Polygon","coordinates":[[[54.420432,24.483032],[54.420094,24.483],[54.420075,24.483162],[54.42014,24.483215],[54.420478,24.483246],[54.420496,24.483084],[54.420432,24.483032]]]}},{"type":"Feature","properties":{},"geometry":{"type":"Polygon","coordinates":[[[54.419694,24.489265],[54.419591,24.489266],[54.419591,24.489302],[54.41954,24.489259],[54.419482,24.489262],[54.419484,24.489303],[54.419549,24.489356],[54.419606,24.489353],[54.419605,24.489331],[54.419656,24.489373],[54.419759,24.489372],[54.419759,24.489318],[54.419694,24.489265]]]}},{"type":"Feature","properties":{},"geometry":{"type":"Polygon","coordinates":[[[54.419395,24.48936],[54.419497,24.489356],[54.419496,24.489317],[54.419432,24.489265],[54.41933,24.489268],[54.419331,24.489307],[54.419395,24.48936]]]}},{"type":"Feature","properties":{},"geometry":{"type":"Polygon","coordinates":[[[54.419077,24.489301],[54.418987,24.489305],[54.418994,24.489429],[54.419058,24.489482],[54.419147,24.489478],[54.419141,24.489354],[54.419077,24.489301]]]}},{"type":"Feature","properties":{},"geometry":{"type":"Polygon","coordinates":[[[54.419661,24.489381],[54.419557,24.489378],[54.419554,24.489481],[54.419618,24.489534],[54.419722,24.489536],[54.419726,24.489434],[54.419661,24.489381]]]}},{"type":"Feature","properties":{},"geometry":{"type":"Polygon","coordinates":[[[54.419183,24.489537],[54.419157,24.48954],[54.419166,24.489612],[54.41923,24.489665],[54.419257,24.489662],[54.419247,24.48959],[54.419183,24.489537]]]}},{"type":"Feature","properties":{},"geometry":{"type":"Polygon","coordinates":[[[54.419628,24.489874],[54.419749,24.489872],[54.419748,24.489826],[54.419684,24.489774],[54.419563,24.489776],[54.419564,24.489821],[54.419628,24.489874]]]}},{"type":"Feature","properties":{},"geometry":{"type":"Polygon","coordinates":[[[54.419643,24.490351],[54.419726,24.490346],[54.419724,24.490225],[54.419659,24.490172],[54.419611,24.490173],[54.419613,24.490259],[54.419571,24.490258],[54.419579,24.490298],[54.419643,24.490351]]]}},{"type":"Feature","properties":{},"geometry":{"type":"Polygon","coordinates":[[[54.419432,24.490181],[54.419381,24.490183],[54.419387,24.490305],[54.419451,24.490358],[54.419502,24.490356],[54.419496,24.490234],[54.419432,24.490181]]]}},{"type":"Feature","properties":{},"geometry":{"type":"Polygon","coordinates":[[[54.419304,24.490364],[54.419379,24.490361],[54.419378,24.490327],[54.419314,24.490275],[54.419239,24.490277],[54.41924,24.490311],[54.419304,24.490364]]]}},{"type":"Feature","properties":{},"geometry":{"type":"Polygon","coordinates":[[[54.418376,24.5023],[54.418174,24.502378],[54.418218,24.502471],[54.418282,24.502524],[54.418484,24.502446],[54.41844,24.502353],[54.418376,24.5023]]]}}]}