{"type":"FeatureCollection","features":[{"type":"Feature","properties":{},"geometry":{"type":"Polygon","coordinates":[[[54.390697,24.482594],[54.390718,24.482472],[54.39058,24.482459],[54.390465,24.482509],[54.390448,24.482632],[54.390582,24.482644],[54.390697,24.482594]]]}},{"type":"Feature","properties":{},"geometry":{"type":"Polygon","coordinates":[[[54.391075,24.482889],[54.391036,24.482951],[54.390941,24.482992],[54.390882,24.483075],[54.391123,24.483218],[54.391174,24.483195],[54.39116,24.48322],[54.391388,24.483332],[54.391503,24.483283],[54.39158,24.48316],[54.39149,24.483096],[54.391524,24.483039],[54.391552,24.483053],[54.391667,24.483003],[54.391742,24.482883],[54.391509,24.482769],[54.391449,24.482796],[54.391195,24.48268],[54.391117,24.482714],[54.391149,24.48266],[54.391062,24.48262],[54.391015,24.482641],[54.391035,24.482607],[54.390942,24.482565],[54.390827,24.482615],[54.390736,24.482775],[54.390518,24.482654],[54.390403,24.482704],[54.390346,24.482785],[54.390595,24.482923],[54.39071,24.482873],[54.390736,24.482835],[54.390796,24.482866],[54.390851,24.482842],[54.390831,24.482878],[54.390913,24.482917],[54.391028,24.482867],[54.391061,24.48281],[54.391141,24.482848],[54.391133,24.482864],[54.391075,24.482889]],[[54.391267,24.482996],[54.391299,24.482982],[54.391255,24.483058],[54.391099,24.482967],[54.391152,24.482944],[54.391267,24.482996]]]}},{"type":"Feature","properties":{},"geometry":{"type":"Polygon","coordinates":[[[54.390062,24.482824],[54.389997,24.482755],[54.389882,24.482805],[54.389792,24.482875],[54.389857,24.482944],[54.389972,24.482894],[54.390062,24.482824]]]}},{"type":"Feature","properties":{},"geometry":{"type":"Polygon","coordinates":[[[54.392146,24.483293],[54.392223,24.483259],[54.392167,24.483362],[54.39226,24.483404],[54.392375,24.483354],[54.392476,24.48318],[54.392379,24.483134],[54.392304,24.483167],[54.392319,24.48314],[54.392256,24.483119],[54.392281,24.483077],[54.392174,24.483027],[54.39213,24.483046],[54.392042,24.483006],[54.391927,24.483056],[54.391906,24.483093],[54.392002,24.483139],[54.392032,24.483127],[54.392147,24.483173],[54.392091,24.483268],[54.392146,24.483293]]]}},{"type":"Feature","properties":{},"geometry":{"type":"Polygon","coordinates":[[[54.391496,24.483507],[54.391612,24.483457],[54.391627,24.483427],[54.391532,24.483387],[54.391417,24.483437],[54.391401,24.483467],[54.391496,24.483507]]]}},{"type":"Feature","properties":{},"geometry":{"type":"Polygon","coordinates":[[[54.391224,24.483706],[54.3913,24.483619],[54.391288,24.483609],[54.391324,24.483594],[54.391408,24.483498],[54.391224,24.483358],[54.391109,24.483408],[54.390899,24.483614],[54.391105,24.483761],[54.391152,24.48374],[54.391071,24.48381],[54.391209,24.483946],[54.391324,24.483896],[54.391411,24.48382],[54.391274,24.483685],[54.391224,24.483706]]]}},{"type":"Feature","properties":{},"geometry":{"type":"Polygon","coordinates":[[[54.390771,24.484369],[54.390656,24.484419],[54.390564,24.484497],[54.390684,24.484613],[54.390799,24.484563],[54.39089,24.484485],[54.390771,24.484369]]]}},{"type":"Feature","properties":{},"geometry":{"type":"Polygon","coordinates":[[[54.392319,24.489051],[54.392512,24.489146],[54.392695,24.489315],[54.392742,24.489381],[54.393111,24.489233],[54.393121,24.489296],[54.392743,24.48946],[54.392749,24.489512],[54.392606,24.489575],[54.392647,24.489922],[54.3928,24.489907],[54.392805,24.489947],[54.392755,24.490149],[54.392712,24.49024],[54.392644,24.490318],[54.392336,24.490477],[54.392143,24.490511],[54.391935,24.490511],[54.391736,24.490465],[54.391591,24.490527],[54.391577,24.490564],[54.391591,24.490639],[54.391556,24.490662],[54.391507,24.490772],[54.39158,24.490842],[54.391798,24.490884],[54.392159,24.490996],[54.392304,24.490932],[54.392359,24.490932],[54.392425,24.49106],[54.39284,24.491005],[54.393157,24.491192],[54.393301,24.49113],[54.393324,24.491099],[54.393377,24.491158],[54.39347,24.491211],[54.393576,24.491237],[54.393674,24.491231],[54.393364,24.491608],[54.393417,24.491753],[54.393551,24.491845],[54.39351,24.491893],[54.393682,24.492017],[54.393434,24.492124],[54.393256,24.492329],[54.393279,24.492346],[54.39283,24.492541],[54.392808,24.492401],[54.392226,24.492479],[54.392111,24.492529],[54.392173,24.492914],[54.392335,24.492893],[54.392568,24.49306],[54.392623,24.493036],[54.392705,24.493096],[54.394752,24.492202],[54.394827,24.492108],[54.394752,24.492059],[54.394758,24.492051],[54.395132,24.491889],[54.395234,24.491772],[54.395139,24.491703],[54.395182,24.491654],[54.395083,24.491583],[54.395386,24.491452],[54.395487,24.491335],[54.395392,24.491267],[54.395435,24.491218],[54.395286,24.49111],[54.395424,24.49105],[54.395626,24.490818],[54.395387,24.490647],[54.394651,24.490966],[54.395053,24.490483],[54.394882,24.49037],[54.394497,24.490409],[54.394275,24.490501],[54.394046,24.49078],[54.394011,24.490704],[54.393938,24.490627],[54.393842,24.490574],[54.393734,24.490551],[54.39384,24.490494],[54.393907,24.490409],[54.394669,24.490078],[54.394656,24.489963],[54.394745,24.489924],[54.394704,24.489573],[54.394603,24.489582],[54.394592,24.489484],[54.39441,24.489501],[54.393638,24.489836],[54.393513,24.489847],[54.393452,24.489811],[54.394585,24.489319],[54.394575,24.489235],[54.394664,24.489197],[54.394622,24.488843],[54.39452,24.488853],[54.394508,24.488755],[54.394327,24.488773],[54.393773,24.489013],[54.393758,24.48892],[54.394968,24.488395],[54.395185,24.488219],[54.395111,24.488144],[54.395209,24.488065],[54.395036,24.487889],[54.394865,24.487643],[54.394986,24.48759],[54.39537,24.487249],[54.395338,24.487219],[54.395256,24.487186],[54.395144,24.487174],[54.395019,24.487192],[54.394635,24.487358],[54.39462,24.487343],[54.394439,24.487414],[54.394363,24.487476],[54.393608,24.487804],[54.393558,24.487848],[54.393601,24.487887],[54.393558,24.487925],[54.392872,24.487985],[54.392728,24.488047],[54.392765,24.488403],[54.392587,24.488624],[54.392483,24.488575],[54.392314,24.488534],[54.39217,24.488596],[54.392164,24.488627],[54.392071,24.488668],[54.391981,24.489003],[54.392159,24.489011],[54.392319,24.489051]],[[54.393017,24.488786],[54.39301,24.488722],[54.393024,24.488658],[54.393083,24.488576],[54.393563,24.488534],[54.393664,24.488491],[54.393258,24.48882],[54.393356,24.488921],[54.393172,24.488945],[54.393098,24.488906],[54.393043,24.488846],[54.393017,24.488786]],[[54.394283,24.488215],[54.393707,24.488465],[54.393675,24.488159],[54.394082,24.487989],[54.394283,24.488215]]]}},{"type":"Feature","properties":{},"geometry":{"type":"Polygon","coordinates":[[[54.392094,24.49154],[54.392387,24.49151],[54.392502,24.49146],[54.392492,24.49138],[54.39278,24.49135],[54.392896,24.4913],[54.392869,24.491091],[54.392169,24.491164],[54.392053,24.491214],[54.392094,24.49154]]]}},{"type":"Feature","properties":{},"geometry":{"type":"Polygon","coordinates":[[[54.392963,24.492093],[54.39299,24.491892],[54.392934,24.491532],[54.39246,24.491593],[54.392345,24.491643],[54.392431,24.492196],[54.392848,24.492142],[54.392963,24.492093]]]}},{"type":"Feature","properties":{},"geometry":{"type":"Polygon","coordinates":[[[54.390693,24.492868],[54.390587,24.492771],[54.390472,24.492821],[54.390284,24.492992],[54.39039,24.493088],[54.390505,24.493039],[54.390693,24.492868]]]}},{"type":"Feature","properties":{},"geometry":{"type":"Polygon","coordinates":[[[54.390121,24.493761],[54.389311,24.493854],[54.389196,24.493904],[54.389245,24.494258],[54.390055,24.494165],[54.39017,24.494115],[54.390121,24.493761]]]}},{"type":"Feature","properties":{},"geometry":{"type":"Polygon","coordinates":[[[54.392626,24.49613],[54.392736,24.496083],[54.393541,24.496003],[54.393612,24.495972],[54.393624,24.496058],[54.393748,24.496044],[54.393864,24.495994],[54.394022,24.495853],[54.39417,24.495836],[54.394285,24.495786],[54.3942,24.495176],[54.393632,24.495242],[54.393517,24.495292],[54.393521,24.495323],[54.392676,24.495443],[54.39256,24.495493],[54.392626,24.49613]]]}},{"type":"Feature","properties":{},"geometry":{"type":"Polygon","coordinates":[[[54.390394,24.496394],[54.390452,24.496369],[54.390452,24.496382],[54.390527,24.496378],[54.390643,24.496328],[54.39063,24.496099],[54.390618,24.4961],[54.390576,24.495677],[54.390109,24.495729],[54.389994,24.495779],[54.389998,24.495887],[54.390125,24.495879],[54.390144,24.496034],[54.390032,24.496082],[54.390041,24.496157],[54.390058,24.496155],[54.39009,24.496413],[54.390394,24.496394]],[[54.390379,24.496261],[54.390444,24.496233],[54.390446,24.496272],[54.390389,24.496273],[54.390379,24.496261]]]}},{"type":"Feature","properties":{},"geometry":{"type":"Polygon","coordinates":[[[54.391306,24.497052],[54.391186,24.49705],[54.39107,24.4971],[54.391069,24.497194],[54.391188,24.497196],[54.391304,24.497146],[54.391309,24.497069],[54.391381,24.497071],[54.391427,24.497051],[54.391428,24.497067],[54.391548,24.497062],[54.391663,24.497013],[54.391661,24.496974],[54.391541,24.496979],[54.391496,24.496998],[54.391497,24.496987],[54.391422,24.496985],[54.391307,24.497035],[54.391306,24.497052]]]}},{"type":"Feature","properties":{},"geometry":{"type":"Polygon","coordinates":[[[54.391662,24.49708],[54.391607,24.49709],[54.391492,24.49714],[54.3915,24.497177],[54.39167,24.497118],[54.391662,24.49708]]]}},{"type":"Feature","properties":{},"geometry":{"type":"Polygon","coordinates":[[[54.391345,24.497181],[54.391232,24.497178],[54.391117,24.497228],[54.391115,24.497291],[54.391227,24.497294],[54.391343,24.497244],[54.391345,24.497181]]]}},{"type":"Feature","properties":{},"geometry":{"type":"Polygon","coordinates":[[[54.39076,24.498659],[54.391913,24.49816],[54.391881,24.497941],[54.391505,24.497815],[54.390801,24.498121],[54.389896,24.498215],[54.389781,24.498265],[54.389825,24.498618],[54.390245,24.498575],[54.390252,24.498622],[54.390344,24.498678],[54.39076,24.498659]]]}},{"type":"Feature","properties":{},"geometry":{"type":"Polygon","coordinates":[[[54.391889,24.500727],[54.391623,24.500751],[54.391508,24.500801],[54.391545,24.501049],[54.391806,24.501019],[54.391921,24.500969],[54.391889,24.500727]]]}},{"type":"Feature","properties":{},"geometry":{"type":"Polygon","coordinates":[[[54.390118,24.502596],[54.390194,24.503191],[54.390946,24.503127],[54.391157,24.503036],[54.391107,24.502585],[54.391207,24.502572],[54.391418,24.50248],[54.39098,24.498843],[54.389877,24.498968],[54.389666,24.499059],[54.390092,24.502395],[54.389868,24.502417],[54.389695,24.502492],[54.389714,24.502641],[54.390118,24.502596]]]}},{"type":"Feature","properties":{},"geometry":{"type":"Polygon","coordinates":[[[54.392183,24.503621],[54.392091,24.503633],[54.391976,24.503683],[54.391984,24.503732],[54.392076,24.50372],[54.392191,24.50367],[54.392183,24.503621]]]}},{"type":"Feature","properties":{},"geometry":{"type":"Polygon","coordinates":[[[54.392554,24.503762],[54.392463,24.503763],[54.392347,24.503813],[54.392348,24.503862],[54.392439,24.503861],[54.392554,24.503811],[54.392554,24.503762]]]}},{"type":"Feature","properties":{},"geometry":{"type":"Polygon","coordinates":[[[54.392274,24.503831],[54.392268,24.503729],[54.392105,24.503737],[54.391989,24.503787],[54.391996,24.503889],[54.392159,24.503881],[54.392274,24.503831]]]}},{"type":"Feature","properties":{},"geometry":{"type":"Polygon","coordinates":[[[54.392104,24.503938],[54.392054,24.50394],[54.391938,24.50399],[54.39195,24.504182],[54.392,24.50418],[54.392069,24.50415],[54.392078,24.504232],[54.391974,24.504277],[54.391982,24.504445],[54.392032,24.504443],[54.392099,24.504414],[54.392106,24.504482],[54.392214,24.504471],[54.392281,24.504442],[54.392282,24.504457],[54.392389,24.504451],[54.392504,24.504401],[54.392499,24.504325],[54.392592,24.504285],[54.39258,24.504249],[54.392495,24.504275],[54.392488,24.504165],[54.392381,24.504171],[54.392305,24.504204],[54.392301,24.504172],[54.392475,24.504152],[54.39259,24.504102],[54.392558,24.503881],[54.392347,24.503906],[54.392274,24.503938],[54.392272,24.503917],[54.392164,24.503927],[54.392105,24.503952],[54.392104,24.503938]]]}},{"type":"Feature","properties":{},"geometry":{"type":"Polygon","coordinates":[[[54.39262,24.504452],[54.392177,24.504496],[54.392062,24.504546],[54.392095,24.504821],[54.392538,24.504777],[54.392653,24.504727],[54.39262,24.504452]]]}},{"type":"Feature","properties":{},"geometry":{"type":"Polygon","coordinates":[[[54.392228,24.504858],[54.392173,24.504863],[54.392058,24.504913],[54.392066,24.504993],[54.39212,24.504988],[54.392236,24.504938],[54.392228,24.504858]]]}},{"type":"Feature","properties":{},"geometry":{"type":"Polygon","coordinates":[[[54.392319,24.505241],[54.392407,24.505203],[54.392443,24.505698],[54.392657,24.505686],[54.392773,24.505636],[54.392737,24.505136],[54.392522,24.505149],[54.392434,24.505187],[54.392432,24.505117],[54.392477,24.505113],[54.392592,24.505063],[54.392563,24.504815],[54.392452,24.504825],[54.392337,24.504875],[54.392362,24.505083],[54.392319,24.505083],[54.392266,24.505106],[54.392208,24.505104],[54.392093,24.505154],[54.392096,24.505263],[54.392154,24.505262],[54.392206,24.505239],[54.392319,24.505241]]]}},{"type":"Feature","properties":{},"geometry":{"type":"Polygon","coordinates":[[[54.389993,24.505205],[54.389795,24.505218],[54.389679,24.505268],[54.389726,24.505861],[54.389941,24.505847],[54.390056,24.505797],[54.390029,24.505456],[54.390013,24.505457],[54.389993,24.505205]]]}},{"type":"Feature","properties":{},"geometry":{"type":"Polygon","coordinates":[[[54.391859,24.506801],[54.39177,24.50681],[54.391655,24.50686],[54.391661,24.506906],[54.39175,24.506896],[54.391865,24.506847],[54.391859,24.506801]]]}},{"type":"Feature","properties":{},"geometry":{"type":"Polygon","coordinates":[[[54.391877,24.506974],[54.391886,24.507009],[54.391952,24.506995],[54.392067,24.506945],[54.392057,24.506905],[54.392098,24.506888],[54.392088,24.506846],[54.39188,24.506896],[54.391764,24.506946],[54.391772,24.507007],[54.391877,24.506974]]]}},{"type":"Feature","properties":{},"geometry":{"type":"Polygon","coordinates":[[[54.392715,24.506783],[54.39253,24.506794],[54.392415,24.506844],[54.392441,24.507187],[54.392626,24.507175],[54.392741,24.507125],[54.392715,24.506783]]]}},{"type":"Feature","properties":{},"geometry":{"type":"Polygon","coordinates":[[[54.39194,24.507053],[54.391814,24.507055],[54.391699,24.507105],[54.391701,24.507194],[54.391827,24.507192],[54.391942,24.507142],[54.39194,24.507053]]]}},{"type":"Feature","properties":{},"geometry":{"type":"Polygon","coordinates":[[[54.392985,24.507152],[54.392904,24.50716],[54.392789,24.50721],[54.392796,24.507264],[54.392877,24.507255],[54.392992,24.507205],[54.392985,24.507152]]]}},{"type":"Feature","properties":{},"geometry":{"type":"Polygon","coordinates":[[[54.391934,24.507327],[54.391531,24.507352],[54.391416,24.507402],[54.391426,24.50754],[54.391829,24.507516],[54.391944,24.507466],[54.391934,24.507327]]]}},{"type":"Feature","properties":{},"geometry":{"type":"Polygon","coordinates":[[[54.39118,24.507431],[54.391047,24.507429],[54.390932,24.507479],[54.390931,24.50756],[54.391064,24.507561],[54.391179,24.507511],[54.39118,24.507431]]]}},{"type":"Feature","properties":{},"geometry":{"type":"Polygon","coordinates":[[[54.393101,24.508784],[54.393216,24.508734],[54.393217,24.5087],[54.39297,24.508709],[54.392854,24.508759],[54.392855,24.508789],[54.393101,24.508784]]]}},{"type":"Feature","properties":{},"geometry":{"type":"Polygon","coordinates":[[[54.393091,24.509737],[54.393046,24.509711],[54.393084,24.509694],[54.393172,24.509837],[54.393625,24.509616],[54.393613,24.509596],[54.393795,24.509504],[54.39378,24.50948],[54.393889,24.50943],[54.393853,24.509371],[54.393743,24.509418],[54.393594,24.509176],[54.393658,24.509149],[54.393655,24.509094],[54.393604,24.509096],[54.393489,24.509146],[54.39349,24.509157],[54.393253,24.509274],[54.393263,24.509289],[54.393202,24.509322],[54.393277,24.50943],[54.393172,24.509483],[54.393205,24.509529],[54.39298,24.509637],[54.393016,24.509698],[54.392905,24.509746],[54.392877,24.509788],[54.392948,24.509828],[54.393063,24.509778],[54.393091,24.509737]],[[54.39339,24.509497],[54.393336,24.509525],[54.393324,24.509505],[54.393377,24.509475],[54.39339,24.509497]]]}},{"type":"Feature","properties":{},"geometry":{"type":"Polygon","coordinates":[[[54.404445,24.481313],[54.404282,24.481036],[54.403557,24.48136],[54.403801,24.481633],[54.404445,24.481313]]]}},{"type":"Feature","properties":{},"geometry":{"type":"Polygon","coordinates":[[[54.403079,24.482706],[54.402754,24.48227],[54.402445,24.482395],[54.402362,24.482355],[54.402377,24.482242],[54.402291,24.482238],[54.402099,24.482322],[54.401229,24.483237],[54.40123,24.483354],[54.401271,24.483417],[54.401446,24.483458],[54.401644,24.483373],[54.401959,24.483288],[54.402378,24.483299],[54.402903,24.483479],[54.403095,24.483396],[54.403021,24.483179],[54.403255,24.483046],[54.403079,24.482706]]]}},{"type":"Feature","properties":{},"geometry":{"type":"Polygon","coordinates":[[[54.403836,24.48585],[54.403951,24.4858],[54.404147,24.485609],[54.404367,24.485274],[54.404472,24.48503],[54.404542,24.48481],[54.40454,24.484515],[54.403751,24.484451],[54.403636,24.484501],[54.403504,24.484948],[54.403411,24.485124],[54.403224,24.485315],[54.403836,24.48585]]]}},{"type":"Feature","properties":{},"geometry":{"type":"Polygon","coordinates":[[[54.400205,24.486666],[54.400054,24.486842],[54.400521,24.487172],[54.400639,24.487208],[54.400866,24.487117],[54.401207,24.486363],[54.400743,24.486123],[54.400628,24.486173],[54.400516,24.486352],[54.400205,24.486666]]]}},{"type":"Feature","properties":{},"geometry":{"type":"Polygon","coordinates":[[[54.404417,24.486697],[54.404408,24.486649],[54.40406,24.486285],[54.404023,24.48626],[54.403971,24.486254],[54.402946,24.486732],[54.403156,24.487285],[54.40319,24.487318],[54.403242,24.487332],[54.403479,24.487248],[54.403767,24.487123],[54.404122,24.486933],[54.40439,24.486736],[54.404417,24.486697]],[[54.403554,24.486721],[54.403675,24.486665],[54.403784,24.4868],[54.403617,24.486896],[54.403554,24.486721]]]}},{"type":"Feature","properties":{},"geometry":{"type":"Polygon","coordinates":[[[54.401144,24.487765],[54.400111,24.487303],[54.399543,24.486934],[54.398968,24.486502],[54.398853,24.486552],[54.397619,24.487901],[54.398759,24.488756],[54.40008,24.489449],[54.400851,24.489763],[54.401642,24.489933],[54.402485,24.489993],[54.4026,24.489943],[54.40288,24.489596],[54.402625,24.488136],[54.402288,24.488086],[54.401773,24.487981],[54.401144,24.487765]]]}},{"type":"Feature","properties":{},"geometry":{"type":"Polygon","coordinates":[[[54.400287,24.490743],[54.400402,24.490694],[54.400362,24.490428],[54.400058,24.490467],[54.399942,24.490517],[54.399983,24.490782],[54.400287,24.490743]]]}},{"type":"Feature","properties":{},"geometry":{"type":"Polygon","coordinates":[[[54.398624,24.49184],[54.398498,24.491854],[54.398383,24.491904],[54.398426,24.492226],[54.398552,24.492208],[54.398667,24.492158],[54.398624,24.49184]]]}},{"type":"Feature","properties":{},"geometry":{"type":"Polygon","coordinates":[[[54.398637,24.492275],[54.398666,24.49251],[54.39898,24.49247],[54.399095,24.49242],[54.399082,24.49232],[54.398848,24.492349],[54.398825,24.492216],[54.398753,24.492225],[54.398637,24.492275]]]}},{"type":"Feature","properties":{},"geometry":{"type":"Polygon","coordinates":[[[54.398602,24.492224],[54.398525,24.492233],[54.39841,24.492283],[54.398455,24.492612],[54.398531,24.492603],[54.398647,24.492553],[54.398602,24.492224]]]}},{"type":"Feature","properties":{},"geometry":{"type":"Polygon","coordinates":[[[54.396062,24.492332],[54.395653,24.492258],[54.395538,24.492308],[54.395472,24.492607],[54.395881,24.492681],[54.395997,24.492631],[54.396062,24.492332]]]}},{"type":"Feature","properties":{},"geometry":{"type":"Polygon","coordinates":[[[54.400704,24.493321],[54.400649,24.492935],[54.399918,24.49302],[54.399803,24.49307],[54.399857,24.493456],[54.400588,24.493371],[54.400704,24.493321]]]}},{"type":"Feature","properties":{},"geometry":{"type":"Polygon","coordinates":[[[54.40158,24.494962],[54.401667,24.494953],[54.402525,24.494581],[54.402419,24.494747],[54.402526,24.494804],[54.402558,24.49479],[54.402608,24.494816],[54.402569,24.494878],[54.402652,24.494921],[54.403742,24.494448],[54.40393,24.494548],[54.404045,24.494498],[54.404185,24.494278],[54.404124,24.494246],[54.404554,24.493571],[54.404527,24.493557],[54.404581,24.493471],[54.404418,24.493385],[54.404302,24.493437],[54.404047,24.493458],[54.403932,24.493508],[54.40391,24.493545],[54.403873,24.493527],[54.403708,24.493544],[54.403703,24.493509],[54.403359,24.493544],[54.403244,24.493594],[54.403249,24.493637],[54.403158,24.493677],[54.403172,24.49379],[54.401319,24.494594],[54.40137,24.495013],[54.401489,24.495001],[54.40158,24.494962]]]}},{"type":"Feature","properties":{},"geometry":{"type":"Polygon","coordinates":[[[54.393195,24.49454],[54.393229,24.49478],[54.393498,24.494748],[54.393613,24.494698],[54.393582,24.494482],[54.393522,24.49449],[54.393515,24.494441],[54.393367,24.494459],[54.393195,24.49454]]]}},{"type":"Feature","properties":{},"geometry":{"type":"Polygon","coordinates":[[[54.402993,24.497692],[54.403257,24.497782],[54.402992,24.497897],[54.403191,24.498289],[54.404043,24.497923],[54.40411,24.498068],[54.404083,24.498057],[54.403208,24.498413],[54.403016,24.498458],[54.402801,24.498551],[54.402649,24.498656],[54.402542,24.498837],[54.402525,24.498966],[54.402545,24.499078],[54.400475,24.499975],[54.400362,24.50004],[54.400255,24.500148],[54.400216,24.500214],[54.400271,24.500249],[54.400296,24.500284],[54.40031,24.500328],[54.400302,24.500387],[54.400467,24.500412],[54.400613,24.500395],[54.400729,24.500353],[54.403283,24.499245],[54.403411,24.499157],[54.403515,24.499023],[54.403464,24.498982],[54.403434,24.49893],[54.403429,24.498854],[54.403547,24.498701],[54.403653,24.49863],[54.403635,24.498589],[54.403927,24.498463],[54.404068,24.498379],[54.404149,24.498291],[54.404172,24.498239],[54.404153,24.498207],[54.404167,24.498192],[54.404081,24.49813],[54.40405,24.498137],[54.404122,24.498105],[54.404134,24.498077],[54.404358,24.49798],[54.404599,24.497783],[54.405002,24.4973],[54.405254,24.496948],[54.406844,24.496258],[54.406942,24.496204],[54.40703,24.49627],[54.407446,24.496305],[54.406024,24.496923],[54.405962,24.496854],[54.405847,24.496904],[54.405782,24.496954],[54.405829,24.497007],[54.405401,24.497193],[54.405354,24.49724],[54.405357,24.497317],[54.405425,24.497416],[54.405475,24.497462],[54.405634,24.497559],[54.405625,24.497598],[54.405885,24.497644],[54.406029,24.497643],[54.407135,24.497171],[54.407132,24.497229],[54.407471,24.497262],[54.40742,24.497284],[54.407334,24.497494],[54.407749,24.497725],[54.408709,24.497309],[54.40953,24.496918],[54.409454,24.496798],[54.410179,24.496484],[54.41033,24.496388],[54.410775,24.496187],[54.410614,24.495998],[54.410473,24.496059],[54.410337,24.495938],[54.409569,24.496271],[54.409278,24.496502],[54.409382,24.496622],[54.409301,24.496676],[54.409329,24.496713],[54.408686,24.496992],[54.40838,24.496868],[54.408196,24.496948],[54.408244,24.496834],[54.408051,24.496769],[54.408871,24.496413],[54.408918,24.496381],[54.408932,24.496347],[54.408922,24.496284],[54.408891,24.496233],[54.408809,24.496152],[54.408693,24.496072],[54.408481,24.495984],[54.408504,24.495925],[54.408263,24.495794],[54.408467,24.495494],[54.408781,24.49555],[54.409141,24.49553],[54.409484,24.495437],[54.409964,24.495229],[54.409867,24.495048],[54.409653,24.494565],[54.40954,24.494014],[54.409518,24.493451],[54.409564,24.493205],[54.409532,24.493029],[54.409064,24.493135],[54.408549,24.493307],[54.406015,24.494407],[54.405447,24.494722],[54.405097,24.494985],[54.404823,24.495307],[54.404867,24.495335],[54.404856,24.495349],[54.404869,24.495365],[54.405097,24.495511],[54.407392,24.494515],[54.407993,24.494881],[54.407993,24.494997],[54.408052,24.495166],[54.408203,24.495353],[54.408288,24.495399],[54.408087,24.495695],[54.406894,24.495031],[54.40675,24.495093],[54.406635,24.495411],[54.406562,24.495341],[54.406447,24.495391],[54.406371,24.495456],[54.406481,24.495562],[54.406599,24.49551],[54.406561,24.495641],[54.406485,24.495609],[54.406434,24.495631],[54.406414,24.495622],[54.406299,24.495672],[54.406263,24.495742],[54.406155,24.495788],[54.406109,24.495853],[54.406135,24.495869],[54.406251,24.495819],[54.406274,24.495786],[54.406431,24.495853],[54.40653,24.49581],[54.406482,24.496075],[54.406212,24.496181],[54.406204,24.496196],[54.405412,24.496539],[54.405411,24.496392],[54.404485,24.49605],[54.404245,24.496154],[54.404163,24.496379],[54.403386,24.496716],[54.403189,24.497212],[54.403258,24.497235],[54.403165,24.497276],[54.402993,24.497692]]]}},{"type":"Feature","properties":{},"geometry":{"type":"Polygon","coordinates":[[[54.394427,24.496871],[54.394195,24.497156],[54.394275,24.49744],[54.394526,24.497558],[54.394769,24.497442],[54.394885,24.497348],[54.394874,24.497274],[54.394918,24.497211],[54.394997,24.497172],[54.39503,24.497114],[54.394542,24.496821],[54.394427,24.496871]]]}},{"type":"Feature","properties":{},"geometry":{"type":"Polygon","coordinates":[[[54.393355,24.498117],[54.393313,24.498116],[54.393198,24.498166],[54.393195,24.498247],[54.393237,24.498248],[54.393352,24.498198],[54.393355,24.498117]]]}},{"type":"Feature","properties":{},"geometry":{"type":"Polygon","coordinates":[[[54.396129,24.498519],[54.396073,24.498517],[54.395957,24.498567],[54.395955,24.498633],[54.396011,24.498635],[54.396127,24.498585],[54.396129,24.498519]]]}},{"type":"Feature","properties":{},"geometry":{"type":"Polygon","coordinates":[[[54.393466,24.49866],[54.39335,24.49871],[54.393506,24.499715],[54.395255,24.499521],[54.39537,24.499471],[54.39526,24.498664],[54.395136,24.498542],[54.393466,24.49866]]]}},{"type":"Feature","properties":{},"geometry":{"type":"Polygon","coordinates":[[[54.402023,24.500091],[54.402059,24.500171],[54.402098,24.500212],[54.402192,24.500261],[54.403092,24.499875],[54.403286,24.500053],[54.403024,24.500167],[54.403016,24.500184],[54.40305,24.500226],[54.403013,24.500242],[54.403026,24.500565],[54.403054,24.500567],[54.403079,24.500592],[54.403053,24.500619],[54.403085,24.500665],[54.403128,24.500687],[54.403187,24.500693],[54.403244,24.500688],[54.403611,24.500529],[54.403612,24.500576],[54.403637,24.500634],[54.403697,24.500652],[54.404255,24.500416],[54.404348,24.500436],[54.404389,24.500418],[54.404517,24.500417],[54.404817,24.500287],[54.405035,24.500238],[54.405667,24.499947],[54.405928,24.49974],[54.406255,24.499347],[54.406373,24.499138],[54.406474,24.49889],[54.406529,24.498602],[54.406545,24.49833],[54.406522,24.498107],[54.406444,24.497802],[54.405643,24.497652],[54.40549,24.497718],[54.405637,24.497918],[54.405718,24.498087],[54.405769,24.498358],[54.405766,24.49878],[54.405728,24.498934],[54.405637,24.499101],[54.405559,24.499204],[54.405338,24.499408],[54.405213,24.499503],[54.405107,24.499561],[54.404903,24.49965],[54.404746,24.499696],[54.40449,24.499725],[54.404341,24.499789],[54.404325,24.499746],[54.404214,24.499702],[54.4041,24.4997],[54.403994,24.499746],[54.403919,24.499672],[54.404648,24.499355],[54.404872,24.499284],[54.405087,24.49919],[54.405252,24.499057],[54.405358,24.498901],[54.40544,24.498736],[54.405445,24.498549],[54.405429,24.498461],[54.405388,24.498458],[54.405412,24.498398],[54.405332,24.498066],[54.405283,24.498019],[54.405209,24.498001],[54.404112,24.49847],[54.404071,24.498522],[54.404082,24.498584],[54.404146,24.498735],[54.404154,24.498843],[54.404019,24.498902],[54.403912,24.498971],[54.403938,24.498997],[54.402988,24.499411],[54.402952,24.499453],[54.402941,24.499533],[54.402968,24.499589],[54.402408,24.499833],[54.402392,24.499864],[54.402171,24.500005],[54.402057,24.500054],[54.402023,24.500091]],[[54.404333,24.500025],[54.404329,24.500027],[54.404329,24.499803],[54.404333,24.500025]]]}},{"type":"Feature","properties":{},"geometry":{"type":"Polygon","coordinates":[[[54.395534,24.499827],[54.395419,24.499844],[54.395304,24.499894],[54.395332,24.500047],[54.395447,24.50003],[54.395562,24.49998],[54.395534,24.499827]]]}},{"type":"Feature","properties":{},"geometry":{"type":"Polygon","coordinates":[[[54.395273,24.500002],[54.395125,24.500058],[54.395149,24.500163],[54.395296,24.500107],[54.395273,24.500002]]]}},{"type":"Feature","properties":{},"geometry":{"type":"Polygon","coordinates":[[[54.394937,24.500444],[54.394916,24.50033],[54.394754,24.500386],[54.394774,24.500501],[54.394937,24.500444]]]}},{"type":"Feature","properties":{},"geometry":{"type":"Polygon","coordinates":[[[54.395488,24.500472],[54.394922,24.50055],[54.394807,24.5006],[54.394949,24.501449],[54.395515,24.50137],[54.39563,24.50132],[54.395488,24.500472]]]}},{"type":"Feature","properties":{},"geometry":{"type":"Polygon","coordinates":[[[54.395747,24.501897],[54.395661,24.501895],[54.395546,24.501945],[54.395543,24.502047],[54.395629,24.50205],[54.395744,24.502],[54.395747,24.501897]]]}},{"type":"Feature","properties":{},"geometry":{"type":"Polygon","coordinates":[[[54.395873,24.502153],[54.395441,24.502211],[54.395326,24.502261],[54.395377,24.502569],[54.395808,24.502511],[54.395924,24.502461],[54.395873,24.502153]]]}},{"type":"Feature","properties":{},"geometry":{"type":"Polygon","coordinates":[[[54.397473,24.504684],[54.397401,24.504687],[54.397286,24.504737],[54.397292,24.504838],[54.397364,24.504835],[54.397479,24.504785],[54.397473,24.504684]]]}},{"type":"Feature","properties":{},"geometry":{"type":"Polygon","coordinates":[[[54.393896,24.509728],[54.394052,24.509655],[54.394018,24.509606],[54.393862,24.509679],[54.393896,24.509728]]]}},{"type":"Feature","properties":{},"geometry":{"type":"Polygon","coordinates":[[[54.394058,24.50966],[54.393902,24.509733],[54.393963,24.509824],[54.394119,24.509751],[54.394058,24.50966]]]}},{"type":"Feature","properties":{},"geometry":{"type":"Polygon","coordinates":[[[54.394173,24.509852],[54.394128,24.509765],[54.393916,24.509857],[54.393961,24.509944],[54.394173,24.509852]]]}},{"type":"Feature","properties":{},"geometry":{"type":"Polygon","coordinates":[[[54.393911,24.50995],[54.393869,24.509955],[54.393753,24.510005],[54.393759,24.510041],[54.393916,24.509985],[54.393911,24.50995]]]}},{"type":"Feature","properties":{},"geometry":{"type":"Polygon","coordinates":[[[54.394195,24.509998],[54.394163,24.509938],[54.393733,24.510124],[54.393764,24.510184],[54.394195,24.509998]]]}},{"type":"Feature","properties":{},"geometry":{"type":"Polygon","coordinates":[[[54.406324,24.480095],[54.406255,24.479987],[54.40643,24.479895],[54.406373,24.479805],[54.406263,24.479853],[54.406249,24.479829],[54.406281,24.479812],[54.406176,24.479648],[54.405812,24.479829],[54.405868,24.479917],[54.405661,24.480026],[54.405698,24.480084],[54.405622,24.480125],[54.405684,24.480223],[54.405701,24.480216],[54.40579,24.480356],[54.406324,24.480095]]]}},{"type":"Feature","properties":{},"geometry":{"type":"Polygon","coordinates":[[[54.406836,24.48],[54.406771,24.479935],[54.406656,24.479985],[54.406564,24.480062],[54.406628,24.480126],[54.406743,24.480076],[54.406836,24.48]]]}},{"type":"Feature","properties":{},"geometry":{"type":"Polygon","coordinates":[[[54.406288,24.480299],[54.406256,24.480364],[54.406196,24.480426],[54.405989,24.480579],[54.40602,24.480619],[54.406057,24.480603],[54.406099,24.480646],[54.406151,24.480624],[54.406321,24.480791],[54.406437,24.480741],[54.406583,24.480618],[54.406422,24.48046],[54.406479,24.480403],[54.406455,24.480389],[54.406484,24.480376],[54.406523,24.480297],[54.406404,24.480249],[54.406288,24.480299]]]}},{"type":"Feature","properties":{},"geometry":{"type":"Polygon","coordinates":[[[54.405775,24.48046],[54.405748,24.480415],[54.405557,24.480502],[54.405584,24.480547],[54.405775,24.48046]]]}},{"type":"Feature","properties":{},"geometry":{"type":"Polygon","coordinates":[[[54.405257,24.480815],[54.405274,24.480834],[54.405389,24.480784],[54.405508,24.480697],[54.405367,24.480537],[54.405245,24.480592],[54.405173,24.48051],[54.405008,24.480596],[54.404982,24.480566],[54.404867,24.480616],[54.404636,24.480786],[54.404832,24.481008],[54.405002,24.480933],[54.405207,24.4808],[54.40523,24.480827],[54.405257,24.480815]]]}},{"type":"Feature","properties":{},"geometry":{"type":"Polygon","coordinates":[[[54.404697,24.481102],[54.404525,24.481175],[54.404543,24.48121],[54.404714,24.481136],[54.404697,24.481102]]]}},{"type":"Feature","properties":{},"geometry":{"type":"Polygon","coordinates":[[[54.404423,24.482635],[54.404472,24.482719],[54.4045,24.482708],[54.404553,24.482814],[54.405417,24.48244],[54.405651,24.482324],[54.405644,24.482299],[54.40588,24.482196],[54.40612,24.482046],[54.406089,24.482012],[54.406228,24.481951],[54.406456,24.481804],[54.406244,24.481517],[54.406178,24.481406],[54.405314,24.48178],[54.405137,24.481884],[54.405059,24.481952],[54.405076,24.481973],[54.404757,24.482126],[54.404716,24.482174],[54.404721,24.482186],[54.404534,24.482267],[54.404426,24.482372],[54.404397,24.482494],[54.404423,24.482635]]]}},{"type":"Feature","properties":{},"geometry":{"type":"Polygon","coordinates":[[[54.407647,24.482408],[54.407249,24.481963],[54.406289,24.482379],[54.406223,24.482488],[54.406081,24.482554],[54.406146,24.482641],[54.405992,24.482719],[54.406027,24.482777],[54.406191,24.482702],[54.406342,24.482846],[54.406456,24.483027],[54.406499,24.48301],[54.406593,24.483153],[54.406884,24.483008],[54.406804,24.482886],[54.407605,24.482539],[54.407647,24.482408]]]}},{"type":"Feature","properties":{},"geometry":{"type":"Polygon","coordinates":[[[54.405504,24.484923],[54.405619,24.484873],[54.405743,24.48448],[54.405192,24.484414],[54.405587,24.48442],[54.405703,24.48437],[54.405703,24.483852],[54.405455,24.483133],[54.405011,24.483315],[54.405198,24.483946],[54.404939,24.484017],[54.404824,24.484067],[54.404878,24.484409],[54.404977,24.48441],[54.404902,24.484443],[54.404824,24.484784],[54.405504,24.484923]]]}},{"type":"Feature","properties":{},"geometry":{"type":"Polygon","coordinates":[[[54.406818,24.485672],[54.406859,24.48561],[54.406754,24.485552],[54.406639,24.485601],[54.406598,24.485663],[54.406703,24.485721],[54.406818,24.485672]]]}},{"type":"Feature","properties":{},"geometry":{"type":"Polygon","coordinates":[[[54.405368,24.488089],[54.405983,24.487822],[54.406127,24.487642],[54.405832,24.487429],[54.405217,24.487695],[54.405071,24.487869],[54.405368,24.488089]]]}},{"type":"Feature","properties":{},"geometry":{"type":"Polygon","coordinates":[[[54.407598,24.488281],[54.407318,24.487873],[54.407203,24.487923],[54.406382,24.488387],[54.406661,24.488795],[54.406776,24.488745],[54.407598,24.488281]]]}},{"type":"Feature","properties":{},"geometry":{"type":"Polygon","coordinates":[[[54.406476,24.49296],[54.406379,24.492879],[54.406264,24.492929],[54.406134,24.493057],[54.406231,24.493138],[54.406346,24.493088],[54.406476,24.49296]]]}},{"type":"Feature","properties":{},"geometry":{"type":"Polygon","coordinates":[[[54.405253,24.492768],[54.405218,24.493053],[54.406078,24.493782],[54.4062,24.493728],[54.406527,24.493456],[54.405951,24.492978],[54.406315,24.492642],[54.406142,24.492521],[54.406355,24.492421],[54.406247,24.492254],[54.405253,24.492768]]]}},{"type":"Feature","properties":{},"geometry":{"type":"Polygon","coordinates":[[[54.406359,24.495369],[54.406484,24.495366],[54.4066,24.495316],[54.406598,24.495288],[54.406472,24.495298],[54.406374,24.49534],[54.406417,24.495276],[54.40635,24.49524],[54.406235,24.49529],[54.406189,24.495358],[54.406256,24.495394],[54.406357,24.495351],[54.406359,24.495369]]]}},{"type":"Feature","properties":{},"geometry":{"type":"Polygon","coordinates":[[[54.406395,24.495503],[54.406196,24.495595],[54.406249,24.495683],[54.406448,24.495591],[54.406395,24.495503]]]}},{"type":"Feature","properties":{},"geometry":{"type":"Polygon","coordinates":[[[54.406087,24.496085],[54.406125,24.496092],[54.406241,24.496042],[54.406239,24.496021],[54.406202,24.496007],[54.40619,24.495968],[54.406167,24.495971],[54.406051,24.496021],[54.406058,24.49606],[54.406087,24.496085]]]}},{"type":"Feature","properties":{},"geometry":{"type":"Polygon","coordinates":[[[54.406525,24.504539],[54.406432,24.504537],[54.406317,24.504587],[54.406313,24.504729],[54.406408,24.504731],[54.406523,24.504681],[54.406525,24.504539]]]}},{"type":"Feature","properties":{},"geometry":{"type":"Polygon","coordinates":[[[54.406184,24.50457],[54.406088,24.504593],[54.405973,24.504642],[54.406026,24.504809],[54.406117,24.504789],[54.406233,24.504739],[54.406184,24.50457]]]}},{"type":"Feature","properties":{},"geometry":{"type":"Polygon","coordinates":[[[54.406674,24.505453],[54.406621,24.505475],[54.406344,24.50524],[54.406229,24.50529],[54.405967,24.505545],[54.406134,24.505687],[54.405618,24.505911],[54.405391,24.506139],[54.405475,24.505923],[54.405179,24.505828],[54.405064,24.505878],[54.404948,24.506176],[54.405244,24.506271],[54.405359,24.506221],[54.405381,24.506165],[54.405645,24.50638],[54.406702,24.505922],[54.406793,24.505817],[54.406828,24.505695],[54.406787,24.505553],[54.406674,24.505453]]]}},{"type":"Feature","properties":{},"geometry":{"type":"Polygon","coordinates":[[[54.405586,24.505474],[54.405385,24.505424],[54.40527,24.505474],[54.405176,24.505789],[54.405377,24.505839],[54.405492,24.505789],[54.405586,24.505474]]]}},{"type":"Feature","properties":{},"geometry":{"type":"Polygon","coordinates":[[[54.405345,24.506365],[54.405066,24.506279],[54.404951,24.506329],[54.404858,24.506577],[54.405136,24.506663],[54.405252,24.506613],[54.405345,24.506365]]]}},{"type":"Feature","properties":{},"geometry":{"type":"Polygon","coordinates":[[[54.405237,24.506716],[54.404948,24.50662],[54.404833,24.506669],[54.40469,24.507069],[54.404947,24.507161],[54.405062,24.507112],[54.405237,24.506716]]]}},{"type":"Feature","properties":{},"geometry":{"type":"Polygon","coordinates":[[[54.404437,24.507235],[54.404322,24.507285],[54.404289,24.507313],[54.404382,24.507404],[54.404497,24.507354],[54.40453,24.507326],[54.404437,24.507235]]]}},{"type":"Feature","properties":{},"geometry":{"type":"Polygon","coordinates":[[[54.405859,24.507123],[54.40604,24.507261],[54.406786,24.506938],[54.40673,24.506989],[54.406762,24.507022],[54.406656,24.507114],[54.40669,24.507151],[54.406584,24.507236],[54.406927,24.507554],[54.407019,24.507514],[54.40712,24.507428],[54.407102,24.50741],[54.407138,24.507379],[54.407231,24.50734],[54.407333,24.507251],[54.406932,24.506874],[54.407336,24.506699],[54.407629,24.506391],[54.407472,24.506231],[54.407244,24.506239],[54.405947,24.506802],[54.405735,24.507022],[54.405593,24.506955],[54.405529,24.506966],[54.404377,24.507466],[54.403746,24.508566],[54.403841,24.508631],[54.404204,24.508568],[54.405356,24.508068],[54.405862,24.507159],[54.405859,24.507123]]]}},{"type":"Feature","properties":{},"geometry":{"type":"Polygon","coordinates":[[[54.405108,24.509424],[54.404318,24.509767],[54.404192,24.509935],[54.404341,24.510079],[54.404431,24.51004],[54.404505,24.51009],[54.405418,24.509695],[54.405598,24.509432],[54.405503,24.509382],[54.406121,24.509114],[54.406232,24.508999],[54.406127,24.508895],[54.406377,24.508786],[54.406489,24.508672],[54.406334,24.50852],[54.406645,24.508385],[54.406757,24.508271],[54.406367,24.507886],[54.405445,24.508286],[54.405327,24.508393],[54.405488,24.508552],[54.405176,24.508687],[54.405059,24.508794],[54.405171,24.508906],[54.40492,24.509014],[54.404802,24.509122],[54.405108,24.509424]]]}},{"type":"Feature","properties":{},"geometry":{"type":"Polygon","coordinates":[[[54.406299,24.509036],[54.406183,24.509086],[54.406142,24.509131],[54.406228,24.509195],[54.406344,24.509146],[54.406384,24.509101],[54.406299,24.509036]]]}},{"type":"Feature","properties":{},"geometry":{"type":"Polygon","coordinates":[[[54.406092,24.510438],[54.407014,24.510038],[54.407179,24.509921],[54.40717,24.509913],[54.407446,24.509794],[54.40758,24.509657],[54.407531,24.509611],[54.407784,24.509501],[54.4079,24.509383],[54.407711,24.509209],[54.407812,24.509166],[54.407864,24.509122],[54.407708,24.508969],[54.407593,24.509019],[54.407547,24.509058],[54.407538,24.50905],[54.407054,24.509247],[54.407032,24.509269],[54.406616,24.50945],[54.406494,24.509559],[54.406529,24.509591],[54.406278,24.5097],[54.406138,24.509835],[54.406161,24.509856],[54.405889,24.509974],[54.40573,24.510106],[54.406092,24.510438]]]}},{"type":"Feature","properties":{},"geometry":{"type":"Polygon","coordinates":[[[54.410443,24.479885],[54.410327,24.479935],[54.410258,24.480002],[54.410409,24.48013],[54.410524,24.48008],[54.410593,24.480014],[54.410443,24.479885]]]}},{"type":"Feature","properties":{},"geometry":{"type":"Polygon","coordinates":[[[54.409403,24.482883],[54.409307,24.482887],[54.409191,24.482937],[54.409196,24.483051],[54.409293,24.483048],[54.409408,24.482998],[54.409403,24.482883]]]}},{"type":"Feature","properties":{},"geometry":{"type":"Polygon","coordinates":[[[54.408602,24.485076],[54.408541,24.485008],[54.408829,24.484883],[54.409038,24.484742],[54.408793,24.48444],[54.408179,24.484707],[54.407969,24.484848],[54.408022,24.484913],[54.40772,24.485044],[54.407515,24.485198],[54.407515,24.485229],[54.407527,24.485262],[54.407746,24.485373],[54.407812,24.485345],[54.407875,24.485426],[54.408489,24.48516],[54.408602,24.485076]]]}},{"type":"Feature","properties":{},"geometry":{"type":"Polygon","coordinates":[[[54.407042,24.485614],[54.407336,24.485327],[54.407262,24.485263],[54.407146,24.485313],[54.406852,24.4856],[54.406927,24.485664],[54.407042,24.485614]]]}},{"type":"Feature","properties":{},"geometry":{"type":"Polygon","coordinates":[[[54.409042,24.485617],[54.409001,24.485574],[54.408886,24.485624],[54.408807,24.485685],[54.408848,24.485728],[54.408963,24.485678],[54.409042,24.485617]]]}},{"type":"Feature","properties":{},"geometry":{"type":"Polygon","coordinates":[[[54.410255,24.486777],[54.410863,24.4865],[54.410363,24.485619],[54.410402,24.485593],[54.410413,24.48552],[54.410404,24.485468],[54.410388,24.485446],[54.410274,24.48546],[54.410404,24.485395],[54.41043,24.485332],[54.410978,24.485104],[54.410804,24.484786],[54.410554,24.484894],[54.409748,24.485287],[54.409673,24.485244],[54.409424,24.485352],[54.409365,24.48542],[54.409174,24.485509],[54.409087,24.485591],[54.409061,24.485659],[54.408907,24.485742],[54.409014,24.485895],[54.40905,24.485879],[54.409068,24.485965],[54.409147,24.486093],[54.409235,24.486169],[54.409375,24.486179],[54.409457,24.486155],[54.409707,24.486047],[54.409784,24.485969],[54.410255,24.486777]]]}},{"type":"Feature","properties":{},"geometry":{"type":"Polygon","coordinates":[[[54.4077,24.485931],[54.407655,24.485898],[54.407698,24.485879],[54.407889,24.48568],[54.407828,24.485631],[54.407803,24.485642],[54.407564,24.485445],[54.40695,24.485711],[54.406764,24.485905],[54.406823,24.485952],[54.406847,24.485942],[54.406841,24.485952],[54.407084,24.486145],[54.407529,24.485952],[54.407442,24.486047],[54.40749,24.486084],[54.407605,24.486034],[54.4077,24.485931]]]}},{"type":"Feature","properties":{},"geometry":{"type":"Polygon","coordinates":[[[54.409363,24.48769],[54.409247,24.487364],[54.409132,24.487414],[54.408769,24.487697],[54.408219,24.48806],[54.408522,24.488543],[54.409511,24.488057],[54.40936,24.487784],[54.409244,24.487834],[54.408626,24.48818],[54.40859,24.488122],[54.409363,24.48769]]]}},{"type":"Feature","properties":{},"geometry":{"type":"Polygon","coordinates":[[[54.407183,24.489203],[54.407644,24.488949],[54.40802,24.488719],[54.407768,24.488343],[54.407316,24.488574],[54.407309,24.488565],[54.407194,24.488615],[54.406788,24.488845],[54.407068,24.489253],[54.407183,24.489203]]]}},{"type":"Feature","properties":{},"geometry":{"type":"Polygon","coordinates":[[[54.407021,24.490271],[54.406846,24.490342],[54.406874,24.490423],[54.407054,24.490352],[54.407021,24.490271]]]}},{"type":"Feature","properties":{},"geometry":{"type":"Polygon","coordinates":[[[54.409268,24.491263],[54.409272,24.491156],[54.409037,24.491149],[54.408843,24.49123],[54.408832,24.491344],[54.408893,24.491346],[54.408892,24.491373],[54.409104,24.491379],[54.409219,24.491329],[54.409221,24.491284],[54.409268,24.491263]]]}},{"type":"Feature","properties":{},"geometry":{"type":"Polygon","coordinates":[[[54.408787,24.498582],[54.409383,24.498324],[54.409415,24.497947],[54.409165,24.497863],[54.408395,24.498188],[54.408397,24.498649],[54.408787,24.498582]]]}},{"type":"Feature","properties":{},"geometry":{"type":"Polygon","coordinates":[[[54.409382,24.499166],[54.409435,24.498769],[54.408993,24.498738],[54.408914,24.498772],[54.408924,24.498611],[54.408852,24.4986],[54.408737,24.49865],[54.408721,24.49871],[54.408758,24.498824],[54.408788,24.498827],[54.408655,24.498885],[54.408667,24.499239],[54.408581,24.499603],[54.408938,24.499698],[54.409276,24.499552],[54.409382,24.499166]]]}},{"type":"Feature","properties":{},"geometry":{"type":"Polygon","coordinates":[[[54.409871,24.500412],[54.409926,24.500296],[54.409975,24.49974],[54.410012,24.49951],[54.409978,24.499439],[54.4099,24.49938],[54.409787,24.499363],[54.409615,24.499373],[54.4095,24.499423],[54.409432,24.499469],[54.409234,24.50009],[54.409184,24.500303],[54.409226,24.500431],[54.409317,24.500498],[54.409497,24.500529],[54.40963,24.500526],[54.409871,24.500412]]]}},{"type":"Feature","properties":{},"geometry":{"type":"Polygon","coordinates":[[[54.407939,24.500958],[54.407937,24.501004],[54.407909,24.501062],[54.407948,24.501094],[54.408063,24.501044],[54.408114,24.500971],[54.408147,24.500887],[54.408085,24.500876],[54.40797,24.500926],[54.407939,24.500958]]]}},{"type":"Feature","properties":{},"geometry":{"type":"Polygon","coordinates":[[[54.40943,24.501922],[54.409545,24.501851],[54.409584,24.501746],[54.40961,24.501599],[54.409605,24.501431],[54.408723,24.501471],[54.408608,24.501521],[54.408564,24.501849],[54.408637,24.502],[54.408905,24.502012],[54.409224,24.502003],[54.40943,24.501922]]]}},{"type":"Feature","properties":{},"geometry":{"type":"Polygon","coordinates":[[[54.410437,24.50152],[54.409573,24.501895],[54.409573,24.501934],[54.409471,24.501978],[54.409469,24.502226],[54.409569,24.502228],[54.410568,24.501791],[54.410573,24.501566],[54.410542,24.501564],[54.410544,24.501523],[54.410437,24.50152]]]}},{"type":"Feature","properties":{},"geometry":{"type":"Polygon","coordinates":[[[54.407581,24.502453],[54.407999,24.502627],[54.408114,24.502577],[54.408295,24.5021],[54.408422,24.501858],[54.408025,24.50174],[54.40791,24.50179],[54.407581,24.502453]]]}},{"type":"Feature","properties":{},"geometry":{"type":"Polygon","coordinates":[[[54.4074,24.502441],[54.407392,24.502488],[54.407436,24.502498],[54.407551,24.502448],[54.407608,24.502389],[54.407648,24.502313],[54.407586,24.50231],[54.407471,24.50236],[54.4074,24.502441]]]}},{"type":"Feature","properties":{},"geometry":{"type":"Polygon","coordinates":[[[54.407124,24.502976],[54.407,24.503127],[54.407064,24.503163],[54.407179,24.503113],[54.40729,24.503013],[54.407335,24.502994],[54.407403,24.502885],[54.407345,24.502871],[54.407124,24.502976]]]}},{"type":"Feature","properties":{},"geometry":{"type":"Polygon","coordinates":[[[54.406943,24.503344],[54.406765,24.503413],[54.406802,24.503535],[54.406881,24.503518],[54.406997,24.503468],[54.406943,24.503344]]]}},{"type":"Feature","properties":{},"geometry":{"type":"Polygon","coordinates":[[[54.407134,24.50368],[54.407036,24.503648],[54.406921,24.503698],[54.40687,24.503855],[54.406958,24.503879],[54.407074,24.503829],[54.407134,24.50368]]]}},{"type":"Feature","properties":{},"geometry":{"type":"Polygon","coordinates":[[[54.410673,24.504204],[54.410705,24.504046],[54.410233,24.503968],[54.40949,24.50429],[54.409383,24.504199],[54.409909,24.503972],[54.410053,24.503863],[54.40972,24.503497],[54.408808,24.503893],[54.408664,24.504001],[54.408893,24.504253],[54.407915,24.504677],[54.40771,24.504937],[54.408005,24.505275],[54.409349,24.504692],[54.409471,24.504552],[54.409761,24.5046],[54.410673,24.504204]]]}},{"type":"Feature","properties":{},"geometry":{"type":"Polygon","coordinates":[[[54.408028,24.505741],[54.407866,24.505725],[54.407751,24.505775],[54.407753,24.505868],[54.407917,24.505892],[54.408033,24.505842],[54.408028,24.505741]]]}},{"type":"Feature","properties":{},"geometry":{"type":"Polygon","coordinates":[[[54.409357,24.506225],[54.409587,24.506114],[54.409672,24.506021],[54.409717,24.505908],[54.409719,24.505787],[54.40968,24.50568],[54.409606,24.50559],[54.409506,24.505526],[54.409388,24.505493],[54.409265,24.505495],[54.409033,24.505582],[54.408935,24.505651],[54.408866,24.505743],[54.408832,24.505851],[54.408839,24.505972],[54.408889,24.506083],[54.408979,24.506173],[54.409095,24.50623],[54.409227,24.506248],[54.409357,24.506225]]]}},{"type":"Feature","properties":{},"geometry":{"type":"Polygon","coordinates":[[[54.406764,24.507492],[54.406644,24.507341],[54.406486,24.50742],[54.406605,24.507571],[54.406764,24.507492]]]}},{"type":"Feature","properties":{},"geometry":{"type":"Polygon","coordinates":[[[54.409366,24.507394],[54.409172,24.507563],[54.409533,24.507924],[54.409709,24.507832],[54.409692,24.507556],[54.409481,24.507344],[54.409366,24.507394]]]}},{"type":"Feature","properties":{},"geometry":{"type":"Polygon","coordinates":[[[54.407201,24.507774],[54.407167,24.507749],[54.407052,24.507799],[54.407022,24.507832],[54.407056,24.507857],[54.407171,24.507807],[54.407201,24.507774]]]}},{"type":"Feature","properties":{},"geometry":{"type":"Polygon","coordinates":[[[54.408877,24.507857],[54.408762,24.507907],[54.408764,24.507957],[54.408731,24.507971],[54.408736,24.508077],[54.408775,24.508075],[54.40889,24.508025],[54.408889,24.508006],[54.408918,24.507994],[54.408925,24.507856],[54.408877,24.507857]]]}},{"type":"Feature","properties":{},"geometry":{"type":"Polygon","coordinates":[[[54.40932,24.508159],[54.409278,24.508116],[54.409162,24.508166],[54.409073,24.50824],[54.409116,24.508283],[54.409231,24.508233],[54.40932,24.508159]]]}},{"type":"Feature","properties":{},"geometry":{"type":"Polygon","coordinates":[[[54.409117,24.508675],[54.409111,24.508666],[54.409334,24.508542],[54.409273,24.508456],[54.409215,24.508481],[54.409158,24.5084],[54.408899,24.508534],[54.408945,24.5086],[54.408871,24.508658],[54.40889,24.508684],[54.408854,24.508705],[54.408884,24.508748],[54.408921,24.508732],[54.408942,24.50876],[54.409117,24.508675]]]}},{"type":"Feature","properties":{},"geometry":{"type":"Polygon","coordinates":[[[54.407434,24.50894],[54.40755,24.50889],[54.407615,24.508841],[54.407587,24.508811],[54.407472,24.508861],[54.407407,24.508911],[54.407434,24.50894]]]}},{"type":"Feature","properties":{},"geometry":{"type":"Polygon","coordinates":[[[54.41019,24.509994],[54.410005,24.509826],[54.40989,24.509876],[54.409547,24.510188],[54.409732,24.510356],[54.409847,24.510306],[54.41019,24.509994]]]}},{"type":"Feature","properties":{},"geometry":{"type":"Polygon","coordinates":[[[54.411083,24.48178],[54.411054,24.481808],[54.411098,24.481846],[54.411136,24.48183],[54.411206,24.481891],[54.411107,24.481985],[54.411191,24.482059],[54.411307,24.482009],[54.411484,24.481839],[54.411116,24.48152],[54.411001,24.48157],[54.410828,24.481736],[54.410877,24.481779],[54.41079,24.481817],[54.410761,24.481845],[54.4108,24.481879],[54.410916,24.481829],[54.410945,24.481801],[54.410937,24.481794],[54.411039,24.481742],[54.411083,24.48178]]]}},{"type":"Feature","properties":{},"geometry":{"type":"Polygon","coordinates":[[[54.412563,24.482207],[54.412739,24.481932],[54.412378,24.481741],[54.412263,24.481791],[54.412087,24.482066],[54.412447,24.482257],[54.412563,24.482207]]]}},{"type":"Feature","properties":{},"geometry":{"type":"Polygon","coordinates":[[[54.41143,24.482077],[54.411398,24.482052],[54.411283,24.482102],[54.411205,24.482182],[54.411236,24.482207],[54.411351,24.482158],[54.41143,24.482077]]]}},{"type":"Feature","properties":{},"geometry":{"type":"Polygon","coordinates":[[[54.410832,24.485218],[54.410608,24.485326],[54.410658,24.485404],[54.410882,24.485296],[54.410832,24.485218]]]}},{"type":"Feature","properties":{},"geometry":{"type":"Polygon","coordinates":[[[54.411454,24.485589],[54.411235,24.48568],[54.411249,24.485711],[54.411468,24.48562],[54.411454,24.485589]]]}},{"type":"Feature","properties":{},"geometry":{"type":"Polygon","coordinates":[[[54.411432,24.48566],[54.41126,24.485728],[54.411298,24.485826],[54.411471,24.485757],[54.411432,24.48566]]]}},{"type":"Feature","properties":{},"geometry":{"type":"Polygon","coordinates":[[[54.413488,24.487622],[54.413485,24.487542],[54.413516,24.487528],[54.413513,24.487454],[54.413359,24.48746],[54.4134,24.487443],[54.413388,24.487195],[54.413283,24.487199],[54.413213,24.487229],[54.413107,24.487233],[54.412992,24.487283],[54.413069,24.487502],[54.413168,24.487498],[54.41313,24.487514],[54.413141,24.48776],[54.413409,24.48775],[54.413524,24.4877],[54.413521,24.487621],[54.413488,24.487622]]]}},{"type":"Feature","properties":{},"geometry":{"type":"Polygon","coordinates":[[[54.4131,24.487731],[54.413046,24.487541],[54.412959,24.487562],[54.412844,24.487612],[54.412898,24.487801],[54.4131,24.487731]]]}},{"type":"Feature","properties":{},"geometry":{"type":"Polygon","coordinates":[[[54.413587,24.48789],[54.413519,24.487893],[54.413404,24.487943],[54.413407,24.488004],[54.413475,24.488002],[54.41359,24.487952],[54.413587,24.48789]]]}},{"type":"Feature","properties":{},"geometry":{"type":"Polygon","coordinates":[[[54.415588,24.48802],[54.415636,24.488018],[54.415751,24.487968],[54.415747,24.48784],[54.415885,24.487791],[54.415887,24.487747],[54.415855,24.487746],[54.415746,24.487793],[54.415745,24.487766],[54.41557,24.487771],[54.415674,24.487726],[54.415671,24.487682],[54.415613,24.487685],[54.415497,24.487735],[54.4155,24.487771],[54.415123,24.487771],[54.415007,24.487821],[54.415007,24.487865],[54.415072,24.487865],[54.415072,24.488263],[54.415255,24.488263],[54.41537,24.488213],[54.41537,24.488011],[54.415504,24.488011],[54.415587,24.48799],[54.415588,24.48802]]]}},{"type":"Feature","properties":{},"geometry":{"type":"Polygon","coordinates":[[[54.414741,24.488528],[54.414864,24.488525],[54.414979,24.488475],[54.414976,24.488355],[54.414906,24.488357],[54.414968,24.48833],[54.414972,24.488235],[54.414839,24.488231],[54.414724,24.488281],[54.414721,24.488376],[54.414805,24.488379],[54.414737,24.488408],[54.414741,24.488528]]]}},{"type":"Feature","properties":{},"geometry":{"type":"Polygon","coordinates":[[[54.415436,24.488396],[54.415436,24.488381],[54.415536,24.488344],[54.415544,24.488363],[54.415486,24.488388],[54.415487,24.488437],[54.415581,24.488435],[54.415696,24.488385],[54.415695,24.488336],[54.415655,24.488337],[54.415714,24.488311],[54.41571,24.4882],[54.415648,24.488202],[54.415532,24.488252],[54.415534,24.488293],[54.415472,24.488296],[54.415433,24.488313],[54.415318,24.488314],[54.415203,24.488364],[54.415204,24.488447],[54.415321,24.488446],[54.415436,24.488396]]]}},{"type":"Feature","properties":{},"geometry":{"type":"Polygon","coordinates":[[[54.415431,24.488484],[54.415432,24.488438],[54.415297,24.488488],[54.415296,24.488534],[54.415431,24.488484]]]}},{"type":"Feature","properties":{},"geometry":{"type":"Polygon","coordinates":[[[54.415543,24.488642],[54.415463,24.488644],[54.415348,24.488694],[54.41535,24.488743],[54.41543,24.48874],[54.415545,24.48869],[54.415543,24.488642]]]}},{"type":"Feature","properties":{},"geometry":{"type":"Polygon","coordinates":[[[54.410862,24.48833],[54.410551,24.488356],[54.410307,24.488475],[54.410138,24.488492],[54.410023,24.488542],[54.410068,24.488978],[54.410535,24.488937],[54.41065,24.488887],[54.410642,24.488808],[54.41079,24.488795],[54.410905,24.488745],[54.410862,24.48833]]]}},{"type":"Feature","properties":{},"geometry":{"type":"Polygon","coordinates":[[[54.411211,24.488865],[54.411059,24.48892],[54.411032,24.488981],[54.411082,24.489049],[54.411194,24.489045],[54.411318,24.489211],[54.411146,24.489303],[54.411199,24.489386],[54.411314,24.489336],[54.411906,24.489007],[54.411948,24.489088],[54.411375,24.489404],[54.41147,24.489557],[54.411534,24.489533],[54.411598,24.489643],[54.411857,24.489692],[54.41184,24.489769],[54.412005,24.489805],[54.41212,24.489755],[54.412272,24.48918],[54.412379,24.489144],[54.412687,24.48973],[54.412956,24.4896],[54.412923,24.48955],[54.413136,24.489455],[54.413165,24.489389],[54.413261,24.489348],[54.413305,24.489173],[54.412728,24.488981],[54.412765,24.488988],[54.413373,24.488898],[54.413489,24.488848],[54.413445,24.488556],[54.412861,24.488626],[54.412817,24.488588],[54.412675,24.488652],[54.412595,24.488585],[54.412673,24.488545],[54.412558,24.488398],[54.41267,24.48805],[54.412854,24.488151],[54.412969,24.488101],[54.413104,24.487954],[54.412745,24.487759],[54.412516,24.487718],[54.412242,24.487705],[54.412161,24.48774],[54.412157,24.487708],[54.412019,24.48774],[54.411868,24.487782],[54.411753,24.487832],[54.411466,24.488007],[54.411298,24.48818],[54.411456,24.488291],[54.411571,24.488241],[54.41169,24.488143],[54.411913,24.488523],[54.41185,24.488702],[54.411214,24.488505],[54.411099,24.488555],[54.411055,24.48865],[54.411241,24.488718],[54.411211,24.488865]],[[54.411995,24.488008],[54.412147,24.487959],[54.412149,24.487975],[54.412254,24.487984],[54.412312,24.487958],[54.412362,24.487963],[54.412244,24.488452],[54.411995,24.488008]],[[54.411948,24.489373],[54.411925,24.489483],[54.411834,24.489464],[54.41175,24.489351],[54.411849,24.489294],[54.411847,24.489352],[54.411948,24.489373]],[[54.412901,24.489383],[54.412886,24.48939],[54.412827,24.489256],[54.41284,24.489223],[54.412948,24.489257],[54.412901,24.489383]]]}},{"type":"Feature","properties":{},"geometry":{"type":"Polygon","coordinates":[[[54.410507,24.489196],[54.410559,24.489665],[54.410711,24.489651],[54.410826,24.489601],[54.410762,24.489025],[54.410204,24.489076],[54.410089,24.489126],[54.410101,24.489234],[54.410507,24.489196]]]}},{"type":"Feature","properties":{},"geometry":{"type":"Polygon","coordinates":[[[54.410884,24.489736],[54.410835,24.489739],[54.41072,24.489789],[54.410724,24.489832],[54.410773,24.489828],[54.410888,24.489778],[54.410884,24.489736]]]}},{"type":"Feature","properties":{},"geometry":{"type":"Polygon","coordinates":[[[54.410211,24.49014],[54.41077,24.490085],[54.410885,24.490035],[54.41087,24.489907],[54.41051,24.489942],[54.410508,24.489927],[54.410457,24.489932],[54.410405,24.48949],[54.410256,24.489504],[54.410141,24.489554],[54.410211,24.49014]]]}},{"type":"Feature","properties":{},"geometry":{"type":"Polygon","coordinates":[[[54.412502,24.490007],[54.412498,24.489945],[54.412428,24.489949],[54.412313,24.489999],[54.412317,24.490061],[54.412387,24.490057],[54.412502,24.490007]]]}},{"type":"Feature","properties":{},"geometry":{"type":"Polygon","coordinates":[[[54.411148,24.490662],[54.411052,24.490661],[54.410936,24.490711],[54.410936,24.490763],[54.411032,24.490764],[54.411147,24.490714],[54.411148,24.490662]]]}},{"type":"Feature","properties":{},"geometry":{"type":"Polygon","coordinates":[[[54.411033,24.491001],[54.411108,24.490999],[54.411223,24.490949],[54.411224,24.490795],[54.411155,24.490795],[54.411039,24.490845],[54.411044,24.490938],[54.411031,24.490944],[54.411033,24.491001]]]}},{"type":"Feature","properties":{},"geometry":{"type":"Polygon","coordinates":[[[54.412809,24.490689],[54.412801,24.491182],[54.41328,24.491188],[54.413395,24.491138],[54.413397,24.490975],[54.413113,24.490971],[54.413115,24.490861],[54.413295,24.490864],[54.413411,24.490814],[54.413413,24.490645],[54.412924,24.490639],[54.412809,24.490689]]]}},{"type":"Feature","properties":{},"geometry":{"type":"Polygon","coordinates":[[[54.410301,24.490867],[54.410297,24.49108],[54.410584,24.491083],[54.410699,24.491033],[54.410706,24.490766],[54.4106,24.490766],[54.410485,24.490815],[54.410416,24.490817],[54.410301,24.490867]]]}},{"type":"Feature","properties":{},"geometry":{"type":"Polygon","coordinates":[[[54.412875,24.491187],[54.412829,24.491185],[54.412714,24.491235],[54.412713,24.491274],[54.412758,24.491276],[54.412874,24.491226],[54.412875,24.491187]]]}},{"type":"Feature","properties":{},"geometry":{"type":"Polygon","coordinates":[[[54.411219,24.491503],[54.411222,24.491426],[54.411185,24.491424],[54.41107,24.491474],[54.411066,24.491551],[54.411103,24.491553],[54.411219,24.491503]]]}},{"type":"Feature","properties":{},"geometry":{"type":"Polygon","coordinates":[[[54.41083,24.491311],[54.410457,24.491298],[54.410342,24.491348],[54.410329,24.491672],[54.410701,24.491685],[54.410816,24.491635],[54.41083,24.491311]]]}},{"type":"Feature","properties":{},"geometry":{"type":"Polygon","coordinates":[[[54.411931,24.491223],[54.411435,24.491191],[54.41132,24.49124],[54.411248,24.492149],[54.411744,24.492182],[54.41186,24.492132],[54.411931,24.491223]]]}},{"type":"Feature","properties":{},"geometry":{"type":"Polygon","coordinates":[[[54.41207,24.491778],[54.412185,24.491729],[54.412186,24.491699],[54.412108,24.491697],[54.411993,24.491747],[54.411992,24.491776],[54.41207,24.491778]]]}},{"type":"Feature","properties":{},"geometry":{"type":"Polygon","coordinates":[[[54.411709,24.492296],[54.411581,24.492292],[54.411466,24.492342],[54.411463,24.49243],[54.411591,24.492433],[54.411706,24.492383],[54.411709,24.492296]]]}},{"type":"Feature","properties":{},"geometry":{"type":"Polygon","coordinates":[[[54.412155,24.492461],[54.411973,24.492459],[54.411858,24.492509],[54.411857,24.492607],[54.412039,24.492608],[54.412154,24.492558],[54.412155,24.492461]]]}},{"type":"Feature","properties":{},"geometry":{"type":"Polygon","coordinates":[[[54.415103,24.496914],[54.41501,24.49686],[54.414895,24.49691],[54.414784,24.497067],[54.414876,24.497121],[54.414992,24.497071],[54.415103,24.496914]]]}},{"type":"Feature","properties":{},"geometry":{"type":"Polygon","coordinates":[[[54.412125,24.498673],[54.412019,24.498054],[54.412041,24.498045],[54.41181,24.4975],[54.411496,24.497386],[54.411287,24.497472],[54.411583,24.498232],[54.411709,24.498962],[54.411827,24.498952],[54.411943,24.498902],[54.412125,24.498673]]]}},{"type":"Feature","properties":{},"geometry":{"type":"Polygon","coordinates":[[[54.410509,24.497758],[54.410495,24.498921],[54.410633,24.499067],[54.410877,24.499079],[54.410993,24.499029],[54.410985,24.497515],[54.410798,24.49756],[54.410683,24.49761],[54.410509,24.497758]]]}},{"type":"Feature","properties":{},"geometry":{"type":"Polygon","coordinates":[[[54.41317,24.503099],[54.41329,24.502809],[54.413379,24.502328],[54.412899,24.502033],[54.412741,24.501881],[54.412655,24.501769],[54.412574,24.501625],[54.412526,24.501486],[54.411982,24.501472],[54.411694,24.501597],[54.41173,24.501798],[54.411777,24.501932],[54.411849,24.502115],[54.411934,24.502272],[54.412086,24.502479],[54.412341,24.502781],[54.412586,24.502945],[54.412725,24.503098],[54.41281,24.503244],[54.41317,24.503099]]]}},{"type":"Feature","properties":{},"geometry":{"type":"Polygon","coordinates":[[[54.411345,24.502701],[54.411224,24.502679],[54.411155,24.502628],[54.411149,24.502248],[54.410947,24.502245],[54.410832,24.502294],[54.410798,24.502888],[54.411241,24.502914],[54.411356,24.502864],[54.411354,24.502708],[54.411394,24.502709],[54.411509,24.502659],[54.411512,24.502537],[54.411555,24.502572],[54.41167,24.502522],[54.411742,24.502449],[54.411529,24.502276],[54.411413,24.502326],[54.411342,24.502399],[54.41151,24.502535],[54.411463,24.502535],[54.411347,24.502584],[54.411345,24.502701]]]}},{"type":"Feature","properties":{},"geometry":{"type":"Polygon","coordinates":[[[54.411796,24.502509],[54.411579,24.502616],[54.41174,24.502855],[54.411957,24.502748],[54.411796,24.502509]]]}},{"type":"Feature","properties":{},"geometry":{"type":"Polygon","coordinates":[[[54.411657,24.50276],[54.411457,24.502845],[54.411534,24.502997],[54.411733,24.502911],[54.411657,24.50276]]]}},{"type":"Feature","properties":{},"geometry":{"type":"Polygon","coordinates":[[[54.415448,24.50408],[54.415408,24.504032],[54.415345,24.504059],[54.415333,24.504049],[54.415424,24.504009],[54.415415,24.503972],[54.415241,24.504034],[54.415247,24.504059],[54.415013,24.50416],[54.414826,24.504005],[54.413448,24.504589],[54.413289,24.504746],[54.413466,24.504899],[54.414549,24.504444],[54.414538,24.504455],[54.414715,24.504608],[54.415264,24.50437],[54.415363,24.504455],[54.415281,24.504507],[54.41533,24.504558],[54.415445,24.504508],[54.415488,24.504471],[54.415811,24.504331],[54.415988,24.504182],[54.415792,24.50402],[54.415674,24.504072],[54.41564,24.504033],[54.415524,24.504082],[54.415453,24.504133],[54.415469,24.504161],[54.415402,24.504106],[54.415448,24.50408]]]}},{"type":"Feature","properties":{},"geometry":{"type":"Polygon","coordinates":[[[54.414076,24.505245],[54.41469,24.504979],[54.414868,24.50483],[54.414671,24.504668],[54.414057,24.504935],[54.413898,24.505092],[54.414076,24.505245]]]}},{"type":"Feature","properties":{},"geometry":{"type":"Polygon","coordinates":[[[54.414713,24.505369],[54.415169,24.505171],[54.415198,24.505205],[54.415313,24.505155],[54.415377,24.50511],[54.415342,24.505069],[54.415317,24.50508],[54.415428,24.504987],[54.415355,24.504927],[54.415629,24.504809],[54.415806,24.50466],[54.41561,24.504498],[54.41514,24.504703],[54.414981,24.50486],[54.415038,24.504909],[54.414694,24.505059],[54.414535,24.505216],[54.414713,24.505369]]]}},{"type":"Feature","properties":{},"geometry":{"type":"Polygon","coordinates":[[[54.410773,24.506792],[54.410797,24.506728],[54.410732,24.506708],[54.410747,24.506615],[54.410678,24.506576],[54.410546,24.50654],[54.410371,24.50656],[54.410256,24.50661],[54.410183,24.506661],[54.410183,24.506711],[54.41022,24.506779],[54.410268,24.506789],[54.410386,24.506852],[54.410658,24.506842],[54.410773,24.506792]]]}},{"type":"Feature","properties":{},"geometry":{"type":"Polygon","coordinates":[[[54.41101,24.507189],[54.41103,24.507113],[54.411043,24.506943],[54.410977,24.506911],[54.410889,24.50695],[54.410847,24.506938],[54.410732,24.506988],[54.410678,24.507044],[54.410617,24.507156],[54.410611,24.507316],[54.410654,24.50739],[54.410708,24.507398],[54.410788,24.507376],[54.410904,24.507326],[54.410922,24.507285],[54.41101,24.507189]]]}},{"type":"Feature","properties":{},"geometry":{"type":"Polygon","coordinates":[[[54.410332,24.507855],[54.410313,24.507789],[54.410247,24.507805],[54.410204,24.507719],[54.410122,24.507721],[54.40999,24.507756],[54.409874,24.507806],[54.40974,24.507909],[54.40971,24.507988],[54.409739,24.50803],[54.409811,24.508069],[54.409857,24.508054],[54.409995,24.508048],[54.410185,24.50796],[54.410332,24.507855]]]}},{"type":"Feature","properties":{},"geometry":{"type":"Polygon","coordinates":[[[54.410813,24.508596],[54.410697,24.508646],[54.410694,24.508746],[54.410982,24.508756],[54.411097,24.508706],[54.4111,24.508608],[54.410813,24.508596]]]}},{"type":"Feature","properties":{},"geometry":{"type":"Polygon","coordinates":[[[54.411248,24.508984],[54.411133,24.509034],[54.411128,24.509147],[54.411008,24.509197],[54.411006,24.509269],[54.411055,24.50927],[54.411124,24.50924],[54.411119,24.509359],[54.411192,24.509353],[54.411191,24.509386],[54.411361,24.50939],[54.411443,24.509355],[54.411442,24.509433],[54.410723,24.509449],[54.410608,24.509499],[54.410612,24.509593],[54.411333,24.509573],[54.41144,24.509526],[54.411558,24.509532],[54.411673,24.509482],[54.411678,24.509265],[54.41156,24.509263],[54.411478,24.509298],[54.41148,24.509213],[54.411579,24.509216],[54.411694,24.509167],[54.411703,24.508958],[54.41158,24.508954],[54.411487,24.508994],[54.411487,24.508984],[54.411248,24.508984]]]}},{"type":"Feature","properties":{},"geometry":{"type":"Polygon","coordinates":[[[54.41076,24.509063],[54.410698,24.509064],[54.410583,24.509114],[54.410585,24.509211],[54.410647,24.50921],[54.410762,24.50916],[54.41076,24.509063]]]}},{"type":"Feature","properties":{},"geometry":{"type":"Polygon","coordinates":[[[54.411355,24.509641],[54.411141,24.509731],[54.411218,24.509888],[54.411432,24.509798],[54.411355,24.509641]]]}},{"type":"Feature","properties":{},"geometry":{"type":"Polygon","coordinates":[[[54.418573,24.481898],[54.418529,24.481901],[54.418414,24.481951],[54.418415,24.481973],[54.418459,24.48197],[54.418575,24.48192],[54.418573,24.481898]]]}},{"type":"Feature","properties":{},"geometry":{"type":"Polygon","coordinates":[[[54.419078,24.482617],[54.419077,24.482629],[54.419152,24.482636],[54.419076,24.482669],[54.419056,24.4828],[54.419193,24.482817],[54.419129,24.482845],[54.419126,24.482875],[54.418873,24.482852],[54.418849,24.482862],[54.418851,24.482817],[54.418763,24.482813],[54.418709,24.482837],[54.418722,24.482713],[54.418396,24.482685],[54.418281,24.482735],[54.418267,24.482871],[54.418331,24.482876],[54.418251,24.482911],[54.418245,24.483032],[54.418571,24.483045],[54.418686,24.482995],[54.418687,24.482975],[54.41875,24.482968],[54.418742,24.483045],[54.419074,24.483075],[54.419189,24.483025],[54.419193,24.482986],[54.419435,24.483011],[54.419551,24.482961],[54.419568,24.482829],[54.419437,24.482815],[54.419494,24.482791],[54.419514,24.482659],[54.419433,24.482649],[54.419598,24.482572],[54.419626,24.482293],[54.419722,24.482311],[54.419757,24.482296],[54.419739,24.482444],[54.420076,24.482477],[54.420129,24.482454],[54.420124,24.48249],[54.420446,24.482529],[54.420506,24.482502],[54.420501,24.482536],[54.420603,24.48255],[54.420542,24.482576],[54.420545,24.482545],[54.420223,24.482516],[54.420171,24.482539],[54.420176,24.482499],[54.41984,24.482465],[54.419724,24.482515],[54.419701,24.48271],[54.41976,24.482716],[54.419686,24.482748],[54.419669,24.482863],[54.419584,24.4829],[54.419566,24.483035],[54.419613,24.48304],[54.419557,24.483064],[54.419545,24.483184],[54.419869,24.483213],[54.419965,24.483171],[54.41996,24.483212],[54.420299,24.483243],[54.420402,24.483199],[54.420392,24.483301],[54.420711,24.483328],[54.420826,24.483278],[54.420839,24.483149],[54.420792,24.483145],[54.420835,24.483127],[54.420852,24.483007],[54.420544,24.48297],[54.420429,24.48302],[54.420427,24.483031],[54.420094,24.483],[54.419995,24.483043],[54.419959,24.48304],[54.420003,24.48302],[54.420018,24.482907],[54.420103,24.48287],[54.420115,24.482792],[54.420399,24.482821],[54.420461,24.482794],[54.420446,24.482904],[54.420756,24.48294],[54.420871,24.48289],[54.420888,24.482769],[54.420818,24.482761],[54.420895,24.482727],[54.420916,24.482582],[54.420821,24.482572],[54.420926,24.482526],[54.420945,24.482404],[54.420875,24.482395],[54.420954,24.482361],[54.420967,24.48224],[54.420657,24.482212],[54.420552,24.482257],[54.42027,24.482219],[54.420213,24.482244],[54.420215,24.482222],[54.420158,24.482216],[54.420207,24.482195],[54.420228,24.482064],[54.420099,24.482048],[54.420155,24.482024],[54.420162,24.481963],[54.420482,24.482001],[54.420595,24.481952],[54.420592,24.481996],[54.420633,24.481998],[54.420582,24.48202],[54.420562,24.482143],[54.420871,24.482185],[54.420987,24.482135],[54.421007,24.482012],[54.420939,24.482003],[54.421032,24.481962],[54.42104,24.48183],[54.420715,24.481813],[54.42061,24.481859],[54.420621,24.481788],[54.420283,24.481748],[54.420168,24.481798],[54.420155,24.481887],[54.419851,24.481856],[54.419736,24.481906],[54.419722,24.482021],[54.419674,24.482022],[54.419609,24.48205],[54.419618,24.481986],[54.419294,24.481947],[54.419179,24.481997],[54.41917,24.48206],[54.418884,24.482029],[54.418823,24.482055],[54.418837,24.481991],[54.418801,24.481985],[54.418685,24.482035],[54.41867,24.482105],[54.418689,24.482108],[54.418494,24.482084],[54.418379,24.482134],[54.41836,24.482261],[54.418682,24.482301],[54.418798,24.482252],[54.418811,24.482164],[54.419081,24.482193],[54.41914,24.482168],[54.419112,24.482358],[54.419271,24.482377],[54.419256,24.482398],[54.419212,24.482394],[54.419156,24.482418],[54.419163,24.482372],[54.418842,24.482331],[54.418779,24.482358],[54.418784,24.482322],[54.41846,24.482285],[54.418345,24.482335],[54.418327,24.482467],[54.418374,24.482473],[54.418318,24.482497],[54.418302,24.482631],[54.418628,24.482664],[54.418743,24.482612],[54.419012,24.482646],[54.419078,24.482617]],[[54.418754,24.482522],[54.418754,24.482521],[54.418756,24.482521],[54.418754,24.482522]],[[54.418708,24.482111],[54.418768,24.482085],[54.418764,24.482118],[54.418708,24.482111]],[[54.419197,24.482139],[54.419197,24.482133],[54.419209,24.482134],[54.419197,24.482139]],[[54.419531,24.482146],[54.41956,24.482134],[54.41956,24.48215],[54.419531,24.482146]],[[54.419771,24.482204],[54.419828,24.482211],[54.419741,24.482204],[54.419773,24.48219],[54.419771,24.482204]],[[54.419838,24.482053],[54.419836,24.482054],[54.419836,24.482053],[54.419838,24.482053]],[[54.420582,24.482387],[54.420574,24.482391],[54.420574,24.482387],[54.420582,24.482387]],[[54.419086,24.482531],[54.419087,24.48253],[54.419087,24.482531],[54.419086,24.482531]],[[54.420517,24.482749],[54.420537,24.482751],[54.420516,24.48276],[54.420517,24.482749]],[[54.420077,24.482732],[54.420068,24.482731],[54.420078,24.482727],[54.420077,24.482732]],[[54.42042,24.483141],[54.420466,24.483146],[54.420417,24.483168],[54.42042,24.483141]]]}},{"type":"Feature","properties":{},"geometry":{"type":"Polygon","coordinates":[[[54.417324,24.487723],[54.417238,24.487724],[54.417123,24.487774],[54.417124,24.487819],[54.417209,24.487819],[54.417325,24.487769],[54.417324,24.487723]]]}},{"type":"Feature","properties":{},"geometry":{"type":"Polygon","coordinates":[[[54.416244,24.487954],[54.416206,24.487955],[54.416262,24.487931],[54.416254,24.487801],[54.416075,24.48781],[54.416102,24.487798],[54.416103,24.487769],[54.415997,24.487765],[54.415882,24.487815],[54.415881,24.487844],[54.415924,24.487846],[54.415882,24.487864],[54.41589,24.487994],[54.415936,24.487992],[54.415893,24.48801],[54.415894,24.488067],[54.41613,24.48806],[54.416245,24.48801],[54.416244,24.487954]]]}},{"type":"Feature","properties":{},"geometry":{"type":"Polygon","coordinates":[[[54.416232,24.488278],[54.41612,24.488326],[54.41612,24.488364],[54.41603,24.488402],[54.416034,24.488439],[54.416119,24.488416],[54.416116,24.488539],[54.416411,24.488543],[54.416527,24.488493],[54.416528,24.48842],[54.416348,24.488417],[54.416349,24.488388],[54.416274,24.488387],[54.416274,24.488355],[54.41636,24.488351],[54.416364,24.488415],[54.416411,24.488413],[54.416491,24.488378],[54.416535,24.48838],[54.416594,24.488354],[54.416633,24.488354],[54.416749,24.488305],[54.416748,24.488248],[54.416732,24.488248],[54.41675,24.488241],[54.416746,24.488148],[54.416634,24.488148],[54.416669,24.488133],[54.416665,24.488042],[54.416594,24.488051],[54.416666,24.48802],[54.416665,24.487971],[54.416443,24.487975],[54.41622,24.488074],[54.416232,24.488278]],[[54.416504,24.488293],[54.416529,24.488294],[54.416522,24.488297],[54.416504,24.488293]]]}},{"type":"Feature","properties":{},"geometry":{"type":"Polygon","coordinates":[[[54.416534,24.488527],[54.416578,24.488529],[54.416694,24.488479],[54.416696,24.488436],[54.416663,24.488434],[54.416723,24.488408],[54.416725,24.488369],[54.416695,24.488368],[54.41658,24.488418],[54.416578,24.488457],[54.416597,24.488457],[54.416536,24.488484],[54.416534,24.488527]]]}},{"type":"Feature","properties":{},"geometry":{"type":"Polygon","coordinates":[[[54.416252,24.488881],[54.416108,24.488932],[54.416112,24.489039],[54.416257,24.488988],[54.416252,24.488881]]]}},{"type":"Feature","properties":{},"geometry":{"type":"Polygon","coordinates":[[[54.416058,24.48884],[54.415999,24.488841],[54.415884,24.488891],[54.415891,24.489091],[54.41595,24.48909],[54.416065,24.48904],[54.416058,24.48884]]]}},{"type":"Feature","properties":{},"geometry":{"type":"Polygon","coordinates":[[[54.415679,24.488851],[54.41562,24.488852],[54.415504,24.488902],[54.415508,24.489102],[54.415567,24.489101],[54.415683,24.489051],[54.415679,24.488851]]]}},{"type":"Feature","properties":{},"geometry":{"type":"Polygon","coordinates":[[[54.415876,24.489139],[54.415873,24.489095],[54.415719,24.489105],[54.415604,24.489155],[54.415606,24.489196],[54.415736,24.48919],[54.415669,24.489219],[54.415666,24.4893],[54.415717,24.489301],[54.415833,24.489251],[54.415835,24.489171],[54.415804,24.48917],[54.415876,24.489139]]]}},{"type":"Feature","properties":{},"geometry":{"type":"Polygon","coordinates":[[[54.416267,24.489502],[54.415416,24.489523],[54.415301,24.489573],[54.415305,24.489727],[54.416177,24.489705],[54.416292,24.489655],[54.41629,24.489586],[54.416269,24.489586],[54.416267,24.489502]]]}},{"type":"Feature","properties":{},"geometry":{"type":"Polygon","coordinates":[[[54.417104,24.501868],[54.417069,24.501945],[54.416943,24.501999],[54.417138,24.502139],[54.417254,24.502089],[54.41747,24.501885],[54.41724,24.501685],[54.417125,24.501735],[54.417047,24.501807],[54.417104,24.501868]]]}},{"type":"Feature","properties":{},"geometry":{"type":"Polygon","coordinates":[[[54.416458,24.502025],[54.416643,24.502014],[54.416865,24.501923],[54.41685,24.501875],[54.416739,24.501916],[54.416572,24.501928],[54.416456,24.501978],[54.416458,24.502025]]]}},{"type":"Feature","properties":{},"geometry":{"type":"Polygon","coordinates":[[[54.417462,24.502437],[54.417619,24.50236],[54.41759,24.502323],[54.417433,24.502401],[54.417462,24.502437]]]}},{"type":"Feature","properties":{},"geometry":{"type":"Polygon","coordinates":[[[54.417932,24.502489],[54.417885,24.502453],[54.41777,24.502503],[54.417746,24.502528],[54.417793,24.502564],[54.417908,24.502514],[54.417932,24.502489]]]}},{"type":"Feature","properties":{},"geometry":{"type":"Polygon","coordinates":[[[54.415526,24.502419],[54.415501,24.502417],[54.415385,24.502467],[54.415381,24.502526],[54.415407,24.502528],[54.415522,24.502478],[54.415526,24.502419]]]}},{"type":"Feature","properties":{},"geometry":{"type":"Polygon","coordinates":[[[54.417504,24.502442],[54.417421,24.502442],[54.417306,24.502492],[54.417306,24.502606],[54.417385,24.502612],[54.4175,24.502562],[54.417504,24.502442]]]}},{"type":"Feature","properties":{},"geometry":{"type":"Polygon","coordinates":[[[54.416995,24.502628],[54.416892,24.50263],[54.416777,24.50268],[54.416777,24.502704],[54.416881,24.502702],[54.416996,24.502652],[54.416995,24.502628]]]}},{"type":"Feature","properties":{},"geometry":{"type":"Polygon","coordinates":[[[54.415468,24.502603],[54.41539,24.502607],[54.415275,24.502657],[54.415277,24.50269],[54.415288,24.50269],[54.415279,24.502731],[54.41535,24.502732],[54.415466,24.502682],[54.415466,24.502644],[54.415453,24.502644],[54.415469,24.502637],[54.415468,24.502603]]]}},{"type":"Feature","properties":{},"geometry":{"type":"Polygon","coordinates":[[[54.417408,24.502771],[54.417402,24.50271],[54.4173,24.502734],[54.417299,24.502712],[54.417054,24.502722],[54.417054,24.502707],[54.416945,24.502702],[54.416829,24.502752],[54.416826,24.502812],[54.416944,24.502814],[54.416945,24.502844],[54.417187,24.502835],[54.417233,24.502815],[54.417234,24.502825],[54.417293,24.502821],[54.417408,24.502771]]]}},{"type":"Feature","properties":{},"geometry":{"type":"Polygon","coordinates":[[[54.415324,24.5029],[54.415332,24.502951],[54.415389,24.502943],[54.415505,24.502893],[54.4155,24.502862],[54.415574,24.50283],[54.41557,24.502906],[54.415696,24.502911],[54.415811,24.502861],[54.415815,24.502783],[54.415689,24.502779],[54.415614,24.502811],[54.415618,24.502785],[54.415565,24.502779],[54.415464,24.502823],[54.415458,24.502778],[54.415396,24.502784],[54.415281,24.502834],[54.415287,24.502888],[54.41535,24.502882],[54.415448,24.502839],[54.415324,24.5029]]]}},{"type":"Feature","properties":{},"geometry":{"type":"Polygon","coordinates":[[[54.41715,24.503148],[54.417257,24.503152],[54.417372,24.503102],[54.417374,24.50306],[54.417267,24.503056],[54.417152,24.503106],[54.41715,24.503148]]]}},{"type":"Feature","properties":{},"geometry":{"type":"Polygon","coordinates":[[[54.417526,24.503139],[54.417465,24.503137],[54.417349,24.503187],[54.417346,24.503277],[54.417408,24.503279],[54.417441,24.503264],[54.417441,24.50328],[54.41749,24.503279],[54.417605,24.503229],[54.417604,24.503168],[54.417525,24.503182],[54.417526,24.503139]]]}},{"type":"Feature","properties":{},"geometry":{"type":"Polygon","coordinates":[[[54.415728,24.503421],[54.415635,24.503418],[54.415519,24.503468],[54.415517,24.503523],[54.415611,24.503527],[54.415726,24.503477],[54.415728,24.503421]]]}},{"type":"Feature","properties":{},"geometry":{"type":"Polygon","coordinates":[[[54.415852,24.503558],[54.415809,24.503559],[54.415694,24.503609],[54.415697,24.503692],[54.41574,24.50369],[54.415855,24.50364],[54.415852,24.503558]]]}},{"type":"Feature","properties":{},"geometry":{"type":"Polygon","coordinates":[[[54.417698,24.50357],[54.417664,24.503569],[54.417549,24.503619],[54.417541,24.503836],[54.417575,24.503837],[54.41769,24.503787],[54.417698,24.50357]]]}},{"type":"Feature","properties":{},"geometry":{"type":"Polygon","coordinates":[[[54.415784,24.50493],[54.415668,24.50498],[54.415622,24.505016],[54.415679,24.505077],[54.415794,24.505027],[54.415841,24.50499],[54.415784,24.50493]]]}},{"type":"Feature","properties":{},"geometry":{"type":"Polygon","coordinates":[[[54.418935,24.480074],[54.418939,24.480052],[54.418873,24.480042],[54.418758,24.480092],[54.418752,24.480128],[54.418828,24.480133],[54.418827,24.480181],[54.418864,24.480182],[54.41898,24.480132],[54.418981,24.480071],[54.418935,24.480074]]]}},{"type":"Feature","properties":{},"geometry":{"type":"Polygon","coordinates":[[[54.420656,24.480303],[54.42066,24.480236],[54.420569,24.480232],[54.420454,24.480282],[54.420447,24.480414],[54.420786,24.480438],[54.420901,24.480388],[54.420903,24.480342],[54.420695,24.480334],[54.420696,24.480302],[54.420656,24.480303]]]}},{"type":"Feature","properties":{},"geometry":{"type":"Polygon","coordinates":[[[54.419993,24.480828],[54.419929,24.480822],[54.419814,24.480872],[54.419808,24.480927],[54.419872,24.480933],[54.419987,24.480883],[54.419993,24.480828]]]}},{"type":"Feature","properties":{},"geometry":{"type":"Polygon","coordinates":[[[54.419748,24.48167],[54.419421,24.481631],[54.419315,24.481677],[54.419322,24.48163],[54.418982,24.481589],[54.418889,24.481629],[54.418898,24.481561],[54.418579,24.481524],[54.418463,24.481574],[54.418445,24.481709],[54.41849,24.481714],[54.418428,24.481741],[54.418434,24.481881],[54.418618,24.481874],[54.418708,24.481835],[54.418698,24.4819],[54.41874,24.481905],[54.418855,24.481855],[54.418865,24.481795],[54.419185,24.481833],[54.41929,24.481788],[54.419286,24.481818],[54.419613,24.481857],[54.419728,24.481807],[54.419748,24.48167]],[[54.418826,24.48177],[54.418732,24.48181],[54.41873,24.481743],[54.418675,24.481744],[54.418674,24.481735],[54.418764,24.481745],[54.418857,24.481705],[54.418847,24.481773],[54.418826,24.48177]]]}},{"type":"Feature","properties":{},"geometry":{"type":"Polygon","coordinates":[[[54.42007,24.481706],[54.419954,24.481756],[54.419948,24.481819],[54.420085,24.481822],[54.4202,24.481772],[54.420202,24.48172],[54.42007,24.481706]]]}},{"type":"Feature","properties":{},"geometry":{"type":"Polygon","coordinates":[[[54.420468,24.48202],[54.420378,24.481999],[54.420262,24.482049],[54.420238,24.482139],[54.420329,24.482159],[54.420444,24.482109],[54.420468,24.48202]]]}},{"type":"Feature","properties":{},"geometry":{"type":"Polygon","coordinates":[[[54.419055,24.482687],[54.418957,24.482661],[54.418842,24.482711],[54.418814,24.482797],[54.418911,24.482823],[54.419026,24.482773],[54.419055,24.482687]]]}},{"type":"Feature","properties":{},"geometry":{"type":"Polygon","coordinates":[[[54.420388,24.482858],[54.4203,24.48283],[54.420184,24.48288],[54.42015,24.48297],[54.420239,24.482998],[54.420354,24.482948],[54.420388,24.482858]]]}},{"type":"Feature","properties":{},"geometry":{"type":"Polygon","coordinates":[[[54.41954,24.489259],[54.419482,24.489262],[54.419432,24.489283],[54.419432,24.489265],[54.41933,24.489268],[54.419215,24.489318],[54.419216,24.489357],[54.419318,24.489353],[54.419368,24.489332],[54.419369,24.489353],[54.419427,24.48935],[54.419476,24.489329],[54.419476,24.48937],[54.41958,24.489369],[54.419695,24.489319],[54.419694,24.489265],[54.419591,24.489266],[54.419541,24.489288],[54.41954,24.489259]]]}},{"type":"Feature","properties":{},"geometry":{"type":"Polygon","coordinates":[[[54.419077,24.489301],[54.418987,24.489305],[54.418872,24.489355],[54.418878,24.489479],[54.418968,24.489475],[54.419083,24.489425],[54.419077,24.489301]]]}},{"type":"Feature","properties":{},"geometry":{"type":"Polygon","coordinates":[[[54.419661,24.489381],[54.419557,24.489378],[54.419442,24.489428],[54.419438,24.489531],[54.419543,24.489533],[54.419658,24.489483],[54.419661,24.489381]]]}},{"type":"Feature","properties":{},"geometry":{"type":"Polygon","coordinates":[[[54.419183,24.489537],[54.419157,24.48954],[54.419041,24.48959],[54.419051,24.489662],[54.419193,24.489609],[54.419183,24.489537]]]}},{"type":"Feature","properties":{},"geometry":{"type":"Polygon","coordinates":[[[54.419684,24.489774],[54.419563,24.489776],[54.419448,24.489826],[54.419449,24.489871],[54.419569,24.489869],[54.419685,24.489819],[54.419684,24.489774]]]}},{"type":"Feature","properties":{},"geometry":{"type":"Polygon","coordinates":[[[54.419547,24.490343],[54.419662,24.490293],[54.419659,24.490172],[54.419611,24.490173],[54.419496,24.490223],[54.419497,24.490289],[54.419456,24.490307],[54.419463,24.490348],[54.419547,24.490343]]]}},{"type":"Feature","properties":{},"geometry":{"type":"Polygon","coordinates":[[[54.419125,24.490361],[54.4192,24.490359],[54.41927,24.490328],[54.419272,24.490355],[54.419323,24.490353],[54.419438,24.490303],[54.419432,24.490181],[54.419381,24.490183],[54.419266,24.490233],[54.419268,24.490276],[54.419124,24.490327],[54.419125,24.490361]]]}},{"type":"Feature","properties":{},"geometry":{"type":"Polygon","coordinates":[[[54.418376,24.5023],[54.418059,24.502428],[54.418102,24.502521],[54.41842,24.502393],[54.418376,24.5023]]]}}]}