{"type":"FeatureCollection","features":[{"type":"Feature","properties":{},"geometry":{"type":"Polygon","coordinates":[[[54.39078,24.482592],[54.3908,24.482469],[54.39058,24.482459],[54.390563,24.482582],[54.39078,24.482592]]]}},{"type":"Feature","properties":{},"geometry":{"type":"Polygon","coordinates":[[[54.391264,24.482825],[54.391257,24.482837],[54.391191,24.482839],[54.39115,24.482902],[54.391195,24.482925],[54.391278,24.482923],[54.391289,24.482904],[54.391407,24.482945],[54.391341,24.483058],[54.391139,24.48294],[54.391056,24.482942],[54.390997,24.483025],[54.391238,24.483168],[54.391277,24.483167],[54.391503,24.483283],[54.391585,24.48328],[54.391662,24.483157],[54.391572,24.483094],[54.391631,24.482997],[54.39175,24.483],[54.391825,24.482881],[54.391592,24.482767],[54.391509,24.482769],[54.391503,24.48278],[54.391277,24.482678],[54.391218,24.48268],[54.391231,24.482658],[54.391145,24.482618],[54.391109,24.482619],[54.391118,24.482605],[54.391024,24.482563],[54.390942,24.482565],[54.390825,24.482772],[54.390912,24.482816],[54.390954,24.482815],[54.390947,24.482828],[54.391028,24.482867],[54.39111,24.482864],[54.391172,24.482758],[54.391256,24.482798],[54.391247,24.482816],[54.391264,24.482825]]]}},{"type":"Feature","properties":{},"geometry":{"type":"Polygon","coordinates":[[[54.39071,24.482873],[54.390793,24.48287],[54.390848,24.482789],[54.390601,24.482652],[54.390518,24.482654],[54.390461,24.482735],[54.39071,24.482873]]]}},{"type":"Feature","properties":{},"geometry":{"type":"Polygon","coordinates":[[[54.390145,24.482822],[54.39008,24.482752],[54.389997,24.482755],[54.389907,24.482825],[54.389972,24.482894],[54.390055,24.482892],[54.390145,24.482822]]]}},{"type":"Feature","properties":{},"geometry":{"type":"Polygon","coordinates":[[[54.392321,24.483241],[54.392282,24.483312],[54.392375,24.483354],[54.392458,24.483352],[54.392558,24.483177],[54.392462,24.483132],[54.392394,24.483134],[54.392341,24.483112],[54.392363,24.483074],[54.392256,24.483025],[54.392175,24.483027],[54.392124,24.483004],[54.392042,24.483006],[54.392022,24.483043],[54.392118,24.483089],[54.392167,24.483088],[54.392259,24.483127],[54.392207,24.483218],[54.392261,24.483243],[54.392321,24.483241]]]}},{"type":"Feature","properties":{},"geometry":{"type":"Polygon","coordinates":[[[54.391612,24.483457],[54.391694,24.483455],[54.391709,24.483424],[54.391614,24.483384],[54.391532,24.483387],[54.391516,24.483417],[54.391612,24.483457]]]}},{"type":"Feature","properties":{},"geometry":{"type":"Polygon","coordinates":[[[54.391325,24.483683],[54.391383,24.483617],[54.391353,24.483593],[54.391407,24.483591],[54.39149,24.483495],[54.391306,24.483356],[54.391224,24.483358],[54.391015,24.483564],[54.39122,24.483711],[54.391244,24.48371],[54.391186,24.48376],[54.391324,24.483896],[54.391407,24.483894],[54.391494,24.483818],[54.391356,24.483682],[54.391325,24.483683]]]}},{"type":"Feature","properties":{},"geometry":{"type":"Polygon","coordinates":[[[54.390799,24.484563],[54.390881,24.484561],[54.390973,24.484483],[54.390854,24.484367],[54.390771,24.484369],[54.39068,24.484447],[54.390799,24.484563]]]}},{"type":"Feature","properties":{},"geometry":{"type":"Polygon","coordinates":[[[54.392463,24.488988],[54.392656,24.489084],[54.392839,24.489252],[54.392886,24.489319],[54.392989,24.489316],[54.393261,24.489207],[54.393272,24.489275],[54.393906,24.489203],[54.393853,24.488866],[54.39326,24.488933],[54.393202,24.488903],[54.393147,24.488843],[54.39312,24.488783],[54.393113,24.488719],[54.393127,24.488655],[54.39316,24.488598],[54.393209,24.488551],[54.393285,24.488515],[54.393811,24.488469],[54.393753,24.487914],[54.392872,24.487985],[54.392909,24.488341],[54.392685,24.488619],[54.392586,24.488572],[54.392417,24.488531],[54.392314,24.488534],[54.3923,24.488603],[54.392215,24.488605],[54.392125,24.48894],[54.392304,24.488949],[54.392463,24.488988]]]}},{"type":"Feature","properties":{},"geometry":{"type":"Polygon","coordinates":[[[54.392303,24.490933],[54.392406,24.49093],[54.392475,24.49087],[54.392503,24.49087],[54.39257,24.490997],[54.392999,24.490952],[54.393301,24.49113],[54.393404,24.491127],[54.39344,24.491079],[54.393474,24.491116],[54.393566,24.49117],[54.393672,24.491195],[54.393756,24.491192],[54.393441,24.491575],[54.393494,24.491719],[54.39383,24.491951],[54.393885,24.49195],[54.395108,24.490481],[54.394937,24.490369],[54.394655,24.490384],[54.394497,24.490409],[54.394352,24.490468],[54.394108,24.490764],[54.39408,24.490702],[54.394007,24.490625],[54.393911,24.490572],[54.393809,24.49055],[54.393837,24.490548],[54.393943,24.490491],[54.394081,24.490315],[54.393994,24.489811],[54.393607,24.489838],[54.39334,24.489687],[54.392995,24.489698],[54.392899,24.490086],[54.392856,24.490178],[54.392772,24.49028],[54.392729,24.490281],[54.392598,24.490361],[54.392349,24.490475],[54.39216,24.490508],[54.392038,24.490508],[54.391839,24.490462],[54.391736,24.490465],[54.391721,24.490502],[54.391735,24.490577],[54.3917,24.4906],[54.391651,24.49071],[54.391724,24.490779],[54.391942,24.490822],[54.392303,24.490933]]]}},{"type":"Feature","properties":{},"geometry":{"type":"Polygon","coordinates":[[[54.392169,24.491164],[54.39221,24.49149],[54.392585,24.491457],[54.39257,24.49134],[54.392978,24.491297],[54.392952,24.491088],[54.392169,24.491164]]]}},{"type":"Feature","properties":{},"geometry":{"type":"Polygon","coordinates":[[[54.39246,24.491593],[54.392547,24.492146],[54.393045,24.49209],[54.393072,24.49189],[54.393016,24.49153],[54.39246,24.491593]]]}},{"type":"Feature","properties":{},"geometry":{"type":"Polygon","coordinates":[[[54.392226,24.492479],[54.392288,24.492864],[54.392953,24.492784],[54.39289,24.492398],[54.392226,24.492479]]]}},{"type":"Feature","properties":{},"geometry":{"type":"Polygon","coordinates":[[[54.390775,24.492865],[54.390669,24.492769],[54.390587,24.492771],[54.390399,24.492942],[54.390505,24.493039],[54.390588,24.493036],[54.390775,24.492865]]]}},{"type":"Feature","properties":{},"geometry":{"type":"Polygon","coordinates":[[[54.389361,24.494209],[54.390253,24.494113],[54.390204,24.493758],[54.389311,24.493854],[54.389361,24.494209]]]}},{"type":"Feature","properties":{},"geometry":{"type":"Polygon","coordinates":[[[54.392741,24.49608],[54.392823,24.496078],[54.39288,24.496036],[54.393731,24.495951],[54.393739,24.496008],[54.393946,24.495992],[54.394152,24.495809],[54.394368,24.495784],[54.394283,24.495174],[54.393632,24.495242],[54.393642,24.495313],[54.392676,24.495443],[54.392741,24.49608]]]}},{"type":"Feature","properties":{},"geometry":{"type":"Polygon","coordinates":[[[54.390156,24.496107],[54.390173,24.496107],[54.390205,24.496364],[54.390725,24.496326],[54.390712,24.496097],[54.390662,24.496099],[54.390709,24.496094],[54.390658,24.495674],[54.390109,24.495729],[54.390113,24.495837],[54.390241,24.495833],[54.390264,24.496024],[54.390147,24.496033],[54.390156,24.496107]],[[54.390564,24.496268],[54.390463,24.496271],[54.390459,24.496236],[54.39053,24.496229],[54.39052,24.496146],[54.390557,24.496145],[54.390564,24.496268]]]}},{"type":"Feature","properties":{},"geometry":{"type":"Polygon","coordinates":[[[54.391746,24.49701],[54.391744,24.496971],[54.391422,24.496985],[54.391421,24.497019],[54.391746,24.49701]]]}},{"type":"Feature","properties":{},"geometry":{"type":"Polygon","coordinates":[[[54.391615,24.497128],[54.391752,24.497116],[54.391744,24.497078],[54.391607,24.49709],[54.391615,24.497128]]]}},{"type":"Feature","properties":{},"geometry":{"type":"Polygon","coordinates":[[[54.391186,24.49705],[54.391184,24.497144],[54.391386,24.497144],[54.391392,24.49705],[54.391186,24.49705]]]}},{"type":"Feature","properties":{},"geometry":{"type":"Polygon","coordinates":[[[54.391427,24.497178],[54.391232,24.497178],[54.39123,24.497241],[54.391425,24.497242],[54.391427,24.497178]]]}},{"type":"Feature","properties":{},"geometry":{"type":"Polygon","coordinates":[[[54.391404,24.498122],[54.391497,24.498179],[54.392738,24.498136],[54.392706,24.497917],[54.39233,24.497791],[54.391505,24.497815],[54.391368,24.497883],[54.391404,24.498122]]]}},{"type":"Feature","properties":{},"geometry":{"type":"Polygon","coordinates":[[[54.393435,24.498195],[54.393437,24.498115],[54.393313,24.498116],[54.39331,24.498197],[54.393435,24.498195]]]}},{"type":"Feature","properties":{},"geometry":{"type":"Polygon","coordinates":[[[54.389941,24.498568],[54.391056,24.498459],[54.391012,24.498105],[54.389896,24.498215],[54.389941,24.498568]]]}},{"type":"Feature","properties":{},"geometry":{"type":"Polygon","coordinates":[[[54.391971,24.500724],[54.391623,24.500751],[54.39166,24.500999],[54.392004,24.500967],[54.391971,24.500724]]]}},{"type":"Feature","properties":{},"geometry":{"type":"Polygon","coordinates":[[[54.390332,24.502526],[54.390406,24.5031],[54.390557,24.503095],[54.391308,24.503031],[54.391251,24.502518],[54.39157,24.502476],[54.391132,24.498839],[54.39098,24.498843],[54.389877,24.498968],[54.390312,24.502373],[54.389868,24.502417],[54.389887,24.502566],[54.390332,24.502526]]]}},{"type":"Feature","properties":{},"geometry":{"type":"Polygon","coordinates":[[[54.392099,24.503682],[54.392274,24.503667],[54.392266,24.503618],[54.392091,24.503633],[54.392099,24.503682]]]}},{"type":"Feature","properties":{},"geometry":{"type":"Polygon","coordinates":[[[54.392463,24.503812],[54.392637,24.503808],[54.392636,24.50376],[54.392463,24.503763],[54.392463,24.503812]]]}},{"type":"Feature","properties":{},"geometry":{"type":"Polygon","coordinates":[[[54.392105,24.503737],[54.392111,24.503839],[54.392357,24.503829],[54.39235,24.503726],[54.392105,24.503737]]]}},{"type":"Feature","properties":{},"geometry":{"type":"Polygon","coordinates":[[[54.392065,24.504132],[54.392187,24.504128],[54.392198,24.504224],[54.39209,24.504227],[54.392098,24.504395],[54.392217,24.504392],[54.392222,24.504432],[54.392586,24.504398],[54.39258,24.504302],[54.392674,24.504282],[54.392663,24.504247],[54.392576,24.50425],[54.39257,24.504163],[54.392384,24.504171],[54.392379,24.504127],[54.392462,24.504124],[54.392673,24.504099],[54.392641,24.503879],[54.392054,24.50394],[54.392065,24.504132]]]}},{"type":"Feature","properties":{},"geometry":{"type":"Polygon","coordinates":[[[54.39221,24.504771],[54.392735,24.504725],[54.392702,24.50445],[54.392177,24.504496],[54.39221,24.504771]]]}},{"type":"Feature","properties":{},"geometry":{"type":"Polygon","coordinates":[[[54.392181,24.504943],[54.392318,24.504936],[54.39231,24.504856],[54.392173,24.504863],[54.392181,24.504943]]]}},{"type":"Feature","properties":{},"geometry":{"type":"Polygon","coordinates":[[[54.392482,24.505074],[54.392675,24.505061],[54.392645,24.504812],[54.392452,24.504825],[54.392482,24.505074]]]}},{"type":"Feature","properties":{},"geometry":{"type":"Polygon","coordinates":[[[54.392351,24.505193],[54.392517,24.505188],[54.392514,24.505079],[54.392319,24.505083],[54.392319,24.505102],[54.392208,24.505104],[54.392211,24.505213],[54.392352,24.50521],[54.392351,24.505193]]]}},{"type":"Feature","properties":{},"geometry":{"type":"Polygon","coordinates":[[[54.392558,24.505648],[54.392855,24.505633],[54.392819,24.505133],[54.392522,24.505149],[54.392558,24.505648]]]}},{"type":"Feature","properties":{},"geometry":{"type":"Polygon","coordinates":[[[54.390096,24.505454],[54.390076,24.505202],[54.389795,24.505218],[54.389842,24.505811],[54.390139,24.505795],[54.390112,24.505454],[54.390096,24.505454]]]}},{"type":"Feature","properties":{},"geometry":{"type":"Polygon","coordinates":[[[54.391776,24.506856],[54.391948,24.506844],[54.391942,24.506798],[54.39177,24.50681],[54.391776,24.506856]]]}},{"type":"Feature","properties":{},"geometry":{"type":"Polygon","coordinates":[[[54.391888,24.506957],[54.392083,24.506957],[54.39215,24.506943],[54.392137,24.506894],[54.392181,24.506885],[54.39217,24.506843],[54.392088,24.506846],[54.391978,24.506869],[54.391984,24.50689],[54.39188,24.506896],[54.391888,24.506957]]]}},{"type":"Feature","properties":{},"geometry":{"type":"Polygon","coordinates":[[[54.392556,24.507137],[54.392824,24.507123],[54.392798,24.50678],[54.39253,24.506794],[54.392556,24.507137]]]}},{"type":"Feature","properties":{},"geometry":{"type":"Polygon","coordinates":[[[54.391816,24.507144],[54.392024,24.507139],[54.392022,24.507051],[54.391814,24.507055],[54.391816,24.507144]]]}},{"type":"Feature","properties":{},"geometry":{"type":"Polygon","coordinates":[[[54.392911,24.507214],[54.393075,24.507203],[54.393068,24.507149],[54.392904,24.50716],[54.392911,24.507214]]]}},{"type":"Feature","properties":{},"geometry":{"type":"Polygon","coordinates":[[[54.391541,24.50749],[54.392027,24.507463],[54.392017,24.507325],[54.391531,24.507352],[54.391541,24.50749]]]}},{"type":"Feature","properties":{},"geometry":{"type":"Polygon","coordinates":[[[54.391046,24.50751],[54.391262,24.507509],[54.391263,24.507428],[54.391047,24.507429],[54.391046,24.50751]]]}},{"type":"Feature","properties":{},"geometry":{"type":"Polygon","coordinates":[[[54.393298,24.508732],[54.3933,24.508698],[54.39297,24.508709],[54.39297,24.508739],[54.393298,24.508732]]]}},{"type":"Feature","properties":{},"geometry":{"type":"Polygon","coordinates":[[[54.393174,24.509734],[54.393103,24.509694],[54.393021,24.509696],[54.392992,24.509738],[54.393063,24.509778],[54.393146,24.509775],[54.393174,24.509734]]]}},{"type":"Feature","properties":{},"geometry":{"type":"Polygon","coordinates":[[[54.404658,24.48116],[54.40474,24.481157],[54.404797,24.481134],[54.404779,24.481099],[54.404697,24.481102],[54.40464,24.481125],[54.404658,24.48116]]]}},{"type":"Feature","properties":{},"geometry":{"type":"Polygon","coordinates":[[[54.403999,24.481581],[54.404528,24.481311],[54.404365,24.481034],[54.404282,24.481036],[54.403673,24.48131],[54.403917,24.481584],[54.403999,24.481581]]]}},{"type":"Feature","properties":{},"geometry":{"type":"Polygon","coordinates":[[[54.403095,24.483396],[54.403233,24.483392],[54.403158,24.483175],[54.403392,24.483042],[54.403216,24.482702],[54.402892,24.482266],[54.402754,24.48227],[54.402524,24.482363],[54.4025,24.482351],[54.402514,24.482238],[54.402291,24.482238],[54.401421,24.483154],[54.401422,24.483271],[54.401463,24.483334],[54.401638,24.483375],[54.401775,24.483371],[54.401973,24.483286],[54.402263,24.483208],[54.40257,24.483215],[54.403095,24.483396]]]}},{"type":"Feature","properties":{},"geometry":{"type":"Polygon","coordinates":[[[54.404555,24.485027],[54.404625,24.484808],[54.404622,24.484512],[54.403751,24.484451],[54.40362,24.484898],[54.403526,24.485074],[54.40334,24.485265],[54.403951,24.4858],[54.404034,24.485798],[54.40423,24.485607],[54.404449,24.485271],[54.404555,24.485027]]]}},{"type":"Feature","properties":{},"geometry":{"type":"Polygon","coordinates":[[[54.400631,24.486302],[54.40032,24.486616],[54.400169,24.486792],[54.400636,24.487122],[54.400754,24.487158],[54.400836,24.487156],[54.400949,24.487114],[54.40129,24.48636],[54.400825,24.486121],[54.400743,24.486123],[54.400631,24.486302]]]}},{"type":"Feature","properties":{},"geometry":{"type":"Polygon","coordinates":[[[54.404614,24.486643],[54.404266,24.486279],[54.404229,24.486254],[54.404177,24.486248],[54.403971,24.486254],[54.403234,24.486607],[54.403444,24.48716],[54.403478,24.487193],[54.40353,24.487207],[54.403736,24.487201],[54.403973,24.487117],[54.404328,24.486927],[54.404596,24.48673],[54.404624,24.486691],[54.404614,24.486643]],[[54.404008,24.486596],[54.404072,24.486675],[54.403801,24.486827],[54.40376,24.486715],[54.404008,24.486596]]]}},{"type":"Feature","properties":{},"geometry":{"type":"Polygon","coordinates":[[[54.396267,24.487157],[54.396155,24.487145],[54.395144,24.487174],[54.395019,24.487192],[54.39497,24.487235],[54.395012,24.487275],[54.394866,24.487404],[54.394906,24.48744],[54.394864,24.487477],[54.394986,24.48759],[54.395997,24.487561],[54.396381,24.48722],[54.396349,24.48719],[54.396267,24.487157]]]}},{"type":"Feature","properties":{},"geometry":{"type":"Polygon","coordinates":[[[54.394198,24.487939],[54.394521,24.488303],[54.394603,24.488301],[54.394646,24.488268],[54.394793,24.488419],[54.395763,24.488391],[54.395787,24.488371],[54.395938,24.488367],[54.396155,24.488191],[54.396081,24.488116],[54.396179,24.488037],[54.396006,24.487861],[54.395119,24.487886],[54.394829,24.48747],[54.394703,24.487341],[54.39462,24.487343],[54.394596,24.487363],[54.394555,24.487364],[54.394369,24.487515],[54.394524,24.487662],[54.394471,24.487707],[54.394358,24.487598],[54.394275,24.4876],[54.394095,24.487756],[54.394113,24.487773],[54.394066,24.487813],[54.394198,24.487939]]]}},{"type":"Feature","properties":{},"geometry":{"type":"Polygon","coordinates":[[[54.402963,24.489593],[54.402707,24.488134],[54.402371,24.488084],[54.401856,24.487979],[54.401227,24.487762],[54.400193,24.487301],[54.399626,24.486932],[54.39905,24.4865],[54.398968,24.486502],[54.397734,24.487851],[54.398874,24.488706],[54.400196,24.489399],[54.400966,24.489714],[54.401757,24.489883],[54.402683,24.489941],[54.402963,24.489593]]]}},{"type":"Feature","properties":{},"geometry":{"type":"Polygon","coordinates":[[[54.395756,24.488811],[54.395654,24.488813],[54.395643,24.488722],[54.394508,24.488755],[54.394327,24.488773],[54.394339,24.488873],[54.39419,24.488888],[54.394231,24.489235],[54.394385,24.489231],[54.394398,24.489338],[54.395533,24.489305],[54.39572,24.489286],[54.395707,24.489173],[54.395799,24.489164],[54.395756,24.488811]]]}},{"type":"Feature","properties":{},"geometry":{"type":"Polygon","coordinates":[[[54.395839,24.48954],[54.395737,24.489543],[54.395726,24.489451],[54.394592,24.489484],[54.39441,24.489501],[54.394421,24.489601],[54.394271,24.489615],[54.394312,24.489967],[54.394466,24.489962],[54.394481,24.490096],[54.395616,24.490063],[54.395804,24.490045],[54.395787,24.4899],[54.39588,24.489892],[54.395839,24.48954]]]}},{"type":"Feature","properties":{},"geometry":{"type":"Polygon","coordinates":[[[54.400058,24.490467],[54.400098,24.490732],[54.400485,24.490691],[54.400444,24.490426],[54.400058,24.490467]]]}},{"type":"Feature","properties":{},"geometry":{"type":"Polygon","coordinates":[[[54.396465,24.491236],[54.396508,24.491187],[54.396284,24.491026],[54.396353,24.491024],[54.396554,24.490792],[54.396315,24.49062],[54.395387,24.490647],[54.395185,24.490879],[54.395399,24.491032],[54.395186,24.491038],[54.395007,24.491243],[54.395249,24.491417],[54.395333,24.491414],[54.395386,24.491452],[54.396459,24.491421],[54.39656,24.491305],[54.396465,24.491236]]]}},{"type":"Feature","properties":{},"geometry":{"type":"Polygon","coordinates":[[[54.394184,24.492454],[54.395243,24.492424],[54.395345,24.492307],[54.395249,24.492239],[54.395273,24.492211],[54.395643,24.4922],[54.395662,24.492176],[54.395811,24.492172],[54.395886,24.492078],[54.395811,24.492028],[54.395875,24.491948],[54.395757,24.491871],[54.396205,24.491858],[54.396307,24.491741],[54.396212,24.491672],[54.396255,24.491623],[54.396005,24.491444],[54.394932,24.491475],[54.394754,24.49168],[54.394992,24.491851],[54.394529,24.491865],[54.394398,24.492028],[54.393984,24.49204],[54.393805,24.492246],[54.394047,24.492419],[54.394131,24.492417],[54.394184,24.492454]]]}},{"type":"Feature","properties":{},"geometry":{"type":"Polygon","coordinates":[[[54.398541,24.492176],[54.398749,24.492155],[54.398707,24.491838],[54.398498,24.491854],[54.398541,24.492176]]]}},{"type":"Feature","properties":{},"geometry":{"type":"Polygon","coordinates":[[[54.399164,24.492318],[54.398929,24.492339],[54.398908,24.492213],[54.398753,24.492225],[54.398781,24.49246],[54.399178,24.492418],[54.399164,24.492318]]]}},{"type":"Feature","properties":{},"geometry":{"type":"Polygon","coordinates":[[[54.398525,24.492233],[54.39857,24.492562],[54.398729,24.492551],[54.398684,24.492222],[54.398525,24.492233]]]}},{"type":"Feature","properties":{},"geometry":{"type":"Polygon","coordinates":[[[54.396145,24.49233],[54.395736,24.492255],[54.395653,24.492258],[54.395588,24.492557],[54.395997,24.492631],[54.396079,24.492629],[54.396145,24.49233]]]}},{"type":"Feature","properties":{},"geometry":{"type":"Polygon","coordinates":[[[54.399973,24.493406],[54.400786,24.493318],[54.400732,24.492933],[54.399918,24.49302],[54.399973,24.493406]]]}},{"type":"Feature","properties":{},"geometry":{"type":"Polygon","coordinates":[[[54.403841,24.49439],[54.404045,24.494498],[54.404128,24.494495],[54.404257,24.494292],[54.405123,24.494267],[54.405406,24.493822],[54.405323,24.493779],[54.405232,24.493779],[54.405265,24.493727],[54.405159,24.493672],[54.404999,24.493676],[54.404994,24.493639],[54.404583,24.493651],[54.404636,24.493569],[54.404609,24.493555],[54.404664,24.493469],[54.4045,24.493383],[54.404418,24.493385],[54.404386,24.493435],[54.404047,24.493458],[54.403997,24.493545],[54.403956,24.493525],[54.403789,24.493536],[54.403786,24.493507],[54.403359,24.493544],[54.403368,24.493617],[54.403273,24.493627],[54.403326,24.494059],[54.403286,24.494063],[54.403322,24.494353],[54.403626,24.494328],[54.403653,24.494365],[54.403701,24.49439],[54.403841,24.49439]]]}},{"type":"Feature","properties":{},"geometry":{"type":"Polygon","coordinates":[[[54.393603,24.494482],[54.393597,24.494439],[54.393515,24.494441],[54.393367,24.494459],[54.393371,24.494483],[54.39331,24.49449],[54.393345,24.49473],[54.393696,24.494696],[54.393665,24.49448],[54.393603,24.494482]]]}},{"type":"Feature","properties":{},"geometry":{"type":"Polygon","coordinates":[[[54.39431,24.497106],[54.39439,24.49739],[54.394641,24.497508],[54.394724,24.497506],[54.394851,24.49744],[54.394968,24.497346],[54.394957,24.497272],[54.395,24.497209],[54.395079,24.49717],[54.395113,24.497111],[54.394625,24.496819],[54.394542,24.496821],[54.39431,24.497106]]]}},{"type":"Feature","properties":{},"geometry":{"type":"Polygon","coordinates":[[[54.404218,24.498075],[54.404165,24.498054],[54.404083,24.498057],[54.404069,24.498085],[54.404122,24.498105],[54.404205,24.498103],[54.404218,24.498075]]]}},{"type":"Feature","properties":{},"geometry":{"type":"Polygon","coordinates":[[[54.404275,24.498236],[54.404257,24.498204],[54.40427,24.498189],[54.404184,24.498127],[54.404143,24.498128],[54.404081,24.498093],[54.403978,24.498096],[54.403208,24.498413],[54.403016,24.498458],[54.402864,24.498563],[54.402757,24.498744],[54.40274,24.498873],[54.402759,24.498984],[54.402809,24.499041],[54.40277,24.499106],[54.402825,24.499141],[54.40285,24.499176],[54.402864,24.49922],[54.402856,24.499279],[54.403021,24.499304],[54.404278,24.499268],[54.404406,24.499281],[54.404407,24.499292],[54.40468,24.499299],[54.404834,24.499295],[54.404981,24.499265],[54.405074,24.499262],[54.405133,24.499247],[54.405166,24.499223],[54.405638,24.499209],[54.405367,24.499437],[54.405053,24.499607],[54.404809,24.499678],[54.404139,24.499698],[54.404348,24.499579],[54.404345,24.499558],[54.404391,24.499556],[54.404422,24.49953],[54.404423,24.499487],[54.4044,24.499443],[54.404315,24.499358],[54.404266,24.499343],[54.403484,24.499365],[54.403448,24.499406],[54.403154,24.499593],[54.403093,24.499605],[54.40308,24.499633],[54.403087,24.499668],[54.403154,24.499754],[54.403248,24.499802],[54.403342,24.4998],[54.403476,24.499943],[54.403581,24.500013],[54.403698,24.500065],[54.403823,24.500099],[54.403952,24.500113],[54.404111,24.500109],[54.404135,24.500134],[54.404109,24.500161],[54.404113,24.500183],[54.404184,24.500229],[54.404483,24.500228],[54.404483,24.500286],[54.404871,24.500263],[54.405146,24.500202],[54.405468,24.500183],[54.405566,24.500113],[54.405609,24.500112],[54.40569,24.500023],[54.405651,24.500003],[54.40568,24.49999],[54.406078,24.499978],[54.406248,24.499959],[54.406302,24.499918],[54.406309,24.499854],[54.406255,24.499782],[54.406168,24.49974],[54.406174,24.499724],[54.406547,24.499714],[54.406604,24.499665],[54.406643,24.499533],[54.406671,24.499532],[54.406679,24.499417],[54.40663,24.499418],[54.406591,24.499322],[54.406528,24.499266],[54.406411,24.499263],[54.406483,24.499135],[54.406584,24.498887],[54.406639,24.498599],[54.406655,24.498327],[54.406632,24.498104],[54.406554,24.497799],[54.405753,24.497648],[54.405643,24.497652],[54.405791,24.497852],[54.405853,24.497983],[54.405209,24.498001],[54.405129,24.498028],[54.405089,24.49808],[54.4051,24.498143],[54.405047,24.498153],[54.404875,24.498333],[54.404851,24.498402],[54.404855,24.498473],[54.40483,24.498577],[54.404772,24.498671],[54.404698,24.498736],[54.40458,24.498786],[54.404481,24.498772],[54.404327,24.498776],[54.404272,24.498795],[54.403569,24.498816],[54.40358,24.498781],[54.40365,24.498698],[54.403756,24.498627],[54.403733,24.498576],[54.40403,24.49846],[54.404171,24.498376],[54.404253,24.498288],[54.404275,24.498236]],[[54.405921,24.498694],[54.405595,24.498703],[54.40559,24.498493],[54.405929,24.498484],[54.405921,24.498694]]]}},{"type":"Feature","properties":{},"geometry":{"type":"Polygon","coordinates":[[[54.396211,24.498516],[54.396073,24.498517],[54.39607,24.498583],[54.396209,24.498582],[54.396211,24.498516]]]}},{"type":"Feature","properties":{},"geometry":{"type":"Polygon","coordinates":[[[54.393466,24.49866],[54.393621,24.499665],[54.395452,24.499469],[54.395342,24.498661],[54.395218,24.49854],[54.393466,24.49866]]]}},{"type":"Feature","properties":{},"geometry":{"type":"Polygon","coordinates":[[[54.395447,24.499997],[54.395645,24.499978],[54.395617,24.499824],[54.395419,24.499844],[54.395447,24.499997]]]}},{"type":"Feature","properties":{},"geometry":{"type":"Polygon","coordinates":[[[54.395264,24.500113],[54.395379,24.500105],[54.395356,24.5],[54.395241,24.500009],[54.395264,24.500113]]]}},{"type":"Feature","properties":{},"geometry":{"type":"Polygon","coordinates":[[[54.39489,24.500451],[54.395019,24.500441],[54.394998,24.500327],[54.394869,24.500337],[54.39489,24.500451]]]}},{"type":"Feature","properties":{},"geometry":{"type":"Polygon","coordinates":[[[54.394922,24.50055],[54.395064,24.501399],[54.395712,24.501318],[54.39557,24.50047],[54.394922,24.50055]]]}},{"type":"Feature","properties":{},"geometry":{"type":"Polygon","coordinates":[[[54.395829,24.501895],[54.395661,24.501895],[54.395658,24.501997],[54.395826,24.501997],[54.395829,24.501895]]]}},{"type":"Feature","properties":{},"geometry":{"type":"Polygon","coordinates":[[[54.395492,24.502519],[54.396006,24.502458],[54.395956,24.50215],[54.395441,24.502211],[54.395492,24.502519]]]}},{"type":"Feature","properties":{},"geometry":{"type":"Polygon","coordinates":[[[54.397407,24.504788],[54.397562,24.504782],[54.397556,24.504681],[54.397401,24.504687],[54.397407,24.504788]]]}},{"type":"Feature","properties":{},"geometry":{"type":"Polygon","coordinates":[[[54.404497,24.507354],[54.40458,24.507351],[54.404613,24.507323],[54.404519,24.507233],[54.404437,24.507235],[54.404404,24.507263],[54.404497,24.507354]]]}},{"type":"Feature","properties":{},"geometry":{"type":"Polygon","coordinates":[[[54.393408,24.509404],[54.393334,24.509406],[54.393287,24.509433],[54.393323,24.509482],[54.393096,24.509587],[54.393144,24.509669],[54.393213,24.509666],[54.393287,24.509787],[54.39337,24.509785],[54.393707,24.509614],[54.393695,24.509594],[54.393877,24.509502],[54.393662,24.509149],[54.39374,24.509147],[54.393738,24.509091],[54.393604,24.509096],[54.393606,24.509124],[54.393563,24.509125],[54.393369,24.509224],[54.393381,24.509244],[54.393317,24.509272],[54.393408,24.509404]],[[54.393463,24.509469],[54.393444,24.509442],[54.393501,24.50944],[54.393463,24.509469]]]}},{"type":"Feature","properties":{},"geometry":{"type":"Polygon","coordinates":[[[54.393855,24.509448],[54.393937,24.509445],[54.393972,24.509428],[54.393935,24.509368],[54.393853,24.509371],[54.393818,24.509388],[54.393855,24.509448]]]}},{"type":"Feature","properties":{},"geometry":{"type":"Polygon","coordinates":[[[54.394077,24.509894],[54.394159,24.509892],[54.394255,24.50985],[54.39421,24.509763],[54.394174,24.509764],[54.394202,24.509749],[54.394141,24.509658],[54.394123,24.509659],[54.394134,24.509652],[54.394101,24.509603],[54.394018,24.509606],[54.393978,24.509629],[54.394012,24.509678],[54.394028,24.509677],[54.394017,24.509683],[54.394078,24.509774],[54.394109,24.509773],[54.394031,24.509807],[54.394077,24.509894]]]}},{"type":"Feature","properties":{},"geometry":{"type":"Polygon","coordinates":[[[54.393874,24.509991],[54.393999,24.509983],[54.393993,24.509947],[54.393869,24.509955],[54.393874,24.509991]]]}},{"type":"Feature","properties":{},"geometry":{"type":"Polygon","coordinates":[[[54.394277,24.509996],[54.394246,24.509936],[54.394163,24.509938],[54.393848,24.510074],[54.393879,24.510134],[54.393962,24.510132],[54.394277,24.509996]]]}},{"type":"Feature","properties":{},"geometry":{"type":"Polygon","coordinates":[[[54.406406,24.480093],[54.406338,24.479985],[54.406512,24.479893],[54.406455,24.479803],[54.406373,24.479805],[54.406363,24.47981],[54.406259,24.479646],[54.406176,24.479648],[54.405927,24.479779],[54.405983,24.479867],[54.405776,24.479976],[54.405813,24.480035],[54.405737,24.480075],[54.4058,24.480173],[54.405821,24.480173],[54.405905,24.480306],[54.405988,24.480303],[54.406406,24.480093]]]}},{"type":"Feature","properties":{},"geometry":{"type":"Polygon","coordinates":[[[54.406918,24.479997],[54.406854,24.479933],[54.406771,24.479935],[54.406679,24.480012],[54.406743,24.480076],[54.406825,24.480074],[54.406918,24.479997]]]}},{"type":"Feature","properties":{},"geometry":{"type":"Polygon","coordinates":[[[54.406404,24.480249],[54.406367,24.480324],[54.406349,24.480324],[54.406305,24.480384],[54.406104,24.480529],[54.406136,24.480569],[54.406185,24.480567],[54.406214,24.480596],[54.406287,24.480594],[54.406437,24.480741],[54.406519,24.480739],[54.406665,24.480616],[54.406495,24.480449],[54.406527,24.480448],[54.406561,24.480401],[54.406519,24.480375],[54.406566,24.480374],[54.406605,24.480294],[54.406486,24.480246],[54.406404,24.480249]]]}},{"type":"Feature","properties":{},"geometry":{"type":"Polygon","coordinates":[[[54.405699,24.480497],[54.405782,24.480495],[54.405857,24.480457],[54.40583,24.480412],[54.405748,24.480415],[54.405672,24.480452],[54.405699,24.480497]]]}},{"type":"Feature","properties":{},"geometry":{"type":"Polygon","coordinates":[[[54.405322,24.480774],[54.405303,24.480754],[54.405316,24.480744],[54.405345,24.480777],[54.405472,24.480782],[54.405591,24.480695],[54.405449,24.480535],[54.405367,24.480537],[54.405315,24.480575],[54.405255,24.480508],[54.405173,24.48051],[54.405078,24.480579],[54.405065,24.480564],[54.404982,24.480566],[54.404751,24.480736],[54.404947,24.480958],[54.40503,24.480956],[54.405187,24.480856],[54.405211,24.480855],[54.405322,24.480774]]]}},{"type":"Feature","properties":{},"geometry":{"type":"Polygon","coordinates":[[[54.405261,24.482119],[54.405287,24.48226],[54.405336,24.482344],[54.405368,24.482343],[54.405417,24.48244],[54.406036,24.482422],[54.40627,24.482306],[54.40624,24.482205],[54.406209,24.482206],[54.406205,24.482187],[54.406499,24.482178],[54.406739,24.482028],[54.406657,24.481939],[54.406847,24.481933],[54.407075,24.481787],[54.406863,24.481499],[54.406797,24.481388],[54.406178,24.481406],[54.406001,24.481509],[54.405923,24.481577],[54.405973,24.481635],[54.405846,24.481639],[54.405621,24.481752],[54.40558,24.481799],[54.405601,24.481854],[54.405636,24.481886],[54.405398,24.481892],[54.40529,24.481997],[54.405261,24.482119]]]}},{"type":"Feature","properties":{},"geometry":{"type":"Polygon","coordinates":[[[54.40679,24.483101],[54.406966,24.483005],[54.406632,24.482496],[54.406607,24.482497],[54.406568,24.482443],[54.406485,24.482446],[54.40631,24.482553],[54.406318,24.482563],[54.406107,24.48267],[54.406143,24.482727],[54.406225,24.482725],[54.4064,24.482635],[54.406708,24.483103],[54.40679,24.483101]]]}},{"type":"Feature","properties":{},"geometry":{"type":"Polygon","coordinates":[[[54.405455,24.483133],[54.405126,24.483265],[54.405318,24.483913],[54.404939,24.484017],[54.404994,24.484359],[54.405785,24.484368],[54.405786,24.48385],[54.405537,24.48313],[54.405455,24.483133]]]}},{"type":"Feature","properties":{},"geometry":{"type":"Polygon","coordinates":[[[54.405825,24.484477],[54.4051,24.48439],[54.405017,24.484393],[54.404939,24.484734],[54.405619,24.484873],[54.405701,24.48487],[54.405825,24.484477]]]}},{"type":"Feature","properties":{},"geometry":{"type":"Polygon","coordinates":[[[54.407419,24.485324],[54.407344,24.485261],[54.407262,24.485263],[54.406967,24.48555],[54.407042,24.485614],[54.407124,24.485611],[54.407419,24.485324]]]}},{"type":"Feature","properties":{},"geometry":{"type":"Polygon","coordinates":[[[54.406942,24.485608],[54.406837,24.485549],[54.406754,24.485552],[54.406713,24.485613],[54.406818,24.485672],[54.406901,24.485669],[54.406942,24.485608]]]}},{"type":"Feature","properties":{},"geometry":{"type":"Polygon","coordinates":[[[54.405686,24.487602],[54.405983,24.487822],[54.406423,24.487809],[54.406567,24.48763],[54.406272,24.487416],[54.405832,24.487429],[54.405686,24.487602]]]}},{"type":"Feature","properties":{},"geometry":{"type":"Polygon","coordinates":[[[54.407401,24.487871],[54.407318,24.487873],[54.406497,24.488337],[54.406776,24.488745],[54.406859,24.488743],[54.40768,24.488279],[54.407401,24.487871]]]}},{"type":"Feature","properties":{},"geometry":{"type":"Polygon","coordinates":[[[54.406989,24.490373],[54.407071,24.49037],[54.407137,24.490349],[54.407103,24.490268],[54.407021,24.490271],[54.406961,24.490292],[54.406989,24.490373]]]}},{"type":"Feature","properties":{},"geometry":{"type":"Polygon","coordinates":[[[54.406558,24.492958],[54.406461,24.492876],[54.406379,24.492879],[54.406249,24.493007],[54.406346,24.493088],[54.406429,24.493086],[54.406558,24.492958]]]}},{"type":"Feature","properties":{},"geometry":{"type":"Polygon","coordinates":[[[54.406247,24.492254],[54.405376,24.492715],[54.405341,24.492999],[54.4062,24.493728],[54.406288,24.493726],[54.406615,24.493454],[54.406039,24.492976],[54.406403,24.49264],[54.40623,24.492519],[54.406443,24.492419],[54.406335,24.492251],[54.406247,24.492254]]]}},{"type":"Feature","properties":{},"geometry":{"type":"Polygon","coordinates":[[[54.406484,24.495297],[54.406499,24.495274],[54.406432,24.495237],[54.40635,24.49524],[54.406305,24.495308],[54.406371,24.495344],[54.406454,24.495342],[54.406474,24.495312],[54.406682,24.495314],[54.406681,24.495286],[54.406484,24.495297]]]}},{"type":"Feature","properties":{},"geometry":{"type":"Polygon","coordinates":[[[54.406568,24.495606],[54.406491,24.495609],[54.40653,24.495589],[54.406477,24.495501],[54.406395,24.495503],[54.406312,24.495545],[54.406365,24.495633],[54.406409,24.495632],[54.406361,24.495724],[54.406546,24.495803],[54.406628,24.495801],[54.406684,24.495692],[54.406613,24.496087],[54.406559,24.496192],[54.406567,24.496251],[54.406631,24.496295],[54.407827,24.496264],[54.408207,24.49638],[54.40831,24.496377],[54.408353,24.496298],[54.408526,24.496384],[54.408742,24.496429],[54.410107,24.496391],[54.410179,24.496484],[54.410729,24.496468],[54.410893,24.496364],[54.410884,24.496353],[54.410927,24.496323],[54.41094,24.496281],[54.411102,24.496276],[54.411325,24.496172],[54.411164,24.495982],[54.410961,24.495987],[54.410887,24.495922],[54.41051,24.495933],[54.410313,24.495901],[54.408818,24.495944],[54.408817,24.495879],[54.408758,24.49583],[54.408444,24.495833],[54.408342,24.495777],[54.408748,24.49518],[54.408961,24.495292],[54.409261,24.495341],[54.409965,24.495312],[54.410308,24.495219],[54.410211,24.495038],[54.409971,24.495045],[54.409756,24.494562],[54.409663,24.494109],[54.409884,24.494004],[54.40988,24.493848],[54.409975,24.493765],[54.410471,24.493454],[54.410932,24.493305],[54.411377,24.493187],[54.411348,24.492977],[54.409532,24.493029],[54.409064,24.493135],[54.408549,24.493307],[54.408054,24.493578],[54.407631,24.493885],[54.407294,24.494291],[54.407536,24.494453],[54.408571,24.495082],[54.408166,24.495679],[54.406997,24.495028],[54.406894,24.495031],[54.406746,24.495437],[54.406645,24.495338],[54.406562,24.495341],[54.406486,24.495406],[54.406596,24.495512],[54.406679,24.49551],[54.406739,24.495459],[54.40669,24.495659],[54.406568,24.495606]],[[54.406479,24.49562],[54.406467,24.495621],[54.406483,24.495613],[54.406479,24.49562]]]}},{"type":"Feature","properties":{},"geometry":{"type":"Polygon","coordinates":[[[54.406379,24.495752],[54.406353,24.495736],[54.40627,24.495738],[54.406224,24.495803],[54.406251,24.495819],[54.406333,24.495816],[54.406379,24.495752]]]}},{"type":"Feature","properties":{},"geometry":{"type":"Polygon","coordinates":[[[54.406167,24.495971],[54.406173,24.49601],[54.406202,24.496035],[54.406323,24.49604],[54.406322,24.496019],[54.406285,24.496005],[54.406272,24.495966],[54.406167,24.495971]]]}},{"type":"Feature","properties":{},"geometry":{"type":"Polygon","coordinates":[[[54.406385,24.496193],[54.406467,24.49619],[54.406483,24.496164],[54.40641,24.496129],[54.406327,24.496131],[54.406312,24.496158],[54.406385,24.496193]]]}},{"type":"Feature","properties":{},"geometry":{"type":"Polygon","coordinates":[[[54.406077,24.496622],[54.405874,24.496535],[54.405635,24.496542],[54.405726,24.496312],[54.405363,24.496192],[54.405073,24.496201],[54.404657,24.496045],[54.404485,24.49605],[54.404158,24.496949],[54.403928,24.497053],[54.404358,24.49798],[54.40453,24.497975],[54.404772,24.497777],[54.405168,24.497765],[54.405429,24.497656],[54.405247,24.497297],[54.405339,24.497294],[54.405401,24.497144],[54.405863,24.497131],[54.405939,24.496951],[54.405977,24.496993],[54.406059,24.496991],[54.406126,24.496943],[54.406045,24.496852],[54.405979,24.496854],[54.406077,24.496622]]]}},{"type":"Feature","properties":{},"geometry":{"type":"Polygon","coordinates":[[[54.406818,24.497121],[54.407012,24.497116],[54.407197,24.497067],[54.407468,24.497077],[54.408106,24.497162],[54.408347,24.497155],[54.408363,24.497116],[54.408709,24.497309],[54.409397,24.497289],[54.410217,24.496898],[54.410072,24.496669],[54.409385,24.496689],[54.409026,24.496849],[54.408469,24.496865],[54.408485,24.496827],[54.408276,24.496757],[54.407965,24.496679],[54.407731,24.496651],[54.407491,24.496658],[54.407485,24.49676],[54.407014,24.496758],[54.40675,24.49682],[54.406739,24.49677],[54.406656,24.496773],[54.406329,24.496853],[54.406432,24.497223],[54.406515,24.497221],[54.406823,24.49714],[54.406818,24.497121]]]}},{"type":"Feature","properties":{},"geometry":{"type":"Polygon","coordinates":[[[54.405883,24.497285],[54.4058,24.497287],[54.40574,24.497548],[54.406,24.497594],[54.406083,24.497592],[54.406095,24.497538],[54.406136,24.497537],[54.406171,24.497388],[54.406073,24.497373],[54.406089,24.497324],[54.405883,24.497285]]]}},{"type":"Feature","properties":{},"geometry":{"type":"Polygon","coordinates":[[[54.406917,24.503485],[54.407079,24.503465],[54.407026,24.503342],[54.406943,24.503344],[54.40688,24.503364],[54.406917,24.503485]]]}},{"type":"Feature","properties":{},"geometry":{"type":"Polygon","coordinates":[[[54.406608,24.504536],[54.406432,24.504537],[54.406428,24.504679],[54.406606,24.504679],[54.406608,24.504536]]]}},{"type":"Feature","properties":{},"geometry":{"type":"Polygon","coordinates":[[[54.406141,24.504759],[54.406315,24.504736],[54.406266,24.504568],[54.406088,24.504593],[54.406141,24.504759]]]}},{"type":"Feature","properties":{},"geometry":{"type":"Polygon","coordinates":[[[54.406457,24.505723],[54.406702,24.505922],[54.407458,24.5059],[54.407549,24.505795],[54.407584,24.505673],[54.407544,24.505531],[54.40743,24.505431],[54.406679,24.505452],[54.406427,24.505238],[54.406344,24.50524],[54.406082,24.505495],[54.406364,24.505735],[54.406457,24.505723]]]}},{"type":"Feature","properties":{},"geometry":{"type":"Polygon","coordinates":[[[54.405575,24.505786],[54.405668,24.505472],[54.405467,24.505422],[54.405385,24.505424],[54.405291,24.505739],[54.405492,24.505789],[54.405575,24.505786]]]}},{"type":"Feature","properties":{},"geometry":{"type":"Polygon","coordinates":[[[54.405557,24.505921],[54.405262,24.505826],[54.405179,24.505828],[54.405064,24.506126],[54.405359,24.506221],[54.405442,24.506219],[54.405557,24.505921]]]}},{"type":"Feature","properties":{},"geometry":{"type":"Polygon","coordinates":[[[54.405427,24.506363],[54.405149,24.506277],[54.405066,24.506279],[54.404973,24.506527],[54.405252,24.506613],[54.405334,24.506611],[54.405427,24.506363]]]}},{"type":"Feature","properties":{},"geometry":{"type":"Polygon","coordinates":[[[54.405319,24.506713],[54.405031,24.506617],[54.404948,24.50662],[54.404806,24.507019],[54.405062,24.507112],[54.405144,24.507109],[54.405319,24.506713]]]}},{"type":"Feature","properties":{},"geometry":{"type":"Polygon","coordinates":[[[54.406721,24.507521],[54.406803,24.507518],[54.406847,24.50749],[54.406727,24.507339],[54.406644,24.507341],[54.406601,24.50737],[54.406721,24.507521]]]}},{"type":"Feature","properties":{},"geometry":{"type":"Polygon","coordinates":[[[54.406419,24.506932],[54.405529,24.506966],[54.404898,24.508066],[54.404993,24.508131],[54.405818,24.508107],[54.406181,24.508044],[54.406687,24.507135],[54.40668,24.507055],[54.406419,24.506932]]]}},{"type":"Feature","properties":{},"geometry":{"type":"Polygon","coordinates":[[[54.406121,24.509114],[54.406295,24.509109],[54.406344,24.509146],[54.406426,24.509143],[54.406462,24.509104],[54.406781,24.509095],[54.406893,24.50898],[54.406687,24.508778],[54.407037,24.508767],[54.407149,24.508653],[54.406871,24.508379],[54.407305,24.508366],[54.407417,24.508251],[54.407027,24.507867],[54.406367,24.507886],[54.406249,24.507993],[54.406533,24.508275],[54.406098,24.508287],[54.40598,24.508394],[54.406193,24.508604],[54.405842,24.508615],[54.405724,24.508722],[54.406121,24.509114]]]}},{"type":"Feature","properties":{},"geometry":{"type":"Polygon","coordinates":[[[54.405231,24.509371],[54.405105,24.509539],[54.405253,24.509684],[54.405395,24.50968],[54.405418,24.509695],[54.406071,24.509676],[54.406252,24.509413],[54.40613,24.509349],[54.405231,24.509371]]]}},{"type":"Feature","properties":{},"geometry":{"type":"Polygon","coordinates":[[[54.410524,24.48008],[54.410606,24.480078],[54.410675,24.480011],[54.410525,24.479883],[54.410443,24.479885],[54.410374,24.479952],[54.410524,24.48008]]]}},{"type":"Feature","properties":{},"geometry":{"type":"Polygon","coordinates":[[[54.407183,24.482071],[54.407041,24.482137],[54.407181,24.482327],[54.407302,24.482429],[54.407416,24.48261],[54.408104,24.48259],[54.408293,24.482519],[54.408335,24.482388],[54.407937,24.481943],[54.407249,24.481963],[54.407183,24.482071]]]}},{"type":"Feature","properties":{},"geometry":{"type":"Polygon","coordinates":[[[54.409312,24.483001],[54.40949,24.482995],[54.409486,24.482881],[54.409307,24.482887],[54.409312,24.483001]]]}},{"type":"Feature","properties":{},"geometry":{"type":"Polygon","coordinates":[[[54.408734,24.484766],[54.408334,24.484777],[54.408129,24.484931],[54.408142,24.484996],[54.408361,24.485107],[54.408447,24.485104],[54.408489,24.48516],[54.408929,24.485147],[54.409042,24.485063],[54.408879,24.484881],[54.409269,24.48487],[54.409478,24.484729],[54.409233,24.484427],[54.408793,24.48444],[54.408584,24.484581],[54.408734,24.484766]]]}},{"type":"Feature","properties":{},"geometry":{"type":"Polygon","coordinates":[[[54.409124,24.485614],[54.409084,24.485571],[54.409001,24.485574],[54.408922,24.485635],[54.408963,24.485678],[54.409045,24.485676],[54.409124,24.485614]]]}},{"type":"Feature","properties":{},"geometry":{"type":"Polygon","coordinates":[[[54.407456,24.485685],[54.407698,24.485879],[54.408138,24.485866],[54.40833,24.485668],[54.408268,24.485618],[54.408231,24.485619],[54.408005,24.485432],[54.407564,24.485445],[54.407378,24.485639],[54.407438,24.485686],[54.407456,24.485685]]]}},{"type":"Feature","properties":{},"geometry":{"type":"Polygon","coordinates":[[[54.409484,24.48606],[54.409803,24.486065],[54.409886,24.486042],[54.409969,24.485958],[54.410025,24.485845],[54.410504,24.486668],[54.410683,24.486663],[54.411042,24.486495],[54.410542,24.485614],[54.410581,24.485588],[54.410592,24.485515],[54.410583,24.485462],[54.410567,24.485441],[54.410429,24.485445],[54.410429,24.48542],[54.410541,24.485417],[54.410583,24.485389],[54.410613,24.485317],[54.410746,24.485264],[54.410723,24.485276],[54.410774,24.485354],[54.410856,24.485352],[54.410965,24.485294],[54.410915,24.485216],[54.410862,24.485217],[54.411156,24.485099],[54.410983,24.484781],[54.410804,24.484786],[54.409858,24.485242],[54.409673,24.485244],[54.409599,24.48533],[54.409423,24.4854],[54.409337,24.485483],[54.4093,24.485577],[54.409298,24.485763],[54.409317,24.485856],[54.409397,24.485985],[54.409484,24.48606]]]}},{"type":"Feature","properties":{},"geometry":{"type":"Polygon","coordinates":[[[54.409129,24.485845],[54.409211,24.485843],[54.409271,24.485809],[54.409189,24.485692],[54.409244,24.48566],[54.409219,24.485624],[54.409136,24.485626],[54.409022,24.485692],[54.409129,24.485845]]]}},{"type":"Feature","properties":{},"geometry":{"type":"Polygon","coordinates":[[[54.407782,24.485929],[54.407734,24.485892],[54.407651,24.485895],[54.407557,24.485997],[54.407605,24.486034],[54.407688,24.486032],[54.407782,24.485929]]]}},{"type":"Feature","properties":{},"geometry":{"type":"Polygon","coordinates":[[[54.409446,24.487688],[54.40933,24.487362],[54.409247,24.487364],[54.408884,24.487647],[54.408334,24.48801],[54.408637,24.488493],[54.408719,24.488491],[54.409593,24.488055],[54.409442,24.487782],[54.40936,24.487784],[54.408693,24.488156],[54.408673,24.48812],[54.409446,24.487688]]]}},{"type":"Feature","properties":{},"geometry":{"type":"Polygon","coordinates":[[[54.410556,24.488405],[54.410422,24.488416],[54.410427,24.488464],[54.410138,24.488492],[54.410183,24.488928],[54.410733,24.488885],[54.410721,24.488765],[54.410988,24.488743],[54.410945,24.488327],[54.410551,24.488356],[54.410556,24.488405]]]}},{"type":"Feature","properties":{},"geometry":{"type":"Polygon","coordinates":[[[54.407656,24.488948],[54.407727,24.488946],[54.408103,24.488716],[54.40785,24.488341],[54.407768,24.488343],[54.407362,24.488563],[54.407309,24.488565],[54.406903,24.488795],[54.407183,24.489203],[54.407266,24.4892],[54.407671,24.48897],[54.407656,24.488948]]]}},{"type":"Feature","properties":{},"geometry":{"type":"Polygon","coordinates":[[[54.410216,24.489184],[54.410622,24.489152],[54.410674,24.489615],[54.410909,24.489599],[54.410844,24.489022],[54.410204,24.489076],[54.410216,24.489184]]]}},{"type":"Feature","properties":{},"geometry":{"type":"Polygon","coordinates":[[[54.409351,24.491261],[54.409354,24.491153],[54.409037,24.491149],[54.409036,24.491178],[54.408959,24.49118],[54.408947,24.491294],[54.409008,24.491296],[54.409007,24.491323],[54.409302,24.491326],[54.409304,24.491262],[54.409351,24.491261]]]}},{"type":"Feature","properties":{},"geometry":{"type":"Polygon","coordinates":[[[54.408002,24.497236],[54.407959,24.497276],[54.408051,24.497341],[54.408096,24.497352],[54.408178,24.497349],[54.408233,24.497317],[54.408188,24.497264],[54.408084,24.497233],[54.408002,24.497236]]]}},{"type":"Feature","properties":{},"geometry":{"type":"Polygon","coordinates":[[[54.409165,24.497863],[54.40899,24.49793],[54.408992,24.498391],[54.409419,24.498378],[54.409809,24.498312],[54.409841,24.497934],[54.409591,24.497851],[54.409165,24.497863]]]}},{"type":"Feature","properties":{},"geometry":{"type":"Polygon","coordinates":[[[54.409349,24.50004],[54.4093,24.500253],[54.409341,24.500381],[54.409433,24.500448],[54.409613,24.500479],[54.409828,24.500474],[54.409953,24.50041],[54.410008,24.500294],[54.410058,24.499738],[54.410094,24.499508],[54.41006,24.499437],[54.409982,24.499377],[54.40987,24.499361],[54.409615,24.499373],[54.409554,24.499415],[54.409624,24.499159],[54.409677,24.498762],[54.409235,24.498731],[54.409001,24.498738],[54.409007,24.498609],[54.408852,24.4986],[54.408836,24.49866],[54.408874,24.498774],[54.408994,24.498776],[54.409005,24.499092],[54.408919,24.499457],[54.409276,24.499552],[54.409501,24.499545],[54.409349,24.50004]]]}},{"type":"Feature","properties":{},"geometry":{"type":"Polygon","coordinates":[[[54.408085,24.500876],[54.408054,24.500908],[54.408053,24.500954],[54.408025,24.501013],[54.408063,24.501044],[54.408146,24.501042],[54.408197,24.500969],[54.408229,24.500884],[54.408085,24.500876]]]}},{"type":"Feature","properties":{},"geometry":{"type":"Polygon","coordinates":[[[54.409667,24.501744],[54.409693,24.501597],[54.409687,24.501428],[54.408723,24.501471],[54.408679,24.501799],[54.408752,24.50195],[54.409021,24.501962],[54.409421,24.501951],[54.409513,24.50192],[54.409627,24.501848],[54.409667,24.501744]]]}},{"type":"Feature","properties":{},"geometry":{"type":"Polygon","coordinates":[[[54.408107,24.501738],[54.408025,24.50174],[54.407696,24.502403],[54.408114,24.502577],[54.408197,24.502574],[54.408378,24.502097],[54.408505,24.501855],[54.408107,24.501738]]]}},{"type":"Feature","properties":{},"geometry":{"type":"Polygon","coordinates":[[[54.407515,24.502391],[54.407507,24.502438],[54.407634,24.502445],[54.40769,24.502387],[54.40773,24.502311],[54.407586,24.50231],[54.407515,24.502391]]]}},{"type":"Feature","properties":{},"geometry":{"type":"Polygon","coordinates":[[[54.40724,24.502926],[54.407116,24.503077],[54.407179,24.503113],[54.407261,24.50311],[54.407392,24.502994],[54.407418,24.502991],[54.407486,24.502883],[54.407427,24.502868],[54.407345,24.502871],[54.407301,24.502924],[54.40724,24.502926]]]}},{"type":"Feature","properties":{},"geometry":{"type":"Polygon","coordinates":[[[54.409909,24.503972],[54.410562,24.503953],[54.410706,24.503844],[54.410374,24.503478],[54.40972,24.503497],[54.409576,24.503605],[54.409909,24.503972]]]}},{"type":"Feature","properties":{},"geometry":{"type":"Polygon","coordinates":[[[54.407217,24.503678],[54.407119,24.503646],[54.407036,24.503648],[54.406985,24.503805],[54.407074,24.503829],[54.407156,24.503826],[54.407217,24.503678]]]}},{"type":"Feature","properties":{},"geometry":{"type":"Polygon","coordinates":[[[54.411326,24.504186],[54.411358,24.504027],[54.410886,24.503949],[54.410233,24.503968],[54.410213,24.504066],[54.409259,24.504094],[54.409054,24.504354],[54.409349,24.504692],[54.410312,24.504664],[54.410573,24.504365],[54.410316,24.504145],[54.410673,24.504204],[54.411326,24.504186]]]}},{"type":"Feature","properties":{},"geometry":{"type":"Polygon","coordinates":[[[54.408111,24.505739],[54.407866,24.505725],[54.407868,24.505818],[54.408033,24.505842],[54.408115,24.50584],[54.408111,24.505739]]]}},{"type":"Feature","properties":{},"geometry":{"type":"Polygon","coordinates":[[[54.409555,24.506173],[54.409669,24.506112],[54.409754,24.506019],[54.4098,24.505905],[54.409801,24.505784],[54.409762,24.505678],[54.409689,24.505588],[54.409588,24.505523],[54.40947,24.50549],[54.409265,24.505495],[54.409148,24.505532],[54.40905,24.505601],[54.408981,24.505693],[54.408947,24.505801],[54.408954,24.505922],[54.409005,24.506033],[54.409094,24.506123],[54.409211,24.50618],[54.409342,24.506198],[54.409555,24.506173]]]}},{"type":"Feature","properties":{},"geometry":{"type":"Polygon","coordinates":[[[54.407028,24.506464],[54.407336,24.506699],[54.408265,24.506672],[54.408557,24.506364],[54.4084,24.506204],[54.407244,24.506239],[54.407028,24.506464]]]}},{"type":"Feature","properties":{},"geometry":{"type":"Polygon","coordinates":[[[54.407297,24.507338],[54.407399,24.507249],[54.406985,24.506859],[54.406919,24.506861],[54.406822,24.506949],[54.406855,24.506983],[54.406749,24.507074],[54.406783,24.507111],[54.406677,24.507196],[54.407019,24.507514],[54.407085,24.507512],[54.407186,24.507426],[54.407168,24.507408],[54.407249,24.507339],[54.407297,24.507338]]]}},{"type":"Feature","properties":{},"geometry":{"type":"Polygon","coordinates":[[[54.409481,24.507344],[54.409287,24.507513],[54.409648,24.507874],[54.40973,24.507872],[54.409792,24.50783],[54.409775,24.507554],[54.409564,24.507342],[54.409481,24.507344]]]}},{"type":"Feature","properties":{},"geometry":{"type":"Polygon","coordinates":[[[54.407254,24.507805],[54.407283,24.507772],[54.407249,24.507746],[54.407167,24.507749],[54.407137,24.507782],[54.407171,24.507807],[54.407254,24.507805]]]}},{"type":"Feature","properties":{},"geometry":{"type":"Polygon","coordinates":[[[54.410414,24.507853],[54.410396,24.507787],[54.410323,24.507789],[54.410286,24.507717],[54.410122,24.507721],[54.40999,24.507756],[54.409856,24.507859],[54.409825,24.507938],[54.409854,24.50798],[54.409927,24.508019],[54.410192,24.507996],[54.410414,24.507853]]]}},{"type":"Feature","properties":{},"geometry":{"type":"Polygon","coordinates":[[[54.40888,24.50792],[54.408846,24.507921],[54.408851,24.508027],[54.408973,24.508023],[54.408971,24.507993],[54.409001,24.507991],[54.409008,24.507853],[54.408877,24.507857],[54.40888,24.50792]]]}},{"type":"Feature","properties":{},"geometry":{"type":"Polygon","coordinates":[[[54.409403,24.508156],[54.40936,24.508114],[54.409278,24.508116],[54.409189,24.50819],[54.409231,24.508233],[54.409314,24.50823],[54.409403,24.508156]]]}},{"type":"Feature","properties":{},"geometry":{"type":"Polygon","coordinates":[[[54.4092,24.508673],[54.40918,24.508645],[54.409241,24.508643],[54.409417,24.50854],[54.409355,24.508454],[54.409282,24.508456],[54.40924,24.508398],[54.409158,24.5084],[54.409014,24.508484],[54.409061,24.50855],[54.408987,24.508608],[54.409005,24.508634],[54.408969,24.508655],[54.409,24.508698],[54.40914,24.508708],[54.4092,24.508673]]]}},{"type":"Feature","properties":{},"geometry":{"type":"Polygon","coordinates":[[[54.407697,24.508838],[54.40767,24.508809],[54.407587,24.508811],[54.407523,24.508861],[54.40755,24.50889],[54.407632,24.508888],[54.407697,24.508838]]]}},{"type":"Feature","properties":{},"geometry":{"type":"Polygon","coordinates":[[[54.407538,24.50905],[54.407416,24.509159],[54.407556,24.509289],[54.407343,24.509296],[54.407356,24.509283],[54.407252,24.509195],[54.40717,24.509197],[54.407129,24.509238],[54.407202,24.5093],[54.40706,24.509435],[54.407198,24.509563],[54.406811,24.509574],[54.406652,24.509706],[54.407014,24.510038],[54.407674,24.510019],[54.407839,24.509902],[54.407716,24.509786],[54.408107,24.509774],[54.408241,24.509638],[54.408086,24.509493],[54.408444,24.509482],[54.40856,24.509364],[54.408198,24.509031],[54.407866,24.509041],[54.407791,24.508967],[54.407708,24.508969],[54.407656,24.509013],[54.40769,24.509046],[54.407538,24.50905]]]}},{"type":"Feature","properties":{},"geometry":{"type":"Polygon","coordinates":[[[54.410273,24.509992],[54.410088,24.509823],[54.410005,24.509826],[54.409662,24.510138],[54.409847,24.510306],[54.409929,24.510304],[54.410273,24.509992]]]}},{"type":"Feature","properties":{},"geometry":{"type":"Polygon","coordinates":[[[54.411222,24.481936],[54.411307,24.482009],[54.411389,24.482006],[54.411567,24.481837],[54.411199,24.481518],[54.411116,24.48152],[54.410943,24.481686],[54.411024,24.481756],[54.411106,24.481754],[54.411163,24.4817],[54.411198,24.48173],[54.411169,24.481758],[54.411214,24.481796],[54.411268,24.481795],[54.411321,24.481841],[54.411222,24.481936]]]}},{"type":"Feature","properties":{},"geometry":{"type":"Polygon","coordinates":[[[54.410916,24.481829],[54.410998,24.481827],[54.411028,24.481799],[54.410988,24.481765],[54.410906,24.481767],[54.410876,24.481795],[54.410916,24.481829]]]}},{"type":"Feature","properties":{},"geometry":{"type":"Polygon","coordinates":[[[54.412645,24.482205],[54.412821,24.48193],[54.412461,24.481739],[54.412378,24.481741],[54.412202,24.482016],[54.412563,24.482207],[54.412645,24.482205]]]}},{"type":"Feature","properties":{},"geometry":{"type":"Polygon","coordinates":[[[54.411512,24.482075],[54.411481,24.48205],[54.411398,24.482052],[54.41132,24.482132],[54.411351,24.482158],[54.411434,24.482155],[54.411512,24.482075]]]}},{"type":"Feature","properties":{},"geometry":{"type":"Polygon","coordinates":[[[54.411551,24.485617],[54.411536,24.485587],[54.411454,24.485589],[54.41135,24.48563],[54.411365,24.485661],[54.411447,24.485658],[54.411551,24.485617]]]}},{"type":"Feature","properties":{},"geometry":{"type":"Polygon","coordinates":[[[54.411414,24.485776],[54.411496,24.485773],[54.411553,24.485755],[54.411515,24.485657],[54.411432,24.48566],[54.411375,24.485678],[54.411414,24.485776]]]}},{"type":"Feature","properties":{},"geometry":{"type":"Polygon","coordinates":[[[54.413107,24.487233],[54.413184,24.487452],[54.413482,24.48744],[54.413471,24.487193],[54.413283,24.487199],[54.413284,24.487227],[54.413107,24.487233]]]}},{"type":"Feature","properties":{},"geometry":{"type":"Polygon","coordinates":[[[54.413607,24.487697],[54.413603,24.487619],[54.413571,24.48762],[54.413567,24.487527],[54.413599,24.487526],[54.413596,24.487452],[54.413245,24.487464],[54.413256,24.48771],[54.413607,24.487697]]]}},{"type":"Feature","properties":{},"geometry":{"type":"Polygon","coordinates":[[[54.412959,24.487562],[54.413014,24.487751],[54.413183,24.487728],[54.413128,24.487539],[54.412959,24.487562]]]}},{"type":"Feature","properties":{},"geometry":{"type":"Polygon","coordinates":[[[54.415615,24.487729],[54.415757,24.487723],[54.415754,24.48768],[54.415613,24.487685],[54.415615,24.487729]]]}},{"type":"Feature","properties":{},"geometry":{"type":"Polygon","coordinates":[[[54.413522,24.487954],[54.413673,24.487949],[54.41367,24.487888],[54.413519,24.487893],[54.413522,24.487954]]]}},{"type":"Feature","properties":{},"geometry":{"type":"Polygon","coordinates":[[[54.415703,24.48797],[54.415834,24.487966],[54.415828,24.487764],[54.415123,24.487771],[54.415123,24.487815],[54.415187,24.487815],[54.415187,24.488213],[54.415452,24.488211],[54.415452,24.487961],[54.415702,24.487959],[54.415703,24.48797]]]}},{"type":"Feature","properties":{},"geometry":{"type":"Polygon","coordinates":[[[54.415054,24.488233],[54.414839,24.488231],[54.414836,24.488326],[54.415051,24.488328],[54.415054,24.488233]]]}},{"type":"Feature","properties":{},"geometry":{"type":"Polygon","coordinates":[[[54.415517,24.488333],[54.41565,24.488328],[54.415648,24.48829],[54.415318,24.488314],[54.415319,24.488397],[54.415518,24.488393],[54.415517,24.488333]]]}},{"type":"Feature","properties":{},"geometry":{"type":"Polygon","coordinates":[[[54.415602,24.488387],[54.415779,24.488383],[54.415778,24.488334],[54.415601,24.488338],[54.415602,24.488387]]]}},{"type":"Feature","properties":{},"geometry":{"type":"Polygon","coordinates":[[[54.414856,24.488478],[54.415062,24.488473],[54.415058,24.488353],[54.414852,24.488358],[54.414856,24.488478]]]}},{"type":"Feature","properties":{},"geometry":{"type":"Polygon","coordinates":[[[54.415515,24.488436],[54.415412,24.488438],[54.415411,24.488484],[54.415514,24.488482],[54.415515,24.488436]]]}},{"type":"Feature","properties":{},"geometry":{"type":"Polygon","coordinates":[[[54.415465,24.488693],[54.415628,24.488688],[54.415626,24.488639],[54.415463,24.488644],[54.415465,24.488693]]]}},{"type":"Feature","properties":{},"geometry":{"type":"Polygon","coordinates":[[[54.411174,24.48887],[54.411147,24.488931],[54.411198,24.488999],[54.411309,24.488996],[54.411433,24.489161],[54.411262,24.489253],[54.411314,24.489336],[54.411397,24.489333],[54.412033,24.48898],[54.412063,24.489038],[54.411491,24.489354],[54.411585,24.489507],[54.411662,24.489505],[54.411713,24.489593],[54.411972,24.489642],[54.411955,24.489719],[54.41212,24.489755],[54.412203,24.489753],[54.412367,24.489129],[54.412509,24.489121],[54.412803,24.48968],[54.412885,24.489678],[54.413038,24.489598],[54.413005,24.489547],[54.413218,24.489452],[54.413265,24.489348],[54.413344,24.489345],[54.413387,24.48917],[54.412737,24.488954],[54.412741,24.488911],[54.41288,24.488938],[54.412963,24.488935],[54.413571,24.488846],[54.413527,24.488553],[54.412936,24.488617],[54.4129,24.488586],[54.412817,24.488588],[54.412735,24.488631],[54.412678,24.488583],[54.412755,24.488543],[54.412641,24.488396],[54.41277,24.487995],[54.412969,24.488101],[54.413051,24.488098],[54.413186,24.487951],[54.412827,24.487756],[54.412598,24.487715],[54.412325,24.487703],[54.412242,24.487705],[54.41225,24.487787],[54.41224,24.487706],[54.412157,24.487708],[54.411868,24.487782],[54.411582,24.487957],[54.411414,24.48813],[54.411571,24.488241],[54.411654,24.488239],[54.411814,24.488108],[54.412028,24.488474],[54.411947,24.488704],[54.411297,24.488503],[54.411214,24.488505],[54.411171,24.4886],[54.411356,24.488668],[54.411319,24.488851],[54.411174,24.48887]],[[54.412461,24.487912],[54.412477,24.487913],[54.412341,24.488476],[54.412063,24.487981],[54.412265,24.487941],[54.412264,24.487925],[54.412451,24.487931],[54.412461,24.487912]],[[54.411832,24.489349],[54.411963,24.489274],[54.411962,24.489302],[54.412063,24.489323],[54.41203,24.489485],[54.411917,24.489462],[54.411832,24.489349]],[[54.413016,24.489333],[54.412957,24.489361],[54.41291,24.489254],[54.412941,24.489169],[54.413063,24.489207],[54.413016,24.489333]]]}},{"type":"Feature","properties":{},"geometry":{"type":"Polygon","coordinates":[[[54.410839,24.489782],[54.41097,24.489776],[54.410967,24.489733],[54.410835,24.489739],[54.410839,24.489782]]]}},{"type":"Feature","properties":{},"geometry":{"type":"Polygon","coordinates":[[[54.410487,24.489488],[54.410256,24.489504],[54.410326,24.49009],[54.410968,24.490032],[54.410952,24.489905],[54.410592,24.489934],[54.410591,24.489925],[54.410539,24.489926],[54.410487,24.489488]]]}},{"type":"Feature","properties":{},"geometry":{"type":"Polygon","coordinates":[[[54.412428,24.489949],[54.412432,24.490011],[54.412585,24.490005],[54.41258,24.489942],[54.412428,24.489949]]]}},{"type":"Feature","properties":{},"geometry":{"type":"Polygon","coordinates":[[[54.411051,24.490713],[54.41123,24.490712],[54.411231,24.490659],[54.411052,24.490661],[54.411051,24.490713]]]}},{"type":"Feature","properties":{},"geometry":{"type":"Polygon","coordinates":[[[54.411155,24.490888],[54.411307,24.490886],[54.411307,24.490793],[54.411155,24.490795],[54.411155,24.490888]]]}},{"type":"Feature","properties":{},"geometry":{"type":"Polygon","coordinates":[[[54.413493,24.490811],[54.413496,24.490643],[54.412924,24.490639],[54.412916,24.491132],[54.413478,24.491136],[54.41348,24.490972],[54.413196,24.490969],[54.413198,24.490811],[54.413493,24.490811]]]}},{"type":"Feature","properties":{},"geometry":{"type":"Polygon","coordinates":[[[54.410598,24.490812],[54.410416,24.490817],[54.410413,24.49103],[54.410782,24.491031],[54.410789,24.490763],[54.4106,24.490766],[54.410598,24.490812]]]}},{"type":"Feature","properties":{},"geometry":{"type":"Polygon","coordinates":[[[54.411148,24.490951],[54.411305,24.490947],[54.411304,24.49089],[54.411147,24.490894],[54.411148,24.490951]]]}},{"type":"Feature","properties":{},"geometry":{"type":"Polygon","coordinates":[[[54.412957,24.491184],[54.412829,24.491185],[54.412828,24.491224],[54.412956,24.491223],[54.412957,24.491184]]]}},{"type":"Feature","properties":{},"geometry":{"type":"Polygon","coordinates":[[[54.411301,24.4915],[54.411305,24.491424],[54.411185,24.491424],[54.411181,24.491501],[54.411301,24.4915]]]}},{"type":"Feature","properties":{},"geometry":{"type":"Polygon","coordinates":[[[54.410912,24.491309],[54.410457,24.491298],[54.410444,24.491622],[54.410899,24.491633],[54.410912,24.491309]]]}},{"type":"Feature","properties":{},"geometry":{"type":"Polygon","coordinates":[[[54.412013,24.49122],[54.411435,24.491191],[54.411364,24.492099],[54.411942,24.492129],[54.412013,24.49122]]]}},{"type":"Feature","properties":{},"geometry":{"type":"Polygon","coordinates":[[[54.412268,24.491697],[54.412108,24.491697],[54.412107,24.491726],[54.412267,24.491726],[54.412268,24.491697]]]}},{"type":"Feature","properties":{},"geometry":{"type":"Polygon","coordinates":[[[54.411791,24.492293],[54.411581,24.492292],[54.411578,24.49238],[54.411788,24.492381],[54.411791,24.492293]]]}},{"type":"Feature","properties":{},"geometry":{"type":"Polygon","coordinates":[[[54.411972,24.492557],[54.412237,24.492556],[54.412238,24.492458],[54.411973,24.492459],[54.411972,24.492557]]]}},{"type":"Feature","properties":{},"geometry":{"type":"Polygon","coordinates":[[[54.415074,24.497069],[54.415185,24.496911],[54.415093,24.496858],[54.41501,24.49686],[54.4149,24.497017],[54.414992,24.497071],[54.415074,24.497069]]]}},{"type":"Feature","properties":{},"geometry":{"type":"Polygon","coordinates":[[[54.412025,24.4989],[54.412208,24.49867],[54.412102,24.498051],[54.412124,24.498042],[54.411892,24.497498],[54.411578,24.497383],[54.411496,24.497386],[54.411403,24.497422],[54.411699,24.498182],[54.411825,24.498912],[54.412025,24.4989]]]}},{"type":"Feature","properties":{},"geometry":{"type":"Polygon","coordinates":[[[54.410624,24.497708],[54.41061,24.498871],[54.410748,24.499018],[54.411075,24.499026],[54.411068,24.497513],[54.410985,24.497515],[54.410798,24.49756],[54.410624,24.497708]]]}},{"type":"Feature","properties":{},"geometry":{"type":"Polygon","coordinates":[[[54.410436,24.5016],[54.410335,24.501603],[54.410333,24.501852],[54.411052,24.501835],[54.411051,24.501777],[54.411187,24.501773],[54.411192,24.501548],[54.411161,24.501546],[54.411163,24.501505],[54.410437,24.50152],[54.410436,24.5016]]]}},{"type":"Feature","properties":{},"geometry":{"type":"Polygon","coordinates":[[[54.413013,24.502973],[54.413098,24.503119],[54.413304,24.503113],[54.413376,24.503093],[54.413497,24.502803],[54.413585,24.502322],[54.413105,24.502027],[54.412947,24.501875],[54.412861,24.501763],[54.412781,24.501619],[54.412732,24.50148],[54.411982,24.501472],[54.412018,24.501673],[54.412065,24.501807],[54.412137,24.50199],[54.412222,24.502147],[54.412374,24.502354],[54.412629,24.502656],[54.412874,24.50282],[54.413013,24.502973]]]}},{"type":"Feature","properties":{},"geometry":{"type":"Polygon","coordinates":[[[54.41167,24.502522],[54.411753,24.50252],[54.411824,24.502447],[54.411611,24.502273],[54.411529,24.502276],[54.411457,24.502349],[54.41167,24.502522]]]}},{"type":"Feature","properties":{},"geometry":{"type":"Polygon","coordinates":[[[54.410947,24.502245],[54.410913,24.502838],[54.411439,24.502862],[54.411436,24.5027],[54.411306,24.502676],[54.411237,24.502625],[54.411232,24.502246],[54.410947,24.502245]]]}},{"type":"Feature","properties":{},"geometry":{"type":"Polygon","coordinates":[[[54.411595,24.502533],[54.411463,24.502535],[54.41146,24.502658],[54.411592,24.502656],[54.411595,24.502533]]]}},{"type":"Feature","properties":{},"geometry":{"type":"Polygon","coordinates":[[[54.411855,24.502805],[54.411937,24.502802],[54.41204,24.502745],[54.411879,24.502506],[54.411796,24.502509],[54.411694,24.502566],[54.411855,24.502805]]]}},{"type":"Feature","properties":{},"geometry":{"type":"Polygon","coordinates":[[[54.411649,24.502947],[54.411731,24.502944],[54.411816,24.502909],[54.411739,24.502758],[54.411657,24.50276],[54.411573,24.502795],[54.411649,24.502947]]]}},{"type":"Feature","properties":{},"geometry":{"type":"Polygon","coordinates":[[[54.415069,24.504309],[54.415285,24.504303],[54.41533,24.504341],[54.41577,24.504328],[54.41579,24.504312],[54.415811,24.504331],[54.416093,24.504322],[54.41627,24.504174],[54.416074,24.504012],[54.415792,24.50402],[54.415775,24.504038],[54.415751,24.504018],[54.41536,24.50403],[54.415314,24.503991],[54.414826,24.504005],[54.414667,24.504163],[54.414712,24.504202],[54.414312,24.504214],[54.414153,24.504371],[54.414331,24.504524],[54.41495,24.504506],[54.415127,24.504357],[54.415069,24.504309]]]}},{"type":"Feature","properties":{},"geometry":{"type":"Polygon","coordinates":[[[54.41469,24.504979],[54.415089,24.504967],[54.415073,24.504983],[54.415251,24.505136],[54.415296,24.505134],[54.415313,24.505155],[54.415396,24.505153],[54.415427,24.505131],[54.415636,24.505125],[54.415776,24.505007],[54.415794,24.505027],[54.415877,24.505024],[54.415923,24.504988],[54.415866,24.504927],[54.41577,24.50494],[54.415617,24.504814],[54.4153,24.504824],[54.415308,24.504817],[54.415112,24.504656],[54.414671,24.504668],[54.414513,24.504826],[54.41469,24.504979]]]}},{"type":"Feature","properties":{},"geometry":{"type":"Polygon","coordinates":[[[54.410856,24.50679],[54.41088,24.506725],[54.410815,24.506706],[54.41083,24.506612],[54.41076,24.506573],[54.410628,24.506537],[54.410546,24.50654],[54.410371,24.50656],[54.410298,24.506611],[54.410298,24.506661],[54.410335,24.50673],[54.410383,24.506739],[54.410502,24.506803],[54.41067,24.506806],[54.410856,24.50679]]]}},{"type":"Feature","properties":{},"geometry":{"type":"Polygon","coordinates":[[[54.411126,24.506941],[54.41106,24.506909],[54.410977,24.506911],[54.410958,24.506944],[54.410847,24.506938],[54.410793,24.506994],[54.410732,24.507106],[54.410726,24.507266],[54.410769,24.50734],[54.410906,24.507346],[54.410986,24.507324],[54.411005,24.507282],[54.411093,24.507186],[54.411126,24.506941]]]}},{"type":"Feature","properties":{},"geometry":{"type":"Polygon","coordinates":[[[54.410813,24.508596],[54.410809,24.508696],[54.41118,24.508703],[54.411183,24.508606],[54.410813,24.508596]]]}},{"type":"Feature","properties":{},"geometry":{"type":"Polygon","coordinates":[[[54.411785,24.508956],[54.41158,24.508954],[54.411571,24.509162],[54.411777,24.509164],[54.411785,24.508956]]]}},{"type":"Feature","properties":{},"geometry":{"type":"Polygon","coordinates":[[[54.4107,24.509161],[54.410845,24.509157],[54.410842,24.509061],[54.410698,24.509064],[54.4107,24.509161]]]}},{"type":"Feature","properties":{},"geometry":{"type":"Polygon","coordinates":[[[54.411238,24.509218],[54.411234,24.509309],[54.411307,24.509311],[54.411307,24.509336],[54.411558,24.509338],[54.411555,24.50948],[54.411756,24.509479],[54.41176,24.509262],[54.411561,24.509263],[54.41157,24.508982],[54.411248,24.508984],[54.411241,24.509146],[54.411123,24.509147],[54.411122,24.509219],[54.411238,24.509218]]]}},{"type":"Feature","properties":{},"geometry":{"type":"Polygon","coordinates":[[[54.41153,24.509521],[54.411528,24.50943],[54.410723,24.509449],[54.410727,24.509544],[54.41153,24.509521]]]}},{"type":"Feature","properties":{},"geometry":{"type":"Polygon","coordinates":[[[54.411333,24.509838],[54.411416,24.509835],[54.411514,24.509795],[54.411437,24.509639],[54.411355,24.509641],[54.411256,24.509681],[54.411333,24.509838]]]}},{"type":"Feature","properties":{},"geometry":{"type":"Polygon","coordinates":[[[54.41853,24.481923],[54.418657,24.481918],[54.418656,24.481896],[54.418529,24.481901],[54.41853,24.481923]]]}},{"type":"Feature","properties":{},"geometry":{"type":"Polygon","coordinates":[[[54.4192,24.482505],[54.419197,24.482532],[54.41884,24.482495],[54.418842,24.482477],[54.418434,24.482447],[54.418417,24.482581],[54.418826,24.482611],[54.418832,24.482558],[54.419127,24.482596],[54.419209,24.482593],[54.419211,24.482581],[54.419608,24.482606],[54.419611,24.482571],[54.41968,24.482569],[54.419714,24.482238],[54.419724,24.482238],[54.41987,24.48226],[54.419855,24.482394],[54.420241,24.482425],[54.420239,24.48244],[54.420617,24.482477],[54.420616,24.482487],[54.420926,24.482526],[54.421009,24.482524],[54.421028,24.482402],[54.42066,24.482364],[54.420663,24.482344],[54.420288,24.482307],[54.42029,24.482285],[54.420644,24.482322],[54.420643,24.482332],[54.421036,24.482359],[54.42105,24.482238],[54.420657,24.482212],[54.420652,24.482257],[54.420353,24.482216],[54.419961,24.482187],[54.419879,24.482189],[54.419876,24.482212],[54.419718,24.4822],[54.419882,24.482177],[54.419883,24.482128],[54.419789,24.482117],[54.419893,24.482114],[54.419887,24.482154],[54.420207,24.482195],[54.42029,24.482192],[54.42031,24.482062],[54.419989,24.482021],[54.419695,24.482022],[54.419701,24.481983],[54.419376,24.481945],[54.419294,24.481947],[54.419278,24.48206],[54.418911,24.482028],[54.418919,24.481989],[54.418801,24.481985],[54.418785,24.482055],[54.41888,24.48206],[54.418874,24.482108],[54.419251,24.482142],[54.419228,24.482308],[54.419425,24.482332],[54.419372,24.482333],[54.419366,24.482398],[54.419242,24.482393],[54.419246,24.48237],[54.418543,24.482283],[54.41846,24.482285],[54.418442,24.482417],[54.4192,24.482505]],[[54.419282,24.482113],[54.419287,24.48208],[54.41966,24.482115],[54.419654,24.482149],[54.419282,24.482113]]]}},{"type":"Feature","properties":{},"geometry":{"type":"Polygon","coordinates":[[[54.41876,24.48287],[54.418366,24.482861],[54.418361,24.482982],[54.418768,24.482993],[54.418772,24.482923],[54.418865,24.482926],[54.418857,24.482995],[54.419272,24.483022],[54.419281,24.482933],[54.419633,24.482959],[54.41965,24.482827],[54.419245,24.482795],[54.419234,24.482875],[54.418932,24.48285],[54.418934,24.482815],[54.418794,24.482812],[54.418804,24.48271],[54.418396,24.482685],[54.418382,24.482821],[54.418761,24.482847],[54.41876,24.48287]]]}},{"type":"Feature","properties":{},"geometry":{"type":"Polygon","coordinates":[[[54.417239,24.487769],[54.417407,24.487766],[54.417407,24.487721],[54.417238,24.487724],[54.417239,24.487769]]]}},{"type":"Feature","properties":{},"geometry":{"type":"Polygon","coordinates":[[[54.415969,24.487745],[54.415855,24.487746],[54.415853,24.48779],[54.415968,24.487789],[54.415969,24.487745]]]}},{"type":"Feature","properties":{},"geometry":{"type":"Polygon","coordinates":[[[54.416186,24.487767],[54.415997,24.487765],[54.415996,24.487795],[54.416185,24.487796],[54.416186,24.487767]]]}},{"type":"Feature","properties":{},"geometry":{"type":"Polygon","coordinates":[[[54.416006,24.487944],[54.416345,24.487928],[54.416337,24.487799],[54.415997,24.487814],[54.416006,24.487944]]]}},{"type":"Feature","properties":{},"geometry":{"type":"Polygon","coordinates":[[[54.41601,24.488017],[54.416328,24.488008],[54.416326,24.487952],[54.416008,24.487961],[54.41601,24.488017]]]}},{"type":"Feature","properties":{},"geometry":{"type":"Polygon","coordinates":[[[54.416349,24.488275],[54.416236,24.488277],[54.416234,24.488347],[54.416146,24.488352],[54.41615,24.488389],[54.416234,24.488386],[54.416232,24.488489],[54.416609,24.488491],[54.416611,24.488418],[54.416431,24.488415],[54.416431,24.488386],[54.416356,24.488385],[54.416358,24.488306],[54.416475,24.488302],[54.416479,24.488365],[54.416609,24.48836],[54.416607,24.488328],[54.416733,24.488328],[54.416734,24.488305],[54.416831,24.488302],[54.416831,24.488246],[54.4166,24.488263],[54.416598,24.488292],[54.416587,24.488293],[54.416584,24.488232],[54.416591,24.488243],[54.416833,24.488238],[54.416829,24.488146],[54.416686,24.488145],[54.416685,24.488133],[54.416751,24.488131],[54.416748,24.48804],[54.416677,24.488042],[54.416677,24.48802],[54.416749,24.488018],[54.416748,24.487969],[54.416443,24.487975],[54.416442,24.48802],[54.416335,24.488024],[54.416349,24.488275]],[[54.416592,24.488179],[54.416581,24.488179],[54.41658,24.488178],[54.416592,24.488179]],[[54.416615,24.488132],[54.416505,24.488137],[54.416504,24.488122],[54.416615,24.488132]]]}},{"type":"Feature","properties":{},"geometry":{"type":"Polygon","coordinates":[[[54.415652,24.488313],[54.415797,24.488309],[54.415793,24.488198],[54.415648,24.488202],[54.415652,24.488313]]]}},{"type":"Feature","properties":{},"geometry":{"type":"Polygon","coordinates":[[[54.416807,24.488366],[54.416695,24.488368],[54.416694,24.488407],[54.416806,24.488405],[54.416807,24.488366]]]}},{"type":"Feature","properties":{},"geometry":{"type":"Polygon","coordinates":[[[54.416779,24.488433],[54.416652,24.488434],[54.416649,24.488477],[54.416776,24.488477],[54.416779,24.488433]]]}},{"type":"Feature","properties":{},"geometry":{"type":"Polygon","coordinates":[[[54.416227,24.488989],[54.416339,24.488986],[54.416335,24.488879],[54.416223,24.488882],[54.416227,24.488989]]]}},{"type":"Feature","properties":{},"geometry":{"type":"Polygon","coordinates":[[[54.416006,24.489041],[54.416148,24.489037],[54.416141,24.488837],[54.415999,24.488841],[54.416006,24.489041]]]}},{"type":"Feature","properties":{},"geometry":{"type":"Polygon","coordinates":[[[54.415624,24.489052],[54.415765,24.489049],[54.415761,24.488849],[54.41562,24.488852],[54.415624,24.489052]]]}},{"type":"Feature","properties":{},"geometry":{"type":"Polygon","coordinates":[[[54.415959,24.489136],[54.415956,24.489092],[54.415719,24.489105],[54.415722,24.489146],[54.415959,24.489136]]]}},{"type":"Feature","properties":{},"geometry":{"type":"Polygon","coordinates":[[[54.415915,24.489249],[54.415917,24.489168],[54.415784,24.489169],[54.415782,24.48925],[54.415915,24.489249]]]}},{"type":"Feature","properties":{},"geometry":{"type":"Polygon","coordinates":[[[54.415421,24.489677],[54.416374,24.489653],[54.416372,24.489584],[54.416352,24.489584],[54.416349,24.4895],[54.415416,24.489523],[54.415421,24.489677]]]}},{"type":"Feature","properties":{},"geometry":{"type":"Polygon","coordinates":[[[54.41724,24.501685],[54.417163,24.501757],[54.41722,24.501818],[54.417181,24.501902],[54.417059,24.501949],[54.417254,24.502089],[54.417336,24.502087],[54.417553,24.501883],[54.417322,24.501683],[54.41724,24.501685]]]}},{"type":"Feature","properties":{},"geometry":{"type":"Polygon","coordinates":[[[54.416574,24.501975],[54.416841,24.501962],[54.41684,24.501934],[54.416947,24.50192],[54.416932,24.501873],[54.416805,24.501887],[54.416814,24.501914],[54.416572,24.501928],[54.416574,24.501975]]]}},{"type":"Feature","properties":{},"geometry":{"type":"Polygon","coordinates":[[[54.417577,24.502387],[54.41766,24.502385],[54.417702,24.502357],[54.417672,24.50232],[54.41759,24.502323],[54.417548,24.502351],[54.417577,24.502387]]]}},{"type":"Feature","properties":{},"geometry":{"type":"Polygon","coordinates":[[[54.417908,24.502514],[54.41799,24.502512],[54.418014,24.502487],[54.417968,24.50245],[54.417885,24.502453],[54.417861,24.502478],[54.417908,24.502514]]]}},{"type":"Feature","properties":{},"geometry":{"type":"Polygon","coordinates":[[[54.415609,24.502416],[54.415501,24.502417],[54.415496,24.502476],[54.415604,24.502475],[54.415609,24.502416]]]}},{"type":"Feature","properties":{},"geometry":{"type":"Polygon","coordinates":[[[54.417587,24.502439],[54.417421,24.502442],[54.417421,24.502556],[54.417583,24.50256],[54.417587,24.502439]]]}},{"type":"Feature","properties":{},"geometry":{"type":"Polygon","coordinates":[[[54.416893,24.502654],[54.417078,24.50265],[54.417078,24.502625],[54.416892,24.50263],[54.416893,24.502654]]]}},{"type":"Feature","properties":{},"geometry":{"type":"Polygon","coordinates":[[[54.415392,24.50264],[54.415552,24.502634],[54.41555,24.502601],[54.41539,24.502607],[54.415392,24.50264]]]}},{"type":"Feature","properties":{},"geometry":{"type":"Polygon","coordinates":[[[54.415395,24.502682],[54.415548,24.50268],[54.415548,24.502641],[54.415395,24.502643],[54.415395,24.502682]]]}},{"type":"Feature","properties":{},"geometry":{"type":"Polygon","coordinates":[[[54.41706,24.502794],[54.41749,24.502768],[54.417485,24.502708],[54.417136,24.502718],[54.417137,24.502705],[54.416945,24.502702],[54.416942,24.502762],[54.417059,24.502767],[54.41706,24.502794]]]}},{"type":"Feature","properties":{},"geometry":{"type":"Polygon","coordinates":[[[54.415565,24.502779],[54.415561,24.502807],[54.415687,24.50281],[54.415685,24.502856],[54.415894,24.502859],[54.415897,24.502781],[54.415565,24.502779]]]}},{"type":"Feature","properties":{},"geometry":{"type":"Polygon","coordinates":[[[54.415403,24.502838],[54.415547,24.50283],[54.415541,24.502776],[54.415396,24.502784],[54.415403,24.502838]]]}},{"type":"Feature","properties":{},"geometry":{"type":"Polygon","coordinates":[[[54.415447,24.502901],[54.415587,24.50289],[54.415579,24.50284],[54.415439,24.50285],[54.415447,24.502901]]]}},{"type":"Feature","properties":{},"geometry":{"type":"Polygon","coordinates":[[[54.417456,24.503057],[54.417267,24.503056],[54.417265,24.503098],[54.417455,24.5031],[54.417456,24.503057]]]}},{"type":"Feature","properties":{},"geometry":{"type":"Polygon","coordinates":[[[54.417687,24.503227],[54.417686,24.503166],[54.417608,24.503167],[54.417609,24.503136],[54.417465,24.503137],[54.417461,24.503227],[54.417687,24.503227]]]}},{"type":"Feature","properties":{},"geometry":{"type":"Polygon","coordinates":[[[54.415811,24.503419],[54.415635,24.503418],[54.415632,24.503473],[54.415809,24.503474],[54.415811,24.503419]]]}},{"type":"Feature","properties":{},"geometry":{"type":"Polygon","coordinates":[[[54.415813,24.503642],[54.415938,24.503638],[54.415935,24.503555],[54.415809,24.503559],[54.415813,24.503642]]]}},{"type":"Feature","properties":{},"geometry":{"type":"Polygon","coordinates":[[[54.41778,24.503567],[54.417664,24.503569],[54.417657,24.503786],[54.417773,24.503784],[54.41778,24.503567]]]}},{"type":"Feature","properties":{},"geometry":{"type":"Polygon","coordinates":[[[54.415365,24.504022],[54.415506,24.504007],[54.415497,24.50397],[54.415356,24.503984],[54.415365,24.504022]]]}},{"type":"Feature","properties":{},"geometry":{"type":"Polygon","coordinates":[[[54.415445,24.504508],[54.415528,24.504506],[54.415573,24.50447],[54.415523,24.504419],[54.415441,24.504421],[54.415396,24.504457],[54.415445,24.504508]]]}},{"type":"Feature","properties":{},"geometry":{"type":"Polygon","coordinates":[[[54.416143,24.50465],[54.415947,24.504489],[54.41561,24.504498],[54.415451,24.504656],[54.415629,24.504809],[54.415966,24.504799],[54.416143,24.50465]]]}},{"type":"Feature","properties":{},"geometry":{"type":"Polygon","coordinates":[[[54.419021,24.480049],[54.418873,24.480042],[54.418867,24.480078],[54.418943,24.480087],[54.418942,24.480131],[54.419062,24.48013],[54.419064,24.480069],[54.419018,24.480068],[54.419021,24.480049]]]}},{"type":"Feature","properties":{},"geometry":{"type":"Polygon","coordinates":[[[54.420739,24.480298],[54.420743,24.480234],[54.420569,24.480232],[54.420562,24.480364],[54.420658,24.480368],[54.420658,24.480379],[54.420984,24.480386],[54.420986,24.48034],[54.420777,24.480331],[54.420779,24.4803],[54.420739,24.480298]]]}},{"type":"Feature","properties":{},"geometry":{"type":"Polygon","coordinates":[[[54.420076,24.480826],[54.419929,24.480822],[54.419923,24.480877],[54.420069,24.48088],[54.420076,24.480826]]]}},{"type":"Feature","properties":{},"geometry":{"type":"Polygon","coordinates":[[[54.418981,24.481558],[54.418661,24.481522],[54.418579,24.481524],[54.41856,24.481659],[54.41888,24.481695],[54.418962,24.481693],[54.418981,24.481558]]]}},{"type":"Feature","properties":{},"geometry":{"type":"Polygon","coordinates":[[[54.419405,24.481628],[54.419065,24.481586],[54.418982,24.481589],[54.41896,24.481742],[54.4193,24.481784],[54.419382,24.481781],[54.419405,24.481628]]]}},{"type":"Feature","properties":{},"geometry":{"type":"Polygon","coordinates":[[[54.41983,24.481668],[54.419503,24.481629],[54.419421,24.481631],[54.419401,24.481768],[54.419728,24.481807],[54.419811,24.481804],[54.41983,24.481668]]]}},{"type":"Feature","properties":{},"geometry":{"type":"Polygon","coordinates":[[[54.420703,24.481785],[54.420366,24.481745],[54.420283,24.481748],[54.420285,24.481718],[54.420213,24.481708],[54.42007,24.481706],[54.420064,24.481769],[54.42028,24.481769],[54.42026,24.481911],[54.420597,24.481951],[54.42068,24.481949],[54.420703,24.481785]]]}},{"type":"Feature","properties":{},"geometry":{"type":"Polygon","coordinates":[[[54.418757,24.481742],[54.418755,24.481684],[54.418544,24.481691],[54.41855,24.481831],[54.418816,24.481822],[54.418812,24.48174],[54.418757,24.481742]]]}},{"type":"Feature","properties":{},"geometry":{"type":"Polygon","coordinates":[[[54.41895,24.481773],[54.418826,24.48177],[54.418813,24.48185],[54.418937,24.481853],[54.41895,24.481773]]]}},{"type":"Feature","properties":{},"geometry":{"type":"Polygon","coordinates":[[[54.421123,24.481827],[54.420715,24.481813],[54.420707,24.481946],[54.421115,24.48196],[54.421123,24.481827]]]}},{"type":"Feature","properties":{},"geometry":{"type":"Polygon","coordinates":[[[54.420254,24.481886],[54.419851,24.481856],[54.419834,24.481991],[54.420237,24.482021],[54.420254,24.481886]]]}},{"type":"Feature","properties":{},"geometry":{"type":"Polygon","coordinates":[[[54.421069,24.482133],[54.421089,24.48201],[54.420779,24.481968],[54.420697,24.48197],[54.420677,24.482093],[54.420987,24.482135],[54.421069,24.482133]]]}},{"type":"Feature","properties":{},"geometry":{"type":"Polygon","coordinates":[[[54.420551,24.482018],[54.42046,24.481997],[54.420378,24.481999],[54.420353,24.482089],[54.420444,24.482109],[54.420526,24.482107],[54.420551,24.482018]]]}},{"type":"Feature","properties":{},"geometry":{"type":"Polygon","coordinates":[[[54.418899,24.482122],[54.418577,24.482082],[54.418494,24.482084],[54.418475,24.482211],[54.418798,24.482252],[54.41888,24.482249],[54.418899,24.482122]]]}},{"type":"Feature","properties":{},"geometry":{"type":"Polygon","coordinates":[[[54.420186,24.482867],[54.420205,24.48274],[54.420573,24.482769],[54.420561,24.482854],[54.420871,24.48289],[54.420954,24.482888],[54.420971,24.482767],[54.420601,24.482732],[54.420605,24.482701],[54.420238,24.482669],[54.42024,24.48265],[54.420589,24.482674],[54.420587,24.482694],[54.420977,24.482725],[54.420999,24.48258],[54.420256,24.482516],[54.420259,24.482497],[54.419922,24.482463],[54.41984,24.482465],[54.419816,24.482661],[54.420191,24.482693],[54.420186,24.482733],[54.419884,24.482696],[54.419802,24.482698],[54.419782,24.48283],[54.420103,24.48287],[54.420186,24.482867]]]}},{"type":"Feature","properties":{},"geometry":{"type":"Polygon","coordinates":[[[54.419596,24.482657],[54.419274,24.482616],[54.419191,24.482619],[54.419171,24.48275],[54.419494,24.482791],[54.419576,24.482788],[54.419596,24.482657]]]}},{"type":"Feature","properties":{},"geometry":{"type":"Polygon","coordinates":[[[54.419137,24.482685],[54.41904,24.482658],[54.418957,24.482661],[54.418929,24.482747],[54.419026,24.482773],[54.419109,24.482771],[54.419137,24.482685]]]}},{"type":"Feature","properties":{},"geometry":{"type":"Polygon","coordinates":[[[54.420471,24.482856],[54.420382,24.482828],[54.4203,24.48283],[54.420265,24.48292],[54.420354,24.482948],[54.420436,24.482946],[54.420471,24.482856]]]}},{"type":"Feature","properties":{},"geometry":{"type":"Polygon","coordinates":[[[54.420103,24.482883],[54.419782,24.482848],[54.4197,24.48285],[54.419682,24.482985],[54.420003,24.48302],[54.420085,24.483018],[54.420103,24.482883]]]}},{"type":"Feature","properties":{},"geometry":{"type":"Polygon","coordinates":[[[54.420935,24.483004],[54.420626,24.482967],[54.420544,24.48297],[54.420527,24.48309],[54.420835,24.483127],[54.420918,24.483124],[54.420935,24.483004]]]}},{"type":"Feature","properties":{},"geometry":{"type":"Polygon","coordinates":[[[54.420067,24.48316],[54.420079,24.483041],[54.419673,24.483014],[54.41966,24.483134],[54.420067,24.48316]]]}},{"type":"Feature","properties":{},"geometry":{"type":"Polygon","coordinates":[[[54.420515,24.483029],[54.420094,24.483],[54.420075,24.483162],[54.420497,24.483191],[54.420515,24.483029]]]}},{"type":"Feature","properties":{},"geometry":{"type":"Polygon","coordinates":[[[54.420921,24.483147],[54.42052,24.483123],[54.420507,24.483251],[54.420909,24.483275],[54.420921,24.483147]]]}},{"type":"Feature","properties":{},"geometry":{"type":"Polygon","coordinates":[[[54.419591,24.4893],[54.419592,24.48932],[54.419778,24.489316],[54.419777,24.489263],[54.41933,24.489268],[54.419331,24.489307],[54.419591,24.4893]]]}},{"type":"Feature","properties":{},"geometry":{"type":"Polygon","coordinates":[[[54.418994,24.489429],[54.419166,24.489423],[54.419159,24.489299],[54.418987,24.489305],[54.418994,24.489429]]]}},{"type":"Feature","properties":{},"geometry":{"type":"Polygon","coordinates":[[[54.419744,24.489379],[54.419557,24.489378],[54.419554,24.489481],[54.419741,24.489481],[54.419744,24.489379]]]}},{"type":"Feature","properties":{},"geometry":{"type":"Polygon","coordinates":[[[54.419166,24.489612],[54.419275,24.489607],[54.419265,24.489535],[54.419157,24.48954],[54.419166,24.489612]]]}},{"type":"Feature","properties":{},"geometry":{"type":"Polygon","coordinates":[[[54.419564,24.489821],[54.419767,24.489816],[54.419766,24.489771],[54.419563,24.489776],[54.419564,24.489821]]]}},{"type":"Feature","properties":{},"geometry":{"type":"Polygon","coordinates":[[[54.419745,24.490291],[54.419742,24.49017],[54.419611,24.490173],[54.419613,24.490252],[54.419571,24.490258],[54.419579,24.490298],[54.419745,24.490291]]]}},{"type":"Feature","properties":{},"geometry":{"type":"Polygon","coordinates":[[[54.41952,24.490301],[54.419515,24.490179],[54.419381,24.490183],[54.419385,24.490272],[54.419239,24.490277],[54.41924,24.490311],[54.41952,24.490301]]]}},{"type":"Feature","properties":{},"geometry":{"type":"Polygon","coordinates":[[[54.418218,24.502471],[54.4183,24.502469],[54.418502,24.502391],[54.418459,24.502298],[54.418376,24.5023],[54.418174,24.502378],[54.418218,24.502471]]]}}]}