{"type":"FeatureCollection","features":[{"type":"Feature","properties":{},"geometry":{"type":"Polygon","coordinates":[[[54.390027,24.482637],[54.390344,24.482746],[54.390314,24.482789],[54.390555,24.482932],[54.39082,24.483046],[54.391503,24.483283],[54.39158,24.48316],[54.39149,24.483096],[54.391551,24.482995],[54.391627,24.483024],[54.391599,24.483076],[54.391692,24.483118],[54.392375,24.483354],[54.392476,24.48318],[54.392269,24.483096],[54.392281,24.483077],[54.392174,24.483027],[54.391705,24.482865],[54.391509,24.482769],[54.390715,24.482487],[54.390718,24.482472],[54.390034,24.482236],[54.389897,24.482223],[54.38988,24.482346],[54.390189,24.482453],[54.390148,24.482526],[54.389835,24.482418],[54.389778,24.482499],[54.390027,24.482637]],[[54.390695,24.482752],[54.390698,24.482753],[54.390697,24.482754],[54.390695,24.482752]]]}},{"type":"Feature","properties":{},"geometry":{"type":"Polygon","coordinates":[[[54.389314,24.482519],[54.389224,24.482589],[54.389289,24.482658],[54.389972,24.482894],[54.390062,24.482824],[54.389997,24.482755],[54.389314,24.482519]]]}},{"type":"Feature","properties":{},"geometry":{"type":"Polygon","coordinates":[[[54.391612,24.483457],[54.391627,24.483427],[54.390849,24.483151],[54.390833,24.483181],[54.391612,24.483457]]]}},{"type":"Feature","properties":{},"geometry":{"type":"Polygon","coordinates":[[[54.390641,24.48366],[54.391324,24.483896],[54.391411,24.48382],[54.391274,24.483685],[54.39125,24.483677],[54.3913,24.483619],[54.391235,24.483566],[54.391324,24.483594],[54.391408,24.483498],[54.391224,24.483358],[54.390541,24.483122],[54.390331,24.483328],[54.390554,24.483481],[54.390503,24.483524],[54.390641,24.48366]]]}},{"type":"Feature","properties":{},"geometry":{"type":"Polygon","coordinates":[[[54.390799,24.484563],[54.39089,24.484485],[54.390771,24.484369],[54.390088,24.484133],[54.389996,24.484211],[54.390116,24.484327],[54.390799,24.484563]]]}},{"type":"Feature","properties":{},"geometry":{"type":"Polygon","coordinates":[[[54.389435,24.485323],[54.389477,24.485362],[54.389331,24.485492],[54.38937,24.485528],[54.389329,24.485565],[54.389451,24.485678],[54.393805,24.487182],[54.393686,24.487279],[54.393838,24.487429],[54.393821,24.487443],[54.393592,24.487364],[54.393571,24.487382],[54.389501,24.485976],[54.389076,24.48632],[54.389258,24.486507],[54.392549,24.487643],[54.392018,24.487689],[54.39204,24.487902],[54.388973,24.486843],[54.388792,24.48686],[54.388804,24.48696],[54.388654,24.486975],[54.388696,24.487323],[54.388857,24.487379],[54.388863,24.487425],[54.391444,24.488317],[54.391441,24.488331],[54.391361,24.48831],[54.391347,24.488363],[54.389056,24.487571],[54.388874,24.487589],[54.388886,24.487688],[54.388736,24.487703],[54.388777,24.488054],[54.388938,24.48811],[54.388946,24.488184],[54.392856,24.489534],[54.3928,24.489539],[54.392383,24.489395],[54.392141,24.489403],[54.392113,24.489515],[54.389852,24.488734],[54.38965,24.488966],[54.389889,24.489138],[54.392007,24.48987],[54.392002,24.489883],[54.391968,24.489927],[54.38965,24.489126],[54.389472,24.489331],[54.389713,24.489505],[54.391569,24.490146],[54.391495,24.49018],[54.39129,24.490216],[54.389397,24.489562],[54.389219,24.489767],[54.38946,24.489941],[54.390802,24.490404],[54.390797,24.490415],[54.39087,24.490484],[54.391724,24.490779],[54.391942,24.490822],[54.392084,24.490865],[54.391815,24.490894],[54.389127,24.489965],[54.389106,24.489991],[54.388993,24.489952],[54.38886,24.49012],[54.388951,24.490181],[54.388912,24.490229],[54.389048,24.490319],[54.391516,24.491171],[54.391518,24.491189],[54.388448,24.490128],[54.38827,24.490333],[54.388511,24.490507],[54.391823,24.491651],[54.391863,24.49191],[54.392547,24.492146],[54.392963,24.492093],[54.392969,24.492047],[54.394047,24.492419],[54.394055,24.49241],[54.394184,24.492454],[54.394285,24.492338],[54.39419,24.492269],[54.394233,24.49222],[54.393984,24.49204],[54.392958,24.491686],[54.392955,24.491668],[54.394583,24.492231],[54.394638,24.492163],[54.394752,24.492202],[54.394827,24.492108],[54.394752,24.492059],[54.394815,24.491978],[54.394662,24.491877],[54.394064,24.491671],[54.394154,24.491563],[54.394995,24.491853],[54.395003,24.491844],[54.395132,24.491889],[54.395234,24.491772],[54.395139,24.491703],[54.395182,24.491654],[54.394932,24.491475],[54.394385,24.491285],[54.394493,24.491156],[54.395249,24.491417],[54.395257,24.491408],[54.395386,24.491452],[54.395487,24.491335],[54.395392,24.491267],[54.395435,24.491218],[54.395186,24.491038],[54.394724,24.490879],[54.394769,24.490824],[54.395424,24.49105],[54.395626,24.490818],[54.395387,24.490647],[54.395022,24.49052],[54.395053,24.490483],[54.394882,24.49037],[54.394427,24.490213],[54.39418,24.49023],[54.393949,24.49015],[54.393905,24.489897],[54.394481,24.490096],[54.394669,24.490078],[54.394653,24.489933],[54.394745,24.489924],[54.394704,24.489573],[54.394598,24.489536],[54.394592,24.489484],[54.393792,24.489207],[54.393803,24.489206],[54.393791,24.489128],[54.394398,24.489338],[54.394585,24.489319],[54.394572,24.489206],[54.394664,24.489197],[54.394622,24.488843],[54.394514,24.488806],[54.394508,24.488755],[54.393693,24.488473],[54.393708,24.488472],[54.393661,24.488028],[54.394793,24.488419],[54.394866,24.48836],[54.394968,24.488395],[54.395185,24.488219],[54.395111,24.488144],[54.395209,24.488065],[54.395036,24.487889],[54.394779,24.487519],[54.394986,24.48759],[54.39537,24.487249],[54.395338,24.487219],[54.395256,24.487186],[54.389721,24.485274],[54.389609,24.485262],[54.389484,24.485279],[54.389435,24.485323]],[[54.393062,24.491324],[54.392891,24.491265],[54.392873,24.49112],[54.393151,24.491216],[54.393062,24.491324]]]}},{"type":"Feature","properties":{},"geometry":{"type":"Polygon","coordinates":[[[54.39287,24.492786],[54.392808,24.492401],[54.392125,24.492165],[54.391543,24.492243],[54.391605,24.492628],[54.392288,24.492864],[54.39287,24.492786]]]}},{"type":"Feature","properties":{},"geometry":{"type":"Polygon","coordinates":[[[54.390505,24.493039],[54.390693,24.492868],[54.390587,24.492771],[54.389904,24.492535],[54.389716,24.492706],[54.389822,24.492802],[54.390505,24.493039]]]}},{"type":"Feature","properties":{},"geometry":{"type":"Polygon","coordinates":[[[54.390121,24.493761],[54.389438,24.493525],[54.388628,24.493618],[54.388677,24.493972],[54.389361,24.494209],[54.39017,24.494115],[54.390121,24.493761]]]}},{"type":"Feature","properties":{},"geometry":{"type":"Polygon","coordinates":[[[54.389522,24.496127],[54.390205,24.496364],[54.390509,24.496344],[54.390508,24.496311],[54.390568,24.496332],[54.390643,24.496328],[54.39063,24.496099],[54.390576,24.495677],[54.389892,24.495441],[54.389543,24.495476],[54.389544,24.49549],[54.389426,24.495493],[54.38943,24.495601],[54.389564,24.495647],[54.389583,24.495803],[54.389541,24.495789],[54.389464,24.495796],[54.389473,24.495871],[54.389491,24.495877],[54.389522,24.496127]]]}},{"type":"Feature","properties":{},"geometry":{"type":"Polygon","coordinates":[[[54.390738,24.496783],[54.390936,24.496852],[54.390924,24.496854],[54.390932,24.496891],[54.391615,24.497128],[54.39167,24.497118],[54.391662,24.49708],[54.39149,24.497021],[54.391496,24.497001],[54.391543,24.497018],[54.391663,24.497013],[54.391661,24.496974],[54.390978,24.496737],[54.390858,24.496742],[54.390859,24.496766],[54.390739,24.496749],[54.390738,24.496783]]]}},{"type":"Feature","properties":{},"geometry":{"type":"Polygon","coordinates":[[[54.391309,24.497052],[54.390626,24.496816],[54.390502,24.496814],[54.390501,24.496908],[54.390601,24.496943],[54.390549,24.496942],[54.390547,24.497005],[54.39123,24.497241],[54.391343,24.497244],[54.391345,24.497181],[54.391242,24.497145],[54.391304,24.497146],[54.391309,24.497052]]]}},{"type":"Feature","properties":{},"geometry":{"type":"Polygon","coordinates":[[[54.385961,24.496266],[54.391497,24.498179],[54.391913,24.49816],[54.391881,24.497941],[54.385969,24.495903],[54.385833,24.49597],[54.385868,24.49621],[54.385961,24.496266]]]}},{"type":"Feature","properties":{},"geometry":{"type":"Polygon","coordinates":[[[54.389072,24.50204],[54.388843,24.502063],[54.388862,24.502212],[54.389105,24.502296],[54.389153,24.502667],[54.390406,24.5031],[54.391157,24.503036],[54.3911,24.502522],[54.391418,24.50248],[54.391222,24.500847],[54.39166,24.500999],[54.391921,24.500969],[54.391889,24.500727],[54.391205,24.500491],[54.391179,24.500493],[54.39098,24.498843],[54.390129,24.498549],[54.390974,24.498461],[54.390929,24.498107],[54.390246,24.497871],[54.389213,24.497979],[54.389257,24.498332],[54.389543,24.498431],[54.388624,24.498535],[54.389072,24.50204]]]}},{"type":"Feature","properties":{},"geometry":{"type":"Polygon","coordinates":[[[54.391481,24.503691],[54.391485,24.503724],[54.391421,24.503702],[54.39137,24.503704],[54.391382,24.503896],[54.391509,24.503941],[54.391517,24.50401],[54.391456,24.503989],[54.391406,24.503991],[54.391414,24.504159],[54.391659,24.504244],[54.391494,24.50426],[54.391527,24.504535],[54.391773,24.50462],[54.391783,24.504705],[54.391544,24.504622],[54.39149,24.504627],[54.391498,24.504707],[54.391795,24.50481],[54.391799,24.504838],[54.391989,24.504904],[54.391928,24.504907],[54.391748,24.504845],[54.391636,24.504847],[54.391637,24.504886],[54.391583,24.504867],[54.391525,24.504868],[54.391528,24.504977],[54.391852,24.505089],[54.391875,24.505412],[54.392558,24.505648],[54.392773,24.505636],[54.392737,24.505136],[54.392541,24.505068],[54.392592,24.505063],[54.392563,24.504815],[54.392386,24.504754],[54.392653,24.504727],[54.39262,24.504452],[54.392476,24.504402],[54.392504,24.504401],[54.392497,24.504295],[54.392523,24.504304],[54.392592,24.504285],[54.39258,24.504249],[54.392491,24.504218],[54.392488,24.504165],[54.392379,24.504127],[54.39259,24.504102],[54.392558,24.503881],[54.392271,24.503782],[54.392269,24.503745],[54.392463,24.503812],[54.392554,24.503811],[54.392554,24.503762],[54.3915,24.503385],[54.391408,24.503397],[54.391416,24.503446],[54.391555,24.503494],[54.391421,24.503501],[54.391428,24.503603],[54.391666,24.503686],[54.39167,24.503709],[54.391589,24.503681],[54.391481,24.503691]]]}},{"type":"Feature","properties":{},"geometry":{"type":"Polygon","coordinates":[[[54.390056,24.505797],[54.389993,24.505205],[54.38931,24.504969],[54.389111,24.504982],[54.389158,24.505575],[54.389842,24.505811],[54.390056,24.505797]]]}},{"type":"Feature","properties":{},"geometry":{"type":"Polygon","coordinates":[[[54.392001,24.506959],[54.392026,24.506954],[54.392556,24.507137],[54.392667,24.50713],[54.392911,24.507214],[54.392992,24.507205],[54.392985,24.507152],[54.392737,24.507066],[54.392715,24.506783],[54.392032,24.506547],[54.391847,24.506558],[54.391863,24.506768],[54.391404,24.50661],[54.391343,24.506622],[54.391176,24.506565],[54.391087,24.506574],[54.391093,24.50662],[54.391207,24.506659],[54.391196,24.50666],[54.391204,24.506721],[54.391888,24.506957],[54.391924,24.506953],[54.391921,24.506931],[54.392001,24.506959]]]}},{"type":"Feature","properties":{},"geometry":{"type":"Polygon","coordinates":[[[54.391257,24.506817],[54.391131,24.506819],[54.391133,24.506908],[54.391816,24.507144],[54.391942,24.507142],[54.39194,24.507053],[54.391257,24.506817]]]}},{"type":"Feature","properties":{},"geometry":{"type":"Polygon","coordinates":[[[54.390858,24.507254],[54.391541,24.50749],[54.391944,24.507466],[54.391934,24.507327],[54.391251,24.507091],[54.390848,24.507116],[54.390858,24.507254]]]}},{"type":"Feature","properties":{},"geometry":{"type":"Polygon","coordinates":[[[54.391046,24.50751],[54.391179,24.507511],[54.39118,24.507431],[54.390497,24.507195],[54.390364,24.507193],[54.390363,24.507274],[54.391046,24.50751]]]}},{"type":"Feature","properties":{},"geometry":{"type":"Polygon","coordinates":[[[54.400138,24.480349],[54.400164,24.48049],[54.400212,24.480574],[54.400252,24.480588],[54.400293,24.48067],[54.405425,24.482435],[54.405459,24.482491],[54.405871,24.482633],[54.406025,24.482867],[54.406708,24.483103],[54.406884,24.483008],[54.40655,24.482498],[54.406516,24.482487],[54.406485,24.482446],[54.405802,24.48221],[54.405646,24.482306],[54.405622,24.482223],[54.405587,24.482211],[54.405559,24.482085],[54.40588,24.482196],[54.406,24.482121],[54.407416,24.48261],[54.407605,24.482539],[54.407647,24.482408],[54.407249,24.481963],[54.406344,24.48165],[54.406178,24.481406],[54.401055,24.479636],[54.400877,24.479739],[54.400799,24.479808],[54.400895,24.479929],[54.400722,24.479869],[54.400497,24.479982],[54.400456,24.480029],[54.400478,24.480084],[54.400623,24.480215],[54.400638,24.480248],[54.400275,24.480123],[54.400167,24.480228],[54.400138,24.480349]]]}},{"type":"Feature","properties":{},"geometry":{"type":"Polygon","coordinates":[[[54.403079,24.482706],[54.402754,24.48227],[54.401615,24.481877],[54.401479,24.481932],[54.401238,24.481849],[54.401152,24.481845],[54.400283,24.48276],[54.400283,24.482878],[54.400325,24.482941],[54.401463,24.483334],[54.401638,24.483375],[54.401836,24.48329],[54.402151,24.483205],[54.40257,24.483215],[54.403095,24.483396],[54.403021,24.483179],[54.403255,24.483046],[54.403079,24.482706]]]}},{"type":"Feature","properties":{},"geometry":{"type":"Polygon","coordinates":[[[54.405983,24.487822],[54.406127,24.487642],[54.405832,24.487429],[54.404209,24.486868],[54.40439,24.486736],[54.404417,24.486697],[54.404408,24.486649],[54.404023,24.48626],[54.402315,24.48567],[54.402263,24.485664],[54.401526,24.486017],[54.401736,24.48657],[54.40177,24.486603],[54.403471,24.487187],[54.40353,24.487207],[54.403767,24.487123],[54.403842,24.487083],[54.405983,24.487822]]]}},{"type":"Feature","properties":{},"geometry":{"type":"Polygon","coordinates":[[[54.400743,24.486123],[54.40006,24.485887],[54.399948,24.486066],[54.399637,24.48638],[54.399486,24.486556],[54.399953,24.486886],[54.400754,24.487158],[54.400866,24.487117],[54.401207,24.486363],[54.400743,24.486123]]]}},{"type":"Feature","properties":{},"geometry":{"type":"Polygon","coordinates":[[[54.40111,24.48775],[54.400111,24.487303],[54.399543,24.486934],[54.398968,24.486502],[54.398285,24.486266],[54.397051,24.487615],[54.398191,24.48847],[54.399512,24.489164],[54.400283,24.489478],[54.400966,24.489714],[54.401757,24.489883],[54.4026,24.489943],[54.40288,24.489596],[54.402625,24.488136],[54.401942,24.4879],[54.401605,24.48785],[54.40111,24.48775]]]}},{"type":"Feature","properties":{},"geometry":{"type":"Polygon","coordinates":[[[54.400402,24.490694],[54.400362,24.490428],[54.399678,24.490192],[54.399374,24.490231],[54.399415,24.490496],[54.400098,24.490732],[54.400402,24.490694]]]}},{"type":"Feature","properties":{},"geometry":{"type":"Polygon","coordinates":[[[54.397803,24.492247],[54.39788,24.492274],[54.397887,24.492326],[54.39857,24.492562],[54.398647,24.492553],[54.398644,24.492538],[54.399326,24.492774],[54.399235,24.492784],[54.399289,24.49317],[54.399973,24.493406],[54.400704,24.493321],[54.400693,24.493246],[54.402613,24.493909],[54.402635,24.494091],[54.402621,24.494112],[54.402625,24.494189],[54.402693,24.494288],[54.402743,24.494334],[54.402885,24.494423],[54.40299,24.494472],[54.405717,24.495413],[54.401523,24.493967],[54.401366,24.493981],[54.40125,24.494035],[54.401138,24.494109],[54.401032,24.494246],[54.401024,24.494312],[54.401068,24.494375],[54.402833,24.494984],[54.402758,24.495166],[54.403173,24.495397],[54.40515,24.49608],[54.40514,24.496207],[54.405014,24.496237],[54.405018,24.49625],[54.404485,24.49605],[54.403061,24.495558],[54.403015,24.495684],[54.399002,24.494304],[54.398805,24.4948],[54.399363,24.494993],[54.399336,24.495054],[54.398782,24.494864],[54.39861,24.49528],[54.402544,24.496645],[54.398869,24.495376],[54.398608,24.495485],[54.398807,24.495877],[54.399573,24.496142],[54.399553,24.496168],[54.399564,24.496231],[54.399627,24.496381],[54.399632,24.496479],[54.399659,24.49655],[54.399716,24.496586],[54.403589,24.497924],[54.403578,24.497956],[54.403124,24.497801],[54.402836,24.497919],[54.399607,24.496804],[54.399512,24.49682],[54.399438,24.496849],[54.39928,24.496959],[54.399137,24.497123],[54.39913,24.497204],[54.399142,24.49723],[54.398529,24.49703],[54.39847,24.497057],[54.398434,24.4971],[54.39843,24.497127],[54.39787,24.496934],[54.397774,24.496915],[54.397662,24.496914],[54.397493,24.496956],[54.39738,24.49702],[54.397273,24.497128],[54.397234,24.497194],[54.39729,24.497229],[54.397314,24.497264],[54.397328,24.497308],[54.39732,24.497367],[54.397833,24.497544],[54.397618,24.497681],[54.397558,24.497693],[54.397544,24.49772],[54.397551,24.497756],[54.397619,24.497842],[54.397712,24.49789],[54.398546,24.498178],[54.398546,24.498195],[54.398599,24.498222],[54.398573,24.498249],[54.398577,24.498271],[54.398648,24.498317],[54.404184,24.500229],[54.404309,24.500226],[54.404483,24.500286],[54.404761,24.500267],[54.405188,24.500172],[54.405307,24.500116],[54.408488,24.501215],[54.40804,24.501235],[54.407996,24.501563],[54.408069,24.501715],[54.408752,24.50195],[54.409021,24.501962],[54.409339,24.501953],[54.40943,24.501922],[54.409545,24.501851],[54.409584,24.501746],[54.40961,24.501602],[54.410333,24.501852],[54.410433,24.501853],[54.410432,24.501791],[54.410568,24.501791],[54.410571,24.501636],[54.410922,24.502066],[54.410845,24.50204],[54.410774,24.502113],[54.410786,24.502122],[54.410466,24.502012],[54.410264,24.502009],[54.41023,24.502602],[54.410645,24.502746],[54.410624,24.502767],[54.410801,24.50292],[54.412759,24.503596],[54.412697,24.503656],[54.409187,24.502444],[54.409028,24.502601],[54.409206,24.502754],[54.412036,24.503732],[54.412016,24.503751],[54.411027,24.50341],[54.410868,24.503567],[54.411046,24.50372],[54.41469,24.504979],[54.414721,24.504953],[54.415313,24.505155],[54.415377,24.50511],[54.415334,24.505066],[54.415428,24.504987],[54.415246,24.504837],[54.415794,24.505027],[54.415841,24.50499],[54.415784,24.50493],[54.4151,24.504694],[54.415054,24.50473],[54.415101,24.504781],[54.414339,24.504517],[54.414469,24.504408],[54.415629,24.504809],[54.415806,24.50466],[54.41561,24.504498],[54.415468,24.504449],[54.415441,24.504421],[54.414929,24.504245],[54.414964,24.504215],[54.41533,24.504341],[54.415479,24.504216],[54.415811,24.504331],[54.415988,24.504182],[54.415792,24.50402],[54.413458,24.503214],[54.413325,24.503345],[54.411665,24.502775],[54.411657,24.50276],[54.411154,24.502586],[54.411154,24.502552],[54.411172,24.502569],[54.411855,24.502805],[54.411957,24.502748],[54.411937,24.502718],[54.413098,24.503119],[54.41317,24.503099],[54.41329,24.502809],[54.413379,24.502328],[54.412899,24.502033],[54.412741,24.501881],[54.412655,24.501769],[54.412574,24.501625],[54.412526,24.501486],[54.410818,24.500896],[54.410274,24.500883],[54.410309,24.501083],[54.410429,24.5014],[54.410484,24.501502],[54.405762,24.499872],[54.405928,24.49974],[54.406139,24.499496],[54.406255,24.499347],[54.406373,24.499138],[54.406474,24.49889],[54.406529,24.498602],[54.406545,24.49833],[54.406522,24.498107],[54.406444,24.497802],[54.405533,24.497487],[54.404938,24.497378],[54.405087,24.497181],[54.405057,24.497312],[54.40574,24.497548],[54.406,24.497594],[54.406015,24.497531],[54.406053,24.497539],[54.406089,24.497391],[54.405997,24.497356],[54.408992,24.498391],[54.409383,24.498324],[54.409415,24.497947],[54.40693,24.497089],[54.407067,24.497052],[54.407064,24.497038],[54.407129,24.49706],[54.407327,24.497079],[54.407368,24.497105],[54.408096,24.497352],[54.408151,24.49732],[54.408105,24.497266],[54.407619,24.497098],[54.408106,24.497162],[54.408129,24.497108],[54.408709,24.497309],[54.40953,24.496918],[54.409385,24.496689],[54.408251,24.496297],[54.408609,24.49641],[54.408742,24.496429],[54.408871,24.496413],[54.408918,24.496381],[54.408932,24.496347],[54.408922,24.496284],[54.408856,24.496195],[54.408693,24.496072],[54.408481,24.495983],[54.408504,24.495925],[54.408406,24.495872],[54.410179,24.496484],[54.410343,24.49638],[54.410247,24.496256],[54.410304,24.496207],[54.410552,24.496292],[54.410775,24.496187],[54.410614,24.495998],[54.408598,24.495301],[54.408672,24.495193],[54.408961,24.495292],[54.409261,24.495341],[54.409621,24.495322],[54.409964,24.495229],[54.409867,24.495048],[54.409653,24.494565],[54.40954,24.494014],[54.409518,24.493451],[54.409564,24.493205],[54.409532,24.493029],[54.403996,24.491117],[54.403528,24.491223],[54.403014,24.491395],[54.402446,24.49171],[54.402095,24.491973],[54.401759,24.49238],[54.402,24.492541],[54.405626,24.493793],[54.405685,24.493974],[54.405836,24.494162],[54.406114,24.494309],[54.40796,24.494947],[54.407886,24.495055],[54.406059,24.494424],[54.406021,24.494447],[54.405782,24.494365],[54.405491,24.494596],[54.405595,24.494715],[54.405514,24.49477],[54.405624,24.494911],[54.405937,24.495019],[54.405924,24.495055],[54.405827,24.495059],[54.404069,24.49446],[54.404185,24.494278],[54.404124,24.494246],[54.404554,24.493571],[54.404527,24.493557],[54.404581,24.493471],[54.404418,24.493385],[54.403735,24.493149],[54.403687,24.493224],[54.403613,24.493198],[54.403364,24.493222],[54.403301,24.49333],[54.40319,24.493291],[54.403099,24.493301],[54.40302,24.493273],[54.402918,24.493284],[54.398592,24.491789],[54.398571,24.491822],[54.397941,24.491604],[54.397815,24.491618],[54.397842,24.491819],[54.397752,24.491828],[54.397803,24.492247]],[[54.405172,24.497062],[54.405356,24.496779],[54.405461,24.496815],[54.405462,24.497138],[54.405323,24.497091],[54.405172,24.497062]],[[54.40496,24.497705],[54.405001,24.497921],[54.404599,24.497783],[54.404845,24.49749],[54.40496,24.497705]],[[54.403491,24.499004],[54.404214,24.499253],[54.404177,24.499273],[54.403503,24.49904],[54.403515,24.499023],[54.403491,24.499004]],[[54.405501,24.496695],[54.405413,24.496665],[54.405413,24.496641],[54.405534,24.496683],[54.405501,24.496695]]]}},{"type":"Feature","properties":{},"geometry":{"type":"Polygon","coordinates":[[[54.395997,24.492631],[54.396062,24.492332],[54.395379,24.492096],[54.39497,24.492022],[54.394905,24.492321],[54.395588,24.492557],[54.395997,24.492631]]]}},{"type":"Feature","properties":{},"geometry":{"type":"Polygon","coordinates":[[[54.392832,24.494205],[54.392684,24.494223],[54.392687,24.494247],[54.392627,24.494254],[54.392661,24.494494],[54.393345,24.49473],[54.393613,24.494698],[54.393582,24.494482],[54.393517,24.49446],[54.393515,24.494441],[54.392832,24.494205]]]}},{"type":"Feature","properties":{},"geometry":{"type":"Polygon","coordinates":[[[54.391992,24.495207],[54.392058,24.495844],[54.392741,24.49608],[54.392797,24.496038],[54.393596,24.495959],[54.393739,24.496008],[54.393864,24.495994],[54.394069,24.495811],[54.394285,24.495786],[54.3942,24.495176],[54.393517,24.49494],[54.392949,24.495006],[54.392963,24.495105],[54.392889,24.495079],[54.391992,24.495207]]]}},{"type":"Feature","properties":{},"geometry":{"type":"Polygon","coordinates":[[[54.39503,24.497114],[54.394542,24.496821],[54.393859,24.496585],[54.393627,24.49687],[54.393707,24.497154],[54.393958,24.497272],[54.394641,24.497508],[54.394769,24.497442],[54.394885,24.497348],[54.394874,24.497274],[54.394918,24.497211],[54.394997,24.497172],[54.39503,24.497114]]]}},{"type":"Feature","properties":{},"geometry":{"type":"Polygon","coordinates":[[[54.392671,24.497881],[54.39263,24.49788],[54.392627,24.497961],[54.39331,24.498197],[54.393352,24.498198],[54.393355,24.498117],[54.392671,24.497881]]]}},{"type":"Feature","properties":{},"geometry":{"type":"Polygon","coordinates":[[[54.395389,24.498281],[54.395387,24.498347],[54.39607,24.498583],[54.396127,24.498585],[54.396129,24.498519],[54.395446,24.498283],[54.395389,24.498281]]]}},{"type":"Feature","properties":{},"geometry":{"type":"Polygon","coordinates":[[[54.394452,24.498306],[54.392782,24.498424],[54.392938,24.499429],[54.393621,24.499665],[54.39537,24.499471],[54.39526,24.498664],[54.395136,24.498542],[54.394452,24.498306]]]}},{"type":"Feature","properties":{},"geometry":{"type":"Polygon","coordinates":[[[54.395447,24.499997],[54.395562,24.49998],[54.395534,24.499827],[54.394851,24.499591],[54.394736,24.499608],[54.394764,24.499761],[54.395447,24.499997]]]}},{"type":"Feature","properties":{},"geometry":{"type":"Polygon","coordinates":[[[54.39459,24.499766],[54.394557,24.499772],[54.394581,24.499877],[54.395264,24.500113],[54.395296,24.500107],[54.395273,24.500002],[54.39459,24.499766]]]}},{"type":"Feature","properties":{},"geometry":{"type":"Polygon","coordinates":[[[54.39563,24.50132],[54.395488,24.500472],[54.394805,24.500236],[54.394691,24.500252],[54.394233,24.500093],[54.394186,24.5001],[54.394206,24.500215],[54.394422,24.500289],[54.394239,24.500314],[54.394381,24.501163],[54.395064,24.501399],[54.39563,24.50132]]]}},{"type":"Feature","properties":{},"geometry":{"type":"Polygon","coordinates":[[[54.394978,24.501659],[54.394975,24.501761],[54.395658,24.501997],[54.395744,24.502],[54.395747,24.501897],[54.395064,24.501661],[54.394978,24.501659]]]}},{"type":"Feature","properties":{},"geometry":{"type":"Polygon","coordinates":[[[54.395873,24.502153],[54.39519,24.501917],[54.394758,24.501975],[54.394809,24.502283],[54.395492,24.502519],[54.395924,24.502461],[54.395873,24.502153]]]}},{"type":"Feature","properties":{},"geometry":{"type":"Polygon","coordinates":[[[54.397407,24.504788],[54.397479,24.504785],[54.397473,24.504684],[54.39679,24.504448],[54.396718,24.504451],[54.396724,24.504552],[54.397407,24.504788]]]}},{"type":"Feature","properties":{},"geometry":{"type":"Polygon","coordinates":[[[54.39297,24.508739],[54.393088,24.508737],[54.393088,24.508726],[54.393216,24.508734],[54.393217,24.5087],[54.392534,24.508464],[54.392286,24.508473],[54.392287,24.508503],[54.39297,24.508739]]]}},{"type":"Feature","properties":{},"geometry":{"type":"Polygon","coordinates":[[[54.392682,24.509009],[54.392634,24.509036],[54.39275,24.509204],[54.39265,24.50917],[54.392604,24.509197],[54.392644,24.509252],[54.392628,24.509246],[54.392412,24.509351],[54.39246,24.509432],[54.39255,24.509464],[54.392604,24.509551],[54.393284,24.509787],[54.393165,24.509838],[54.393196,24.509898],[54.393879,24.510134],[54.394195,24.509998],[54.394163,24.509938],[54.39348,24.509702],[54.39335,24.509756],[54.393482,24.509689],[54.394077,24.509894],[54.394173,24.509852],[54.394018,24.509606],[54.393766,24.509518],[54.393795,24.509504],[54.393735,24.509407],[54.393855,24.509448],[54.393889,24.50943],[54.393853,24.509371],[54.393676,24.50931],[54.393571,24.509139],[54.393658,24.509149],[54.393655,24.509094],[54.392972,24.508858],[54.392921,24.50886],[54.392923,24.508904],[54.39288,24.508889],[54.392685,24.508988],[54.392702,24.509016],[54.392682,24.509009]]]}},{"type":"Feature","properties":{},"geometry":{"type":"Polygon","coordinates":[[[54.392337,24.50946],[54.392309,24.509502],[54.39238,24.509542],[54.393063,24.509778],[54.393091,24.509737],[54.393021,24.509696],[54.392337,24.50946]]]}},{"type":"Feature","properties":{},"geometry":{"type":"Polygon","coordinates":[[[54.405543,24.480202],[54.405503,24.480233],[54.405512,24.480242],[54.405421,24.480293],[54.40543,24.480305],[54.405064,24.480179],[54.404989,24.480216],[54.405016,24.480261],[54.405699,24.480497],[54.40573,24.480482],[54.405753,24.480505],[54.406437,24.480741],[54.406583,24.480618],[54.406387,24.480433],[54.406444,24.48045],[54.406479,24.480403],[54.40637,24.480337],[54.406484,24.480376],[54.406523,24.480297],[54.406179,24.480171],[54.406324,24.480095],[54.406255,24.479987],[54.406346,24.479939],[54.406743,24.480076],[54.406836,24.48],[54.406771,24.479935],[54.406243,24.479753],[54.406176,24.479648],[54.405493,24.479412],[54.405244,24.479543],[54.4053,24.479631],[54.405093,24.47974],[54.40513,24.479799],[54.405054,24.479839],[54.405222,24.48007],[54.405562,24.480187],[54.40555,24.480197],[54.405561,24.480208],[54.405543,24.480202]]]}},{"type":"Feature","properties":{},"geometry":{"type":"Polygon","coordinates":[[[54.405129,24.480857],[54.405239,24.480777],[54.405221,24.480756],[54.405241,24.480741],[54.405389,24.480784],[54.405508,24.480697],[54.405367,24.480537],[54.404683,24.480301],[54.404646,24.480328],[54.40449,24.480274],[54.404376,24.480357],[54.404299,24.480331],[54.404068,24.4805],[54.404264,24.480722],[54.404947,24.480958],[54.405113,24.480852],[54.405129,24.480857]]]}},{"type":"Feature","properties":{},"geometry":{"type":"Polygon","coordinates":[[[54.403068,24.484215],[54.402936,24.484662],[54.402843,24.484838],[54.402656,24.485029],[54.403268,24.485565],[54.403951,24.4858],[54.404147,24.485609],[54.404367,24.485274],[54.404472,24.48503],[54.404542,24.484789],[54.40607,24.485317],[54.40603,24.485377],[54.406135,24.485436],[54.406818,24.485672],[54.406859,24.48561],[54.406761,24.485555],[54.407698,24.485879],[54.407889,24.48568],[54.407828,24.485631],[54.407762,24.485609],[54.407564,24.485445],[54.407306,24.485356],[54.407336,24.485327],[54.407262,24.485263],[54.406578,24.485028],[54.40652,24.485084],[54.405647,24.484783],[54.405743,24.48448],[54.405412,24.484365],[54.405703,24.48437],[54.405703,24.484197],[54.40788,24.484949],[54.407856,24.484972],[54.40782,24.485066],[54.407818,24.485252],[54.407837,24.485345],[54.407917,24.485474],[54.408004,24.485549],[54.408837,24.485837],[54.409024,24.486157],[54.410504,24.486668],[54.410863,24.4865],[54.410363,24.485619],[54.410402,24.485593],[54.410413,24.48552],[54.410404,24.485468],[54.410388,24.485446],[54.41032,24.485423],[54.410362,24.485422],[54.410404,24.485395],[54.410434,24.485322],[54.410549,24.485276],[54.410774,24.485354],[54.410882,24.485296],[54.410832,24.485218],[54.410758,24.485192],[54.410978,24.485104],[54.410804,24.484786],[54.409324,24.484274],[54.408848,24.484508],[54.408793,24.48444],[54.405515,24.483308],[54.405455,24.483133],[54.404772,24.482897],[54.404443,24.483029],[54.404606,24.483582],[54.404485,24.483673],[54.40449,24.483716],[54.404256,24.483781],[54.40431,24.484123],[54.404449,24.484171],[54.404334,24.484157],[54.404298,24.484316],[54.403921,24.484186],[54.403834,24.484277],[54.403068,24.484215]],[[54.408356,24.484741],[54.408336,24.484779],[54.405703,24.483869],[54.405684,24.483797],[54.408383,24.484729],[54.408356,24.484741]]]}},{"type":"Feature","properties":{},"geometry":{"type":"Polygon","coordinates":[[[54.406141,24.504759],[54.406233,24.504739],[54.406192,24.504598],[54.406428,24.504679],[54.406523,24.504681],[54.406525,24.504539],[54.405842,24.504303],[54.405749,24.504301],[54.405745,24.504419],[54.405501,24.504334],[54.405405,24.504357],[54.405458,24.504523],[54.406141,24.504759]]]}},{"type":"Feature","properties":{},"geometry":{"type":"Polygon","coordinates":[[[54.4018,24.504787],[54.404453,24.505703],[54.40438,24.50589],[54.405359,24.506221],[54.405429,24.506041],[54.407336,24.506699],[54.407629,24.506391],[54.407472,24.506231],[54.405557,24.50557],[54.405569,24.505531],[54.406702,24.505922],[54.406793,24.505817],[54.406828,24.505695],[54.406787,24.505553],[54.406674,24.505453],[54.40654,24.505406],[54.406344,24.50524],[54.405661,24.505004],[54.405586,24.505077],[54.401138,24.503541],[54.400892,24.503788],[54.401165,24.50401],[54.40469,24.505227],[54.404678,24.505266],[54.401935,24.504319],[54.401707,24.504327],[54.401492,24.504552],[54.4018,24.504787]]]}},{"type":"Feature","properties":{},"geometry":{"type":"Polygon","coordinates":[[[54.405252,24.506613],[54.405345,24.506365],[54.404383,24.506043],[54.40429,24.506291],[54.405252,24.506613]]]}},{"type":"Feature","properties":{},"geometry":{"type":"Polygon","coordinates":[[[54.399457,24.506219],[54.400634,24.506625],[54.40091,24.506899],[54.40196,24.507261],[54.40195,24.50727],[54.400376,24.506727],[54.400258,24.506834],[54.400654,24.507226],[54.4016,24.507553],[54.401979,24.507905],[54.401345,24.507686],[54.401185,24.507818],[54.401303,24.507926],[54.400067,24.507499],[54.400007,24.507567],[54.399821,24.507503],[54.399695,24.507671],[54.399843,24.507815],[54.405253,24.509684],[54.405289,24.509651],[54.405418,24.509695],[54.405533,24.509526],[54.407014,24.510038],[54.407179,24.509921],[54.406812,24.509574],[54.407446,24.509794],[54.40758,24.509657],[54.407224,24.509322],[54.407244,24.509315],[54.407784,24.509501],[54.4079,24.509383],[54.407574,24.509083],[54.407812,24.509166],[54.407864,24.509122],[54.407708,24.508969],[54.407025,24.508733],[54.406973,24.508777],[54.407096,24.508897],[54.406477,24.508684],[54.406489,24.508672],[54.406098,24.508287],[54.405373,24.508037],[54.405416,24.507961],[54.406645,24.508385],[54.406757,24.508271],[54.406367,24.507886],[54.405604,24.507622],[54.405862,24.507159],[54.405855,24.507079],[54.405593,24.506955],[54.405192,24.506817],[54.405237,24.506716],[54.404265,24.506384],[54.404229,24.506484],[54.400057,24.505043],[54.399993,24.505054],[54.399362,24.506154],[54.399457,24.506219]]]}},{"type":"Feature","properties":{},"geometry":{"type":"Polygon","coordinates":[[[54.409759,24.479649],[54.40969,24.479716],[54.409841,24.479844],[54.410524,24.48008],[54.410593,24.480014],[54.410443,24.479885],[54.409759,24.479649]]]}},{"type":"Feature","properties":{},"geometry":{"type":"Polygon","coordinates":[[[54.409312,24.483001],[54.409408,24.482998],[54.409403,24.482883],[54.40872,24.482647],[54.408623,24.482651],[54.408628,24.482765],[54.409312,24.483001]]]}},{"type":"Feature","properties":{},"geometry":{"type":"Polygon","coordinates":[[[54.406968,24.485659],[54.406874,24.485761],[54.406922,24.485798],[54.407605,24.486034],[54.4077,24.485931],[54.407651,24.485895],[54.406968,24.485659]]]}},{"type":"Feature","properties":{},"geometry":{"type":"Polygon","coordinates":[[[54.409257,24.487749],[54.409363,24.48769],[54.409247,24.487364],[54.408564,24.487128],[54.408201,24.487411],[54.407651,24.487774],[54.407953,24.488258],[54.408637,24.488493],[54.409511,24.488057],[54.40936,24.487784],[54.409257,24.487749]]]}},{"type":"Feature","properties":{},"geometry":{"type":"Polygon","coordinates":[[[54.4065,24.488967],[54.407183,24.489203],[54.407589,24.488973],[54.40755,24.488916],[54.407644,24.488949],[54.40802,24.488719],[54.407768,24.488343],[54.407594,24.488283],[54.407318,24.487873],[54.406635,24.487637],[54.406229,24.487867],[54.406236,24.487877],[54.406219,24.487871],[54.405814,24.488101],[54.406093,24.48851],[54.40622,24.488559],[54.4065,24.488967]]]}},{"type":"Feature","properties":{},"geometry":{"type":"Polygon","coordinates":[[[54.406989,24.490373],[54.407054,24.490352],[54.407021,24.490271],[54.406337,24.490035],[54.406278,24.490056],[54.406306,24.490137],[54.406989,24.490373]]]}},{"type":"Feature","properties":{},"geometry":{"type":"Polygon","coordinates":[[[54.408354,24.490913],[54.408353,24.490946],[54.408275,24.490944],[54.408263,24.491058],[54.409007,24.491323],[54.409219,24.491329],[54.409221,24.491262],[54.409268,24.491263],[54.409272,24.491156],[54.408588,24.49092],[54.408354,24.490913]]]}},{"type":"Feature","properties":{},"geometry":{"type":"Polygon","coordinates":[[[54.408616,24.500017],[54.408658,24.500146],[54.408749,24.500212],[54.409433,24.500448],[54.409613,24.500479],[54.409746,24.500476],[54.409871,24.500412],[54.409926,24.500296],[54.409975,24.49974],[54.410012,24.49951],[54.409978,24.499439],[54.4099,24.49938],[54.409373,24.499198],[54.409435,24.498769],[54.407431,24.498076],[54.406989,24.498046],[54.407,24.4984],[54.406915,24.498765],[54.408786,24.499411],[54.408666,24.499804],[54.408616,24.500017]]]}},{"type":"Feature","properties":{},"geometry":{"type":"Polygon","coordinates":[[[54.407043,24.502104],[54.406964,24.502077],[54.406903,24.502074],[54.406832,24.502156],[54.406824,24.502202],[54.407507,24.502438],[54.407551,24.502448],[54.407598,24.502399],[54.408114,24.502577],[54.408295,24.5021],[54.408422,24.501858],[54.407739,24.501622],[54.407342,24.501504],[54.407043,24.502104]]]}},{"type":"Feature","properties":{},"geometry":{"type":"Polygon","coordinates":[[[54.407203,24.503091],[54.410201,24.504126],[54.410673,24.504204],[54.410705,24.504046],[54.409997,24.503802],[54.40972,24.503497],[54.404311,24.501629],[54.404167,24.501737],[54.4045,24.502103],[54.404802,24.502208],[54.404792,24.502258],[54.406442,24.502828],[54.406432,24.502841],[54.406496,24.502877],[54.407179,24.503113],[54.407203,24.503091]]]}},{"type":"Feature","properties":{},"geometry":{"type":"Polygon","coordinates":[[[54.409349,24.504692],[54.40961,24.504393],[54.409259,24.504094],[54.403723,24.502182],[54.403518,24.502442],[54.403813,24.50278],[54.409349,24.504692]]]}},{"type":"Feature","properties":{},"geometry":{"type":"Polygon","coordinates":[[[54.407345,24.505505],[54.407183,24.505489],[54.407185,24.505583],[54.407868,24.505818],[54.408033,24.505842],[54.408028,24.505741],[54.407345,24.505505]]]}},{"type":"Feature","properties":{},"geometry":{"type":"Polygon","coordinates":[[[54.409211,24.50618],[54.409342,24.506198],[54.409472,24.506175],[54.409587,24.506114],[54.409672,24.506021],[54.409717,24.505908],[54.409719,24.505787],[54.40968,24.50568],[54.409606,24.50559],[54.409506,24.505526],[54.408822,24.50529],[54.408704,24.505257],[54.408581,24.505259],[54.408465,24.505296],[54.408367,24.505365],[54.408298,24.505457],[54.408264,24.505565],[54.408271,24.505686],[54.408321,24.505798],[54.408411,24.505887],[54.408527,24.505944],[54.409211,24.50618]]]}},{"type":"Feature","properties":{},"geometry":{"type":"Polygon","coordinates":[[[54.406721,24.507521],[54.406764,24.507492],[54.406692,24.507401],[54.407019,24.507514],[54.40712,24.507428],[54.407102,24.50741],[54.407198,24.507328],[54.407231,24.50734],[54.407333,24.507251],[54.406919,24.506861],[54.406372,24.506673],[54.406275,24.50676],[54.406308,24.506794],[54.406202,24.506885],[54.406236,24.506922],[54.40613,24.507008],[54.406398,24.507256],[54.405961,24.507105],[54.405918,24.507134],[54.406037,24.507285],[54.406721,24.507521]]]}},{"type":"Feature","properties":{},"geometry":{"type":"Polygon","coordinates":[[[54.408964,24.507638],[54.409142,24.5077],[54.409171,24.507744],[54.409243,24.507783],[54.409927,24.508019],[54.409973,24.508004],[54.41011,24.507998],[54.410332,24.507855],[54.410313,24.507789],[54.410224,24.507758],[54.410204,24.507719],[54.409672,24.507535],[54.409481,24.507344],[54.408798,24.507109],[54.408604,24.507277],[54.408964,24.507638]]]}},{"type":"Feature","properties":{},"geometry":{"type":"Polygon","coordinates":[[[54.406483,24.507513],[54.406454,24.507546],[54.406488,24.507571],[54.407171,24.507807],[54.407201,24.507774],[54.407167,24.507749],[54.406483,24.507513]]]}},{"type":"Feature","properties":{},"geometry":{"type":"Polygon","coordinates":[[[54.408918,24.507992],[54.408925,24.507856],[54.408242,24.50762],[54.408194,24.507622],[54.408197,24.507684],[54.408163,24.507685],[54.408168,24.507791],[54.408545,24.507921],[54.408505,24.507954],[54.408548,24.507997],[54.409231,24.508233],[54.40932,24.508159],[54.409278,24.508116],[54.408918,24.507992]]]}},{"type":"Feature","properties":{},"geometry":{"type":"Polygon","coordinates":[[[54.409158,24.508646],[54.409334,24.508542],[54.409273,24.508456],[54.409173,24.508422],[54.409158,24.5084],[54.408474,24.508164],[54.408331,24.508249],[54.408377,24.508314],[54.408303,24.508372],[54.408322,24.508398],[54.408286,24.508419],[54.408316,24.508462],[54.409057,24.508711],[54.409117,24.508675],[54.409097,24.508646],[54.409119,24.508632],[54.409158,24.508646]]]}},{"type":"Feature","properties":{},"geometry":{"type":"Polygon","coordinates":[[[54.406866,24.508654],[54.40755,24.50889],[54.407615,24.508841],[54.407587,24.508811],[54.406904,24.508575],[54.406839,24.508625],[54.406866,24.508654]]]}},{"type":"Feature","properties":{},"geometry":{"type":"Polygon","coordinates":[[[54.409847,24.510306],[54.41019,24.509994],[54.410005,24.509826],[54.409322,24.50959],[54.408978,24.509902],[54.409164,24.51007],[54.409847,24.510306]]]}},{"type":"Feature","properties":{},"geometry":{"type":"Polygon","coordinates":[[[54.410623,24.481773],[54.411307,24.482009],[54.411484,24.481839],[54.411116,24.48152],[54.410433,24.481284],[54.41026,24.48145],[54.41034,24.48152],[54.410624,24.481618],[54.410584,24.481656],[54.410222,24.481531],[54.410193,24.481559],[54.410232,24.481593],[54.410539,24.4817],[54.410623,24.481773]]]}},{"type":"Feature","properties":{},"geometry":{"type":"Polygon","coordinates":[[[54.411879,24.481971],[54.412563,24.482207],[54.412739,24.481932],[54.412378,24.481741],[54.411695,24.481505],[54.411519,24.48178],[54.411879,24.481971]]]}},{"type":"Feature","properties":{},"geometry":{"type":"Polygon","coordinates":[[[54.411351,24.482158],[54.41143,24.482077],[54.411398,24.482052],[54.410715,24.481816],[54.410637,24.481896],[54.410668,24.481922],[54.411351,24.482158]]]}},{"type":"Feature","properties":{},"geometry":{"type":"Polygon","coordinates":[[[54.411398,24.485648],[54.411468,24.48562],[54.411454,24.485589],[54.410771,24.485353],[54.410667,24.485394],[54.410681,24.485425],[54.410712,24.485436],[54.410692,24.485442],[54.41073,24.48554],[54.411414,24.485776],[54.411471,24.485757],[54.411432,24.48566],[54.411398,24.485648]]]}},{"type":"Feature","properties":{},"geometry":{"type":"Polygon","coordinates":[[[54.412839,24.487718],[54.413522,24.487954],[54.41359,24.487952],[54.413587,24.48789],[54.413098,24.487721],[54.413077,24.487648],[54.413256,24.48771],[54.413524,24.4877],[54.413521,24.487621],[54.413488,24.48761],[54.413484,24.487529],[54.413516,24.487528],[54.413513,24.487454],[54.413398,24.487415],[54.413388,24.487195],[54.412705,24.486959],[54.4126,24.486963],[54.412601,24.486991],[54.412424,24.486997],[54.412501,24.487216],[54.412562,24.487237],[54.412568,24.487376],[54.412363,24.487305],[54.412276,24.487326],[54.41233,24.487515],[54.412837,24.48769],[54.412839,24.487718]]]}},{"type":"Feature","properties":{},"geometry":{"type":"Polygon","coordinates":[[[54.416668,24.488121],[54.416665,24.488042],[54.416595,24.488018],[54.416666,24.48802],[54.416665,24.487971],[54.416256,24.48783],[54.416254,24.487801],[54.415571,24.487565],[54.41552,24.487568],[54.41542,24.487533],[54.415314,24.487529],[54.415313,24.487549],[54.414988,24.487446],[54.414929,24.487449],[54.414932,24.487493],[54.415042,24.487531],[54.414439,24.487535],[54.414439,24.487579],[54.414504,24.487602],[54.414504,24.487977],[54.41479,24.488076],[54.41479,24.48809],[54.414751,24.488077],[54.414634,24.488078],[54.414635,24.488119],[54.414288,24.487999],[54.414156,24.487995],[54.414153,24.48809],[54.414241,24.488121],[54.414169,24.488122],[54.414173,24.488242],[54.415317,24.488642],[54.41532,24.488727],[54.414995,24.488615],[54.414936,24.488616],[54.41494,24.488816],[54.415091,24.488868],[54.415036,24.488869],[54.415038,24.488911],[54.415104,24.488933],[54.415098,24.489014],[54.415782,24.48925],[54.415833,24.489251],[54.415835,24.489171],[54.41576,24.489145],[54.415876,24.489139],[54.415873,24.489095],[54.415682,24.489029],[54.41568,24.488929],[54.416006,24.489041],[54.416065,24.48904],[54.416061,24.488932],[54.416227,24.488989],[54.416257,24.488988],[54.416252,24.488881],[54.414978,24.488446],[54.414976,24.488355],[54.414896,24.488328],[54.414965,24.48833],[54.415411,24.488484],[54.415431,24.488484],[54.415432,24.488438],[54.41497,24.488277],[54.415319,24.488397],[54.415436,24.488396],[54.415435,24.488329],[54.415602,24.488387],[54.415696,24.488385],[54.415695,24.488336],[54.415338,24.488213],[54.415361,24.488213],[54.415652,24.488313],[54.415714,24.48831],[54.416232,24.488489],[54.416527,24.488493],[54.416528,24.488435],[54.416649,24.488477],[54.416694,24.488479],[54.416696,24.488436],[54.41649,24.488364],[54.416526,24.488363],[54.416525,24.488349],[54.416723,24.488408],[54.416725,24.488369],[54.416606,24.488328],[54.41665,24.48833],[54.416653,24.488286],[54.416749,24.488305],[54.416748,24.488248],[54.416728,24.488241],[54.41675,24.488241],[54.416746,24.488148],[54.416668,24.488121]],[[54.415668,24.488067],[54.415552,24.488041],[54.415551,24.488129],[54.41537,24.488082],[54.41537,24.487962],[54.415619,24.487961],[54.415619,24.487941],[54.415661,24.487955],[54.415668,24.488067]]]}},{"type":"Feature","properties":{},"geometry":{"type":"Polygon","coordinates":[[[54.409987,24.489346],[54.409722,24.489254],[54.409573,24.489269],[54.409643,24.489854],[54.410326,24.49009],[54.410885,24.490035],[54.41087,24.489907],[54.410437,24.489757],[54.410422,24.489638],[54.410839,24.489782],[54.410888,24.489778],[54.410884,24.489736],[54.410415,24.489574],[54.410409,24.489524],[54.410674,24.489615],[54.410826,24.489601],[54.410776,24.48915],[54.41084,24.489172],[54.410902,24.489271],[54.410999,24.489305],[54.41103,24.489357],[54.411281,24.489444],[54.411272,24.489483],[54.411955,24.489719],[54.41212,24.489755],[54.412195,24.48947],[54.412803,24.48968],[54.412956,24.4896],[54.412923,24.48955],[54.413136,24.489455],[54.413194,24.489325],[54.413261,24.489348],[54.413305,24.489173],[54.412655,24.488949],[54.41266,24.488896],[54.41288,24.488938],[54.413489,24.488848],[54.413445,24.488556],[54.412762,24.48832],[54.412576,24.488342],[54.412685,24.488003],[54.412969,24.488101],[54.413104,24.487954],[54.412745,24.487759],[54.412062,24.487523],[54.411832,24.487482],[54.411559,24.487469],[54.411562,24.487503],[54.411474,24.487472],[54.411185,24.487546],[54.410898,24.487721],[54.41073,24.487894],[54.410888,24.488005],[54.41129,24.488144],[54.411344,24.488238],[54.411255,24.488493],[54.410867,24.488373],[54.410862,24.48833],[54.410179,24.488094],[54.409868,24.48812],[54.409873,24.488169],[54.409738,24.48818],[54.409743,24.488228],[54.409455,24.488256],[54.4095,24.488692],[54.409843,24.48881],[54.409521,24.48884],[54.409533,24.488948],[54.409959,24.489095],[54.409987,24.489346]],[[54.410668,24.488816],[54.41075,24.488925],[54.410642,24.488983],[54.410422,24.488907],[54.41065,24.488887],[54.410642,24.488807],[54.410668,24.488816]]]}},{"type":"Feature","properties":{},"geometry":{"type":"Polygon","coordinates":[[[54.412432,24.490011],[54.412502,24.490007],[54.412498,24.489945],[54.411814,24.489709],[54.411745,24.489713],[54.411749,24.489776],[54.412432,24.490011]]]}},{"type":"Feature","properties":{},"geometry":{"type":"Polygon","coordinates":[[[54.411051,24.490713],[54.411147,24.490714],[54.411148,24.490662],[54.410465,24.490426],[54.410368,24.490425],[54.410368,24.490477],[54.411051,24.490713]]]}},{"type":"Feature","properties":{},"geometry":{"type":"Polygon","coordinates":[[[54.409915,24.490576],[54.409733,24.490581],[54.409729,24.490794],[54.410413,24.49103],[54.410699,24.491033],[54.410705,24.490798],[54.411148,24.490951],[54.411223,24.490949],[54.411221,24.490892],[54.411209,24.490888],[54.411224,24.490888],[54.411224,24.490795],[54.410541,24.490559],[54.410471,24.490559],[54.410471,24.490652],[54.410486,24.490657],[54.410463,24.490658],[54.410464,24.490682],[54.410023,24.49053],[54.409917,24.49053],[54.409915,24.490576]]]}},{"type":"Feature","properties":{},"geometry":{"type":"Polygon","coordinates":[[[54.412233,24.490896],[54.412916,24.491132],[54.413395,24.491138],[54.413397,24.490975],[54.413115,24.490877],[54.413116,24.49081],[54.413411,24.490814],[54.413413,24.490645],[54.41273,24.490409],[54.41224,24.490403],[54.412233,24.490896]]]}},{"type":"Feature","properties":{},"geometry":{"type":"Polygon","coordinates":[[[54.412192,24.490951],[54.412146,24.490949],[54.412145,24.490988],[54.412828,24.491224],[54.412874,24.491226],[54.412875,24.491187],[54.412192,24.490951]]]}},{"type":"Feature","properties":{},"geometry":{"type":"Polygon","coordinates":[[[54.410699,24.491631],[54.41068,24.491863],[54.411364,24.492099],[54.41186,24.492132],[54.411897,24.491654],[54.412107,24.491726],[54.412185,24.491729],[54.412186,24.491699],[54.411901,24.491601],[54.411931,24.491223],[54.411248,24.490987],[54.410752,24.490955],[54.410728,24.491255],[54.410539,24.49119],[54.410501,24.491198],[54.410146,24.491075],[54.409774,24.491062],[54.40976,24.491386],[54.410444,24.491622],[54.410699,24.491631]]]}},{"type":"Feature","properties":{},"geometry":{"type":"Polygon","coordinates":[[[54.412155,24.492461],[54.411025,24.49206],[54.410898,24.492056],[54.410895,24.492144],[54.411289,24.49228],[54.411289,24.492321],[54.411972,24.492557],[54.412154,24.492558],[54.412155,24.492461]]]}},{"type":"Feature","properties":{},"geometry":{"type":"Polygon","coordinates":[[[54.414992,24.497071],[54.415103,24.496914],[54.41501,24.49686],[54.414327,24.496624],[54.414216,24.496781],[54.414308,24.496835],[54.414992,24.497071]]]}},{"type":"Feature","properties":{},"geometry":{"type":"Polygon","coordinates":[[[54.410993,24.499029],[54.410987,24.497874],[54.411015,24.497946],[54.411141,24.498676],[54.411825,24.498912],[54.411943,24.498902],[54.412125,24.498673],[54.412019,24.498054],[54.412041,24.498045],[54.41181,24.4975],[54.410813,24.49715],[54.410719,24.497186],[54.410826,24.49746],[54.410302,24.497279],[54.410115,24.497324],[54.409941,24.497472],[54.409927,24.498635],[54.410065,24.498782],[54.410748,24.499018],[54.410993,24.499029]]]}},{"type":"Feature","properties":{},"geometry":{"type":"Polygon","coordinates":[[[54.410163,24.506702],[54.41011,24.506758],[54.410049,24.50687],[54.410043,24.50703],[54.410086,24.507104],[54.410769,24.50734],[54.410823,24.507348],[54.410904,24.507326],[54.410922,24.507285],[54.41101,24.507189],[54.411043,24.506943],[54.410648,24.506798],[54.410773,24.506792],[54.410797,24.506728],[54.410733,24.506705],[54.410747,24.506615],[54.410678,24.506576],[54.409862,24.506304],[54.409688,24.506324],[54.409615,24.506375],[54.409615,24.506425],[54.409652,24.506494],[54.409818,24.506567],[54.410267,24.506722],[54.410262,24.50673],[54.410163,24.506702]]]}},{"type":"Feature","properties":{},"geometry":{"type":"Polygon","coordinates":[[[54.411097,24.508706],[54.4111,24.508608],[54.410417,24.508372],[54.410129,24.508361],[54.410125,24.50846],[54.410809,24.508696],[54.411097,24.508706]]]}},{"type":"Feature","properties":{},"geometry":{"type":"Polygon","coordinates":[[[54.410565,24.508748],[54.410557,24.508936],[54.410488,24.508912],[54.410439,24.508911],[54.410439,24.508952],[54.410077,24.508827],[54.410015,24.508828],[54.410017,24.508925],[54.4107,24.509161],[54.410762,24.50916],[54.410762,24.509148],[54.410873,24.509186],[54.410872,24.509235],[54.410762,24.509197],[54.41004,24.509214],[54.410043,24.509308],[54.4106,24.5095],[54.41065,24.509602],[54.411333,24.509838],[54.411432,24.509798],[54.411355,24.509641],[54.411045,24.509534],[54.411448,24.509523],[54.411445,24.509442],[54.411555,24.50948],[54.411673,24.509482],[54.411678,24.509265],[54.411481,24.509197],[54.411483,24.509132],[54.411571,24.509162],[54.411694,24.509167],[54.411703,24.508958],[54.41102,24.508722],[54.410896,24.508718],[54.410894,24.508779],[54.410804,24.508748],[54.410565,24.508748]]]}},{"type":"Feature","properties":{},"geometry":{"type":"Polygon","coordinates":[[[54.418111,24.481778],[54.418102,24.481819],[54.418193,24.481851],[54.41819,24.481872],[54.418555,24.481998],[54.41855,24.482032],[54.418134,24.481889],[54.417811,24.481848],[54.417792,24.481975],[54.418158,24.482102],[54.417777,24.482049],[54.417759,24.482181],[54.417884,24.482224],[54.41775,24.482211],[54.417734,24.482345],[54.418554,24.482617],[54.418549,24.482653],[54.418038,24.482477],[54.417713,24.482449],[54.417699,24.482585],[54.417832,24.482631],[54.417683,24.482625],[54.417677,24.482747],[54.418361,24.482982],[54.418686,24.482995],[54.418689,24.482936],[54.418857,24.482995],[54.419189,24.483025],[54.419195,24.482974],[54.41966,24.483134],[54.419984,24.483163],[54.419987,24.483132],[54.420075,24.483162],[54.420313,24.483184],[54.420507,24.483251],[54.420826,24.483278],[54.420839,24.483149],[54.420741,24.483115],[54.420835,24.483127],[54.420852,24.483007],[54.420169,24.482771],[54.420119,24.482765],[54.420123,24.482738],[54.419934,24.482672],[54.420022,24.482681],[54.420186,24.482738],[54.420239,24.482743],[54.420561,24.482854],[54.420871,24.48289],[54.420888,24.482769],[54.420709,24.482707],[54.420895,24.482727],[54.420916,24.482582],[54.420653,24.482491],[54.420926,24.482526],[54.420945,24.482404],[54.420772,24.482344],[54.420954,24.482361],[54.420967,24.48224],[54.420456,24.482064],[54.420468,24.482021],[54.420677,24.482093],[54.420987,24.482135],[54.421007,24.482012],[54.420834,24.481952],[54.421032,24.481962],[54.42104,24.48183],[54.420357,24.481594],[54.420032,24.481584],[54.419937,24.481552],[54.4196,24.481512],[54.419519,24.481485],[54.419386,24.48147],[54.41938,24.481533],[54.419586,24.481604],[54.419585,24.481614],[54.419065,24.481434],[54.418738,24.481395],[54.418733,24.481427],[54.418639,24.481394],[54.417895,24.481288],[54.417877,24.481423],[54.417959,24.481451],[54.41786,24.481455],[54.417866,24.481595],[54.41855,24.481831],[54.418594,24.481829],[54.418592,24.481842],[54.418759,24.4819],[54.418523,24.481828],[54.418298,24.481803],[54.41789,24.481662],[54.417846,24.481665],[54.417847,24.481687],[54.418111,24.481778]],[[54.419224,24.481787],[54.41922,24.481807],[54.419152,24.481783],[54.419039,24.481785],[54.418935,24.48175],[54.418719,24.481724],[54.418673,24.481708],[54.418672,24.481686],[54.41861,24.481664],[54.418796,24.481686],[54.41896,24.481742],[54.419197,24.481771],[54.419257,24.481792],[54.419224,24.481787]],[[54.419738,24.481739],[54.419739,24.481731],[54.42,24.481821],[54.419738,24.481739]]]}},{"type":"Feature","properties":{},"geometry":{"type":"Polygon","coordinates":[[[54.417239,24.487769],[54.417325,24.487769],[54.417324,24.487723],[54.416641,24.487487],[54.416555,24.487488],[54.416555,24.487533],[54.417239,24.487769]]]}},{"type":"Feature","properties":{},"geometry":{"type":"Polygon","coordinates":[[[54.415583,24.489266],[54.414733,24.489287],[54.414737,24.489441],[54.415421,24.489677],[54.416292,24.489655],[54.41629,24.489586],[54.416269,24.489579],[54.416267,24.489502],[54.415583,24.489266]]]}},{"type":"Feature","properties":{},"geometry":{"type":"Polygon","coordinates":[[[54.41589,24.501739],[54.416574,24.501975],[54.416758,24.501965],[54.416757,24.501918],[54.417254,24.502089],[54.41747,24.501885],[54.41724,24.501685],[54.416557,24.501449],[54.416479,24.501521],[54.416536,24.501582],[54.416498,24.501666],[54.416378,24.501712],[54.416167,24.501639],[54.416122,24.501651],[54.416137,24.501698],[54.416565,24.501849],[54.416074,24.50168],[54.415999,24.501681],[54.415999,24.501694],[54.415888,24.501692],[54.41589,24.501739]]]}},{"type":"Feature","properties":{},"geometry":{"type":"Polygon","coordinates":[[[54.41759,24.502323],[54.416907,24.502087],[54.416865,24.502115],[54.416894,24.502151],[54.417195,24.502255],[54.417225,24.502278],[54.417908,24.502514],[54.417932,24.502489],[54.417885,24.502453],[54.417618,24.50236],[54.41759,24.502323]]]}},{"type":"Feature","properties":{},"geometry":{"type":"Polygon","coordinates":[[[54.414817,24.502181],[54.414813,24.50224],[54.415522,24.502478],[54.415526,24.502419],[54.414817,24.502181]]]}},{"type":"Feature","properties":{},"geometry":{"type":"Polygon","coordinates":[[[54.416738,24.502206],[54.416738,24.50232],[54.417421,24.502556],[54.4175,24.502562],[54.417504,24.502442],[54.416821,24.502206],[54.416738,24.502206]]]}},{"type":"Feature","properties":{},"geometry":{"type":"Polygon","coordinates":[[[54.416261,24.502466],[54.416258,24.502526],[54.416942,24.502762],[54.41706,24.502794],[54.417302,24.502785],[54.417301,24.502759],[54.417349,24.502775],[54.417408,24.502771],[54.417402,24.50271],[54.416719,24.502474],[54.41666,24.502479],[54.416662,24.502492],[54.416616,24.502476],[54.416562,24.502478],[54.416312,24.502392],[54.416209,24.502394],[54.416209,24.502418],[54.416361,24.502471],[54.416261,24.502466]]]}},{"type":"Feature","properties":{},"geometry":{"type":"Polygon","coordinates":[[[54.414881,24.502543],[54.414878,24.502571],[54.415002,24.50262],[54.415685,24.502856],[54.415811,24.502861],[54.415815,24.502783],[54.415466,24.502663],[54.415466,24.502644],[54.415448,24.502638],[54.415469,24.502637],[54.415468,24.502603],[54.414784,24.502367],[54.414707,24.502371],[54.414711,24.502446],[54.415005,24.502547],[54.415004,24.502573],[54.414881,24.502543]]]}},{"type":"Feature","properties":{},"geometry":{"type":"Polygon","coordinates":[[[54.415458,24.502778],[54.414775,24.502542],[54.414713,24.502548],[54.414719,24.502602],[54.414756,24.502615],[54.414764,24.502665],[54.415447,24.502901],[54.415505,24.502893],[54.415497,24.502843],[54.415465,24.502832],[54.415458,24.502778]]]}},{"type":"Feature","properties":{},"geometry":{"type":"Polygon","coordinates":[[[54.417523,24.503218],[54.417605,24.503229],[54.417604,24.503168],[54.417373,24.503086],[54.417374,24.50306],[54.416691,24.502824],[54.416584,24.50282],[54.416582,24.502862],[54.41678,24.502931],[54.416778,24.502991],[54.417461,24.503227],[54.417523,24.503229],[54.417523,24.503218]]]}},{"type":"Feature","properties":{},"geometry":{"type":"Polygon","coordinates":[[[54.414951,24.503182],[54.414949,24.503237],[54.415632,24.503473],[54.415726,24.503477],[54.415728,24.503421],[54.415045,24.503185],[54.414951,24.503182]]]}},{"type":"Feature","properties":{},"geometry":{"type":"Polygon","coordinates":[[[54.415169,24.503322],[54.415126,24.503323],[54.415129,24.503406],[54.415813,24.503642],[54.415855,24.50364],[54.415852,24.503558],[54.415169,24.503322]]]}},{"type":"Feature","properties":{},"geometry":{"type":"Polygon","coordinates":[[[54.417014,24.503334],[54.416981,24.503333],[54.416973,24.50355],[54.417657,24.503786],[54.41769,24.503787],[54.417698,24.50357],[54.417014,24.503334]]]}},{"type":"Feature","properties":{},"geometry":{"type":"Polygon","coordinates":[[[54.418255,24.479816],[54.41819,24.479806],[54.418184,24.479842],[54.418259,24.479868],[54.418259,24.479895],[54.418942,24.480131],[54.41898,24.480132],[54.418981,24.480071],[54.418255,24.479816]]]}},{"type":"Feature","properties":{},"geometry":{"type":"Polygon","coordinates":[[[54.420562,24.480364],[54.420901,24.480388],[54.420903,24.480342],[54.420659,24.480257],[54.42066,24.480236],[54.419977,24.480001],[54.419886,24.479997],[54.419879,24.480128],[54.420562,24.480364]]]}},{"type":"Feature","properties":{},"geometry":{"type":"Polygon","coordinates":[[[54.419246,24.480586],[54.41924,24.480641],[54.419923,24.480877],[54.419987,24.480883],[54.419993,24.480828],[54.41931,24.480592],[54.419246,24.480586]]]}},{"type":"Feature","properties":{},"geometry":{"type":"Polygon","coordinates":[[[54.418304,24.489069],[54.41831,24.489193],[54.418994,24.489429],[54.419083,24.489425],[54.419078,24.489316],[54.419554,24.489481],[54.419658,24.489483],[54.419661,24.489381],[54.419433,24.489302],[54.419432,24.489285],[54.419592,24.48932],[54.419695,24.489319],[54.419694,24.489265],[54.419011,24.489029],[54.418908,24.48903],[54.418908,24.489041],[54.418856,24.489023],[54.418799,24.489026],[54.4188,24.489046],[54.418748,24.489029],[54.418646,24.489032],[54.418648,24.489071],[54.418873,24.489149],[54.418871,24.48923],[54.418394,24.489065],[54.418304,24.489069]]]}},{"type":"Feature","properties":{},"geometry":{"type":"Polygon","coordinates":[[[54.419685,24.489819],[54.419684,24.489774],[54.419192,24.489604],[54.419183,24.489537],[54.4185,24.489301],[54.418473,24.489304],[54.418483,24.489376],[54.418954,24.489539],[54.41888,24.48954],[54.418881,24.489585],[54.419564,24.489821],[54.419685,24.489819]]]}},{"type":"Feature","properties":{},"geometry":{"type":"Polygon","coordinates":[[[54.41924,24.490311],[54.419315,24.490309],[54.419314,24.49028],[54.419387,24.490305],[54.419438,24.490303],[54.419435,24.490248],[54.419579,24.490298],[54.419662,24.490293],[54.419659,24.490172],[54.418976,24.489936],[54.418928,24.489937],[54.418929,24.490008],[54.418749,24.489945],[54.418698,24.489947],[54.418703,24.490064],[54.418631,24.490039],[54.418556,24.490041],[54.418557,24.490075],[54.41924,24.490311]]]}},{"type":"Feature","properties":{},"geometry":{"type":"Polygon","coordinates":[[[54.418218,24.502471],[54.41842,24.502393],[54.418376,24.5023],[54.417693,24.502064],[54.417491,24.502142],[54.417534,24.502235],[54.418218,24.502471]]]}}]}