{"type":"FeatureCollection","features":[{"type":"Feature","properties":{},"geometry":{"type":"Polygon","coordinates":[[[54.377897,24.48052],[54.377931,24.480549],[54.37789,24.48056],[54.377721,24.480713],[54.377841,24.480823],[54.378638,24.480613],[54.378807,24.48046],[54.378791,24.480445],[54.378834,24.480434],[54.379016,24.480263],[54.378906,24.480165],[54.379247,24.480075],[54.379431,24.479907],[54.379412,24.47989],[54.379458,24.479878],[54.379628,24.479723],[54.379489,24.479598],[54.378693,24.479808],[54.378523,24.479963],[54.378538,24.479977],[54.378493,24.479989],[54.378309,24.480157],[54.378422,24.480259],[54.37808,24.48035],[54.377897,24.48052]]]}},{"type":"Feature","properties":{},"geometry":{"type":"Polygon","coordinates":[[[54.379208,24.480817],[54.379335,24.480907],[54.379468,24.480872],[54.379567,24.480941],[54.379701,24.480906],[54.379559,24.481062],[54.379381,24.48094],[54.378954,24.481053],[54.378863,24.481163],[54.378895,24.481185],[54.378821,24.481205],[54.378597,24.481479],[54.37862,24.481494],[54.378567,24.481508],[54.378342,24.481782],[54.378425,24.481838],[54.378458,24.481829],[54.37834,24.481973],[54.378398,24.482012],[54.37834,24.482028],[54.378235,24.482156],[54.378368,24.482245],[54.37798,24.482348],[54.377608,24.482798],[54.377879,24.482984],[54.380013,24.482421],[54.380044,24.482384],[54.380066,24.4824],[54.380493,24.482287],[54.380641,24.482117],[54.380591,24.482081],[54.380211,24.482182],[54.380385,24.48197],[54.380114,24.481785],[54.379005,24.482077],[54.378969,24.482053],[54.380023,24.481775],[54.380043,24.481751],[54.380189,24.481712],[54.380254,24.481635],[54.380151,24.481563],[54.380093,24.481578],[54.379891,24.481441],[54.379605,24.481516],[54.379692,24.48141],[54.37961,24.481354],[54.379511,24.48138],[54.379517,24.481373],[54.379317,24.481229],[54.37925,24.481247],[54.379479,24.48118],[54.379564,24.481077],[54.379787,24.481244],[54.380372,24.48109],[54.380281,24.481198],[54.38031,24.481218],[54.380256,24.481232],[54.38009,24.481428],[54.380251,24.48154],[54.380288,24.48153],[54.380269,24.481553],[54.380429,24.481665],[54.380491,24.481649],[54.380454,24.481692],[54.380696,24.481867],[54.38072,24.48186],[54.380707,24.481875],[54.38095,24.48205],[54.380983,24.482041],[54.380966,24.482061],[54.381206,24.482234],[54.380774,24.482348],[54.380713,24.482302],[54.380286,24.482414],[54.380213,24.482496],[54.379911,24.482575],[54.379693,24.482837],[54.379951,24.483015],[54.379336,24.483177],[54.37908,24.482997],[54.378654,24.483109],[54.378562,24.483217],[54.378731,24.483337],[54.378225,24.48347],[54.378086,24.483642],[54.378109,24.483859],[54.37834,24.484015],[54.377927,24.484123],[54.377814,24.484257],[54.378006,24.484391],[54.378064,24.484375],[54.378034,24.48441],[54.378218,24.48454],[54.378261,24.484529],[54.378239,24.484554],[54.378423,24.484686],[54.378482,24.484671],[54.378453,24.484705],[54.378631,24.484833],[54.378695,24.484816],[54.378662,24.484857],[54.378849,24.484984],[54.378904,24.484969],[54.378877,24.485],[54.379068,24.485138],[54.379112,24.485126],[54.37909,24.485151],[54.379279,24.485286],[54.379346,24.485269],[54.379308,24.485314],[54.379483,24.485436],[54.37961,24.485403],[54.37955,24.485474],[54.37973,24.485601],[54.379786,24.485586],[54.37975,24.485627],[54.378537,24.485947],[54.377906,24.486755],[54.378004,24.486818],[54.377627,24.486917],[54.377437,24.487134],[54.377523,24.487197],[54.377653,24.487163],[54.377747,24.487231],[54.377662,24.487329],[54.377718,24.487369],[54.37767,24.487423],[54.377858,24.487559],[54.377946,24.487543],[54.377857,24.487645],[54.378003,24.487751],[54.377708,24.488088],[54.377301,24.488195],[54.377244,24.488263],[54.378043,24.488819],[54.379466,24.488444],[54.379523,24.488377],[54.379233,24.488175],[54.380479,24.487846],[54.380606,24.487688],[54.380385,24.487542],[54.379601,24.487748],[54.37958,24.487733],[54.379236,24.487823],[54.380117,24.48759],[54.38024,24.487449],[54.38021,24.487427],[54.380383,24.48723],[54.380172,24.487077],[54.380312,24.48704],[54.380343,24.486998],[54.380334,24.486993],[54.380381,24.486951],[54.380351,24.486928],[54.380412,24.486912],[54.380441,24.486879],[54.380481,24.486868],[54.380509,24.486824],[54.380374,24.486754],[54.380177,24.486806],[54.380032,24.486691],[54.37989,24.486728],[54.379758,24.486632],[54.380004,24.486567],[54.380041,24.486506],[54.379998,24.486485],[54.379571,24.486597],[54.37955,24.486631],[54.378788,24.486833],[54.378844,24.486758],[54.380315,24.48637],[54.380492,24.486143],[54.380577,24.486192],[54.380761,24.486336],[54.381197,24.486221],[54.381268,24.486273],[54.381724,24.486153],[54.38188,24.485975],[54.381862,24.485963],[54.38189,24.485955],[54.382042,24.48578],[54.382031,24.485773],[54.382058,24.485766],[54.382207,24.485594],[54.382182,24.485577],[54.382217,24.485567],[54.382365,24.485401],[54.382341,24.485383],[54.382382,24.485372],[54.382536,24.485197],[54.382392,24.485092],[54.381937,24.485212],[54.381783,24.485388],[54.381815,24.485412],[54.381776,24.485422],[54.381627,24.485588],[54.381651,24.485605],[54.381613,24.485615],[54.381521,24.485721],[54.381467,24.48568],[54.381239,24.48574],[54.38125,24.485728],[54.381165,24.485665],[54.381371,24.485611],[54.381399,24.485451],[54.381217,24.485425],[54.380874,24.485515],[54.380807,24.485472],[54.38085,24.485423],[54.380661,24.485286],[54.380602,24.485302],[54.380632,24.485267],[54.380594,24.48524],[54.380884,24.485164],[54.380901,24.485175],[54.380884,24.485195],[54.380969,24.485254],[54.381108,24.485217],[54.381053,24.485252],[54.381125,24.485345],[54.381551,24.485232],[54.381621,24.485188],[54.381553,24.4851],[54.382188,24.484932],[54.382146,24.48498],[54.382286,24.485081],[54.382741,24.484961],[54.382893,24.484786],[54.382872,24.484771],[54.382913,24.48476],[54.383059,24.484586],[54.383049,24.484579],[54.383071,24.484573],[54.383217,24.484403],[54.3832,24.484391],[54.383227,24.484384],[54.383292,24.484305],[54.383492,24.484252],[54.383714,24.483978],[54.383691,24.483962],[54.38407,24.483862],[54.384415,24.483418],[54.384335,24.483366],[54.384495,24.483192],[54.384394,24.48312],[54.384413,24.483115],[54.384656,24.48283],[54.384849,24.482779],[54.384997,24.482607],[54.384913,24.482548],[54.385014,24.482429],[54.384931,24.48237],[54.384981,24.482313],[54.384966,24.482302],[54.385006,24.482291],[54.385154,24.48212],[54.385135,24.482107],[54.38517,24.482097],[54.385318,24.481926],[54.38529,24.481906],[54.385523,24.481838],[54.385677,24.481654],[54.385641,24.481629],[54.385722,24.481608],[54.385875,24.481424],[54.385846,24.481404],[54.386042,24.481339],[54.38619,24.481168],[54.38614,24.481132],[54.386274,24.480972],[54.386028,24.480802],[54.385966,24.480818],[54.386031,24.480744],[54.385793,24.480576],[54.385723,24.480594],[54.385746,24.480568],[54.385555,24.480433],[54.386039,24.480305],[54.386159,24.48017],[54.385914,24.47999],[54.385205,24.480177],[54.384988,24.480023],[54.38462,24.48012],[54.384576,24.480088],[54.384772,24.479882],[54.384748,24.479864],[54.385249,24.479731],[54.385369,24.479596],[54.385124,24.479417],[54.384415,24.479604],[54.384273,24.479498],[54.384234,24.479509],[54.384249,24.479492],[54.384014,24.479316],[54.383188,24.479533],[54.383118,24.479481],[54.383079,24.479492],[54.383099,24.479469],[54.38292,24.479335],[54.381742,24.479645],[54.381672,24.479597],[54.380945,24.479788],[54.38082,24.479696],[54.380394,24.479808],[54.380299,24.479913],[54.380344,24.479947],[54.380249,24.479972],[54.380221,24.480005],[54.380026,24.480057],[54.379795,24.480325],[54.379808,24.480334],[54.379726,24.480356],[54.379668,24.480419],[54.379721,24.480459],[54.37945,24.480531],[54.379208,24.480817]],[[54.380773,24.484711],[54.380749,24.484693],[54.381893,24.484397],[54.381936,24.484425],[54.381965,24.484417],[54.381952,24.484434],[54.382018,24.484478],[54.381962,24.484548],[54.38127,24.484731],[54.38112,24.484619],[54.380773,24.484711]],[[54.38159,24.483797],[54.381587,24.483795],[54.381592,24.483794],[54.38159,24.483797]],[[54.38275,24.483303],[54.382778,24.483295],[54.382757,24.483326],[54.382448,24.483407],[54.382288,24.483314],[54.382635,24.483223],[54.38275,24.483303]],[[54.381223,24.481125],[54.38125,24.481118],[54.381315,24.481162],[54.381359,24.481151],[54.381341,24.481172],[54.381373,24.481194],[54.381127,24.481259],[54.381091,24.481329],[54.381146,24.481353],[54.38099,24.481394],[54.381022,24.481357],[54.380993,24.481336],[54.381058,24.481319],[54.381223,24.481125]],[[54.38143,24.4805],[54.38127,24.480388],[54.381104,24.480432],[54.381253,24.480255],[54.381292,24.480285],[54.381321,24.480277],[54.381498,24.48041],[54.38157,24.480391],[54.381517,24.480452],[54.381797,24.480638],[54.381619,24.480685],[54.38165,24.480648],[54.38149,24.480536],[54.381374,24.480567],[54.38143,24.4805]],[[54.380932,24.480118],[54.381208,24.480045],[54.381113,24.48015],[54.381215,24.480227],[54.381109,24.480153],[54.380934,24.480199],[54.380889,24.480167],[54.380932,24.480118]],[[54.379014,24.481672],[54.378862,24.481712],[54.378945,24.481611],[54.378968,24.481627],[54.379074,24.481599],[54.379014,24.481672]],[[54.381051,24.485889],[54.381472,24.485778],[54.381473,24.485793],[54.381446,24.4858],[54.381295,24.485975],[54.381311,24.485986],[54.381285,24.485993],[54.381254,24.486028],[54.381051,24.485889]],[[54.380209,24.48486],[54.380061,24.485021],[54.379801,24.48509],[54.379843,24.485041],[54.379655,24.484905],[54.379611,24.484916],[54.379641,24.484883],[54.37945,24.484745],[54.379388,24.484761],[54.379398,24.484749],[54.379819,24.484638],[54.379896,24.484545],[54.379852,24.484515],[54.379913,24.484499],[54.379985,24.484411],[54.380175,24.484545],[54.380432,24.484478],[54.38046,24.484713],[54.380484,24.484711],[54.380272,24.484767],[54.380226,24.484818],[54.380262,24.484846],[54.380209,24.48486]],[[54.380996,24.483684],[54.381028,24.483647],[54.38135,24.483562],[54.381388,24.483578],[54.381346,24.483621],[54.381378,24.483647],[54.381323,24.483607],[54.380968,24.483701],[54.380958,24.483694],[54.380996,24.483684]],[[54.381455,24.482413],[54.381459,24.482416],[54.38145,24.482418],[54.381455,24.482413]],[[54.379019,24.484456],[54.37896,24.484472],[54.378993,24.484434],[54.378809,24.484302],[54.378764,24.484313],[54.378789,24.484285],[54.378605,24.484155],[54.378545,24.484171],[54.378574,24.484137],[54.378463,24.48406],[54.37861,24.484021],[54.378585,24.484049],[54.378609,24.484072],[54.378635,24.484162],[54.37867,24.4842],[54.378722,24.484225],[54.378818,24.484213],[54.378862,24.484247],[54.379195,24.484159],[54.379162,24.484199],[54.379247,24.484257],[54.379673,24.484144],[54.379744,24.484058],[54.379713,24.484037],[54.379781,24.484019],[54.379796,24.484],[54.380398,24.483842],[54.380408,24.483849],[54.3799,24.483983],[54.379704,24.484211],[54.37987,24.484329],[54.379662,24.484384],[54.379615,24.484352],[54.379188,24.484464],[54.379129,24.484535],[54.379019,24.484456]],[[54.379166,24.48462],[54.37918,24.484604],[54.379193,24.484613],[54.379166,24.48462]]]}},{"type":"Feature","properties":{},"geometry":{"type":"Polygon","coordinates":[[[54.378745,24.488894],[54.378793,24.488838],[54.378591,24.488696],[54.378164,24.488808],[54.378117,24.488864],[54.378318,24.489006],[54.378745,24.488894]]]}},{"type":"Feature","properties":{},"geometry":{"type":"Polygon","coordinates":[[[54.379502,24.489577],[54.379075,24.48969],[54.379025,24.489745],[54.379055,24.489768],[54.379482,24.489655],[54.379532,24.489599],[54.379502,24.489577]]]}},{"type":"Feature","properties":{},"geometry":{"type":"Polygon","coordinates":[[[54.379251,24.489994],[54.379065,24.490043],[54.378904,24.490239],[54.379005,24.490308],[54.378811,24.490359],[54.378656,24.490542],[54.378669,24.490551],[54.378627,24.490562],[54.378467,24.490759],[54.378494,24.490778],[54.378416,24.490798],[54.378267,24.490974],[54.378315,24.491009],[54.378201,24.491039],[54.378055,24.49121],[54.378183,24.4913],[54.377954,24.49136],[54.37777,24.491574],[54.378008,24.491743],[54.378489,24.491616],[54.37842,24.491702],[54.378678,24.491875],[54.37877,24.49185],[54.378729,24.491899],[54.378914,24.492028],[54.379824,24.491788],[54.379846,24.491763],[54.379901,24.491802],[54.380058,24.491761],[54.380039,24.491844],[54.380364,24.491898],[54.380207,24.49195],[54.38007,24.49185],[54.379615,24.49197],[54.37952,24.492079],[54.379603,24.492139],[54.379385,24.492196],[54.379349,24.492239],[54.379236,24.492155],[54.377871,24.492515],[54.377756,24.492644],[54.378007,24.492829],[54.379372,24.492469],[54.379432,24.492402],[54.379481,24.492435],[54.379542,24.492419],[54.379515,24.492452],[54.379666,24.492557],[54.378141,24.492959],[54.377956,24.493166],[54.378165,24.493321],[54.378508,24.49323],[54.378466,24.493278],[54.378578,24.493359],[54.378392,24.493408],[54.378285,24.493529],[54.378333,24.493564],[54.378254,24.493585],[54.378204,24.493644],[54.378268,24.493689],[54.378366,24.493663],[54.378361,24.493686],[54.378155,24.49374],[54.378141,24.493775],[54.378195,24.493794],[54.378006,24.493843],[54.377803,24.494084],[54.378016,24.494232],[54.378204,24.494183],[54.378368,24.494307],[54.378036,24.494394],[54.377925,24.494521],[54.378118,24.49466],[54.378226,24.494632],[54.37817,24.494696],[54.378362,24.494835],[54.378727,24.494739],[54.378844,24.494822],[54.377838,24.495097],[54.377732,24.495222],[54.377923,24.495357],[54.378391,24.495233],[54.378338,24.495295],[54.378394,24.495335],[54.378302,24.495359],[54.378242,24.495434],[54.377965,24.495507],[54.377707,24.495812],[54.377926,24.495965],[54.378382,24.495845],[54.37819,24.49608],[54.378405,24.496226],[54.379066,24.496052],[54.378986,24.496149],[54.379055,24.496196],[54.378744,24.496279],[54.378627,24.496421],[54.378895,24.496603],[54.37914,24.496538],[54.379114,24.496569],[54.379242,24.496659],[54.378156,24.496946],[54.378049,24.497065],[54.37831,24.497258],[54.378023,24.497334],[54.377916,24.497454],[54.378168,24.497639],[54.378389,24.497581],[54.378461,24.497634],[54.378271,24.497684],[54.378077,24.497902],[54.378194,24.497989],[54.380471,24.497388],[54.380536,24.497315],[54.380869,24.497227],[54.381274,24.496744],[54.381229,24.496713],[54.382025,24.496503],[54.381935,24.496612],[54.382977,24.497328],[54.38366,24.497148],[54.383685,24.497165],[54.384112,24.497052],[54.384164,24.496988],[54.384101,24.496945],[54.383971,24.496979],[54.384018,24.496912],[54.385962,24.4964],[54.386107,24.496314],[54.386091,24.496295],[54.386237,24.496204],[54.386192,24.496104],[54.38617,24.495995],[54.386203,24.495906],[54.386374,24.495708],[54.386268,24.495639],[54.384755,24.496038],[54.385081,24.49565],[54.385112,24.495642],[54.385173,24.495573],[54.385155,24.49556],[54.385499,24.495171],[54.385477,24.495157],[54.385459,24.495001],[54.385738,24.494927],[54.38587,24.494757],[54.385799,24.494711],[54.38583,24.494671],[54.385765,24.494629],[54.386459,24.494446],[54.38651,24.494387],[54.386159,24.493964],[54.387852,24.493517],[54.387805,24.493598],[54.387987,24.493667],[54.390122,24.493105],[54.390543,24.492394],[54.390478,24.492282],[54.390453,24.492271],[54.389703,24.492465],[54.389351,24.492223],[54.388255,24.492512],[54.388447,24.492012],[54.387688,24.491475],[54.387012,24.491653],[54.387012,24.491582],[54.387166,24.491541],[54.387236,24.491457],[54.387127,24.491381],[54.387346,24.491264],[54.387513,24.491066],[54.386415,24.490253],[54.385915,24.490385],[54.385926,24.490373],[54.385916,24.490365],[54.385939,24.490359],[54.386092,24.49018],[54.386126,24.490171],[54.386281,24.489992],[54.386253,24.489971],[54.386387,24.489936],[54.386474,24.489837],[54.386623,24.489798],[54.386659,24.489759],[54.38657,24.489695],[54.386501,24.489713],[54.386492,24.489707],[54.386528,24.489664],[54.386433,24.489597],[54.387614,24.489285],[54.387742,24.489109],[54.387463,24.488934],[54.386304,24.489239],[54.386343,24.489186],[54.386285,24.489151],[54.387088,24.488939],[54.387189,24.488825],[54.38698,24.488667],[54.387539,24.488519],[54.387629,24.488296],[54.387667,24.488254],[54.387884,24.488126],[54.387808,24.488012],[54.387661,24.488051],[54.387757,24.487952],[54.38764,24.487868],[54.387676,24.487829],[54.387524,24.487718],[54.387579,24.487655],[54.387646,24.487638],[54.387732,24.487545],[54.389104,24.487184],[54.389081,24.487028],[54.389198,24.486901],[54.389398,24.486848],[54.389387,24.486719],[54.389203,24.486734],[54.389037,24.486602],[54.389077,24.486563],[54.388988,24.486492],[54.387958,24.486764],[54.387876,24.486704],[54.387743,24.486739],[54.387837,24.486632],[54.387791,24.486598],[54.387364,24.48671],[54.387265,24.486819],[54.387313,24.486855],[54.387446,24.48682],[54.38738,24.486892],[54.387404,24.48691],[54.38686,24.487053],[54.386971,24.486942],[54.38688,24.486871],[54.386453,24.486984],[54.386339,24.48711],[54.386425,24.487174],[54.386847,24.487063],[54.386515,24.487435],[54.386613,24.487512],[54.386679,24.487494],[54.386709,24.487517],[54.385317,24.487884],[54.385015,24.488232],[54.385171,24.488347],[54.385134,24.488388],[54.385079,24.488402],[54.385116,24.48836],[54.385033,24.488302],[54.384839,24.488353],[54.384801,24.488326],[54.384621,24.488373],[54.384667,24.488319],[54.384656,24.488311],[54.384817,24.488124],[54.384724,24.488053],[54.384604,24.488085],[54.38466,24.488021],[54.384621,24.487994],[54.385901,24.487656],[54.386203,24.487303],[54.386113,24.487237],[54.386129,24.487217],[54.38602,24.487144],[54.385665,24.487237],[54.385803,24.487079],[54.385613,24.486947],[54.386876,24.486614],[54.386939,24.48633],[54.386639,24.486286],[54.386965,24.4862],[54.387145,24.486028],[54.386961,24.48587],[54.386873,24.485893],[54.386924,24.485842],[54.386874,24.485802],[54.38677,24.485829],[54.386796,24.485804],[54.386754,24.485763],[54.386676,24.485784],[54.386663,24.485771],[54.386399,24.485841],[54.386562,24.485675],[54.386205,24.485386],[54.386019,24.485435],[54.386128,24.48532],[54.38578,24.485029],[54.385598,24.485077],[54.385638,24.485036],[54.385583,24.484991],[54.385608,24.484968],[54.385657,24.484955],[54.38578,24.484824],[54.385866,24.484801],[54.385971,24.484697],[54.385833,24.484582],[54.38441,24.484958],[54.384305,24.485063],[54.384321,24.485075],[54.384285,24.485111],[54.384254,24.485119],[54.38413,24.485244],[54.384142,24.485253],[54.384111,24.485287],[54.38408,24.485295],[54.383967,24.485404],[54.384066,24.485486],[54.383833,24.485548],[54.38357,24.48582],[54.383925,24.486112],[54.384189,24.486042],[54.384032,24.486202],[54.384391,24.486495],[54.385201,24.486282],[54.385505,24.486543],[54.385113,24.486646],[54.385057,24.486927],[54.385339,24.486971],[54.384988,24.487064],[54.385048,24.486997],[54.38486,24.486859],[54.384754,24.486887],[54.384808,24.486825],[54.384618,24.486693],[54.384419,24.486746],[54.384496,24.486668],[54.384408,24.486597],[54.384118,24.486674],[54.384057,24.486623],[54.384237,24.486449],[54.384143,24.486371],[54.38272,24.486746],[54.38245,24.48702],[54.382804,24.487315],[54.383074,24.487243],[54.382919,24.487403],[54.383275,24.487695],[54.383342,24.487677],[54.38323,24.487791],[54.383403,24.487933],[54.383533,24.487899],[54.383523,24.487909],[54.383624,24.487991],[54.3837,24.487971],[54.383775,24.488033],[54.383733,24.488044],[54.38369,24.488085],[54.383731,24.488117],[54.383843,24.48809],[54.382881,24.488344],[54.38289,24.488333],[54.382823,24.488286],[54.382924,24.48817],[54.382915,24.488163],[54.383066,24.488124],[54.383226,24.487939],[54.383108,24.487855],[54.382682,24.487967],[54.382816,24.487795],[54.382595,24.487632],[54.382205,24.487735],[54.382102,24.487665],[54.381508,24.487821],[54.381474,24.487798],[54.380677,24.488008],[54.380346,24.488412],[54.380321,24.488419],[54.380166,24.488606],[54.380328,24.488718],[54.38051,24.48867],[54.3805,24.488681],[54.380628,24.488775],[54.380603,24.488758],[54.380176,24.48887],[54.380144,24.48891],[54.37985,24.488987],[54.379687,24.489167],[54.379837,24.489279],[54.380327,24.48915],[54.38037,24.48918],[54.380997,24.489017],[54.380008,24.48928],[54.379907,24.489399],[54.380077,24.48952],[54.379379,24.48971],[54.379366,24.489701],[54.378939,24.489813],[54.378899,24.489859],[54.37893,24.489881],[54.379321,24.489778],[54.37918,24.489944],[54.379251,24.489994]],[[54.385261,24.494762],[54.385195,24.494847],[54.385089,24.494807],[54.385261,24.494762]],[[54.384733,24.493331],[54.384799,24.493255],[54.385633,24.493035],[54.385732,24.492913],[54.386,24.493106],[54.385024,24.493364],[54.384913,24.493284],[54.384733,24.493331]],[[54.385157,24.492578],[54.385082,24.492516],[54.385035,24.492529],[54.384982,24.492485],[54.384957,24.492492],[54.384979,24.492461],[54.384885,24.492404],[54.384458,24.492517],[54.384427,24.49256],[54.384521,24.492617],[54.384541,24.492611],[54.384528,24.492625],[54.384674,24.492746],[54.383505,24.493054],[54.383214,24.493412],[54.383239,24.493428],[54.383105,24.493464],[54.383079,24.493445],[54.382694,24.493547],[54.382663,24.493526],[54.383238,24.493365],[54.383329,24.493249],[54.38311,24.493106],[54.382728,24.493207],[54.382708,24.493193],[54.382742,24.493184],[54.382962,24.492938],[54.383785,24.492721],[54.383893,24.492587],[54.383685,24.492448],[54.383989,24.492368],[54.384148,24.492183],[54.384126,24.492167],[54.384291,24.492123],[54.384446,24.491945],[54.384311,24.491848],[54.383473,24.492068],[54.383363,24.491994],[54.383306,24.492009],[54.383335,24.491974],[54.383189,24.491875],[54.383234,24.491863],[54.383285,24.4918],[54.383547,24.491731],[54.383411,24.491891],[54.383563,24.491998],[54.384533,24.491742],[54.384485,24.491787],[54.384767,24.491986],[54.385006,24.491923],[54.384938,24.491981],[54.384982,24.492024],[54.384958,24.492031],[54.384909,24.492087],[54.384835,24.492107],[54.384774,24.492154],[54.384704,24.492257],[54.384922,24.492379],[54.385413,24.49225],[54.385443,24.49227],[54.385342,24.492296],[54.385167,24.492504],[54.385281,24.492586],[54.385103,24.492633],[54.385157,24.492578]],[[54.38506,24.491572],[54.385355,24.491773],[54.385263,24.491797],[54.385308,24.491743],[54.38506,24.491572]],[[54.382969,24.491161],[54.382841,24.491195],[54.382816,24.491177],[54.382944,24.491143],[54.382969,24.491161]],[[54.382656,24.490819],[54.382573,24.490918],[54.38253,24.490883],[54.382444,24.490875],[54.382656,24.490819]],[[54.381486,24.490214],[54.381443,24.490184],[54.381653,24.490129],[54.381788,24.489963],[54.381822,24.489954],[54.381994,24.489762],[54.381982,24.489753],[54.382066,24.489731],[54.382131,24.489776],[54.382178,24.489764],[54.382152,24.489795],[54.382349,24.489934],[54.382379,24.489926],[54.382361,24.489948],[54.382374,24.489957],[54.381899,24.490082],[54.381874,24.490112],[54.381486,24.490214]],[[54.381439,24.489708],[54.38156,24.489562],[54.381662,24.489535],[54.381465,24.489775],[54.381441,24.489781],[54.381269,24.489973],[54.381291,24.489989],[54.381254,24.489999],[54.381216,24.490043],[54.380781,24.490158],[54.380731,24.490122],[54.381065,24.490035],[54.38122,24.489852],[54.38113,24.489789],[54.381439,24.489708]],[[54.378745,24.493517],[54.378697,24.493483],[54.37874,24.493472],[54.37893,24.4936],[54.378847,24.493622],[54.378857,24.493566],[54.378723,24.493542],[54.378745,24.493517]],[[54.381913,24.489249],[54.381851,24.489321],[54.381795,24.48928],[54.381913,24.489249]],[[54.381771,24.490632],[54.381718,24.490694],[54.381877,24.490806],[54.381627,24.490872],[54.381674,24.490816],[54.381532,24.490716],[54.38171,24.490669],[54.381733,24.490642],[54.381771,24.490632]],[[54.381096,24.491745],[54.381241,24.491707],[54.381383,24.491808],[54.381241,24.491845],[54.381096,24.491745]],[[54.38095,24.496519],[54.380938,24.496511],[54.380962,24.496504],[54.38095,24.496519]],[[54.379429,24.497004],[54.379391,24.496976],[54.379907,24.49684],[54.380013,24.49672],[54.379929,24.496658],[54.380647,24.496472],[54.380476,24.496518],[54.38025,24.496788],[54.379429,24.497004]],[[54.38346,24.494809],[54.38339,24.49489],[54.383171,24.494948],[54.383194,24.49492],[54.383151,24.494891],[54.38346,24.494809]],[[54.384499,24.48893],[54.38438,24.488846],[54.38383,24.488991],[54.383801,24.48897],[54.383767,24.488979],[54.383784,24.488959],[54.383587,24.48882],[54.383209,24.48892],[54.38323,24.488896],[54.384477,24.488567],[54.384458,24.48859],[54.384529,24.48864],[54.384488,24.488651],[54.38444,24.48871],[54.384539,24.488779],[54.384594,24.488764],[54.384934,24.489008],[54.385213,24.488938],[54.384289,24.489182],[54.384328,24.489136],[54.38431,24.489124],[54.384342,24.489115],[54.384499,24.48893]],[[54.384393,24.487971],[54.38444,24.488004],[54.384155,24.488079],[54.384041,24.488211],[54.383956,24.488233],[54.384027,24.488153],[54.383942,24.48809],[54.384393,24.487971]],[[54.385082,24.488488],[54.385216,24.488452],[54.385276,24.488495],[54.38497,24.488576],[54.384925,24.488545],[54.384966,24.488534],[54.385027,24.488464],[54.385082,24.488488]],[[54.385712,24.489305],[54.385837,24.489269],[54.385794,24.489327],[54.385748,24.489296],[54.385712,24.489305]],[[54.385237,24.489191],[54.385307,24.489108],[54.385465,24.489066],[54.38539,24.489151],[54.385237,24.489191]],[[54.385434,24.488556],[54.385843,24.488448],[54.386034,24.48859],[54.386085,24.488577],[54.386063,24.488634],[54.385722,24.488724],[54.385775,24.488665],[54.385703,24.488617],[54.385567,24.488652],[54.385434,24.488556]],[[54.385761,24.489774],[54.385934,24.489728],[54.385989,24.489767],[54.385814,24.489813],[54.385761,24.489774]]]}},{"type":"Feature","properties":{},"geometry":{"type":"Polygon","coordinates":[[[54.379651,24.497635],[54.378171,24.498025],[54.377977,24.498244],[54.378002,24.498261],[54.377939,24.498278],[54.377764,24.498474],[54.377898,24.498573],[54.379352,24.498189],[54.379253,24.498302],[54.379317,24.498348],[54.378948,24.498445],[54.378874,24.498541],[54.378939,24.498583],[54.378678,24.498656],[54.378697,24.498702],[54.379001,24.498622],[54.379057,24.498658],[54.37916,24.498631],[54.378741,24.498751],[54.378627,24.498872],[54.378693,24.498922],[54.378544,24.498962],[54.378463,24.499043],[54.378526,24.499094],[54.379022,24.498964],[54.379062,24.498924],[54.379005,24.498877],[54.379155,24.498837],[54.379188,24.498801],[54.379296,24.498873],[54.379722,24.49876],[54.379832,24.498624],[54.379617,24.498481],[54.379513,24.498508],[54.379553,24.498455],[54.380912,24.498097],[54.381073,24.497913],[54.380838,24.497742],[54.380229,24.497903],[54.380334,24.497768],[54.380215,24.497678],[54.379658,24.497825],[54.379743,24.49771],[54.379651,24.497635]]]}},{"type":"Feature","properties":{},"geometry":{"type":"Polygon","coordinates":[[[54.38114,24.50071],[54.38134,24.500498],[54.381126,24.500332],[54.377961,24.501167],[54.377761,24.501379],[54.377974,24.501545],[54.38114,24.50071]]]}},{"type":"Feature","properties":{},"geometry":{"type":"Polygon","coordinates":[[[54.37997,24.501511],[54.38017,24.501307],[54.380024,24.501188],[54.37789,24.501751],[54.377689,24.501955],[54.377836,24.502074],[54.37997,24.501511]]]}},{"type":"Feature","properties":{},"geometry":{"type":"Polygon","coordinates":[[[54.380699,24.501736],[54.38089,24.501539],[54.380722,24.501404],[54.378018,24.502117],[54.377828,24.502314],[54.377951,24.502413],[54.377856,24.502438],[54.377752,24.502561],[54.377954,24.502704],[54.380658,24.501991],[54.380762,24.501868],[54.380608,24.50176],[54.380699,24.501736]]]}},{"type":"Feature","properties":{},"geometry":{"type":"Polygon","coordinates":[[[54.37934,24.507452],[54.37934,24.507547],[54.379402,24.507547],[54.37952,24.507516],[54.379521,24.507576],[54.379762,24.507573],[54.381185,24.507198],[54.38118,24.506906],[54.380959,24.506909],[54.37978,24.50722],[54.379725,24.50722],[54.379298,24.507332],[54.379299,24.507452],[54.37934,24.507452]]]}},{"type":"Feature","properties":{},"geometry":{"type":"Polygon","coordinates":[[[54.378755,24.50842],[54.378757,24.508509],[54.378529,24.50857],[54.37853,24.508679],[54.378603,24.508678],[54.37903,24.508566],[54.379028,24.508478],[54.379293,24.508408],[54.379291,24.508305],[54.379182,24.508307],[54.378755,24.50842]]]}},{"type":"Feature","properties":{},"geometry":{"type":"Polygon","coordinates":[[[54.37979,24.510113],[54.380003,24.510003],[54.380229,24.509943],[54.380458,24.509817],[54.38044,24.509791],[54.380568,24.509757],[54.381215,24.509412],[54.381184,24.509363],[54.381365,24.509316],[54.3816,24.509188],[54.381549,24.509107],[54.381776,24.508986],[54.381669,24.50882],[54.381409,24.508889],[54.381341,24.508781],[54.380763,24.508933],[54.380725,24.508877],[54.378591,24.509439],[54.377802,24.509708],[54.378003,24.51002],[54.378721,24.509831],[54.378546,24.509927],[54.37856,24.509948],[54.378275,24.510024],[54.378115,24.510113],[54.378367,24.510488],[54.37979,24.510113]]]}},{"type":"Feature","properties":{},"geometry":{"type":"Polygon","coordinates":[[[54.380013,24.49916],[54.379954,24.499237],[54.379974,24.49925],[54.380014,24.499239],[54.379985,24.499278],[54.380323,24.499493],[54.380508,24.499444],[54.380487,24.499527],[54.380699,24.499574],[54.380815,24.499544],[54.380845,24.499603],[54.381059,24.499614],[54.381516,24.499494],[54.381556,24.499512],[54.381983,24.4994],[54.382007,24.499339],[54.382107,24.499263],[54.382561,24.499146],[54.382604,24.49912],[54.382633,24.499078],[54.382642,24.499035],[54.382627,24.498979],[54.382566,24.498926],[54.38251,24.498914],[54.382033,24.499036],[54.38199,24.499062],[54.381956,24.499117],[54.381927,24.499061],[54.382292,24.49884],[54.382688,24.498736],[54.382817,24.498682],[54.382784,24.498404],[54.382704,24.498291],[54.382175,24.498147],[54.381286,24.498381],[54.381175,24.498444],[54.381068,24.498473],[54.380628,24.498745],[54.38072,24.498878],[54.38019,24.499018],[54.380098,24.499138],[54.380013,24.49916]]]}},{"type":"Feature","properties":{},"geometry":{"type":"Polygon","coordinates":[[[54.380256,24.511818],[54.380028,24.511878],[54.379543,24.512354],[54.379653,24.512439],[54.37988,24.512379],[54.380369,24.511908],[54.380256,24.511818]]]}},{"type":"Feature","properties":{},"geometry":{"type":"Polygon","coordinates":[[[54.38241,24.487401],[54.382435,24.487371],[54.382268,24.487255],[54.381016,24.487586],[54.380855,24.487778],[54.381022,24.487894],[54.382355,24.487546],[54.382452,24.48743],[54.38241,24.487401]]]}},{"type":"Feature","properties":{},"geometry":{"type":"Polygon","coordinates":[[[54.382037,24.509112],[54.38161,24.509225],[54.381563,24.509278],[54.381611,24.509312],[54.382037,24.5092],[54.382084,24.509147],[54.382037,24.509112]]]}},{"type":"Feature","properties":{},"geometry":{"type":"Polygon","coordinates":[[[54.381929,24.510071],[54.38203,24.510031],[54.381996,24.509959],[54.381569,24.510072],[54.381468,24.510112],[54.381503,24.510184],[54.381929,24.510071]]]}},{"type":"Feature","properties":{},"geometry":{"type":"MultiPolygon","coordinates":[[[[54.380238,24.511685],[54.381238,24.51251],[54.381466,24.51245],[54.381545,24.512367],[54.380589,24.511568],[54.38054,24.511527],[54.380313,24.511587],[54.380238,24.511685]]],[[[54.380709,24.511588],[54.381135,24.511476],[54.381142,24.511444],[54.381221,24.511423],[54.381247,24.511357],[54.381204,24.511343],[54.381119,24.511366],[54.38116,24.511353],[54.381169,24.51131],[54.381049,24.51129],[54.380622,24.511403],[54.380589,24.511568],[54.380709,24.511588]]]]}},{"type":"Feature","properties":{},"geometry":{"type":"Polygon","coordinates":[[[54.383102,24.486215],[54.383028,24.486314],[54.383092,24.486354],[54.383116,24.486348],[54.383209,24.486405],[54.383679,24.486288],[54.383727,24.486225],[54.383529,24.486102],[54.383102,24.486215]]]}},{"type":"Feature","properties":{},"geometry":{"type":"Polygon","coordinates":[[[54.382818,24.504775],[54.383245,24.504663],[54.383236,24.50454],[54.38316,24.504545],[54.382733,24.504657],[54.382743,24.50478],[54.382818,24.504775]]]}},{"type":"Feature","properties":{},"geometry":{"type":"Polygon","coordinates":[[[54.383327,24.508107],[54.3829,24.508219],[54.382846,24.508246],[54.382867,24.50828],[54.383294,24.508167],[54.383347,24.50814],[54.383327,24.508107]]]}},{"type":"Feature","properties":{},"geometry":{"type":"Polygon","coordinates":[[[54.384502,24.511205],[54.384885,24.510781],[54.384703,24.510639],[54.385119,24.510529],[54.385509,24.510117],[54.384815,24.509578],[54.382681,24.51014],[54.3823,24.510555],[54.382317,24.510568],[54.381894,24.510679],[54.381509,24.511102],[54.382367,24.511768],[54.384502,24.511205]]]}},{"type":"Feature","properties":{},"geometry":{"type":"Polygon","coordinates":[[[54.384897,24.48399],[54.384471,24.484102],[54.384385,24.484192],[54.384434,24.484231],[54.38486,24.484118],[54.384921,24.484055],[54.384905,24.484042],[54.38493,24.484016],[54.384897,24.48399]]]}},{"type":"Feature","properties":{},"geometry":{"type":"Polygon","coordinates":[[[54.384208,24.492797],[54.384244,24.492762],[54.384172,24.4927],[54.383745,24.492813],[54.383709,24.492848],[54.383781,24.49291],[54.384208,24.492797]]]}},{"type":"Feature","properties":{},"geometry":{"type":"Polygon","coordinates":[[[54.386002,24.496841],[54.38573,24.496663],[54.383596,24.497226],[54.383377,24.497502],[54.383929,24.497866],[54.386064,24.497303],[54.386149,24.497195],[54.386018,24.497091],[54.386046,24.497056],[54.385905,24.496963],[54.386002,24.496841]]]}},{"type":"Feature","properties":{},"geometry":{"type":"Polygon","coordinates":[[[54.385747,24.503436],[54.385744,24.50319],[54.385605,24.503191],[54.38347,24.503754],[54.383476,24.504299],[54.383302,24.504345],[54.383303,24.504399],[54.383477,24.50439],[54.383478,24.504434],[54.383437,24.504445],[54.383437,24.504469],[54.383408,24.504483],[54.383317,24.504507],[54.383321,24.50491],[54.383623,24.504907],[54.385757,24.504344],[54.385757,24.504311],[54.38584,24.504289],[54.38583,24.503435],[54.385747,24.503436]]]}},{"type":"Feature","properties":{},"geometry":{"type":"Polygon","coordinates":[[[54.387117,24.481939],[54.38669,24.482051],[54.386699,24.482115],[54.386898,24.482089],[54.387325,24.481977],[54.38732,24.481915],[54.387117,24.481939]]]}},{"type":"Feature","properties":{},"geometry":{"type":"Polygon","coordinates":[[[54.390329,24.482402],[54.390366,24.482336],[54.390235,24.482276],[54.389809,24.482389],[54.389772,24.482455],[54.389903,24.482514],[54.390329,24.482402]]]}},{"type":"Feature","properties":{},"geometry":{"type":"Polygon","coordinates":[[[54.389337,24.481764],[54.387203,24.482327],[54.386697,24.482936],[54.387087,24.483209],[54.389221,24.482647],[54.389733,24.482046],[54.389337,24.481764]]]}},{"type":"Feature","properties":{},"geometry":{"type":"Polygon","coordinates":[[[54.389997,24.482755],[54.389907,24.482825],[54.389972,24.482894],[54.390399,24.482781],[54.390463,24.482731],[54.39071,24.482873],[54.390958,24.482807],[54.390947,24.482828],[54.391028,24.482867],[54.391251,24.482808],[54.391257,24.482821],[54.391191,24.482839],[54.39115,24.482902],[54.39117,24.482912],[54.391056,24.482942],[54.390997,24.483025],[54.391238,24.483168],[54.391283,24.483156],[54.391275,24.48317],[54.391503,24.483283],[54.392197,24.483102],[54.391224,24.483358],[54.391015,24.483564],[54.39122,24.483711],[54.391254,24.483702],[54.391186,24.48376],[54.391324,24.483896],[54.391751,24.483784],[54.391838,24.483708],[54.39171,24.483582],[54.392643,24.483336],[54.392701,24.483268],[54.392802,24.483242],[54.392903,24.483067],[54.392806,24.483022],[54.392739,24.483039],[54.392746,24.483028],[54.392684,24.483004],[54.392707,24.482965],[54.392926,24.482907],[54.393002,24.482784],[54.392912,24.482721],[54.392946,24.482666],[54.39309,24.482628],[54.393165,24.482508],[54.392932,24.482394],[54.391862,24.482677],[54.391621,24.482568],[54.391553,24.482586],[54.391575,24.482548],[54.391489,24.482508],[54.391448,24.482519],[54.391462,24.482494],[54.391368,24.482452],[54.390973,24.482557],[54.390945,24.482542],[54.390518,24.482654],[54.390483,24.482704],[54.390424,24.482642],[54.389997,24.482755]]]}},{"type":"Feature","properties":{},"geometry":{"type":"Polygon","coordinates":[[[54.388397,24.485047],[54.388346,24.485],[54.387919,24.485113],[54.387843,24.485182],[54.387894,24.485229],[54.388321,24.485116],[54.388397,24.485047]]]}},{"type":"Feature","properties":{},"geometry":{"type":"Polygon","coordinates":[[[54.390022,24.485683],[54.390085,24.485632],[54.390041,24.485587],[54.390119,24.485524],[54.390011,24.485413],[54.389584,24.485525],[54.389443,24.485639],[54.389596,24.485795],[54.390022,24.485683]]]}},{"type":"Feature","properties":{},"geometry":{"type":"Polygon","coordinates":[[[54.387389,24.489969],[54.387391,24.489926],[54.387327,24.489923],[54.3869,24.490036],[54.386897,24.490079],[54.386962,24.490082],[54.387389,24.489969]]]}},{"type":"Feature","properties":{},"geometry":{"type":"Polygon","coordinates":[[[54.387484,24.490303],[54.387605,24.490165],[54.387382,24.490004],[54.386955,24.490116],[54.386835,24.490257],[54.387058,24.490415],[54.387484,24.490303]]]}},{"type":"Feature","properties":{},"geometry":{"type":"Polygon","coordinates":[[[54.39133,24.493322],[54.391369,24.493263],[54.391365,24.493178],[54.391319,24.493141],[54.391351,24.493133],[54.391348,24.493084],[54.391246,24.493089],[54.391242,24.492995],[54.391165,24.492998],[54.389031,24.493561],[54.38903,24.493613],[54.387649,24.493977],[54.387358,24.494681],[54.387698,24.49491],[54.389122,24.494534],[54.389134,24.494774],[54.389223,24.494771],[54.389231,24.494932],[54.389342,24.494927],[54.391476,24.494364],[54.391448,24.493778],[54.392305,24.493552],[54.392255,24.493198],[54.391445,24.493291],[54.39133,24.493322]]]}},{"type":"Feature","properties":{},"geometry":{"type":"Polygon","coordinates":[[[54.388825,24.495597],[54.388726,24.495607],[54.388722,24.495578],[54.388572,24.495593],[54.388146,24.495705],[54.388159,24.495814],[54.388232,24.495806],[54.388239,24.495869],[54.38838,24.495855],[54.387835,24.495999],[54.387829,24.495952],[54.387598,24.495977],[54.386709,24.496212],[54.386845,24.497237],[54.38657,24.497309],[54.386578,24.497382],[54.38654,24.497392],[54.386584,24.497755],[54.386624,24.49775],[54.386643,24.497907],[54.386615,24.497915],[54.386626,24.498009],[54.386667,24.498005],[54.386709,24.498354],[54.386674,24.498363],[54.386683,24.498432],[54.386731,24.498427],[54.386772,24.498766],[54.387145,24.498729],[54.3875,24.498635],[54.387482,24.498485],[54.388136,24.498312],[54.388122,24.498193],[54.388313,24.498178],[54.391856,24.497244],[54.391834,24.497074],[54.392096,24.497005],[54.392089,24.496968],[54.391829,24.497031],[54.391821,24.496971],[54.39209,24.4969],[54.392088,24.496861],[54.39181,24.496883],[54.391712,24.496103],[54.391552,24.496119],[54.391456,24.496145],[54.391454,24.496131],[54.391319,24.496145],[54.391069,24.496211],[54.391067,24.496166],[54.392523,24.495782],[54.392512,24.495687],[54.392582,24.495669],[54.392571,24.495583],[54.392687,24.495553],[54.392741,24.49608],[54.392965,24.496021],[54.393656,24.495953],[54.393729,24.495934],[54.393739,24.496008],[54.393864,24.495994],[54.395998,24.495431],[54.396152,24.495294],[54.396419,24.495223],[54.396334,24.494613],[54.395767,24.494679],[54.395232,24.49482],[54.39481,24.49488],[54.392748,24.495424],[54.39271,24.495114],[54.39236,24.495149],[54.390594,24.495615],[54.390486,24.49563],[54.390459,24.495422],[54.389708,24.495505],[54.388921,24.495712],[54.388912,24.495634],[54.388831,24.495643],[54.388825,24.495597]],[[54.387965,24.496995],[54.387931,24.496731],[54.388417,24.496678],[54.390186,24.496211],[54.390205,24.496364],[54.39062,24.496329],[54.388622,24.496856],[54.388322,24.496908],[54.387965,24.496995]]]}},{"type":"Feature","properties":{},"geometry":{"type":"Polygon","coordinates":[[[54.386821,24.498921],[54.387248,24.498809],[54.387243,24.498753],[54.387074,24.498772],[54.386647,24.498885],[54.386653,24.498939],[54.386821,24.498921]]]}},{"type":"Feature","properties":{},"geometry":{"type":"Polygon","coordinates":[[[54.392446,24.498302],[54.392448,24.498252],[54.389889,24.498927],[54.389861,24.498712],[54.38891,24.498812],[54.386775,24.499375],[54.386768,24.499506],[54.386877,24.499783],[54.386944,24.499887],[54.387235,24.500209],[54.387459,24.500387],[54.387532,24.500461],[54.38809,24.50086],[54.387919,24.500905],[54.388012,24.50105],[54.388047,24.501141],[54.388227,24.501093],[54.388271,24.50145],[54.388112,24.501492],[54.38812,24.501571],[54.388053,24.501752],[54.388156,24.501762],[54.388134,24.501871],[54.387972,24.502043],[54.387908,24.50206],[54.387837,24.502137],[54.387877,24.502157],[54.387597,24.502492],[54.387623,24.502518],[54.387477,24.502822],[54.387584,24.502858],[54.387659,24.503024],[54.387577,24.503046],[54.387577,24.503069],[54.387363,24.503126],[54.387339,24.50325],[54.38767,24.503205],[54.387675,24.503391],[54.388727,24.503113],[54.388742,24.503235],[54.389955,24.503108],[54.390392,24.502993],[54.390406,24.5031],[54.391157,24.503036],[54.391939,24.502829],[54.391887,24.502356],[54.392201,24.502274],[54.392192,24.5022],[54.392797,24.50204],[54.393354,24.501843],[54.393194,24.501715],[54.392969,24.501775],[54.392928,24.50167],[54.392699,24.501695],[54.392149,24.50184],[54.392105,24.501477],[54.393725,24.50105],[54.393714,24.500949],[54.394935,24.500627],[54.395064,24.501399],[54.39563,24.50132],[54.397764,24.500757],[54.397622,24.499909],[54.397056,24.499987],[54.39529,24.500453],[54.395281,24.500353],[54.395363,24.500331],[54.395343,24.500217],[54.39527,24.500231],[54.395256,24.500076],[54.395264,24.500113],[54.395723,24.499995],[54.395711,24.499941],[54.395989,24.499868],[54.395961,24.499714],[54.395846,24.499731],[54.395419,24.499844],[54.39544,24.499956],[54.395243,24.500017],[54.39511,24.500027],[54.395107,24.499997],[54.394977,24.500007],[54.393323,24.500443],[54.393311,24.500351],[54.393046,24.500376],[54.392005,24.50065],[54.391946,24.500154],[54.393928,24.499631],[54.39537,24.499471],[54.397504,24.498908],[54.397394,24.498101],[54.39727,24.497979],[54.3956,24.498097],[54.393466,24.49866],[54.393537,24.499119],[54.393413,24.499152],[54.39345,24.499134],[54.393437,24.499001],[54.3934,24.499004],[54.393388,24.498881],[54.392764,24.498931],[54.391828,24.499178],[54.391775,24.498736],[54.392696,24.498493],[54.392618,24.498431],[54.392519,24.498309],[54.392446,24.498302]],[[54.390283,24.502146],[54.389603,24.502217],[54.389914,24.502135],[54.389906,24.502057],[54.390259,24.501964],[54.390283,24.502146]],[[54.388874,24.502341],[54.388885,24.502322],[54.388976,24.502314],[54.388874,24.502341]],[[54.388658,24.50257],[54.388675,24.502701],[54.388623,24.50258],[54.388658,24.50257]]]}},{"type":"Feature","properties":{},"geometry":{"type":"Polygon","coordinates":[[[54.388959,24.503353],[54.389133,24.503307],[54.389133,24.50332],[54.38924,24.503322],[54.389667,24.50321],[54.389668,24.503156],[54.389561,24.503154],[54.38938,24.503202],[54.389379,24.50319],[54.389163,24.503215],[54.388737,24.503327],[54.388744,24.503378],[54.388959,24.503353]]]}},{"type":"Feature","properties":{},"geometry":{"type":"Polygon","coordinates":[[[54.387984,24.503605],[54.387995,24.503646],[54.388486,24.503519],[54.388475,24.503478],[54.387984,24.503605]]]}},{"type":"Feature","properties":{},"geometry":{"type":"Polygon","coordinates":[[[54.387491,24.50406],[54.387493,24.504101],[54.387557,24.504098],[54.387984,24.503985],[54.38798,24.503905],[54.387919,24.503908],[54.387952,24.503899],[54.387946,24.503857],[54.387827,24.503872],[54.3874,24.503984],[54.387407,24.504026],[54.387422,24.504024],[54.387362,24.50404],[54.38737,24.504086],[54.387491,24.50406]]]}},{"type":"Feature","properties":{},"geometry":{"type":"Polygon","coordinates":[[[54.389825,24.505595],[54.389842,24.505811],[54.390056,24.505797],[54.391479,24.505422],[54.391416,24.504829],[54.391217,24.504842],[54.389795,24.505218],[54.389802,24.505314],[54.389699,24.505341],[54.389701,24.505368],[54.38964,24.505384],[54.389658,24.505614],[54.389825,24.505595]]]}},{"type":"Feature","properties":{},"geometry":{"type":"Polygon","coordinates":[[[54.389579,24.506915],[54.389152,24.507028],[54.389156,24.507062],[54.389251,24.507055],[54.389678,24.506942],[54.389675,24.506908],[54.389579,24.506915]]]}},{"type":"Feature","properties":{},"geometry":{"type":"Polygon","coordinates":[[[54.391007,24.482346],[54.39058,24.482459],[54.390563,24.482582],[54.390697,24.482594],[54.391124,24.482482],[54.391144,24.482359],[54.391007,24.482346]]]}},{"type":"Feature","properties":{},"geometry":{"type":"Polygon","coordinates":[[[54.391225,24.48445],[54.391317,24.484372],[54.391198,24.484256],[54.390771,24.484369],[54.39068,24.484447],[54.390799,24.484563],[54.391225,24.48445]]]}},{"type":"Feature","properties":{},"geometry":{"type":"Polygon","coordinates":[[[54.393406,24.487844],[54.392872,24.487985],[54.392909,24.488341],[54.392865,24.488396],[54.392314,24.488534],[54.392304,24.488582],[54.392215,24.488605],[54.392125,24.48894],[54.392304,24.488949],[54.392538,24.489018],[54.392714,24.489126],[54.392886,24.489319],[54.393263,24.489219],[54.393272,24.489275],[54.393803,24.489206],[54.394215,24.489097],[54.394231,24.489235],[54.394384,24.48922],[54.394398,24.489338],[54.394585,24.489319],[54.398363,24.488323],[54.398496,24.488423],[54.39441,24.489501],[54.394418,24.489576],[54.394271,24.489615],[54.394279,24.489686],[54.394047,24.489706],[54.39377,24.489549],[54.393528,24.489557],[54.392995,24.489698],[54.392899,24.490086],[54.392856,24.490178],[54.39278,24.490268],[54.392729,24.490281],[54.392576,24.490371],[54.392469,24.490371],[54.392269,24.490324],[54.391736,24.490465],[54.391721,24.490502],[54.391735,24.490577],[54.3917,24.4906],[54.391651,24.49071],[54.391724,24.490779],[54.391942,24.490822],[54.392303,24.490933],[54.392508,24.490879],[54.39257,24.490997],[54.392991,24.490947],[54.392169,24.491164],[54.39221,24.49149],[54.392502,24.49146],[54.393585,24.491174],[54.393672,24.491195],[54.393757,24.491191],[54.393694,24.491268],[54.39246,24.491593],[54.392547,24.492146],[54.392963,24.492093],[54.393738,24.491888],[54.39383,24.491951],[54.394115,24.491876],[54.394208,24.491764],[54.394821,24.491602],[54.394754,24.49168],[54.394882,24.491772],[54.392226,24.492479],[54.392288,24.492864],[54.39287,24.492786],[54.394169,24.492444],[54.394184,24.492454],[54.399661,24.491009],[54.399763,24.490893],[54.39975,24.490884],[54.39998,24.490823],[54.400055,24.490729],[54.39998,24.490679],[54.400037,24.490595],[54.400076,24.490584],[54.400098,24.490732],[54.400402,24.490694],[54.401825,24.490318],[54.401784,24.490053],[54.40148,24.490091],[54.400429,24.490369],[54.400367,24.490324],[54.40041,24.490275],[54.40026,24.490166],[54.400614,24.490073],[54.400716,24.489956],[54.400621,24.489888],[54.400663,24.489838],[54.40049,24.489714],[54.40078,24.489638],[54.400966,24.489714],[54.401757,24.489883],[54.4026,24.489943],[54.404734,24.48938],[54.405014,24.489033],[54.404759,24.487573],[54.404422,24.487523],[54.403907,24.487418],[54.403278,24.487202],[54.402279,24.486756],[54.402888,24.486595],[54.403,24.486554],[54.403341,24.4858],[54.402877,24.48556],[54.40119,24.486005],[54.401102,24.485939],[54.400275,24.486157],[54.400598,24.48587],[54.400566,24.48584],[54.400484,24.485807],[54.400373,24.485795],[54.400247,24.485812],[54.395019,24.487192],[54.39497,24.487235],[54.394983,24.487248],[54.394555,24.487364],[54.394369,24.487515],[54.394416,24.487563],[54.394275,24.4876],[54.394095,24.487756],[54.394113,24.487773],[54.394101,24.487783],[54.393406,24.487844]],[[54.393577,24.488705],[54.39355,24.488645],[54.393544,24.488581],[54.393577,24.488483],[54.393708,24.488472],[54.394241,24.488331],[54.3942,24.487942],[54.394521,24.488303],[54.394647,24.48827],[54.394793,24.488419],[54.394951,24.488377],[54.394968,24.488395],[54.397958,24.487606],[54.397734,24.487851],[54.397756,24.487868],[54.394327,24.488773],[54.394336,24.488849],[54.394304,24.488857],[54.394283,24.488729],[54.393706,24.488804],[54.393632,24.488765],[54.393577,24.488705]],[[54.39717,24.487326],[54.396987,24.487063],[54.398922,24.486552],[54.398547,24.486962],[54.39717,24.487326]],[[54.394781,24.490334],[54.394497,24.490409],[54.394352,24.490468],[54.394296,24.490536],[54.394198,24.49048],[54.39409,24.490457],[54.394268,24.49041],[54.394373,24.490353],[54.394512,24.490177],[54.394497,24.490094],[54.394669,24.490078],[54.399207,24.488881],[54.400168,24.489385],[54.395387,24.490647],[54.39519,24.490873],[54.394883,24.490954],[54.395338,24.490408],[54.395167,24.490295],[54.394781,24.490334]]]}},{"type":"Feature","properties":{},"geometry":{"type":"Polygon","coordinates":[[[54.397419,24.492256],[54.397485,24.491957],[54.397076,24.491882],[54.395653,24.492258],[54.395588,24.492557],[54.395997,24.492631],[54.397419,24.492256]]]}},{"type":"Feature","properties":{},"geometry":{"type":"Polygon","coordinates":[[[54.39112,24.492755],[54.391014,24.492659],[54.390587,24.492771],[54.390399,24.492942],[54.390505,24.493039],[54.390932,24.492926],[54.39112,24.492755]]]}},{"type":"Feature","properties":{},"geometry":{"type":"Polygon","coordinates":[[[54.394944,24.494114],[54.394937,24.494066],[54.39479,24.494084],[54.393367,24.494459],[54.393369,24.494475],[54.39331,24.49449],[54.393345,24.49473],[54.393613,24.494698],[54.395036,24.494323],[54.395005,24.494107],[54.394944,24.494114]]]}},{"type":"Feature","properties":{},"geometry":{"type":"Polygon","coordinates":[[[54.396677,24.496258],[54.394542,24.496821],[54.394342,24.497067],[54.394165,24.497089],[54.389896,24.498215],[54.389941,24.498568],[54.390974,24.498461],[54.396775,24.496945],[54.396903,24.496879],[54.396969,24.496826],[54.397598,24.49666],[54.397566,24.496441],[54.39719,24.496316],[54.3969,24.496392],[54.396677,24.496258]]]}},{"type":"Feature","properties":{},"geometry":{"type":"Polygon","coordinates":[[[54.393779,24.498085],[54.393781,24.498005],[54.39374,24.498004],[54.393313,24.498116],[54.39331,24.498197],[54.393352,24.498198],[54.393779,24.498085]]]}},{"type":"Feature","properties":{},"geometry":{"type":"Polygon","coordinates":[[[54.396171,24.501887],[54.396174,24.501785],[54.396088,24.501782],[54.395661,24.501895],[54.395658,24.501997],[54.395744,24.502],[54.396171,24.501887]]]}},{"type":"Feature","properties":{},"geometry":{"type":"Polygon","coordinates":[[[54.392518,24.503521],[54.392091,24.503633],[54.392099,24.503682],[54.392191,24.50367],[54.392618,24.503557],[54.39261,24.503508],[54.392518,24.503521]]]}},{"type":"Feature","properties":{},"geometry":{"type":"Polygon","coordinates":[[[54.392274,24.503831],[54.392463,24.503781],[54.392463,24.503812],[54.392554,24.503811],[54.392981,24.503698],[54.392981,24.503649],[54.392889,24.50365],[54.3927,24.5037],[54.392695,24.503616],[54.392532,24.503624],[54.392105,24.503737],[54.392111,24.503839],[54.392274,24.503831]]]}},{"type":"Feature","properties":{},"geometry":{"type":"Polygon","coordinates":[[[54.393695,24.503541],[54.393587,24.503552],[54.392531,24.50383],[54.39248,24.503828],[54.392054,24.50394],[54.392065,24.504132],[54.392185,24.504112],[54.392195,24.504199],[54.39209,24.504227],[54.392098,24.504395],[54.392215,24.504375],[54.392222,24.504432],[54.392504,24.504401],[54.392931,24.504288],[54.392929,24.504263],[54.393752,24.504046],[54.393695,24.503541]]]}},{"type":"Feature","properties":{},"geometry":{"type":"Polygon","coordinates":[[[54.3936,24.504121],[54.392177,24.504496],[54.39221,24.504771],[54.392653,24.504727],[54.394076,24.504352],[54.394043,24.504077],[54.3936,24.504121]]]}},{"type":"Feature","properties":{},"geometry":{"type":"Polygon","coordinates":[[[54.392558,24.505648],[54.392773,24.505636],[54.394196,24.50526],[54.39416,24.504761],[54.393945,24.504773],[54.392861,24.505059],[54.392859,24.504993],[54.393019,24.50495],[54.39299,24.504702],[54.392879,24.504713],[54.392657,24.504771],[54.392654,24.504746],[54.3926,24.50475],[54.392173,24.504863],[54.392181,24.504943],[54.392459,24.504879],[54.392477,24.505034],[54.392208,24.505104],[54.392211,24.505213],[54.392434,24.505191],[54.392523,24.505167],[54.392558,24.505648]]]}},{"type":"Feature","properties":{},"geometry":{"type":"Polygon","coordinates":[[[54.39253,24.506794],[54.392552,24.507082],[54.391607,24.507332],[54.391607,24.507318],[54.391474,24.507317],[54.391047,24.507429],[54.391046,24.50751],[54.391179,24.507511],[54.391536,24.507417],[54.391541,24.50749],[54.391944,24.507466],[54.392911,24.507211],[54.392992,24.507205],[54.393419,24.507093],[54.393412,24.507039],[54.393364,24.507044],[54.393358,24.506962],[54.394164,24.50675],[54.394138,24.506407],[54.393953,24.506419],[54.39253,24.506794]]]}},{"type":"Feature","properties":{},"geometry":{"type":"Polygon","coordinates":[[[54.392197,24.506697],[54.39177,24.50681],[54.391776,24.506856],[54.391865,24.506847],[54.392292,24.506734],[54.392286,24.506688],[54.392197,24.506697]]]}},{"type":"Feature","properties":{},"geometry":{"type":"Polygon","coordinates":[[[54.392494,24.506833],[54.392482,24.506786],[54.392525,24.506775],[54.392515,24.506733],[54.39188,24.506896],[54.391888,24.506957],[54.391995,24.506935],[54.392001,24.506959],[54.392494,24.506833]]]}},{"type":"Feature","properties":{},"geometry":{"type":"Polygon","coordinates":[[[54.391814,24.507055],[54.391816,24.507144],[54.391942,24.507142],[54.392369,24.507029],[54.392367,24.50694],[54.392241,24.506942],[54.391814,24.507055]]]}},{"type":"Feature","properties":{},"geometry":{"type":"Polygon","coordinates":[[[54.393216,24.508734],[54.393643,24.508621],[54.393644,24.508587],[54.393396,24.508596],[54.39297,24.508709],[54.39297,24.508739],[54.393216,24.508734]]]}},{"type":"Feature","properties":{},"geometry":{"type":"Polygon","coordinates":[[[54.393096,24.509587],[54.393141,24.509665],[54.393021,24.509696],[54.392992,24.509738],[54.393063,24.509778],[54.393251,24.509728],[54.393287,24.509787],[54.395422,24.509224],[54.395759,24.509053],[54.395747,24.509033],[54.395929,24.508941],[54.395697,24.508562],[54.394082,24.508988],[54.394031,24.508983],[54.393604,24.509096],[54.393605,24.509114],[54.393369,24.509224],[54.393379,24.509241],[54.393317,24.509272],[54.393398,24.509389],[54.393287,24.509433],[54.393321,24.50948],[54.393096,24.509587]]]}},{"type":"Feature","properties":{},"geometry":{"type":"Polygon","coordinates":[[[54.394454,24.509556],[54.394479,24.509542],[54.394445,24.509493],[54.394018,24.509606],[54.393978,24.509629],[54.394012,24.509678],[54.394042,24.50967],[54.394017,24.509683],[54.394078,24.509774],[54.394505,24.509662],[54.394546,24.509639],[54.394485,24.509548],[54.394454,24.509556]]]}},{"type":"Feature","properties":{},"geometry":{"type":"Polygon","coordinates":[[[54.394503,24.509781],[54.3946,24.50974],[54.394554,24.509653],[54.394128,24.509765],[54.394031,24.509807],[54.394077,24.509894],[54.394503,24.509781]]]}},{"type":"Feature","properties":{},"geometry":{"type":"Polygon","coordinates":[[[54.393869,24.509955],[54.393874,24.509991],[54.394343,24.509873],[54.394337,24.509837],[54.393869,24.509955]]]}},{"type":"Feature","properties":{},"geometry":{"type":"Polygon","coordinates":[[[54.394668,24.509995],[54.394651,24.509981],[54.394521,24.510015],[54.394494,24.509966],[54.39434,24.510007],[54.394621,24.509885],[54.39459,24.509826],[54.394163,24.509938],[54.393848,24.510074],[54.393861,24.510099],[54.393764,24.510129],[54.393786,24.510183],[54.393999,24.510126],[54.394036,24.510193],[54.394157,24.510161],[54.394253,24.510242],[54.394679,24.510129],[54.394778,24.510033],[54.394717,24.509982],[54.394668,24.509995]]]}},{"type":"Feature","properties":{},"geometry":{"type":"Polygon","coordinates":[[[54.408389,24.479424],[54.408564,24.479332],[54.408507,24.479242],[54.408387,24.479274],[54.408415,24.479249],[54.40831,24.479085],[54.406176,24.479648],[54.405927,24.479779],[54.405983,24.479867],[54.405776,24.479976],[54.405813,24.480035],[54.405737,24.480075],[54.4058,24.480173],[54.405818,24.480169],[54.405905,24.480306],[54.408039,24.479743],[54.408457,24.479532],[54.408389,24.479424]]]}},{"type":"Feature","properties":{},"geometry":{"type":"Polygon","coordinates":[[[54.4075,24.479974],[54.407362,24.48001],[54.407307,24.479947],[54.404982,24.480566],[54.404751,24.480736],[54.404877,24.480879],[54.404282,24.481036],[54.403673,24.48131],[54.403917,24.481584],[54.40605,24.48102],[54.406579,24.48075],[54.406555,24.48071],[54.407859,24.480366],[54.408005,24.480243],[54.40782,24.480061],[54.407777,24.480072],[54.407713,24.480009],[54.407566,24.480048],[54.4075,24.479974]]]}},{"type":"Feature","properties":{},"geometry":{"type":"Polygon","coordinates":[[[54.405336,24.482344],[54.405365,24.482336],[54.405417,24.48244],[54.408618,24.481595],[54.408852,24.48148],[54.408834,24.481417],[54.409081,24.481352],[54.409321,24.481202],[54.409272,24.481148],[54.409429,24.481107],[54.409656,24.48096],[54.409445,24.480672],[54.409379,24.480561],[54.406178,24.481406],[54.406001,24.481509],[54.405923,24.481577],[54.405952,24.481611],[54.405846,24.481639],[54.405621,24.481752],[54.40558,24.481799],[54.405596,24.48184],[54.405398,24.481892],[54.40529,24.481997],[54.405261,24.482119],[54.405287,24.48226],[54.405336,24.482344]]]}},{"type":"Feature","properties":{},"geometry":{"type":"Polygon","coordinates":[[[54.406107,24.48267],[54.406143,24.482727],[54.406414,24.482655],[54.406539,24.482846],[54.405455,24.483133],[54.405126,24.483265],[54.405318,24.483913],[54.404939,24.484017],[54.404958,24.484133],[54.403751,24.484451],[54.40362,24.484898],[54.403526,24.485074],[54.40334,24.485265],[54.403951,24.4858],[54.406085,24.485237],[54.406281,24.485046],[54.406501,24.48471],[54.406532,24.484632],[54.40914,24.483943],[54.409264,24.483551],[54.408538,24.483464],[54.407837,24.483649],[54.407837,24.483289],[54.407684,24.482846],[54.40813,24.482728],[54.408306,24.482632],[54.408163,24.482413],[54.410953,24.481677],[54.410943,24.481686],[54.411006,24.481741],[54.410906,24.481767],[54.410876,24.481795],[54.410916,24.481829],[54.411173,24.481761],[54.411214,24.481796],[54.411257,24.481785],[54.411321,24.481841],[54.411222,24.481936],[54.411307,24.482009],[54.412729,24.481633],[54.412907,24.481463],[54.412539,24.481145],[54.411194,24.4815],[54.411204,24.481469],[54.410805,24.481024],[54.407249,24.481963],[54.407183,24.482071],[54.407041,24.482137],[54.407186,24.482331],[54.406937,24.482396],[54.406952,24.482387],[54.406912,24.482333],[54.406485,24.482446],[54.40631,24.482553],[54.406314,24.482564],[54.406107,24.48267]]]}},{"type":"Feature","properties":{},"geometry":{"type":"Polygon","coordinates":[[[54.403966,24.482859],[54.40379,24.482519],[54.403465,24.482082],[54.403098,24.482179],[54.403074,24.482168],[54.403088,24.482055],[54.403002,24.482051],[54.402291,24.482238],[54.401421,24.483154],[54.401422,24.483271],[54.401463,24.483334],[54.401638,24.483375],[54.40227,24.483208],[54.40257,24.483215],[54.403095,24.483396],[54.403806,24.483208],[54.403732,24.482991],[54.403966,24.482859]]]}},{"type":"Feature","properties":{},"geometry":{"type":"Polygon","coordinates":[[[54.407468,24.485501],[54.407763,24.485214],[54.407688,24.485151],[54.407262,24.485263],[54.407045,24.485475],[54.406754,24.485552],[54.406713,24.485613],[54.406818,24.485672],[54.407468,24.485501]]]}},{"type":"Feature","properties":{},"geometry":{"type":"Polygon","coordinates":[[[54.405475,24.486368],[54.405127,24.486003],[54.40509,24.485978],[54.405037,24.485972],[54.403971,24.486254],[54.403234,24.486607],[54.403444,24.48716],[54.403478,24.487193],[54.40353,24.487207],[54.404597,24.486926],[54.404834,24.486842],[54.405188,24.486651],[54.405456,24.486455],[54.405484,24.486416],[54.405475,24.486368]]]}},{"type":"Feature","properties":{},"geometry":{"type":"Polygon","coordinates":[[[54.408259,24.487221],[54.408403,24.487042],[54.408108,24.486828],[54.405832,24.487429],[54.405686,24.487602],[54.405983,24.487822],[54.408259,24.487221]]]}},{"type":"Feature","properties":{},"geometry":{"type":"Polygon","coordinates":[[[54.407481,24.490239],[54.407447,24.490158],[54.406961,24.490292],[54.406989,24.490373],[54.407481,24.490239]]]}},{"type":"Feature","properties":{},"geometry":{"type":"Polygon","coordinates":[[[54.398667,24.492158],[54.399094,24.492045],[54.399051,24.491728],[54.398925,24.491742],[54.398498,24.491854],[54.398541,24.492176],[54.398667,24.492158]]]}},{"type":"Feature","properties":{},"geometry":{"type":"Polygon","coordinates":[[[54.398647,24.492553],[54.399073,24.492441],[54.399071,24.492424],[54.399522,24.492308],[54.399509,24.492207],[54.399275,24.492237],[54.399252,24.492103],[54.399034,24.492151],[54.399029,24.492112],[54.398952,24.49212],[54.398525,24.492233],[54.39857,24.492562],[54.398647,24.492553]]]}},{"type":"Feature","properties":{},"geometry":{"type":"Polygon","coordinates":[[[54.406702,24.492134],[54.406247,24.492254],[54.405376,24.492715],[54.405341,24.492999],[54.405361,24.493016],[54.403359,24.493544],[54.403366,24.493602],[54.403273,24.493627],[54.403325,24.494053],[54.403286,24.494063],[54.403322,24.494353],[54.403622,24.494322],[54.403653,24.494365],[54.403701,24.49439],[54.403817,24.494377],[54.404045,24.494498],[54.406179,24.493935],[54.406311,24.493711],[54.409777,24.492796],[54.41006,24.492352],[54.409976,24.492308],[54.409915,24.492324],[54.409885,24.492309],[54.409918,24.492257],[54.409813,24.492201],[54.408975,24.492423],[54.408955,24.492263],[54.408854,24.492273],[54.406847,24.492801],[54.406806,24.492766],[54.406408,24.49286],[54.40677,24.492522],[54.406597,24.492401],[54.40681,24.492301],[54.406702,24.492134]]]}},{"type":"Feature","properties":{},"geometry":{"type":"Polygon","coordinates":[[[54.402052,24.492457],[54.399918,24.49302],[54.399973,24.493406],[54.400704,24.493321],[54.402838,24.492758],[54.402783,24.492372],[54.402052,24.492457]]]}},{"type":"Feature","properties":{},"geometry":{"type":"Polygon","coordinates":[[[54.406777,24.495127],[54.40635,24.49524],[54.406305,24.495308],[54.406371,24.495344],[54.406474,24.495317],[54.4066,24.495316],[54.40681,24.495261],[54.406805,24.495277],[54.406562,24.495341],[54.406486,24.495406],[54.406546,24.495463],[54.406395,24.495503],[54.406312,24.495545],[54.406365,24.495633],[54.406711,24.495544],[54.406414,24.495622],[54.406367,24.495713],[54.40627,24.495738],[54.406252,24.495764],[54.405657,24.495921],[54.405374,24.495815],[54.404485,24.49605],[54.404158,24.496949],[54.403928,24.497053],[54.404358,24.49798],[54.405247,24.497745],[54.405488,24.497549],[54.405554,24.49747],[54.405771,24.497412],[54.40574,24.497548],[54.405916,24.49758],[54.405643,24.497652],[54.405788,24.497848],[54.405129,24.498028],[54.405089,24.49808],[54.405099,24.498139],[54.405047,24.498153],[54.404875,24.498333],[54.404857,24.498385],[54.40423,24.498551],[54.404238,24.498527],[54.404189,24.498429],[54.40446,24.498322],[54.404601,24.498238],[54.404683,24.49815],[54.404706,24.498098],[54.404687,24.498066],[54.4047,24.498051],[54.404615,24.497989],[54.404585,24.497997],[54.404555,24.49798],[54.404562,24.497965],[54.404509,24.497944],[54.403978,24.498096],[54.403248,24.498397],[54.403016,24.498458],[54.402864,24.498563],[54.402757,24.498744],[54.40274,24.498873],[54.402759,24.498984],[54.402809,24.499041],[54.40277,24.499106],[54.402825,24.499141],[54.40285,24.499176],[54.402864,24.49922],[54.402856,24.499279],[54.403021,24.499304],[54.403167,24.499287],[54.40396,24.499078],[54.403992,24.499162],[54.404087,24.499206],[54.403464,24.499375],[54.403448,24.499406],[54.403175,24.499579],[54.403093,24.499605],[54.40308,24.499633],[54.403087,24.499668],[54.403154,24.499754],[54.403248,24.499802],[54.403329,24.499782],[54.403476,24.499943],[54.403581,24.500013],[54.403698,24.500065],[54.403823,24.500099],[54.403952,24.500113],[54.404111,24.500109],[54.404135,24.500134],[54.404109,24.500161],[54.404113,24.500183],[54.404184,24.500229],[54.4043,24.50023],[54.404484,24.500181],[54.404483,24.500286],[54.404761,24.500267],[54.405188,24.500172],[54.405757,24.500021],[54.406167,24.499829],[54.40844,24.49923],[54.408536,24.499185],[54.409004,24.499062],[54.408919,24.499457],[54.409276,24.499552],[54.409523,24.499486],[54.409349,24.50004],[54.4093,24.500253],[54.409341,24.500381],[54.409433,24.500448],[54.409613,24.500479],[54.409746,24.500476],[54.41188,24.499913],[54.412005,24.499849],[54.41206,24.499733],[54.412109,24.499177],[54.412146,24.498947],[54.412094,24.498862],[54.414077,24.498339],[54.414259,24.49811],[54.414153,24.49749],[54.414176,24.497481],[54.413944,24.496937],[54.41363,24.496822],[54.411584,24.497353],[54.41137,24.497281],[54.410951,24.497392],[54.410945,24.497314],[54.410901,24.497248],[54.410829,24.497216],[54.409081,24.497668],[54.4092,24.497523],[54.409143,24.497472],[54.409182,24.497403],[54.409132,24.497197],[54.41223,24.496379],[54.413051,24.495989],[54.412908,24.495763],[54.413024,24.495733],[54.413188,24.495629],[54.413167,24.495602],[54.413397,24.495541],[54.413621,24.495436],[54.41346,24.495247],[54.413298,24.495289],[54.413262,24.495258],[54.414518,24.494926],[54.414604,24.494881],[54.414617,24.494847],[54.414607,24.494784],[54.414576,24.494733],[54.414494,24.494652],[54.414313,24.49454],[54.414102,24.494469],[54.413933,24.494466],[54.409717,24.495577],[54.409749,24.495501],[54.412476,24.494777],[54.412623,24.494707],[54.412735,24.494614],[54.412793,24.49453],[54.412803,24.494428],[54.412744,24.494379],[54.412587,24.494393],[54.411675,24.494634],[54.411646,24.494579],[54.411325,24.494664],[54.411056,24.494672],[54.410777,24.494648],[54.410627,24.49455],[54.410514,24.494418],[54.410469,24.494288],[54.410487,24.494145],[54.410557,24.494018],[54.410669,24.493881],[54.410841,24.493769],[54.411319,24.493544],[54.411316,24.493455],[54.413221,24.492952],[54.413564,24.492562],[54.413844,24.492317],[54.41434,24.492006],[54.414801,24.491857],[54.415246,24.491739],[54.415217,24.491529],[54.414749,24.491635],[54.409064,24.493135],[54.408549,24.493307],[54.407982,24.493622],[54.407631,24.493885],[54.407294,24.494291],[54.407536,24.494453],[54.408571,24.495082],[54.408513,24.495167],[54.408114,24.495273],[54.407427,24.49489],[54.406894,24.495031],[54.406831,24.495203],[54.406814,24.495208],[54.406843,24.495164],[54.406777,24.495127]],[[54.406959,24.498946],[54.407014,24.49881],[54.407182,24.498766],[54.407199,24.498734],[54.40757,24.498528],[54.408991,24.498153],[54.408992,24.498391],[54.409383,24.498324],[54.410621,24.497997],[54.410616,24.498433],[54.410245,24.498408],[54.409682,24.498556],[54.409692,24.498452],[54.409643,24.498457],[54.409604,24.498358],[54.409574,24.498321],[54.409509,24.498296],[54.408092,24.498666],[54.408013,24.498668],[54.406959,24.498946]],[[54.406291,24.497517],[54.407423,24.497219],[54.407433,24.497175],[54.407476,24.497164],[54.407494,24.497086],[54.408106,24.497162],[54.408336,24.497101],[54.408392,24.497132],[54.408002,24.497236],[54.407959,24.497275],[54.406736,24.497598],[54.406291,24.497517]],[[54.405505,24.499329],[54.40478,24.499521],[54.404691,24.499442],[54.404654,24.499433],[54.405692,24.499159],[54.405505,24.499329]],[[54.410163,24.496075],[54.410046,24.496169],[54.41015,24.496288],[54.410069,24.496343],[54.41012,24.496409],[54.409456,24.496584],[54.409489,24.496506],[54.40928,24.496435],[54.409034,24.496373],[54.410163,24.496075]],[[54.410748,24.499018],[54.410929,24.499026],[54.410554,24.499125],[54.410621,24.498883],[54.410748,24.499018]]]}},{"type":"Feature","properties":{},"geometry":{"type":"Polygon","coordinates":[[[54.395441,24.502211],[54.395492,24.502519],[54.395924,24.502461],[54.398058,24.501898],[54.398007,24.50159],[54.397576,24.501648],[54.395441,24.502211]]]}},{"type":"Feature","properties":{},"geometry":{"type":"Polygon","coordinates":[[[54.407424,24.503355],[54.40737,24.503232],[54.40688,24.503364],[54.406917,24.503485],[54.407424,24.503355]]]}},{"type":"Feature","properties":{},"geometry":{"type":"Polygon","coordinates":[[[54.407463,24.503536],[54.407036,24.503648],[54.406985,24.503805],[54.407074,24.503829],[54.407501,24.503716],[54.407561,24.503567],[54.407463,24.503536]]]}},{"type":"Feature","properties":{},"geometry":{"type":"Polygon","coordinates":[[[54.406455,24.50468],[54.406523,24.504681],[54.40695,24.504569],[54.406952,24.504426],[54.406859,24.504424],[54.406619,24.504488],[54.406611,24.504458],[54.406088,24.504593],[54.406141,24.504759],[54.406455,24.50468]]]}},{"type":"Feature","properties":{},"geometry":{"type":"Polygon","coordinates":[[[54.397828,24.504575],[54.397401,24.504687],[54.397407,24.504788],[54.397479,24.504785],[54.397906,24.504672],[54.3979,24.504571],[54.397828,24.504575]]]}},{"type":"Feature","properties":{},"geometry":{"type":"Polygon","coordinates":[[[54.404948,24.50662],[54.404806,24.507019],[54.405062,24.507112],[54.405514,24.506992],[54.404898,24.508066],[54.404993,24.508131],[54.405356,24.508068],[54.409625,24.506942],[54.41013,24.506032],[54.410128,24.506002],[54.411607,24.505612],[54.411731,24.50554],[54.412138,24.505432],[54.412431,24.505124],[54.412274,24.504964],[54.412046,24.504972],[54.411758,24.505048],[54.41164,24.504962],[54.411522,24.50493],[54.411399,24.504932],[54.409265,24.505495],[54.409148,24.505532],[54.40905,24.505601],[54.408981,24.505693],[54.408951,24.505789],[54.407244,24.506239],[54.407028,24.506464],[54.407132,24.506543],[54.406496,24.506711],[54.406659,24.50634],[54.406495,24.506285],[54.406675,24.506238],[54.406768,24.50599],[54.406523,24.505914],[54.40665,24.50588],[54.406702,24.505922],[54.410614,24.504889],[54.410706,24.504784],[54.41074,24.504662],[54.4107,24.504521],[54.410587,24.50442],[54.408747,24.504906],[54.408479,24.504677],[54.406942,24.505082],[54.406808,24.505049],[54.405385,24.505424],[54.405291,24.505739],[54.405408,24.505768],[54.405179,24.505828],[54.405064,24.506126],[54.405326,24.50621],[54.405066,24.506279],[54.404973,24.506527],[54.405123,24.506573],[54.404948,24.50662]]]}},{"type":"Feature","properties":{},"geometry":{"type":"Polygon","coordinates":[[[54.404864,24.507122],[54.404437,24.507235],[54.404404,24.507263],[54.404497,24.507354],[54.404924,24.507241],[54.404957,24.507213],[54.404864,24.507122]]]}},{"type":"Feature","properties":{},"geometry":{"type":"Polygon","coordinates":[[[54.407202,24.509299],[54.40706,24.509435],[54.407121,24.509492],[54.406811,24.509574],[54.406652,24.509706],[54.407014,24.510038],[54.410429,24.509137],[54.410594,24.50902],[54.410547,24.508976],[54.410861,24.508893],[54.410995,24.508756],[54.410936,24.5087],[54.411097,24.508706],[54.411524,24.508593],[54.411527,24.508495],[54.41131,24.508486],[54.410953,24.508149],[54.410653,24.508228],[54.410757,24.508167],[54.410696,24.508081],[54.410632,24.508098],[54.41058,24.508024],[54.409158,24.5084],[54.409014,24.508484],[54.409061,24.50855],[54.408987,24.508608],[54.409005,24.508634],[54.408969,24.508655],[54.40898,24.50867],[54.408869,24.508699],[54.408978,24.508541],[54.408856,24.508476],[54.408676,24.508523],[54.40861,24.50848],[54.406778,24.508963],[54.406756,24.508946],[54.409536,24.508213],[54.409615,24.508131],[54.409658,24.50812],[54.409747,24.508046],[54.409705,24.508003],[54.409583,24.508035],[54.409508,24.50796],[54.409792,24.507886],[54.409856,24.507819],[54.409934,24.507799],[54.409856,24.507859],[54.409825,24.507938],[54.409854,24.50798],[54.409927,24.508019],[54.409991,24.508002],[54.41011,24.507998],[54.411533,24.507623],[54.411754,24.50748],[54.411736,24.507414],[54.41167,24.507429],[54.411627,24.507344],[54.411545,24.507345],[54.411132,24.507454],[54.411121,24.50727],[54.412327,24.506951],[54.412345,24.506909],[54.412433,24.506813],[54.412466,24.506568],[54.4124,24.506536],[54.41227,24.506562],[54.410847,24.506938],[54.41079,24.506999],[54.410006,24.507206],[54.409781,24.506985],[54.406367,24.507886],[54.406249,24.507993],[54.406452,24.508194],[54.406098,24.508287],[54.40598,24.508394],[54.406127,24.508539],[54.405842,24.508615],[54.405724,24.508722],[54.406121,24.509114],[54.406261,24.509077],[54.406277,24.509095],[54.405231,24.509371],[54.405105,24.509539],[54.405253,24.509684],[54.405359,24.509656],[54.405418,24.509695],[54.407134,24.509242],[54.407202,24.509299]]]}},{"type":"Feature","properties":{},"geometry":{"type":"Polygon","coordinates":[[[54.406266,24.510799],[54.406721,24.510679],[54.407002,24.510515],[54.406942,24.51043],[54.40698,24.510404],[54.407021,24.510141],[54.406884,24.510019],[54.406429,24.510139],[54.406188,24.51034],[54.406067,24.510421],[54.405565,24.510545],[54.405328,24.510706],[54.405146,24.510891],[54.405193,24.51093],[54.405285,24.510962],[54.40559,24.51097],[54.406258,24.510787],[54.406266,24.510799]]]}},{"type":"Feature","properties":{},"geometry":{"type":"Polygon","coordinates":[[[54.396883,24.510805],[54.398306,24.51043],[54.398562,24.510142],[54.398357,24.509992],[54.396934,24.510367],[54.396681,24.510653],[54.396883,24.510805]]]}},{"type":"Feature","properties":{},"geometry":{"type":"Polygon","coordinates":[[[54.408731,24.511373],[54.408237,24.51165],[54.408346,24.51181],[54.40791,24.511924],[54.407922,24.511973],[54.408377,24.511856],[54.408457,24.511973],[54.410591,24.51141],[54.411084,24.511133],[54.411067,24.511107],[54.411326,24.511038],[54.411806,24.510772],[54.411609,24.510478],[54.411656,24.510451],[54.411614,24.51039],[54.412043,24.510277],[54.412116,24.510227],[54.412085,24.510188],[54.412424,24.510099],[54.412955,24.509806],[54.412866,24.509672],[54.411876,24.509934],[54.411768,24.509802],[54.411631,24.509838],[54.411607,24.509809],[54.411321,24.509884],[54.411388,24.509823],[54.41176,24.509725],[54.411858,24.509685],[54.411782,24.509528],[54.411574,24.509583],[54.411495,24.509511],[54.411609,24.509481],[54.411673,24.509482],[54.4121,24.509369],[54.412104,24.509175],[54.412899,24.508965],[54.41291,24.508609],[54.41274,24.508604],[54.411722,24.508873],[54.411675,24.508871],[54.411248,24.508984],[54.411242,24.509116],[54.411123,24.509147],[54.411122,24.509219],[54.411239,24.509202],[54.411234,24.509309],[54.411307,24.509306],[54.411307,24.509332],[54.41115,24.509337],[54.410723,24.509449],[54.410727,24.509544],[54.411122,24.509531],[54.410005,24.509826],[54.409662,24.510138],[54.409818,24.510281],[54.40932,24.510412],[54.409294,24.51038],[54.408792,24.510513],[54.408785,24.510502],[54.406651,24.511065],[54.406208,24.511313],[54.406171,24.511417],[54.406242,24.511623],[54.405455,24.511831],[54.405478,24.512082],[54.405488,24.512108],[54.405539,24.512127],[54.405766,24.51207],[54.405807,24.512122],[54.405859,24.512123],[54.408988,24.511297],[54.408731,24.511373]],[[54.409095,24.51121],[54.409094,24.511181],[54.409197,24.511153],[54.409095,24.51121]],[[54.409506,24.510997],[54.409631,24.510913],[54.409961,24.510826],[54.409967,24.510835],[54.409931,24.510855],[54.409948,24.510881],[54.409506,24.510997]],[[54.411558,24.509328],[54.41152,24.509329],[54.411558,24.509319],[54.411558,24.509328]]]}},{"type":"Feature","properties":{},"geometry":{"type":"Polygon","coordinates":[[[54.41095,24.479968],[54.411019,24.479901],[54.410869,24.479772],[54.410443,24.479885],[54.410374,24.479952],[54.410524,24.48008],[54.41095,24.479968]]]}},{"type":"Feature","properties":{},"geometry":{"type":"Polygon","coordinates":[[[54.411778,24.482045],[54.411857,24.481965],[54.411825,24.481939],[54.411398,24.482052],[54.41132,24.482132],[54.411351,24.482158],[54.411778,24.482045]]]}},{"type":"Feature","properties":{},"geometry":{"type":"Polygon","coordinates":[[[54.409733,24.482774],[54.409307,24.482887],[54.409312,24.483001],[54.409408,24.482998],[54.409835,24.482885],[54.40983,24.482771],[54.409733,24.482774]]]}},{"type":"Feature","properties":{},"geometry":{"type":"Polygon","coordinates":[[[54.408489,24.48516],[54.410765,24.484559],[54.410878,24.484475],[54.410782,24.484368],[54.411105,24.484282],[54.411314,24.484141],[54.411069,24.483839],[54.408793,24.48444],[54.408584,24.484581],[54.408671,24.484688],[54.408334,24.484777],[54.408129,24.484931],[54.408142,24.484996],[54.408361,24.485107],[54.408434,24.485087],[54.408489,24.48516]]]}},{"type":"Feature","properties":{},"geometry":{"type":"Polygon","coordinates":[[[54.410131,24.485116],[54.410166,24.48508],[54.410104,24.48503],[54.410075,24.485038],[54.409841,24.484844],[54.407564,24.485445],[54.407378,24.485639],[54.407438,24.485686],[54.407461,24.48568],[54.407698,24.485879],[54.409389,24.485433],[54.409336,24.485485],[54.409001,24.485574],[54.408922,24.485635],[54.408963,24.485678],[54.409117,24.485637],[54.409022,24.485692],[54.409129,24.485845],[54.409305,24.485799],[54.409317,24.485856],[54.409397,24.485985],[54.409484,24.48606],[54.409624,24.486071],[54.410085,24.485949],[54.410504,24.486668],[54.411429,24.486424],[54.411788,24.486256],[54.411502,24.485752],[54.411897,24.485644],[54.411859,24.485547],[54.411447,24.485656],[54.411439,24.485641],[54.411791,24.485548],[54.411895,24.485507],[54.41188,24.485476],[54.411417,24.485603],[54.411287,24.485375],[54.411326,24.485349],[54.411338,24.485276],[54.411312,24.485202],[54.411263,24.485208],[54.411309,24.485183],[54.4113,24.485169],[54.411329,24.485151],[54.411359,24.485078],[54.411902,24.48486],[54.411729,24.484542],[54.410804,24.484786],[54.410131,24.485116]]]}},{"type":"Feature","properties":{},"geometry":{"type":"Polygon","coordinates":[[[54.408078,24.485782],[54.407651,24.485895],[54.407557,24.485997],[54.407605,24.486034],[54.408032,24.485921],[54.408126,24.485819],[54.408078,24.485782]]]}},{"type":"Feature","properties":{},"geometry":{"type":"Polygon","coordinates":[[[54.406497,24.488337],[54.406776,24.488745],[54.407176,24.48864],[54.406903,24.488795],[54.407183,24.489203],[54.409317,24.48864],[54.409723,24.48841],[54.409717,24.488402],[54.409778,24.488386],[54.410154,24.488156],[54.410118,24.488102],[54.410771,24.48793],[54.411645,24.487494],[54.411493,24.487221],[54.411181,24.487304],[54.411497,24.487127],[54.411381,24.486801],[54.407318,24.487873],[54.406497,24.488337]]]}},{"type":"Feature","properties":{},"geometry":{"type":"Polygon","coordinates":[[[54.410256,24.489504],[54.410326,24.49009],[54.410885,24.490035],[54.412024,24.489734],[54.41212,24.489755],[54.412754,24.489588],[54.412803,24.48968],[54.414936,24.489117],[54.41509,24.489037],[54.415057,24.488986],[54.41527,24.488892],[54.415307,24.488808],[54.415395,24.488784],[54.415439,24.48861],[54.41501,24.488467],[54.415319,24.488385],[54.415319,24.488397],[54.415436,24.488396],[54.415601,24.488352],[54.415605,24.488387],[54.415412,24.488438],[54.415411,24.488484],[54.415431,24.488484],[54.415858,24.488372],[54.415859,24.488342],[54.416123,24.488272],[54.416122,24.488224],[54.416041,24.488225],[54.416141,24.488199],[54.416137,24.488087],[54.416074,24.488089],[54.415648,24.488202],[54.415648,24.488227],[54.415615,24.488236],[54.415603,24.488151],[54.416125,24.488014],[54.416245,24.48801],[54.416672,24.487898],[54.416671,24.487869],[54.416792,24.487837],[54.416792,24.487652],[54.417042,24.487586],[54.417041,24.487395],[54.416545,24.487396],[54.415123,24.487771],[54.415123,24.487815],[54.415187,24.487815],[54.415187,24.488039],[54.414995,24.488063],[54.414951,24.488025],[54.414785,24.488069],[54.414729,24.488022],[54.414806,24.487982],[54.414692,24.487835],[54.414758,24.487628],[54.415103,24.487537],[54.415238,24.48739],[54.414909,24.487211],[54.414907,24.487161],[54.414939,24.487153],[54.414936,24.487079],[54.414752,24.487086],[54.414822,24.487067],[54.414811,24.48682],[54.414706,24.486824],[54.41453,24.486858],[54.413107,24.487233],[54.413178,24.487434],[54.411868,24.487782],[54.411582,24.487957],[54.411415,24.488128],[54.410551,24.488356],[54.410553,24.488381],[54.410138,24.488492],[54.410183,24.488928],[54.41065,24.488887],[54.411349,24.488703],[54.411334,24.488778],[54.410204,24.489076],[54.410216,24.489184],[54.410622,24.489146],[54.41065,24.489401],[54.410256,24.489504]]]}},{"type":"Feature","properties":{},"geometry":{"type":"Polygon","coordinates":[[[54.411648,24.490783],[54.412122,24.490658],[54.412129,24.49039],[54.412023,24.49039],[54.410416,24.490817],[54.410413,24.49103],[54.410699,24.491033],[54.411147,24.490915],[54.411148,24.490951],[54.411223,24.490949],[54.41165,24.490837],[54.411648,24.490783]]]}},{"type":"Feature","properties":{},"geometry":{"type":"Polygon","coordinates":[[[54.409699,24.491043],[54.409464,24.491037],[54.408959,24.49118],[54.408947,24.491294],[54.409008,24.491296],[54.409007,24.491323],[54.409219,24.491329],[54.409646,24.491216],[54.409648,24.491163],[54.409695,24.49115],[54.409699,24.491043]]]}},{"type":"Feature","properties":{},"geometry":{"type":"Polygon","coordinates":[[[54.411412,24.491478],[54.411364,24.492099],[54.41186,24.492132],[54.413994,24.491568],[54.414041,24.490968],[54.415529,24.490575],[54.415531,24.490411],[54.415247,24.490408],[54.415248,24.490329],[54.415544,24.49025],[54.415547,24.490082],[54.415058,24.490076],[54.412924,24.490639],[54.412921,24.490798],[54.412251,24.490975],[54.412252,24.490936],[54.41188,24.490923],[54.410457,24.491298],[54.410444,24.491622],[54.410816,24.491635],[54.411412,24.491478]]]}},{"type":"Feature","properties":{},"geometry":{"type":"Polygon","coordinates":[[[54.408053,24.500954],[54.408025,24.501013],[54.408063,24.501044],[54.40849,24.500932],[54.408541,24.500858],[54.408573,24.500774],[54.408512,24.500763],[54.408085,24.500876],[54.408054,24.500908],[54.408053,24.500954]]]}},{"type":"Feature","properties":{},"geometry":{"type":"Polygon","coordinates":[[[54.408025,24.50174],[54.407763,24.502263],[54.407586,24.50231],[54.407515,24.502391],[54.407507,24.502438],[54.407551,24.502448],[54.407706,24.502407],[54.408114,24.502577],[54.410248,24.502014],[54.410334,24.5018],[54.410333,24.501852],[54.410433,24.501853],[54.413635,24.501009],[54.413634,24.500982],[54.413769,24.500946],[54.413774,24.500721],[54.413743,24.500719],[54.413745,24.500678],[54.413639,24.500675],[54.411718,24.501182],[54.411744,24.501036],[54.411739,24.500868],[54.410857,24.500908],[54.408723,24.501471],[54.408705,24.501561],[54.408025,24.50174]]]}},{"type":"Feature","properties":{},"geometry":{"type":"Polygon","coordinates":[[[54.407316,24.502906],[54.40724,24.502926],[54.407116,24.503077],[54.407179,24.503113],[54.407606,24.503],[54.407729,24.50289],[54.407762,24.502881],[54.40783,24.502773],[54.407771,24.502758],[54.407345,24.502871],[54.407316,24.502906]]]}},{"type":"Feature","properties":{},"geometry":{"type":"Polygon","coordinates":[[[54.408293,24.505612],[54.407866,24.505725],[54.407868,24.505818],[54.408033,24.505842],[54.40846,24.50573],[54.408455,24.505629],[54.408293,24.505612]]]}},{"type":"Feature","properties":{},"geometry":{"type":"Polygon","coordinates":[[[54.411125,24.508952],[54.410698,24.509064],[54.4107,24.509161],[54.410762,24.50916],[54.411189,24.509047],[54.411187,24.508951],[54.411125,24.508952]]]}},{"type":"Feature","properties":{},"geometry":{"type":"Polygon","coordinates":[[[54.414161,24.481557],[54.413801,24.481366],[54.412378,24.481741],[54.412202,24.482016],[54.412563,24.482207],[54.413985,24.481832],[54.414161,24.481557]]]}},{"type":"Feature","properties":{},"geometry":{"type":"Polygon","coordinates":[[[54.416235,24.488329],[54.416146,24.488352],[54.41615,24.488389],[54.416234,24.488374],[54.416232,24.488489],[54.416527,24.488493],[54.41665,24.488461],[54.416649,24.488477],[54.416694,24.488479],[54.41712,24.488367],[54.417123,24.488323],[54.416954,24.488347],[54.41715,24.488295],[54.417151,24.488256],[54.416925,24.488307],[54.416775,24.488297],[54.417175,24.488192],[54.417175,24.488136],[54.417147,24.488136],[54.417177,24.488128],[54.417173,24.488035],[54.41704,24.488035],[54.417096,24.488021],[54.417092,24.487929],[54.417021,24.487936],[54.417093,24.487907],[54.417092,24.487859],[54.416869,24.487862],[54.416443,24.487975],[54.416442,24.487996],[54.416335,24.488024],[54.416348,24.488247],[54.416236,24.488277],[54.416235,24.488329]]]}},{"type":"Feature","properties":{},"geometry":{"type":"Polygon","coordinates":[[[54.415463,24.488644],[54.415465,24.488693],[54.415545,24.48869],[54.415972,24.488578],[54.41597,24.488529],[54.41589,24.488531],[54.415463,24.488644]]]}},{"type":"Feature","properties":{},"geometry":{"type":"Polygon","coordinates":[[[54.415624,24.489052],[54.415683,24.489051],[54.416004,24.488966],[54.416006,24.489029],[54.415719,24.489105],[54.415722,24.489146],[54.415876,24.489139],[54.416303,24.489026],[54.4163,24.488982],[54.416278,24.488983],[54.416683,24.488875],[54.416679,24.488768],[54.416488,24.488812],[54.416485,24.488727],[54.416426,24.488729],[54.416107,24.488813],[54.416105,24.488738],[54.416046,24.488739],[54.41562,24.488852],[54.415624,24.489052]]]}},{"type":"Feature","properties":{},"geometry":{"type":"Polygon","coordinates":[[[54.416259,24.489138],[54.416262,24.489058],[54.416211,24.489057],[54.415784,24.489169],[54.415782,24.48925],[54.415833,24.489251],[54.416259,24.489138]]]}},{"type":"Feature","properties":{},"geometry":{"type":"Polygon","coordinates":[[[54.415416,24.489523],[54.415421,24.489677],[54.416292,24.489655],[54.417714,24.48928],[54.417712,24.48921],[54.417692,24.489211],[54.417689,24.489126],[54.416839,24.489148],[54.415416,24.489523]]]}},{"type":"Feature","properties":{},"geometry":{"type":"Polygon","coordinates":[[[54.412855,24.489836],[54.412428,24.489949],[54.412432,24.490011],[54.412502,24.490007],[54.412929,24.489895],[54.412924,24.489832],[54.412855,24.489836]]]}},{"type":"Feature","properties":{},"geometry":{"type":"Polygon","coordinates":[[[54.412008,24.49218],[54.411581,24.492292],[54.411578,24.49238],[54.411706,24.492383],[54.412133,24.492271],[54.412135,24.492183],[54.412008,24.49218]]]}},{"type":"Feature","properties":{},"geometry":{"type":"Polygon","coordinates":[[[54.415437,24.496747],[54.41501,24.49686],[54.4149,24.497017],[54.414992,24.497071],[54.415419,24.496959],[54.415529,24.496801],[54.415437,24.496747]]]}},{"type":"Feature","properties":{},"geometry":{"type":"Polygon","coordinates":[[[54.412127,24.502733],[54.412282,24.502692],[54.412384,24.502635],[54.41236,24.502599],[54.412541,24.502552],[54.412629,24.502656],[54.412708,24.502709],[54.40972,24.503497],[54.409576,24.503605],[54.409873,24.503932],[54.409259,24.504094],[54.409054,24.504354],[54.409349,24.504692],[54.414329,24.503378],[54.41459,24.503079],[54.414249,24.502788],[54.414357,24.502527],[54.414446,24.502046],[54.413966,24.501751],[54.413808,24.5016],[54.413722,24.501487],[54.413641,24.501343],[54.413593,24.501204],[54.413049,24.501191],[54.411982,24.501472],[54.412018,24.501673],[54.412116,24.501936],[54.410947,24.502245],[54.410913,24.502838],[54.411356,24.502864],[54.411578,24.502806],[54.411649,24.502947],[54.412076,24.502834],[54.41216,24.502799],[54.412127,24.502733]]]}},{"type":"Feature","properties":{},"geometry":{"type":"Polygon","coordinates":[[[54.415949,24.502365],[54.415953,24.502306],[54.415501,24.502417],[54.415496,24.502476],[54.415949,24.502365]]]}},{"type":"Feature","properties":{},"geometry":{"type":"Polygon","coordinates":[[[54.415817,24.502494],[54.41539,24.502607],[54.415392,24.50264],[54.41541,24.502639],[54.415395,24.502643],[54.415395,24.502682],[54.415466,24.502682],[54.415892,24.502569],[54.415893,24.502531],[54.415869,24.502531],[54.415896,24.502524],[54.415894,24.502491],[54.415817,24.502494]]]}},{"type":"Feature","properties":{},"geometry":{"type":"Polygon","coordinates":[[[54.415439,24.50285],[54.415447,24.502901],[54.415686,24.502845],[54.415685,24.502856],[54.415811,24.502861],[54.416238,24.502749],[54.416242,24.502671],[54.416116,24.502666],[54.416043,24.502685],[54.416044,24.502672],[54.415992,24.502667],[54.415889,24.502694],[54.415885,24.502665],[54.415823,24.502672],[54.415396,24.502784],[54.415403,24.502838],[54.415592,24.50281],[54.415439,24.50285]]]}},{"type":"Feature","properties":{},"geometry":{"type":"Polygon","coordinates":[[[54.416061,24.503306],[54.415635,24.503418],[54.415632,24.503473],[54.415726,24.503477],[54.416153,24.503364],[54.416155,24.503309],[54.416061,24.503306]]]}},{"type":"Feature","properties":{},"geometry":{"type":"Polygon","coordinates":[[[54.415809,24.503559],[54.415813,24.503642],[54.416282,24.503528],[54.416279,24.503445],[54.415809,24.503559]]]}},{"type":"Feature","properties":{},"geometry":{"type":"Polygon","coordinates":[[[54.414513,24.504826],[54.41469,24.504979],[54.415218,24.504839],[54.415073,24.504983],[54.415251,24.505136],[54.415288,24.505126],[54.415313,24.505155],[54.41574,24.505043],[54.415782,24.505013],[54.415794,24.505027],[54.416221,24.504914],[54.416267,24.504878],[54.41626,24.504869],[54.417242,24.50461],[54.41742,24.504461],[54.417304,24.504366],[54.417372,24.504349],[54.417549,24.5042],[54.417353,24.504038],[54.417019,24.504126],[54.416948,24.504068],[54.415902,24.504344],[54.415873,24.504314],[54.417269,24.503946],[54.417447,24.503797],[54.417433,24.503786],[54.417606,24.50374],[54.41766,24.503696],[54.417657,24.503786],[54.41769,24.503787],[54.418117,24.503674],[54.418124,24.503457],[54.417734,24.50355],[54.417513,24.503369],[54.417418,24.503394],[54.417351,24.503339],[54.414826,24.504005],[54.414725,24.504105],[54.414312,24.504214],[54.414153,24.504371],[54.414331,24.504524],[54.415258,24.504279],[54.41533,24.504341],[54.415708,24.504242],[54.415805,24.504325],[54.415441,24.504421],[54.415396,24.504457],[54.415412,24.504473],[54.414671,24.504668],[54.414513,24.504826]]]}},{"type":"Feature","properties":{},"geometry":{"type":"Polygon","coordinates":[[[54.412155,24.506332],[54.41217,24.506239],[54.412101,24.5062],[54.411968,24.506164],[54.411794,24.506185],[54.410371,24.50656],[54.410298,24.506611],[54.410298,24.506661],[54.410335,24.50673],[54.410383,24.506739],[54.410502,24.506803],[54.410773,24.506792],[54.412196,24.506417],[54.41222,24.506352],[54.412155,24.506332]]]}},{"type":"Feature","properties":{},"geometry":{"type":"Polygon","coordinates":[[[54.419365,24.479939],[54.4193,24.47993],[54.418873,24.480042],[54.418867,24.480078],[54.418943,24.480085],[54.418942,24.480131],[54.41898,24.480132],[54.419406,24.480019],[54.419408,24.479958],[54.41937,24.479957],[54.419365,24.479939]]]}},{"type":"Feature","properties":{},"geometry":{"type":"Polygon","coordinates":[[[54.421087,24.480124],[54.420996,24.48012],[54.420569,24.480232],[54.420562,24.480364],[54.420901,24.480388],[54.421328,24.480276],[54.42133,24.480229],[54.421121,24.480221],[54.421123,24.480189],[54.421083,24.480189],[54.421087,24.480124]]]}},{"type":"Feature","properties":{},"geometry":{"type":"Polygon","coordinates":[[[54.420414,24.48077],[54.42042,24.480716],[54.420356,24.48071],[54.419929,24.480822],[54.419923,24.480877],[54.419987,24.480883],[54.420414,24.48077]]]}},{"type":"Feature","properties":{},"geometry":{"type":"Polygon","coordinates":[[[54.420175,24.481771],[54.419867,24.481852],[54.419721,24.481835],[54.419383,24.481924],[54.419311,24.481916],[54.419252,24.481931],[54.419263,24.481878],[54.419227,24.481872],[54.418801,24.481985],[54.418796,24.482004],[54.418494,24.482084],[54.418475,24.482211],[54.418655,24.482234],[54.41846,24.482285],[54.418442,24.482417],[54.418514,24.482425],[54.418434,24.482447],[54.418417,24.482581],[54.418688,24.482608],[54.418396,24.482685],[54.418382,24.482821],[54.418485,24.482829],[54.418366,24.482861],[54.418361,24.482982],[54.418686,24.482995],[54.418862,24.482949],[54.418857,24.482995],[54.419189,24.483025],[54.419464,24.482952],[54.419551,24.482961],[54.41969,24.482925],[54.419682,24.482985],[54.419754,24.482993],[54.419673,24.483014],[54.41966,24.483134],[54.419984,24.483163],[54.420078,24.483138],[54.420075,24.483162],[54.420414,24.483194],[54.420515,24.483167],[54.420507,24.483251],[54.420826,24.483278],[54.421253,24.483165],[54.421266,24.483037],[54.421198,24.483031],[54.421262,24.483014],[54.421268,24.482968],[54.421837,24.482818],[54.421855,24.482656],[54.421516,24.482625],[54.421312,24.482679],[54.421315,24.482656],[54.42121,24.482644],[54.421321,24.482615],[54.421343,24.482469],[54.4212,24.482454],[54.421353,24.482413],[54.421359,24.482376],[54.421575,24.482319],[54.421599,24.482124],[54.421412,24.482105],[54.421614,24.482051],[54.421638,24.481846],[54.42146,24.481829],[54.421467,24.481721],[54.42202,24.481575],[54.422043,24.481412],[54.421706,24.481372],[54.420627,24.481657],[54.420629,24.481608],[54.420496,24.481593],[54.420157,24.481683],[54.420175,24.481557],[54.419848,24.481518],[54.419745,24.481546],[54.419749,24.481517],[54.419409,24.481476],[54.419318,24.4815],[54.419325,24.481448],[54.419005,24.481412],[54.418579,24.481524],[54.41856,24.481659],[54.418633,24.481667],[54.418544,24.481691],[54.41855,24.481831],[54.418733,24.481824],[54.418821,24.481801],[54.418817,24.481825],[54.418529,24.481901],[54.41853,24.481923],[54.419182,24.481769],[54.4193,24.481784],[54.419403,24.481756],[54.419401,24.481768],[54.419728,24.481807],[54.420069,24.481717],[54.420064,24.481769],[54.420175,24.481771]],[[54.419127,24.482596],[54.419192,24.482579],[54.419248,24.482584],[54.419147,24.482611],[54.419148,24.4826],[54.41888,24.482577],[54.418913,24.482569],[54.419127,24.482596]],[[54.419832,24.482528],[54.419831,24.482533],[54.419819,24.482531],[54.419832,24.482528]],[[54.419224,24.482139],[54.419253,24.482128],[54.419239,24.482226],[54.419207,24.482234],[54.41921,24.482209],[54.419034,24.482189],[54.419224,24.482139]],[[54.420575,24.482755],[54.420445,24.482792],[54.420447,24.482779],[54.420575,24.482755]]]}},{"type":"Feature","properties":{},"geometry":{"type":"Polygon","coordinates":[[[54.417665,24.487611],[54.417238,24.487724],[54.417239,24.487769],[54.417325,24.487769],[54.417751,24.487656],[54.417751,24.487611],[54.417665,24.487611]]]}},{"type":"Feature","properties":{},"geometry":{"type":"Polygon","coordinates":[[[54.419859,24.489162],[54.419858,24.489152],[54.419756,24.489155],[54.419505,24.489221],[54.419504,24.489188],[54.419414,24.489192],[54.418987,24.489305],[54.418994,24.489429],[54.419083,24.489425],[54.419591,24.489287],[54.419592,24.48932],[54.419695,24.489319],[54.420122,24.489206],[54.420121,24.489152],[54.419967,24.489167],[54.419966,24.489146],[54.419859,24.489162]]]}},{"type":"Feature","properties":{},"geometry":{"type":"Polygon","coordinates":[[[54.420088,24.489268],[54.419983,24.489266],[54.419557,24.489378],[54.419555,24.489435],[54.419157,24.48954],[54.419166,24.489612],[54.419619,24.489496],[54.419617,24.489482],[54.419658,24.489483],[54.420085,24.489371],[54.420088,24.489268]]]}},{"type":"Feature","properties":{},"geometry":{"type":"Polygon","coordinates":[[[54.41999,24.489663],[54.419563,24.489776],[54.419564,24.489821],[54.419685,24.489819],[54.420111,24.489706],[54.42011,24.489661],[54.41999,24.489663]]]}},{"type":"Feature","properties":{},"geometry":{"type":"Polygon","coordinates":[[[54.419387,24.490305],[54.419438,24.490303],[54.419573,24.490267],[54.419579,24.490298],[54.419662,24.490293],[54.420089,24.49018],[54.420086,24.49006],[54.419861,24.490107],[54.419859,24.490069],[54.419808,24.490071],[54.419381,24.490183],[54.419384,24.490238],[54.419239,24.490277],[54.41924,24.490311],[54.419386,24.49029],[54.419387,24.490305]]]}},{"type":"Feature","properties":{},"geometry":{"type":"Polygon","coordinates":[[[54.416758,24.501965],[54.417185,24.501852],[54.417185,24.501838],[54.417214,24.50183],[54.417181,24.501902],[54.417059,24.501949],[54.417254,24.502089],[54.418676,24.501714],[54.418893,24.50151],[54.418663,24.50131],[54.41724,24.501685],[54.417163,24.501757],[54.417189,24.501786],[54.417074,24.501813],[54.416999,24.501816],[54.416572,24.501928],[54.416574,24.501975],[54.416758,24.501965]]]}},{"type":"Feature","properties":{},"geometry":{"type":"Polygon","coordinates":[[[54.418004,24.502275],[54.418046,24.502247],[54.418017,24.50221],[54.41759,24.502323],[54.417548,24.502351],[54.417577,24.502387],[54.418004,24.502275]]]}},{"type":"Feature","properties":{},"geometry":{"type":"Polygon","coordinates":[[[54.418376,24.5023],[54.41819,24.502372],[54.417927,24.502442],[54.417931,24.502329],[54.417848,24.502329],[54.417421,24.502442],[54.417421,24.502515],[54.417319,24.502517],[54.416892,24.50263],[54.416893,24.502654],[54.416996,24.502652],[54.417421,24.50254],[54.417421,24.502556],[54.4175,24.502562],[54.417876,24.502463],[54.417861,24.502478],[54.417908,24.502514],[54.418201,24.502437],[54.418218,24.502471],[54.418644,24.502359],[54.418846,24.50228],[54.418803,24.502187],[54.418376,24.5023]]]}},{"type":"Feature","properties":{},"geometry":{"type":"Polygon","coordinates":[[[54.417727,24.502614],[54.417726,24.502599],[54.417481,24.502609],[54.417481,24.502594],[54.417372,24.50259],[54.416945,24.502702],[54.416942,24.502762],[54.417059,24.502765],[54.41706,24.502794],[54.417408,24.502771],[54.417835,24.502658],[54.417829,24.502598],[54.417727,24.502614]]]}},{"type":"Feature","properties":{},"geometry":{"type":"Polygon","coordinates":[[[54.417799,24.502989],[54.417801,24.502947],[54.417694,24.502943],[54.417267,24.503056],[54.417265,24.503098],[54.417372,24.503102],[54.417799,24.502989]]]}},{"type":"Feature","properties":{},"geometry":{"type":"Polygon","coordinates":[[[54.417952,24.503064],[54.417953,24.503026],[54.417892,24.503024],[54.417465,24.503137],[54.417461,24.503227],[54.417605,24.503229],[54.418032,24.503116],[54.418031,24.503055],[54.417952,24.503064]]]}}]}