{"type":"FeatureCollection","features":[{"type":"Feature","properties":{},"geometry":{"type":"Polygon","coordinates":[[[54.390697,24.482594],[54.390718,24.482472],[54.39058,24.482459],[54.390384,24.482508],[54.390367,24.482632],[54.390501,24.482644],[54.390697,24.482594]]]}},{"type":"Feature","properties":{},"geometry":{"type":"Polygon","coordinates":[[[54.391062,24.482871],[54.390994,24.482888],[54.390954,24.482952],[54.390976,24.482963],[54.39086,24.482992],[54.390801,24.483074],[54.391042,24.483217],[54.391087,24.483206],[54.391079,24.483219],[54.391307,24.483332],[54.391503,24.483283],[54.39158,24.48316],[54.39149,24.483096],[54.391524,24.483039],[54.391667,24.483003],[54.391742,24.482883],[54.391509,24.482769],[54.391434,24.482789],[54.391195,24.48268],[54.391127,24.482697],[54.391149,24.48266],[54.391062,24.48262],[54.391021,24.482631],[54.391035,24.482607],[54.390942,24.482565],[54.390745,24.482614],[54.390674,24.482741],[54.390518,24.482654],[54.390322,24.482704],[54.390265,24.482784],[54.390514,24.482922],[54.390764,24.482853],[54.39075,24.482877],[54.390832,24.482916],[54.391028,24.482867],[54.391044,24.482839],[54.39106,24.482847],[54.391051,24.482865],[54.391062,24.482871]],[[54.391186,24.482995],[54.391214,24.482988],[54.391194,24.483023],[54.391078,24.482955],[54.391186,24.482995]]]}},{"type":"Feature","properties":{},"geometry":{"type":"Polygon","coordinates":[[[54.390062,24.482824],[54.389997,24.482755],[54.389801,24.482804],[54.389711,24.482874],[54.389776,24.482943],[54.389972,24.482894],[54.390062,24.482824]]]}},{"type":"Feature","properties":{},"geometry":{"type":"Polygon","coordinates":[[[54.392133,24.483275],[54.392085,24.483361],[54.392179,24.483404],[54.392375,24.483354],[54.392476,24.48318],[54.392379,24.483134],[54.392313,24.483151],[54.392319,24.48314],[54.392258,24.483117],[54.392281,24.483077],[54.392174,24.483027],[54.392118,24.483041],[54.392042,24.483006],[54.391846,24.483055],[54.391825,24.483093],[54.391921,24.483139],[54.391955,24.48313],[54.392064,24.483174],[54.39201,24.483268],[54.392065,24.483292],[54.392133,24.483275]]]}},{"type":"Feature","properties":{},"geometry":{"type":"Polygon","coordinates":[[[54.391224,24.483358],[54.391028,24.483408],[54.390818,24.483614],[54.391024,24.48376],[54.391057,24.483752],[54.39099,24.48381],[54.391128,24.483946],[54.391324,24.483896],[54.391411,24.48382],[54.391274,24.483685],[54.391234,24.483695],[54.3913,24.483619],[54.391282,24.483604],[54.391324,24.483594],[54.391404,24.483502],[54.391612,24.483457],[54.391627,24.483427],[54.391532,24.483387],[54.391333,24.483441],[54.391224,24.483358]]]}},{"type":"Feature","properties":{},"geometry":{"type":"Polygon","coordinates":[[[54.390771,24.484369],[54.390575,24.484418],[54.390483,24.484496],[54.390602,24.484612],[54.390799,24.484563],[54.39089,24.484485],[54.390771,24.484369]]]}},{"type":"Feature","properties":{},"geometry":{"type":"Polygon","coordinates":[[[54.392362,24.489115],[54.392511,24.48923],[54.391628,24.489452],[54.391638,24.48953],[54.391491,24.489567],[54.391532,24.489915],[54.391685,24.489899],[54.391699,24.490017],[54.391886,24.489999],[54.392744,24.489783],[54.392708,24.489929],[54.391711,24.49018],[54.39172,24.490258],[54.391572,24.490295],[54.391596,24.4905],[54.39149,24.490527],[54.391475,24.490563],[54.39149,24.490638],[54.391454,24.490662],[54.391406,24.490772],[54.391478,24.490841],[54.391697,24.490883],[54.392057,24.490995],[54.392264,24.490943],[54.392324,24.491059],[54.392739,24.491005],[54.393055,24.491191],[54.393288,24.491133],[54.393325,24.491166],[54.393179,24.491202],[54.392977,24.491435],[54.393142,24.491553],[54.392945,24.491602],[54.392934,24.491532],[54.39246,24.491593],[54.392264,24.491643],[54.392344,24.492159],[54.392202,24.492322],[54.392334,24.492417],[54.39201,24.492499],[54.391972,24.492547],[54.391465,24.492674],[54.391287,24.49288],[54.391528,24.493053],[54.391593,24.493037],[54.391665,24.493088],[54.394184,24.492454],[54.394285,24.492338],[54.394267,24.492324],[54.394752,24.492202],[54.394827,24.492108],[54.394752,24.492059],[54.394815,24.491978],[54.394804,24.491971],[54.395132,24.491889],[54.395234,24.491772],[54.395139,24.491703],[54.395182,24.491654],[54.395027,24.491543],[54.395386,24.491452],[54.395487,24.491335],[54.395392,24.491267],[54.395435,24.491218],[54.39526,24.491092],[54.395424,24.49105],[54.395626,24.490818],[54.395387,24.490647],[54.394792,24.490796],[54.395053,24.490483],[54.394882,24.49037],[54.394497,24.490409],[54.394366,24.490442],[54.394221,24.490501],[54.394026,24.490738],[54.393938,24.490627],[54.393842,24.490574],[54.393734,24.490551],[54.39384,24.490494],[54.393978,24.490318],[54.393967,24.490255],[54.394669,24.490078],[54.394654,24.489947],[54.394745,24.489924],[54.394704,24.489573],[54.394603,24.489582],[54.394592,24.489484],[54.39441,24.489501],[54.393368,24.489763],[54.393237,24.48969],[54.393094,24.489695],[54.394585,24.489319],[54.394573,24.48922],[54.394664,24.489197],[54.394622,24.488843],[54.39452,24.488853],[54.394508,24.488755],[54.394327,24.488773],[54.393757,24.488916],[54.39375,24.488869],[54.393172,24.488945],[54.393098,24.488906],[54.393068,24.488873],[54.394968,24.488395],[54.395185,24.488219],[54.395111,24.488144],[54.395209,24.488065],[54.395036,24.487889],[54.394852,24.487624],[54.394986,24.48759],[54.39537,24.487249],[54.395338,24.487219],[54.395256,24.487186],[54.395144,24.487174],[54.395019,24.487192],[54.392615,24.487797],[54.392565,24.487841],[54.392608,24.48788],[54.392462,24.488009],[54.392501,24.488046],[54.39246,24.488082],[54.392582,24.488196],[54.392641,24.488181],[54.392664,24.488403],[54.392513,24.488589],[54.392314,24.488534],[54.392068,24.488595],[54.392059,24.488644],[54.391969,24.488667],[54.391879,24.489002],[54.392142,24.489027],[54.392362,24.489115]],[[54.394118,24.48812],[54.393682,24.48823],[54.39365,24.487927],[54.393877,24.48787],[54.394118,24.48812]]]}},{"type":"Feature","properties":{},"geometry":{"type":"Polygon","coordinates":[[[54.391972,24.491213],[54.392013,24.49154],[54.392306,24.491509],[54.392502,24.49146],[54.392491,24.491371],[54.392699,24.491349],[54.392896,24.4913],[54.392869,24.491091],[54.392169,24.491164],[54.391972,24.491213]]]}},{"type":"Feature","properties":{},"geometry":{"type":"Polygon","coordinates":[[[54.390693,24.492868],[54.390587,24.492771],[54.390391,24.492821],[54.390203,24.492991],[54.390309,24.493088],[54.390505,24.493039],[54.390693,24.492868]]]}},{"type":"Feature","properties":{},"geometry":{"type":"Polygon","coordinates":[[[54.390121,24.493761],[54.389311,24.493854],[54.389115,24.493904],[54.389164,24.494258],[54.389974,24.494164],[54.39017,24.494115],[54.390121,24.493761]]]}},{"type":"Feature","properties":{},"geometry":{"type":"Polygon","coordinates":[[[54.392545,24.49613],[54.392751,24.496072],[54.39346,24.496002],[54.393533,24.495984],[54.393543,24.496058],[54.393667,24.496043],[54.393864,24.495994],[54.394035,24.495842],[54.394285,24.495786],[54.3942,24.495176],[54.393632,24.495242],[54.393436,24.495291],[54.393442,24.495334],[54.392676,24.495443],[54.392479,24.495492],[54.392545,24.49613]]]}},{"type":"Feature","properties":{},"geometry":{"type":"Polygon","coordinates":[[[54.390446,24.496378],[54.390643,24.496328],[54.39063,24.496099],[54.39061,24.4961],[54.390627,24.496096],[54.390576,24.495677],[54.390109,24.495729],[54.389913,24.495779],[54.389917,24.495886],[54.390044,24.49588],[54.390065,24.496053],[54.389951,24.496082],[54.38996,24.496157],[54.389977,24.496155],[54.390009,24.496413],[54.390446,24.496378]]]}},{"type":"Feature","properties":{},"geometry":{"type":"Polygon","coordinates":[[[54.391225,24.497051],[54.390989,24.4971],[54.390988,24.497194],[54.391107,24.497196],[54.391304,24.497146],[54.391309,24.497068],[54.391467,24.497062],[54.391663,24.497013],[54.391661,24.496974],[54.391422,24.496985],[54.391226,24.497034],[54.391225,24.497051]]]}},{"type":"Feature","properties":{},"geometry":{"type":"Polygon","coordinates":[[[54.391662,24.49708],[54.391411,24.497139],[54.391419,24.497177],[54.39167,24.497118],[54.391662,24.49708]]]}},{"type":"Feature","properties":{},"geometry":{"type":"Polygon","coordinates":[[[54.391345,24.497181],[54.391232,24.497178],[54.391036,24.497227],[54.391034,24.497291],[54.391146,24.497293],[54.391343,24.497244],[54.391345,24.497181]]]}},{"type":"Feature","properties":{},"geometry":{"type":"Polygon","coordinates":[[[54.390966,24.498398],[54.391913,24.49816],[54.391881,24.497941],[54.391505,24.497815],[54.3897,24.498264],[54.389542,24.498309],[54.389405,24.498377],[54.389441,24.498617],[54.389534,24.498673],[54.38995,24.498654],[54.390336,24.498556],[54.390777,24.498511],[54.390974,24.498461],[54.390966,24.498398]]]}},{"type":"Feature","properties":{},"geometry":{"type":"Polygon","coordinates":[[[54.391889,24.500727],[54.391623,24.500751],[54.391427,24.5008],[54.391464,24.501048],[54.391725,24.501019],[54.391921,24.500969],[54.391889,24.500727]]]}},{"type":"Feature","properties":{},"geometry":{"type":"Polygon","coordinates":[[[54.389969,24.502598],[54.390046,24.50319],[54.390797,24.503126],[54.391157,24.503036],[54.391104,24.502559],[54.391418,24.50248],[54.39098,24.498843],[54.389877,24.498968],[54.389517,24.499058],[54.389945,24.502409],[54.389574,24.502491],[54.389593,24.502641],[54.389969,24.502598]]]}},{"type":"Feature","properties":{},"geometry":{"type":"Polygon","coordinates":[[[54.392191,24.50367],[54.392183,24.503621],[54.391895,24.503683],[54.391903,24.503732],[54.392191,24.50367]]]}},{"type":"Feature","properties":{},"geometry":{"type":"Polygon","coordinates":[[[54.391915,24.503889],[54.392078,24.50388],[54.392267,24.503833],[54.392267,24.503861],[54.392358,24.50386],[54.392554,24.503811],[54.392554,24.503762],[54.392463,24.503763],[54.392273,24.503811],[54.392268,24.503729],[54.392105,24.503737],[54.391908,24.503786],[54.391915,24.503889]]]}},{"type":"Feature","properties":{},"geometry":{"type":"Polygon","coordinates":[[[54.392054,24.50394],[54.391857,24.50399],[54.391869,24.504182],[54.391989,24.504162],[54.391999,24.50425],[54.391893,24.504277],[54.391901,24.504445],[54.392019,24.504426],[54.392025,24.504481],[54.392308,24.50445],[54.392504,24.504401],[54.392498,24.50431],[54.392592,24.504285],[54.39258,24.504249],[54.392495,24.504271],[54.392488,24.504165],[54.392303,24.504191],[54.3923,24.504162],[54.39259,24.504102],[54.392558,24.503881],[54.392054,24.50394]]]}},{"type":"Feature","properties":{},"geometry":{"type":"Polygon","coordinates":[[[54.39262,24.504452],[54.392177,24.504496],[54.391981,24.504546],[54.392014,24.504821],[54.392457,24.504777],[54.392653,24.504727],[54.39262,24.504452]]]}},{"type":"Feature","properties":{},"geometry":{"type":"Polygon","coordinates":[[[54.392228,24.504858],[54.391977,24.504912],[54.391985,24.504992],[54.392236,24.504938],[54.392228,24.504858]]]}},{"type":"Feature","properties":{},"geometry":{"type":"Polygon","coordinates":[[[54.392362,24.505698],[54.392576,24.505685],[54.392773,24.505636],[54.392737,24.505136],[54.392522,24.505149],[54.392434,24.505171],[54.392432,24.505103],[54.392592,24.505063],[54.392563,24.504815],[54.392452,24.504825],[54.392256,24.504875],[54.392282,24.505093],[54.392012,24.505154],[54.392015,24.505263],[54.392238,24.50524],[54.392327,24.505218],[54.392362,24.505698]]]}},{"type":"Feature","properties":{},"geometry":{"type":"Polygon","coordinates":[[[54.390013,24.505457],[54.389993,24.505205],[54.389795,24.505218],[54.389598,24.505267],[54.389645,24.505861],[54.38986,24.505846],[54.390056,24.505797],[54.390029,24.505456],[54.390013,24.505457]]]}},{"type":"Feature","properties":{},"geometry":{"type":"Polygon","coordinates":[[[54.391859,24.506801],[54.39177,24.50681],[54.391574,24.506859],[54.39158,24.506905],[54.391865,24.506847],[54.391859,24.506801]]]}},{"type":"Feature","properties":{},"geometry":{"type":"Polygon","coordinates":[[[54.392067,24.506945],[54.392055,24.506898],[54.392098,24.506888],[54.392088,24.506846],[54.391683,24.506946],[54.391691,24.507007],[54.391799,24.506985],[54.391805,24.507009],[54.392067,24.506945]]]}},{"type":"Feature","properties":{},"geometry":{"type":"Polygon","coordinates":[[[54.392715,24.506783],[54.39253,24.506794],[54.392334,24.506844],[54.39236,24.507186],[54.392545,24.507174],[54.392741,24.507125],[54.392715,24.506783]]]}},{"type":"Feature","properties":{},"geometry":{"type":"Polygon","coordinates":[[[54.39194,24.507053],[54.391814,24.507055],[54.391618,24.507104],[54.39162,24.507193],[54.391746,24.507191],[54.391942,24.507142],[54.39194,24.507053]]]}},{"type":"Feature","properties":{},"geometry":{"type":"Polygon","coordinates":[[[54.392985,24.507152],[54.392904,24.50716],[54.392708,24.50721],[54.392715,24.507264],[54.392992,24.507205],[54.392985,24.507152]]]}},{"type":"Feature","properties":{},"geometry":{"type":"Polygon","coordinates":[[[54.391944,24.507466],[54.391934,24.507327],[54.391531,24.507352],[54.391335,24.507401],[54.391345,24.50754],[54.391748,24.507515],[54.391944,24.507466]]]}},{"type":"Feature","properties":{},"geometry":{"type":"Polygon","coordinates":[[[54.39118,24.507431],[54.391047,24.507429],[54.390851,24.507479],[54.39085,24.507559],[54.390983,24.507561],[54.391179,24.507511],[54.39118,24.507431]]]}},{"type":"Feature","properties":{},"geometry":{"type":"Polygon","coordinates":[[[54.403917,24.481584],[54.404445,24.481313],[54.404282,24.481036],[54.404086,24.481085],[54.403476,24.481359],[54.40372,24.481633],[54.403917,24.481584]]]}},{"type":"Feature","properties":{},"geometry":{"type":"Polygon","coordinates":[[[54.403255,24.483046],[54.403079,24.482706],[54.402754,24.48227],[54.402388,24.482368],[54.402362,24.482355],[54.402377,24.482242],[54.402291,24.482238],[54.401964,24.482321],[54.401094,24.483236],[54.401094,24.483353],[54.401136,24.483417],[54.401311,24.483457],[54.401638,24.483375],[54.401843,24.483288],[54.402243,24.483298],[54.402768,24.483478],[54.403095,24.483396],[54.403021,24.483179],[54.403255,24.483046]]]}},{"type":"Feature","properties":{},"geometry":{"type":"Polygon","coordinates":[[[54.403755,24.48585],[54.403951,24.4858],[54.404147,24.485609],[54.404367,24.485274],[54.404472,24.48503],[54.404542,24.48481],[54.40454,24.484515],[54.403751,24.484451],[54.403555,24.484501],[54.403423,24.484947],[54.40333,24.485123],[54.403143,24.485314],[54.403755,24.48585]]]}},{"type":"Feature","properties":{},"geometry":{"type":"Polygon","coordinates":[[[54.400124,24.486666],[54.399973,24.486842],[54.400439,24.487171],[54.400557,24.487208],[54.400866,24.487117],[54.401207,24.486363],[54.400743,24.486123],[54.400547,24.486173],[54.400435,24.486351],[54.400124,24.486666]]]}},{"type":"Feature","properties":{},"geometry":{"type":"Polygon","coordinates":[[[54.404417,24.486697],[54.404408,24.486649],[54.40406,24.486285],[54.404023,24.48626],[54.403971,24.486254],[54.40348,24.486378],[54.402743,24.486731],[54.402953,24.487283],[54.402987,24.487317],[54.403039,24.487331],[54.40353,24.487207],[54.403767,24.487123],[54.404122,24.486933],[54.40439,24.486736],[54.404417,24.486697]]]}},{"type":"Feature","properties":{},"geometry":{"type":"Polygon","coordinates":[[[54.401144,24.487765],[54.400111,24.487303],[54.399543,24.486934],[54.398968,24.486502],[54.398771,24.486552],[54.397538,24.487901],[54.398678,24.488755],[54.399999,24.489449],[54.40077,24.489763],[54.401561,24.489933],[54.402404,24.489993],[54.4026,24.489943],[54.40288,24.489596],[54.402625,24.488136],[54.402288,24.488086],[54.401773,24.487981],[54.401144,24.487765]]]}},{"type":"Feature","properties":{},"geometry":{"type":"Polygon","coordinates":[[[54.400402,24.490694],[54.400362,24.490428],[54.400058,24.490467],[54.399861,24.490516],[54.399902,24.490782],[54.40016,24.490749],[54.400402,24.490694]]]}},{"type":"Feature","properties":{},"geometry":{"type":"Polygon","coordinates":[[[54.398624,24.49184],[54.398498,24.491854],[54.398302,24.491904],[54.398345,24.492225],[54.398667,24.492158],[54.398624,24.49184]]]}},{"type":"Feature","properties":{},"geometry":{"type":"Polygon","coordinates":[[[54.398329,24.492282],[54.398374,24.492611],[54.398647,24.492553],[54.398639,24.4925],[54.398899,24.49247],[54.399095,24.49242],[54.399082,24.49232],[54.398848,24.492349],[54.398825,24.492216],[54.398607,24.492262],[54.398602,24.492224],[54.398329,24.492282]]]}},{"type":"Feature","properties":{},"geometry":{"type":"Polygon","coordinates":[[[54.396062,24.492332],[54.395653,24.492258],[54.395457,24.492307],[54.395391,24.492606],[54.3958,24.492681],[54.395997,24.492631],[54.396062,24.492332]]]}},{"type":"Feature","properties":{},"geometry":{"type":"Polygon","coordinates":[[[54.400649,24.492935],[54.399918,24.49302],[54.399722,24.49307],[54.399776,24.493455],[54.400507,24.49337],[54.400704,24.493321],[54.400649,24.492935]]]}},{"type":"Feature","properties":{},"geometry":{"type":"Polygon","coordinates":[[[54.404554,24.493571],[54.404527,24.493557],[54.404581,24.493471],[54.404418,24.493385],[54.404217,24.493442],[54.404047,24.493458],[54.403851,24.493507],[54.403837,24.493531],[54.403708,24.493544],[54.403703,24.493509],[54.403359,24.493544],[54.403163,24.493594],[54.40317,24.493653],[54.403077,24.493676],[54.403091,24.493789],[54.399934,24.494585],[54.399985,24.495004],[54.400104,24.494992],[54.401464,24.49465],[54.401406,24.494741],[54.401512,24.494797],[54.401552,24.494787],[54.401595,24.494809],[54.401556,24.494871],[54.401638,24.494914],[54.40352,24.494441],[54.403622,24.494427],[54.403849,24.494547],[54.404041,24.494499],[54.403664,24.49471],[54.403313,24.494973],[54.403039,24.495295],[54.403101,24.495334],[54.403086,24.495353],[54.403183,24.495413],[54.403216,24.495405],[54.403381,24.495499],[54.40729,24.494514],[54.407675,24.494748],[54.407655,24.49483],[54.407655,24.494994],[54.407714,24.495163],[54.407865,24.495351],[54.408152,24.4955],[54.408038,24.495668],[54.406894,24.495031],[54.406648,24.495093],[54.406577,24.49529],[54.406388,24.495319],[54.406417,24.495276],[54.40635,24.49524],[54.406154,24.495289],[54.406108,24.495357],[54.406175,24.495394],[54.406278,24.495368],[54.406403,24.495366],[54.406564,24.495325],[54.406558,24.495342],[54.406366,24.49539],[54.40629,24.495455],[54.406351,24.495514],[54.406198,24.495553],[54.406115,24.495594],[54.406168,24.495682],[54.406365,24.495633],[54.406448,24.495591],[54.406426,24.495555],[54.406486,24.49554],[54.406464,24.495614],[54.406218,24.495672],[54.40617,24.495764],[54.406074,24.495788],[54.406028,24.495853],[54.406054,24.495868],[54.406255,24.495812],[54.40635,24.495853],[54.406425,24.495834],[54.40639,24.496022],[54.405209,24.49632],[54.404485,24.49605],[54.404076,24.496152],[54.404004,24.496351],[54.402575,24.49671],[54.402378,24.497207],[54.402477,24.497239],[54.402354,24.49727],[54.402183,24.497686],[54.402454,24.497779],[54.402181,24.497892],[54.40238,24.498284],[54.403868,24.497909],[54.403949,24.498082],[54.404358,24.49798],[54.404599,24.497783],[54.404908,24.497415],[54.406186,24.497093],[54.406236,24.497273],[54.406556,24.497191],[54.406556,24.497204],[54.406771,24.497225],[54.406897,24.497193],[54.406895,24.497228],[54.406936,24.497232],[54.406744,24.49728],[54.406658,24.49749],[54.407073,24.497721],[54.408709,24.497309],[54.40953,24.496918],[54.409385,24.496689],[54.408493,24.496913],[54.40838,24.496868],[54.408212,24.49691],[54.408244,24.496834],[54.408035,24.496764],[54.407764,24.496696],[54.408825,24.496428],[54.408737,24.496498],[54.408842,24.496618],[54.408761,24.496672],[54.40887,24.496813],[54.410179,24.496484],[54.410343,24.49638],[54.41032,24.496351],[54.410552,24.496292],[54.410775,24.496187],[54.410614,24.495998],[54.410451,24.496039],[54.410337,24.495938],[54.409029,24.496267],[54.408932,24.496344],[54.408922,24.496284],[54.408891,24.496233],[54.408809,24.496152],[54.408693,24.496072],[54.408481,24.495984],[54.408504,24.495925],[54.408263,24.495794],[54.408432,24.495545],[54.408803,24.495528],[54.409964,24.495229],[54.409867,24.495048],[54.409653,24.494565],[54.40954,24.494014],[54.409518,24.493451],[54.409564,24.493205],[54.409532,24.493029],[54.409064,24.493135],[54.404746,24.494223],[54.404231,24.494395],[54.404046,24.494496],[54.404185,24.494278],[54.404124,24.494246],[54.404554,24.493571]],[[54.406886,24.496237],[54.406929,24.496269],[54.407014,24.496276],[54.405413,24.496679],[54.405412,24.496625],[54.406737,24.496292],[54.406886,24.496237]]]}},{"type":"Feature","properties":{},"geometry":{"type":"Polygon","coordinates":[[[54.393173,24.494525],[54.393114,24.49454],[54.393148,24.49478],[54.393417,24.494748],[54.393613,24.494698],[54.393582,24.494482],[54.393522,24.49449],[54.393515,24.494441],[54.393367,24.494459],[54.393171,24.494509],[54.393173,24.494525]]]}},{"type":"Feature","properties":{},"geometry":{"type":"Polygon","coordinates":[[[54.394346,24.496871],[54.394114,24.497155],[54.394194,24.49744],[54.394445,24.497557],[54.394641,24.497508],[54.394769,24.497442],[54.394885,24.497348],[54.394874,24.497274],[54.394918,24.497211],[54.394997,24.497172],[54.39503,24.497114],[54.394542,24.496821],[54.394346,24.496871]]]}},{"type":"Feature","properties":{},"geometry":{"type":"Polygon","coordinates":[[[54.393352,24.498198],[54.393355,24.498117],[54.393313,24.498116],[54.393117,24.498166],[54.393114,24.498246],[54.393156,24.498247],[54.393352,24.498198]]]}},{"type":"Feature","properties":{},"geometry":{"type":"Polygon","coordinates":[[[54.404167,24.498192],[54.404081,24.49813],[54.404034,24.498128],[54.404122,24.498105],[54.404135,24.498077],[54.404083,24.498057],[54.403732,24.498158],[54.402985,24.498466],[54.40265,24.49855],[54.402498,24.498655],[54.40239,24.498836],[54.402374,24.498965],[54.402385,24.49903],[54.398678,24.499963],[54.398565,24.500028],[54.398458,24.500136],[54.398419,24.500201],[54.398474,24.500237],[54.398499,24.500271],[54.398513,24.500316],[54.398505,24.500375],[54.39867,24.5004],[54.398816,24.500383],[54.402083,24.49956],[54.401941,24.499723],[54.401938,24.499754],[54.401685,24.499818],[54.401649,24.499859],[54.401374,24.500034],[54.401294,24.500058],[54.40128,24.500086],[54.401316,24.500166],[54.401355,24.500207],[54.401449,24.500255],[54.402964,24.499875],[54.403038,24.499967],[54.402301,24.500153],[54.402272,24.500179],[54.402311,24.500224],[54.40227,24.500237],[54.402283,24.50056],[54.402311,24.500562],[54.402335,24.500587],[54.40231,24.500614],[54.402341,24.500659],[54.402384,24.500682],[54.4025,24.500683],[54.402905,24.500581],[54.402927,24.500629],[54.402988,24.500647],[54.404221,24.500337],[54.404221,24.500352],[54.4045,24.500333],[54.405188,24.500172],[54.405667,24.499947],[54.405928,24.49974],[54.406255,24.499347],[54.406373,24.499138],[54.406474,24.49889],[54.406529,24.498602],[54.406545,24.49833],[54.406522,24.498107],[54.406444,24.497802],[54.405643,24.497652],[54.405382,24.497718],[54.405529,24.497918],[54.40561,24.498086],[54.405661,24.498357],[54.405669,24.498574],[54.405658,24.498779],[54.40562,24.498933],[54.405529,24.499101],[54.405416,24.49924],[54.405214,24.499419],[54.403983,24.49973],[54.403894,24.499653],[54.403777,24.499622],[54.403589,24.499658],[54.403549,24.499625],[54.403592,24.4996],[54.40359,24.499589],[54.403649,24.499568],[54.403668,24.499542],[54.404273,24.49939],[54.404526,24.499348],[54.404893,24.499256],[54.405087,24.49919],[54.405252,24.499057],[54.405358,24.498901],[54.40544,24.498736],[54.405445,24.498549],[54.405429,24.498461],[54.405388,24.498458],[54.405412,24.498398],[54.405332,24.498066],[54.405283,24.498019],[54.405209,24.498001],[54.404161,24.498265],[54.404172,24.498239],[54.404153,24.498207],[54.404167,24.498192]],[[54.403464,24.498982],[54.403434,24.49893],[54.403438,24.498838],[54.403461,24.498899],[54.403518,24.498935],[54.403579,24.498938],[54.40443,24.498724],[54.404378,24.498787],[54.404327,24.498776],[54.40396,24.498868],[54.403867,24.498901],[54.403761,24.49897],[54.4038,24.499008],[54.40347,24.499092],[54.403515,24.499023],[54.403464,24.498982]]]}},{"type":"Feature","properties":{},"geometry":{"type":"Polygon","coordinates":[[[54.396129,24.498519],[54.396073,24.498517],[54.395876,24.498567],[54.395874,24.498632],[54.39593,24.498634],[54.396127,24.498585],[54.396129,24.498519]]]}},{"type":"Feature","properties":{},"geometry":{"type":"Polygon","coordinates":[[[54.393466,24.49866],[54.393269,24.498709],[54.393425,24.499714],[54.395174,24.499521],[54.39537,24.499471],[54.39526,24.498664],[54.395136,24.498542],[54.393466,24.49866]]]}},{"type":"Feature","properties":{},"geometry":{"type":"Polygon","coordinates":[[[54.395068,24.500162],[54.395296,24.500107],[54.395282,24.500042],[54.395562,24.49998],[54.395534,24.499827],[54.395223,24.499893],[54.395244,24.500008],[54.395044,24.500058],[54.395068,24.500162]]]}},{"type":"Feature","properties":{},"geometry":{"type":"Polygon","coordinates":[[[54.394916,24.50033],[54.394673,24.500386],[54.394693,24.5005],[54.394937,24.500444],[54.394916,24.50033]]]}},{"type":"Feature","properties":{},"geometry":{"type":"Polygon","coordinates":[[[54.395488,24.500472],[54.394922,24.50055],[54.394726,24.5006],[54.394868,24.501448],[54.395434,24.50137],[54.39563,24.50132],[54.395488,24.500472]]]}},{"type":"Feature","properties":{},"geometry":{"type":"Polygon","coordinates":[[[54.395744,24.502],[54.395747,24.501897],[54.395661,24.501895],[54.395465,24.501944],[54.395462,24.502047],[54.395548,24.502049],[54.395744,24.502]]]}},{"type":"Feature","properties":{},"geometry":{"type":"Polygon","coordinates":[[[54.395873,24.502153],[54.395441,24.502211],[54.395245,24.502261],[54.395296,24.502569],[54.395727,24.50251],[54.395924,24.502461],[54.395873,24.502153]]]}},{"type":"Feature","properties":{},"geometry":{"type":"Polygon","coordinates":[[[54.397473,24.504684],[54.397401,24.504687],[54.397205,24.504737],[54.397211,24.504838],[54.397283,24.504834],[54.397479,24.504785],[54.397473,24.504684]]]}},{"type":"Feature","properties":{},"geometry":{"type":"Polygon","coordinates":[[[54.39302,24.508783],[54.393216,24.508734],[54.393217,24.5087],[54.39297,24.508709],[54.392773,24.508758],[54.392774,24.508789],[54.39302,24.508783]]]}},{"type":"Feature","properties":{},"geometry":{"type":"Polygon","coordinates":[[[54.393183,24.509291],[54.393121,24.509322],[54.393202,24.509439],[54.393091,24.509483],[54.393125,24.509529],[54.392899,24.509636],[54.392946,24.509715],[54.392824,24.509746],[54.392796,24.509787],[54.392867,24.509827],[54.393056,24.509779],[54.393091,24.509837],[54.393287,24.509787],[54.393625,24.509616],[54.393613,24.509596],[54.393795,24.509504],[54.393773,24.509468],[54.393889,24.50943],[54.393853,24.509371],[54.393732,24.509401],[54.393588,24.509166],[54.393658,24.509149],[54.393655,24.509094],[54.393408,24.509145],[54.393409,24.509164],[54.393172,24.509273],[54.393183,24.509291]]]}},{"type":"Feature","properties":{},"geometry":{"type":"Polygon","coordinates":[[[54.394058,24.50966],[54.394028,24.509668],[54.394052,24.509655],[54.394018,24.509606],[54.393822,24.509655],[54.393781,24.509678],[54.393815,24.509727],[54.393844,24.50972],[54.393821,24.509733],[54.393882,24.509824],[54.394078,24.509774],[54.394119,24.509751],[54.394058,24.50966]]]}},{"type":"Feature","properties":{},"geometry":{"type":"Polygon","coordinates":[[[54.394173,24.509852],[54.394128,24.509765],[54.393931,24.509815],[54.393835,24.509856],[54.39388,24.509943],[54.394077,24.509894],[54.394173,24.509852]]]}},{"type":"Feature","properties":{},"geometry":{"type":"Polygon","coordinates":[[[54.393911,24.50995],[54.393869,24.509955],[54.393672,24.510005],[54.393678,24.51004],[54.393916,24.509985],[54.393911,24.50995]]]}},{"type":"Feature","properties":{},"geometry":{"type":"Polygon","coordinates":[[[54.394195,24.509998],[54.394163,24.509938],[54.393967,24.509988],[54.393652,24.510124],[54.393683,24.510183],[54.393879,24.510134],[54.394195,24.509998]]]}},{"type":"Feature","properties":{},"geometry":{"type":"Polygon","coordinates":[[[54.406324,24.480095],[54.406255,24.479987],[54.40643,24.479895],[54.406373,24.479805],[54.406253,24.479836],[54.406281,24.479812],[54.406176,24.479648],[54.40598,24.479697],[54.405731,24.479829],[54.405787,24.479916],[54.40558,24.480025],[54.405617,24.480084],[54.405541,24.480124],[54.405603,24.480223],[54.405622,24.480218],[54.405709,24.480355],[54.405905,24.480306],[54.406324,24.480095]]]}},{"type":"Feature","properties":{},"geometry":{"type":"Polygon","coordinates":[[[54.406836,24.48],[54.406771,24.479935],[54.406575,24.479985],[54.406483,24.480061],[54.406547,24.480126],[54.406743,24.480076],[54.406836,24.48]]]}},{"type":"Feature","properties":{},"geometry":{"type":"Polygon","coordinates":[[[54.406207,24.480298],[54.406173,24.480369],[54.406153,24.480374],[54.406112,24.48043],[54.405907,24.480578],[54.405939,24.480618],[54.40598,24.480608],[54.406018,24.480646],[54.406078,24.480631],[54.40624,24.480791],[54.406437,24.480741],[54.406583,24.480618],[54.406419,24.480457],[54.406444,24.48045],[54.406479,24.480403],[54.406449,24.480385],[54.406484,24.480376],[54.406523,24.480297],[54.406404,24.480249],[54.406207,24.480298]]]}},{"type":"Feature","properties":{},"geometry":{"type":"Polygon","coordinates":[[[54.405775,24.48046],[54.405748,24.480415],[54.405551,24.480464],[54.405476,24.480501],[54.405503,24.480547],[54.405699,24.480497],[54.405775,24.48046]]]}},{"type":"Feature","properties":{},"geometry":{"type":"Polygon","coordinates":[[[54.405389,24.480784],[54.405508,24.480697],[54.405367,24.480537],[54.405227,24.480572],[54.405173,24.48051],[54.404786,24.480616],[54.404555,24.480785],[54.404751,24.481008],[54.404947,24.480958],[54.40518,24.48082],[54.405193,24.480834],[54.405389,24.480784]]]}},{"type":"Feature","properties":{},"geometry":{"type":"Polygon","coordinates":[[[54.404461,24.481209],[54.404714,24.481136],[54.404697,24.481102],[54.404444,24.481175],[54.404461,24.481209]]]}},{"type":"Feature","properties":{},"geometry":{"type":"Polygon","coordinates":[[[54.403815,24.482631],[54.403864,24.482715],[54.403893,24.482707],[54.403945,24.48281],[54.405417,24.48244],[54.405651,24.482324],[54.405632,24.482259],[54.40588,24.482196],[54.40612,24.482046],[54.406069,24.481991],[54.406228,24.481951],[54.406456,24.481804],[54.406244,24.481517],[54.406178,24.481406],[54.404706,24.481776],[54.404529,24.48188],[54.404451,24.481948],[54.404481,24.481983],[54.404374,24.48201],[54.404149,24.482122],[54.404108,24.48217],[54.404125,24.482213],[54.403926,24.482263],[54.403818,24.482368],[54.403789,24.48249],[54.403815,24.482631]]]}},{"type":"Feature","properties":{},"geometry":{"type":"Polygon","coordinates":[[[54.407605,24.482539],[54.407647,24.482408],[54.407249,24.481963],[54.405613,24.482375],[54.405548,24.482483],[54.405406,24.482549],[54.405546,24.482739],[54.405666,24.482841],[54.40578,24.483022],[54.406334,24.482882],[54.406512,24.483153],[54.406708,24.483103],[54.406884,24.483008],[54.406735,24.482781],[54.407416,24.48261],[54.407605,24.482539]]]}},{"type":"Feature","properties":{},"geometry":{"type":"Polygon","coordinates":[[[54.405743,24.48448],[54.405199,24.484415],[54.405506,24.48442],[54.405703,24.48437],[54.405703,24.483852],[54.405455,24.483133],[54.405259,24.483182],[54.40493,24.483314],[54.405121,24.483962],[54.404743,24.484066],[54.404797,24.484408],[54.404947,24.48441],[54.404821,24.484442],[54.404743,24.484784],[54.405423,24.484922],[54.405619,24.484873],[54.405743,24.48448]]]}},{"type":"Feature","properties":{},"geometry":{"type":"Polygon","coordinates":[[[54.406518,24.485708],[54.406331,24.485902],[54.406391,24.48595],[54.406414,24.485944],[54.406651,24.486143],[54.407698,24.485879],[54.407889,24.48568],[54.407828,24.485631],[54.407798,24.485638],[54.407564,24.485445],[54.407093,24.485563],[54.407299,24.485363],[54.407314,24.48537],[54.407388,24.485352],[54.407442,24.485423],[54.408489,24.48516],[54.408602,24.485076],[54.408503,24.484965],[54.408829,24.484883],[54.409038,24.484742],[54.408793,24.48444],[54.407747,24.484704],[54.407537,24.484845],[54.407627,24.484955],[54.407287,24.485041],[54.407082,24.485195],[54.407095,24.485259],[54.407156,24.48529],[54.407065,24.485313],[54.406796,24.485575],[54.406754,24.485552],[54.406558,24.485601],[54.406517,24.485662],[54.406574,24.485694],[54.406518,24.485708]]]}},{"type":"Feature","properties":{},"geometry":{"type":"Polygon","coordinates":[[[54.404936,24.488086],[54.405983,24.487822],[54.406127,24.487642],[54.405832,24.487429],[54.404785,24.487693],[54.404639,24.487866],[54.404936,24.488086]]]}},{"type":"Feature","properties":{},"geometry":{"type":"Polygon","coordinates":[[[54.406476,24.49296],[54.406379,24.492879],[54.406183,24.492928],[54.406053,24.493056],[54.40615,24.493138],[54.406346,24.493088],[54.406476,24.49296]]]}},{"type":"Feature","properties":{},"geometry":{"type":"Polygon","coordinates":[[[54.406038,24.492306],[54.405167,24.492768],[54.405132,24.493052],[54.405991,24.493781],[54.4062,24.493728],[54.406527,24.493456],[54.405951,24.492978],[54.406315,24.492642],[54.406142,24.492521],[54.406355,24.492421],[54.406247,24.492254],[54.406038,24.492306]]]}},{"type":"Feature","properties":{},"geometry":{"type":"Polygon","coordinates":[[[54.406006,24.496085],[54.406044,24.496092],[54.406241,24.496042],[54.406239,24.496021],[54.406202,24.496007],[54.40619,24.495968],[54.406167,24.495971],[54.40597,24.49602],[54.405977,24.49606],[54.406006,24.496085]]]}},{"type":"Feature","properties":{},"geometry":{"type":"Polygon","coordinates":[[[54.405604,24.497337],[54.405544,24.497598],[54.405804,24.497644],[54.406,24.497594],[54.40601,24.49755],[54.406053,24.497539],[54.406089,24.497391],[54.405991,24.497375],[54.406007,24.497326],[54.4058,24.497287],[54.405604,24.497337]]]}},{"type":"Feature","properties":{},"geometry":{"type":"Polygon","coordinates":[[[54.406184,24.50457],[54.405892,24.504642],[54.405945,24.504808],[54.406233,24.504739],[54.406184,24.50457]]]}},{"type":"Feature","properties":{},"geometry":{"type":"Polygon","coordinates":[[[54.404874,24.505906],[54.404629,24.506153],[54.404864,24.506344],[54.404777,24.506577],[54.40493,24.506624],[54.404752,24.506669],[54.404609,24.507068],[54.404821,24.507145],[54.403566,24.507461],[54.402935,24.50856],[54.40303,24.508625],[54.403393,24.508562],[54.405356,24.508068],[54.405862,24.507159],[54.405846,24.507074],[54.407336,24.506699],[54.407629,24.506391],[54.407472,24.506231],[54.407244,24.506239],[54.405222,24.506748],[54.405237,24.506716],[54.405068,24.50666],[54.405252,24.506613],[54.405345,24.506365],[54.405163,24.506309],[54.406702,24.505922],[54.406793,24.505817],[54.406828,24.505695],[54.406787,24.505553],[54.406674,24.505453],[54.406612,24.505468],[54.406344,24.50524],[54.406148,24.505289],[54.405886,24.505544],[54.405983,24.505627],[54.405505,24.505747],[54.405586,24.505474],[54.405385,24.505424],[54.405189,24.505474],[54.405095,24.505789],[54.405219,24.505819],[54.404874,24.505906]]]}},{"type":"Feature","properties":{},"geometry":{"type":"Polygon","coordinates":[[[54.40455,24.509509],[54.406063,24.509128],[54.406147,24.509195],[54.406344,24.509146],[54.406384,24.509101],[54.406299,24.509036],[54.406163,24.50907],[54.406232,24.508999],[54.40609,24.508859],[54.406377,24.508786],[54.406489,24.508672],[54.406289,24.508475],[54.406645,24.508385],[54.406757,24.508271],[54.406367,24.507886],[54.404796,24.508281],[54.404678,24.508388],[54.404885,24.508593],[54.404528,24.508683],[54.40441,24.50879],[54.404559,24.508938],[54.404272,24.50901],[54.404154,24.509117],[54.40455,24.509509]]]}},{"type":"Feature","properties":{},"geometry":{"type":"Polygon","coordinates":[[[54.405598,24.509432],[54.405477,24.509367],[54.405294,24.509413],[54.405231,24.509371],[54.403676,24.509762],[54.40355,24.509931],[54.403699,24.510075],[54.403807,24.510048],[54.403863,24.510086],[54.405418,24.509695],[54.405598,24.509432]]]}},{"type":"Feature","properties":{},"geometry":{"type":"Polygon","coordinates":[[[54.405444,24.510433],[54.407014,24.510038],[54.407179,24.509921],[54.407128,24.509874],[54.407446,24.509794],[54.40758,24.509657],[54.407493,24.509575],[54.407784,24.509501],[54.4079,24.509383],[54.407695,24.509195],[54.407812,24.509166],[54.407864,24.509122],[54.407708,24.508969],[54.407512,24.509019],[54.407466,24.509068],[54.405967,24.509445],[54.405845,24.509555],[54.405918,24.509622],[54.40563,24.509695],[54.40549,24.50983],[54.405554,24.50989],[54.405241,24.509969],[54.405081,24.510102],[54.405444,24.510433]]]}},{"type":"Feature","properties":{},"geometry":{"type":"Polygon","coordinates":[[[54.410443,24.479885],[54.410246,24.479934],[54.410177,24.480001],[54.410327,24.48013],[54.410524,24.48008],[54.410593,24.480014],[54.410443,24.479885]]]}},{"type":"Feature","properties":{},"geometry":{"type":"Polygon","coordinates":[[[54.409403,24.482883],[54.409307,24.482887],[54.40911,24.482936],[54.409115,24.483051],[54.409212,24.483047],[54.409408,24.482998],[54.409403,24.482883]]]}},{"type":"Feature","properties":{},"geometry":{"type":"Polygon","coordinates":[[[54.409059,24.486167],[54.409199,24.486178],[54.409662,24.48606],[54.410079,24.486775],[54.410504,24.486668],[54.410863,24.4865],[54.410363,24.485619],[54.410402,24.485593],[54.410413,24.48552],[54.410404,24.485468],[54.410388,24.485446],[54.41025,24.485463],[54.41025,24.48545],[54.410362,24.485422],[54.410404,24.485395],[54.410434,24.485322],[54.410978,24.485104],[54.410804,24.484786],[54.410379,24.484893],[54.409651,24.48525],[54.409248,24.485351],[54.409174,24.485437],[54.408998,24.485507],[54.408909,24.485597],[54.408805,24.485623],[54.408726,24.485685],[54.408766,24.485728],[54.408875,24.4857],[54.408875,24.485713],[54.408826,24.485742],[54.408874,24.485811],[54.408892,24.485963],[54.408972,24.486092],[54.409059,24.486167]]]}},{"type":"Feature","properties":{},"geometry":{"type":"Polygon","coordinates":[[[54.4077,24.485931],[54.407651,24.485895],[54.407455,24.485944],[54.407361,24.486047],[54.407409,24.486084],[54.407605,24.486034],[54.4077,24.485931]]]}},{"type":"Feature","properties":{},"geometry":{"type":"Polygon","coordinates":[[[54.409247,24.487364],[54.409051,24.487414],[54.408688,24.487696],[54.408138,24.48806],[54.40844,24.488543],[54.408637,24.488493],[54.409511,24.488057],[54.40936,24.487784],[54.409163,24.487834],[54.408604,24.488146],[54.40859,24.488122],[54.409363,24.48769],[54.409247,24.487364]]]}},{"type":"Feature","properties":{},"geometry":{"type":"Polygon","coordinates":[[[54.407598,24.488281],[54.407318,24.487873],[54.407122,24.487922],[54.406301,24.488387],[54.40658,24.488795],[54.406776,24.488745],[54.407598,24.488281]]]}},{"type":"Feature","properties":{},"geometry":{"type":"Polygon","coordinates":[[[54.407183,24.489203],[54.407589,24.488973],[54.407583,24.488964],[54.407644,24.488949],[54.40802,24.488719],[54.407768,24.488343],[54.407571,24.488393],[54.4072,24.488592],[54.407113,24.488614],[54.406707,24.488844],[54.406987,24.489252],[54.407183,24.489203]]]}},{"type":"Feature","properties":{},"geometry":{"type":"Polygon","coordinates":[[[54.407021,24.490271],[54.406765,24.490342],[54.406793,24.490422],[54.407054,24.490352],[54.407021,24.490271]]]}},{"type":"Feature","properties":{},"geometry":{"type":"Polygon","coordinates":[[[54.409268,24.491263],[54.409272,24.491156],[54.409037,24.491149],[54.408762,24.491229],[54.40875,24.491344],[54.408812,24.491346],[54.408811,24.491372],[54.409023,24.491378],[54.409219,24.491329],[54.409221,24.491275],[54.409268,24.491263]]]}},{"type":"Feature","properties":{},"geometry":{"type":"Polygon","coordinates":[[[54.409383,24.498324],[54.409415,24.497947],[54.409165,24.497863],[54.408151,24.498119],[54.407976,24.498185],[54.407978,24.498646],[54.408368,24.498579],[54.409383,24.498324]]]}},{"type":"Feature","properties":{},"geometry":{"type":"Polygon","coordinates":[[[54.409382,24.499166],[54.409435,24.498769],[54.408993,24.498738],[54.408916,24.498758],[54.408924,24.498611],[54.408852,24.4986],[54.408656,24.498649],[54.40864,24.498709],[54.408675,24.498818],[54.408417,24.498883],[54.408429,24.499237],[54.408343,24.499602],[54.4087,24.499697],[54.409276,24.499552],[54.409382,24.499166]]]}},{"type":"Feature","properties":{},"geometry":{"type":"Polygon","coordinates":[[[54.409871,24.500412],[54.409926,24.500296],[54.409975,24.49974],[54.410012,24.49951],[54.409978,24.499439],[54.4099,24.49938],[54.409787,24.499363],[54.409615,24.499373],[54.409419,24.499422],[54.409351,24.499468],[54.409153,24.500089],[54.409103,24.500303],[54.409145,24.500431],[54.409236,24.500497],[54.409416,24.500528],[54.409549,24.500526],[54.409746,24.500476],[54.409871,24.500412]]]}},{"type":"Feature","properties":{},"geometry":{"type":"Polygon","coordinates":[[[54.407858,24.500957],[54.407856,24.501003],[54.407828,24.501062],[54.407867,24.501094],[54.408063,24.501044],[54.408114,24.500971],[54.408147,24.500887],[54.408085,24.500876],[54.407889,24.500925],[54.407858,24.500957]]]}},{"type":"Feature","properties":{},"geometry":{"type":"Polygon","coordinates":[[[54.410433,24.501853],[54.410433,24.501825],[54.410568,24.501791],[54.410573,24.501566],[54.410542,24.501564],[54.410544,24.501523],[54.410437,24.50152],[54.409586,24.501735],[54.40961,24.501599],[54.409605,24.501431],[54.408723,24.501471],[54.408527,24.50152],[54.408483,24.501848],[54.408535,24.501972],[54.408556,24.502],[54.408863,24.502011],[54.408861,24.502222],[54.408961,24.502224],[54.410433,24.501853]]]}},{"type":"Feature","properties":{},"geometry":{"type":"Polygon","coordinates":[[[54.408295,24.5021],[54.408422,24.501858],[54.408025,24.50174],[54.407829,24.50179],[54.407566,24.502315],[54.40739,24.502359],[54.407319,24.502441],[54.407311,24.502487],[54.407355,24.502497],[54.407513,24.502457],[54.407918,24.502626],[54.408114,24.502577],[54.408295,24.5021]]]}},{"type":"Feature","properties":{},"geometry":{"type":"Polygon","coordinates":[[[54.407148,24.50292],[54.407118,24.502956],[54.407043,24.502975],[54.406919,24.503126],[54.406983,24.503162],[54.407179,24.503113],[54.407303,24.503002],[54.407335,24.502994],[54.407403,24.502885],[54.407345,24.502871],[54.407148,24.50292]]]}},{"type":"Feature","properties":{},"geometry":{"type":"Polygon","coordinates":[[[54.406943,24.503344],[54.406684,24.503413],[54.406721,24.503534],[54.406997,24.503468],[54.406943,24.503344]]]}},{"type":"Feature","properties":{},"geometry":{"type":"Polygon","coordinates":[[[54.407134,24.50368],[54.407036,24.503648],[54.40684,24.503698],[54.406789,24.503855],[54.406877,24.503878],[54.407074,24.503829],[54.407134,24.50368]]]}},{"type":"Feature","properties":{},"geometry":{"type":"Polygon","coordinates":[[[54.406764,24.504931],[54.407059,24.505268],[54.409349,24.504692],[54.409521,24.504495],[54.410673,24.504204],[54.410705,24.504046],[54.410233,24.503968],[54.409368,24.504186],[54.409297,24.504126],[54.409909,24.503972],[54.410053,24.503863],[54.40972,24.503497],[54.408166,24.503888],[54.408022,24.503997],[54.408324,24.504329],[54.406969,24.50467],[54.406764,24.504931]]]}},{"type":"Feature","properties":{},"geometry":{"type":"Polygon","coordinates":[[[54.406525,24.504539],[54.406432,24.504537],[54.406236,24.504586],[54.406232,24.504729],[54.406327,24.504731],[54.406523,24.504681],[54.406525,24.504539]]]}},{"type":"Feature","properties":{},"geometry":{"type":"Polygon","coordinates":[[[54.408028,24.505741],[54.407866,24.505725],[54.40767,24.505774],[54.407672,24.505868],[54.407836,24.505892],[54.408033,24.505842],[54.408028,24.505741]]]}},{"type":"Feature","properties":{},"geometry":{"type":"Polygon","coordinates":[[[54.409472,24.506175],[54.409587,24.506114],[54.409672,24.506021],[54.409717,24.505908],[54.409719,24.505787],[54.40968,24.50568],[54.409606,24.50559],[54.409506,24.505526],[54.409388,24.505493],[54.409265,24.505495],[54.409068,24.505544],[54.408952,24.505582],[54.408854,24.50565],[54.408785,24.505743],[54.408751,24.505851],[54.408758,24.505971],[54.408808,24.506083],[54.408898,24.506173],[54.409014,24.50623],[54.409146,24.506248],[54.409472,24.506175]]]}},{"type":"Feature","properties":{},"geometry":{"type":"Polygon","coordinates":[[[54.406764,24.507492],[54.406675,24.507381],[54.406862,24.507554],[54.407019,24.507514],[54.40712,24.507428],[54.407102,24.50741],[54.407165,24.507356],[54.407231,24.50734],[54.407333,24.507251],[54.406919,24.506861],[54.406761,24.506901],[54.406665,24.506989],[54.406698,24.507022],[54.406592,24.507114],[54.406626,24.507151],[54.40652,24.507236],[54.406636,24.507344],[54.406448,24.507391],[54.406405,24.507419],[54.406524,24.50757],[54.406721,24.507521],[54.406764,24.507492]]]}},{"type":"Feature","properties":{},"geometry":{"type":"Polygon","coordinates":[[[54.409648,24.507874],[54.409709,24.507832],[54.409692,24.507556],[54.409481,24.507344],[54.409285,24.507394],[54.409091,24.507562],[54.409452,24.507924],[54.409648,24.507874]]]}},{"type":"Feature","properties":{},"geometry":{"type":"Polygon","coordinates":[[[54.407201,24.507774],[54.407167,24.507749],[54.406971,24.507798],[54.406941,24.507831],[54.406975,24.507857],[54.407171,24.507807],[54.407201,24.507774]]]}},{"type":"Feature","properties":{},"geometry":{"type":"Polygon","coordinates":[[[54.408681,24.507907],[54.408683,24.507962],[54.40865,24.50797],[54.408655,24.508076],[54.40889,24.508025],[54.408889,24.508001],[54.408918,24.507994],[54.408925,24.507856],[54.408681,24.507907]]]}},{"type":"Feature","properties":{},"geometry":{"type":"Polygon","coordinates":[[[54.40932,24.508159],[54.409278,24.508116],[54.409081,24.508165],[54.408992,24.508239],[54.409035,24.508282],[54.409231,24.508233],[54.40932,24.508159]]]}},{"type":"Feature","properties":{},"geometry":{"type":"Polygon","coordinates":[[[54.409057,24.508711],[54.409117,24.508675],[54.409106,24.508659],[54.409158,24.508646],[54.409334,24.508542],[54.409273,24.508456],[54.409209,24.508472],[54.409158,24.5084],[54.408961,24.508449],[54.408818,24.508534],[54.408864,24.508599],[54.40879,24.508657],[54.408809,24.508683],[54.408773,24.508704],[54.408803,24.508747],[54.408844,24.508737],[54.408861,24.50876],[54.409057,24.508711]]]}},{"type":"Feature","properties":{},"geometry":{"type":"Polygon","coordinates":[[[54.407353,24.50894],[54.40755,24.50889],[54.407615,24.508841],[54.407587,24.508811],[54.407391,24.508861],[54.407326,24.508911],[54.407353,24.50894]]]}},{"type":"Feature","properties":{},"geometry":{"type":"Polygon","coordinates":[[[54.41019,24.509994],[54.410005,24.509826],[54.409809,24.509875],[54.409466,24.510187],[54.409651,24.510356],[54.409847,24.510306],[54.41019,24.509994]]]}},{"type":"Feature","properties":{},"geometry":{"type":"Polygon","coordinates":[[[54.410973,24.481807],[54.411017,24.481846],[54.411061,24.481835],[54.411125,24.48189],[54.411026,24.481985],[54.41111,24.482058],[54.411307,24.482009],[54.411484,24.481839],[54.411116,24.48152],[54.41092,24.48157],[54.410746,24.481735],[54.410811,24.481791],[54.410709,24.481816],[54.41068,24.481845],[54.410719,24.481879],[54.410916,24.481829],[54.410945,24.481801],[54.410922,24.481782],[54.410986,24.481766],[54.411002,24.48178],[54.410973,24.481807]]]}},{"type":"Feature","properties":{},"geometry":{"type":"Polygon","coordinates":[[[54.412563,24.482207],[54.412739,24.481932],[54.412378,24.481741],[54.412182,24.481791],[54.412006,24.482065],[54.412366,24.482257],[54.412563,24.482207]]]}},{"type":"Feature","properties":{},"geometry":{"type":"Polygon","coordinates":[[[54.41143,24.482077],[54.411398,24.482052],[54.411202,24.482101],[54.411124,24.482182],[54.411155,24.482207],[54.411351,24.482158],[54.41143,24.482077]]]}},{"type":"Feature","properties":{},"geometry":{"type":"Polygon","coordinates":[[[54.410832,24.485218],[54.410636,24.485267],[54.410527,24.485325],[54.410577,24.485403],[54.410774,24.485354],[54.410882,24.485296],[54.410832,24.485218]]]}},{"type":"Feature","properties":{},"geometry":{"type":"Polygon","coordinates":[[[54.411168,24.48571],[54.411365,24.485661],[54.411468,24.48562],[54.411454,24.485589],[54.411257,24.485638],[54.411154,24.485679],[54.411168,24.48571]]]}},{"type":"Feature","properties":{},"geometry":{"type":"Polygon","coordinates":[[[54.411432,24.48566],[54.411179,24.485728],[54.411217,24.485825],[54.411471,24.485757],[54.411432,24.48566]]]}},{"type":"Feature","properties":{},"geometry":{"type":"Polygon","coordinates":[[[54.412816,24.487795],[54.412745,24.487759],[54.412516,24.487718],[54.412242,24.487705],[54.41216,24.487726],[54.412157,24.487708],[54.412019,24.48774],[54.411672,24.487832],[54.411385,24.488006],[54.411217,24.48818],[54.411375,24.488291],[54.411571,24.488241],[54.411636,24.488188],[54.411831,24.488523],[54.411777,24.488679],[54.411214,24.488505],[54.411018,24.488555],[54.410974,24.48865],[54.41116,24.488717],[54.411126,24.488882],[54.410978,24.488919],[54.410951,24.488981],[54.411001,24.489048],[54.411112,24.489045],[54.411237,24.48921],[54.411065,24.489302],[54.411118,24.489385],[54.411314,24.489336],[54.411843,24.489042],[54.411867,24.489088],[54.411294,24.489404],[54.411389,24.489557],[54.411457,24.48954],[54.411517,24.489643],[54.411776,24.489692],[54.411759,24.489768],[54.411924,24.489805],[54.41212,24.489755],[54.412276,24.489164],[54.412305,24.489157],[54.412606,24.489729],[54.412803,24.48968],[54.412956,24.4896],[54.412923,24.48955],[54.413136,24.489455],[54.413174,24.48937],[54.413261,24.489348],[54.413305,24.489173],[54.412728,24.488981],[54.413292,24.488897],[54.413489,24.488848],[54.413445,24.488556],[54.412861,24.488626],[54.412817,24.488588],[54.412649,24.48863],[54.412595,24.488585],[54.412673,24.488545],[54.412558,24.488398],[54.412659,24.488083],[54.412773,24.48815],[54.412969,24.488101],[54.413104,24.487954],[54.412823,24.487799],[54.413059,24.487741],[54.41306,24.487759],[54.413328,24.487749],[54.413524,24.4877],[54.413521,24.487621],[54.413488,24.487622],[54.413484,24.487536],[54.413516,24.487528],[54.413513,24.487454],[54.413325,24.487461],[54.4134,24.487443],[54.413388,24.487195],[54.413283,24.487199],[54.412911,24.487283],[54.412988,24.487501],[54.413121,24.487496],[54.413049,24.487514],[54.413051,24.487557],[54.413046,24.487541],[54.412763,24.487611],[54.412816,24.487795]],[[54.411987,24.487993],[54.412068,24.487973],[54.412173,24.487983],[54.412281,24.487962],[54.412187,24.488351],[54.411987,24.487993]],[[54.411867,24.489373],[54.411847,24.489467],[54.41175,24.489351],[54.411766,24.489342],[54.411766,24.489351],[54.411867,24.489373]],[[54.412831,24.489245],[54.412867,24.489256],[54.412849,24.489305],[54.412831,24.489245]]]}},{"type":"Feature","properties":{},"geometry":{"type":"Polygon","coordinates":[[[54.413587,24.48789],[54.413519,24.487893],[54.413323,24.487942],[54.413326,24.488004],[54.413394,24.488001],[54.41359,24.487952],[54.413587,24.48789]]]}},{"type":"Feature","properties":{},"geometry":{"type":"Polygon","coordinates":[[[54.415507,24.488019],[54.415555,24.488018],[54.415751,24.487968],[54.415747,24.487826],[54.415885,24.487791],[54.415887,24.487747],[54.415745,24.487774],[54.415494,24.487771],[54.415674,24.487726],[54.415671,24.487682],[54.415613,24.487685],[54.415416,24.487734],[54.415419,24.487771],[54.415123,24.487771],[54.414926,24.487821],[54.414926,24.487865],[54.414991,24.487865],[54.414991,24.488263],[54.415173,24.488262],[54.41537,24.488213],[54.41537,24.488011],[54.415506,24.48799],[54.415507,24.488019]]]}},{"type":"Feature","properties":{},"geometry":{"type":"Polygon","coordinates":[[[54.41466,24.488527],[54.414783,24.488524],[54.414979,24.488475],[54.414976,24.488355],[54.414856,24.488358],[54.414968,24.48833],[54.414972,24.488235],[54.414839,24.488231],[54.414643,24.488281],[54.41464,24.488376],[54.414769,24.488379],[54.414656,24.488408],[54.41466,24.488527]]]}},{"type":"Feature","properties":{},"geometry":{"type":"Polygon","coordinates":[[[54.415406,24.488436],[54.4155,24.488434],[54.415696,24.488385],[54.415695,24.488336],[54.415609,24.488338],[54.415714,24.488311],[54.41571,24.4882],[54.415648,24.488202],[54.415451,24.488251],[54.415453,24.488301],[54.415318,24.488314],[54.415121,24.488364],[54.415123,24.488447],[54.41524,24.488445],[54.415405,24.488404],[54.415406,24.488436]],[[54.415455,24.488363],[54.41551,24.488361],[54.415436,24.48838],[54.415435,24.488364],[54.415455,24.488363]]]}},{"type":"Feature","properties":{},"geometry":{"type":"Polygon","coordinates":[[[54.415431,24.488484],[54.415432,24.488438],[54.415216,24.488487],[54.415215,24.488533],[54.415431,24.488484]]]}},{"type":"Feature","properties":{},"geometry":{"type":"Polygon","coordinates":[[[54.415543,24.488642],[54.415463,24.488644],[54.415267,24.488693],[54.415268,24.488742],[54.415349,24.48874],[54.415545,24.48869],[54.415543,24.488642]]]}},{"type":"Feature","properties":{},"geometry":{"type":"Polygon","coordinates":[[[54.410551,24.488356],[54.410355,24.488406],[54.410357,24.488432],[54.410225,24.488466],[54.410227,24.488483],[54.410138,24.488492],[54.409942,24.488542],[54.409987,24.488977],[54.410454,24.488937],[54.41065,24.488887],[54.410641,24.4888],[54.410905,24.488745],[54.410862,24.48833],[54.410551,24.488356]]]}},{"type":"Feature","properties":{},"geometry":{"type":"Polygon","coordinates":[[[54.410426,24.489196],[54.410478,24.489665],[54.41063,24.489651],[54.410826,24.489601],[54.410762,24.489025],[54.410204,24.489076],[54.410008,24.489125],[54.41002,24.489233],[54.410426,24.489196]]]}},{"type":"Feature","properties":{},"geometry":{"type":"Polygon","coordinates":[[[54.410884,24.489736],[54.410835,24.489739],[54.410639,24.489789],[54.410642,24.489831],[54.410888,24.489778],[54.410884,24.489736]]]}},{"type":"Feature","properties":{},"geometry":{"type":"Polygon","coordinates":[[[54.41013,24.490139],[54.410689,24.490084],[54.410885,24.490035],[54.41087,24.489907],[54.41051,24.489942],[54.410508,24.489927],[54.410457,24.489932],[54.410405,24.48949],[54.410256,24.489504],[54.41006,24.489554],[54.41013,24.490139]]]}},{"type":"Feature","properties":{},"geometry":{"type":"Polygon","coordinates":[[[54.412502,24.490007],[54.412498,24.489945],[54.412428,24.489949],[54.412232,24.489998],[54.412236,24.490061],[54.412306,24.490057],[54.412502,24.490007]]]}},{"type":"Feature","properties":{},"geometry":{"type":"Polygon","coordinates":[[[54.411148,24.490662],[54.411052,24.490661],[54.410855,24.49071],[54.410855,24.490763],[54.410951,24.490764],[54.411147,24.490714],[54.411148,24.490662]]]}},{"type":"Feature","properties":{},"geometry":{"type":"Polygon","coordinates":[[[54.410952,24.491],[54.411026,24.490999],[54.411223,24.490949],[54.411221,24.490892],[54.411207,24.490892],[54.411224,24.490888],[54.411224,24.490795],[54.411155,24.490795],[54.410958,24.490845],[54.410958,24.490938],[54.410972,24.490938],[54.41095,24.490943],[54.410952,24.491]]]}},{"type":"Feature","properties":{},"geometry":{"type":"Polygon","coordinates":[[[54.412727,24.490689],[54.41272,24.491182],[54.413199,24.491188],[54.413395,24.491138],[54.413397,24.490975],[54.413113,24.490971],[54.413115,24.490862],[54.413214,24.490863],[54.413411,24.490814],[54.413413,24.490645],[54.412924,24.490639],[54.412727,24.490689]]]}},{"type":"Feature","properties":{},"geometry":{"type":"Polygon","coordinates":[[[54.41022,24.490867],[54.410216,24.491079],[54.410503,24.491083],[54.410699,24.491033],[54.410706,24.490766],[54.4106,24.490766],[54.41022,24.490867]]]}},{"type":"Feature","properties":{},"geometry":{"type":"Polygon","coordinates":[[[54.412875,24.491187],[54.412829,24.491185],[54.412633,24.491235],[54.412632,24.491274],[54.412677,24.491275],[54.412874,24.491226],[54.412875,24.491187]]]}},{"type":"Feature","properties":{},"geometry":{"type":"Polygon","coordinates":[[[54.411239,24.49124],[54.411219,24.491487],[54.411222,24.491426],[54.410988,24.491474],[54.410985,24.491551],[54.411218,24.491503],[54.411167,24.492149],[54.411663,24.492181],[54.41186,24.492132],[54.411931,24.491223],[54.411435,24.491191],[54.411239,24.49124]]]}},{"type":"Feature","properties":{},"geometry":{"type":"Polygon","coordinates":[[[54.41083,24.491311],[54.410457,24.491298],[54.410261,24.491348],[54.410247,24.491672],[54.41062,24.491685],[54.410816,24.491635],[54.41083,24.491311]]]}},{"type":"Feature","properties":{},"geometry":{"type":"Polygon","coordinates":[[[54.411989,24.491778],[54.412185,24.491729],[54.412186,24.491699],[54.412108,24.491697],[54.411912,24.491746],[54.411911,24.491776],[54.411989,24.491778]]]}},{"type":"Feature","properties":{},"geometry":{"type":"Polygon","coordinates":[[[54.411709,24.492296],[54.411581,24.492292],[54.411385,24.492342],[54.411382,24.492429],[54.411509,24.492433],[54.411706,24.492383],[54.411709,24.492296]]]}},{"type":"Feature","properties":{},"geometry":{"type":"Polygon","coordinates":[[[54.412155,24.492461],[54.411973,24.492459],[54.411777,24.492509],[54.411776,24.492606],[54.411958,24.492608],[54.412154,24.492558],[54.412155,24.492461]]]}},{"type":"Feature","properties":{},"geometry":{"type":"Polygon","coordinates":[[[54.415103,24.496914],[54.41501,24.49686],[54.414814,24.496909],[54.414703,24.497067],[54.414795,24.497121],[54.414992,24.497071],[54.415103,24.496914]]]}},{"type":"Feature","properties":{},"geometry":{"type":"Polygon","coordinates":[[[54.411943,24.498902],[54.412125,24.498673],[54.412019,24.498054],[54.412041,24.498045],[54.41181,24.4975],[54.411496,24.497386],[54.411206,24.497471],[54.411502,24.498232],[54.411628,24.498961],[54.411746,24.498952],[54.411943,24.498902]]]}},{"type":"Feature","properties":{},"geometry":{"type":"Polygon","coordinates":[[[54.410428,24.497758],[54.410414,24.49892],[54.410552,24.499067],[54.410796,24.499078],[54.410993,24.499029],[54.410985,24.497515],[54.410602,24.49761],[54.410428,24.497758]]]}},{"type":"Feature","properties":{},"geometry":{"type":"Polygon","coordinates":[[[54.41317,24.503099],[54.41329,24.502809],[54.413379,24.502328],[54.412899,24.502033],[54.412741,24.501881],[54.412655,24.501769],[54.412574,24.501625],[54.412526,24.501486],[54.411982,24.501472],[54.411491,24.501596],[54.411527,24.501796],[54.411574,24.50193],[54.411647,24.502113],[54.411731,24.50227],[54.411883,24.502478],[54.412138,24.502779],[54.412383,24.502944],[54.412522,24.503097],[54.412607,24.503242],[54.41317,24.503099]]]}},{"type":"Feature","properties":{},"geometry":{"type":"Polygon","coordinates":[[[54.411224,24.502679],[54.411155,24.502628],[54.411149,24.502248],[54.410947,24.502245],[54.410751,24.502294],[54.410717,24.502888],[54.41116,24.502914],[54.411356,24.502864],[54.411354,24.502702],[54.411343,24.502701],[54.411509,24.502659],[54.41151,24.502633],[54.411604,24.502773],[54.411376,24.502845],[54.411453,24.502996],[54.411649,24.502947],[54.411733,24.502911],[54.411699,24.502844],[54.411855,24.502805],[54.411957,24.502748],[54.411796,24.502509],[54.4116,24.502558],[54.41151,24.502608],[54.411511,24.502562],[54.41167,24.502522],[54.411742,24.502449],[54.411529,24.502276],[54.411332,24.502325],[54.411261,24.502398],[54.411437,24.502541],[54.411266,24.502584],[54.411264,24.502686],[54.411224,24.502679]]]}},{"type":"Feature","properties":{},"geometry":{"type":"Polygon","coordinates":[[[54.41514,24.5045],[54.41524,24.504474],[54.4152,24.504507],[54.415249,24.504557],[54.415445,24.504508],[54.41549,24.504472],[54.415443,24.504423],[54.415811,24.504331],[54.415988,24.504182],[54.415792,24.50402],[54.415658,24.504054],[54.41564,24.504033],[54.415446,24.504081],[54.415408,24.504032],[54.415335,24.50405],[54.415318,24.504036],[54.415424,24.504009],[54.415415,24.503972],[54.41516,24.504034],[54.415168,24.504067],[54.414963,24.504119],[54.414826,24.504005],[54.413664,24.504298],[54.413557,24.504404],[54.41284,24.504585],[54.412681,24.504742],[54.412858,24.504895],[54.414221,24.504551],[54.414283,24.504605],[54.415041,24.504414],[54.41514,24.5045]],[[54.415406,24.504109],[54.415399,24.504103],[54.415422,24.504098],[54.415406,24.504109]]]}},{"type":"Feature","properties":{},"geometry":{"type":"Polygon","coordinates":[[[54.415313,24.505155],[54.415377,24.50511],[54.415342,24.505069],[54.415325,24.505073],[54.415428,24.504987],[54.415309,24.504889],[54.415629,24.504809],[54.415806,24.50466],[54.41561,24.504498],[54.414808,24.5047],[54.414764,24.504745],[54.414671,24.504668],[54.413625,24.504932],[54.413466,24.505089],[54.413643,24.505242],[54.414293,24.505079],[54.414157,24.505214],[54.414334,24.505367],[54.415092,24.505176],[54.415117,24.505205],[54.415313,24.505155]],[[54.414753,24.504946],[54.414718,24.504955],[54.414741,24.504936],[54.414753,24.504946]]]}},{"type":"Feature","properties":{},"geometry":{"type":"Polygon","coordinates":[[[54.410773,24.506792],[54.410797,24.506728],[54.410732,24.506708],[54.410747,24.506615],[54.410678,24.506576],[54.410546,24.50654],[54.410371,24.50656],[54.410175,24.50661],[54.410102,24.50666],[54.410102,24.50671],[54.410139,24.506779],[54.410187,24.506789],[54.410305,24.506852],[54.410577,24.506842],[54.410773,24.506792]]]}},{"type":"Feature","properties":{},"geometry":{"type":"Polygon","coordinates":[[[54.41101,24.507189],[54.411043,24.506943],[54.410977,24.506911],[54.410651,24.506987],[54.410597,24.507043],[54.410536,24.507156],[54.41053,24.507316],[54.410573,24.507389],[54.410627,24.507398],[54.410904,24.507326],[54.410922,24.507285],[54.41101,24.507189]]]}},{"type":"Feature","properties":{},"geometry":{"type":"Polygon","coordinates":[[[54.410332,24.507855],[54.410313,24.507789],[54.410247,24.507805],[54.410204,24.507719],[54.410122,24.507721],[54.409793,24.507805],[54.409659,24.507909],[54.409629,24.507987],[54.409658,24.508029],[54.40973,24.508069],[54.4098,24.508051],[54.409914,24.508048],[54.41011,24.507998],[54.410185,24.50796],[54.410332,24.507855]]]}},{"type":"Feature","properties":{},"geometry":{"type":"Polygon","coordinates":[[[54.410813,24.508596],[54.410616,24.508646],[54.410613,24.508746],[54.410901,24.508755],[54.411097,24.508706],[54.4111,24.508608],[54.410813,24.508596]]]}},{"type":"Feature","properties":{},"geometry":{"type":"Polygon","coordinates":[[[54.411052,24.509033],[54.411046,24.509167],[54.410927,24.509197],[54.410925,24.509269],[54.411042,24.509252],[54.411038,24.509359],[54.411111,24.509356],[54.41111,24.509385],[54.41128,24.50939],[54.411362,24.509369],[54.411361,24.509435],[54.410723,24.509449],[54.410527,24.509499],[54.410531,24.509593],[54.411252,24.509573],[54.411673,24.509482],[54.411678,24.509265],[54.41156,24.509263],[54.411478,24.509283],[54.41148,24.509215],[54.411694,24.509167],[54.411703,24.508958],[54.41158,24.508954],[54.411462,24.508983],[54.411248,24.508984],[54.411052,24.509033]]]}},{"type":"Feature","properties":{},"geometry":{"type":"Polygon","coordinates":[[[54.41076,24.509063],[54.410698,24.509064],[54.410502,24.509114],[54.410504,24.50921],[54.410566,24.509209],[54.410762,24.50916],[54.41076,24.509063]]]}},{"type":"Feature","properties":{},"geometry":{"type":"Polygon","coordinates":[[[54.411355,24.509641],[54.411158,24.50969],[54.41106,24.50973],[54.411137,24.509887],[54.411333,24.509838],[54.411432,24.509798],[54.411355,24.509641]]]}},{"type":"Feature","properties":{},"geometry":{"type":"Polygon","coordinates":[[[54.418573,24.481898],[54.418529,24.481901],[54.418333,24.48195],[54.418334,24.481972],[54.418575,24.48192],[54.418573,24.481898]]]}},{"type":"Feature","properties":{},"geometry":{"type":"Polygon","coordinates":[[[54.418264,24.482334],[54.418246,24.482467],[54.418321,24.482475],[54.418237,24.482496],[54.418221,24.48263],[54.418547,24.482663],[54.418722,24.482619],[54.418931,24.482645],[54.418997,24.482628],[54.419112,24.482639],[54.418995,24.482671],[54.418957,24.482661],[54.418761,24.48271],[54.418733,24.482796],[54.418801,24.482815],[54.41871,24.482826],[54.418722,24.482713],[54.418396,24.482685],[54.4182,24.482735],[54.418186,24.48287],[54.418293,24.482879],[54.41817,24.48291],[54.418164,24.483032],[54.41849,24.483045],[54.418666,24.483],[54.418661,24.483044],[54.418993,24.483074],[54.419189,24.483025],[54.419193,24.482994],[54.419354,24.483011],[54.419493,24.482976],[54.419485,24.483034],[54.419561,24.483043],[54.419476,24.483064],[54.419464,24.483184],[54.419788,24.483212],[54.419882,24.483188],[54.419879,24.483212],[54.420218,24.483243],[54.420319,24.483217],[54.420311,24.483301],[54.42063,24.483327],[54.420826,24.483278],[54.420839,24.483149],[54.420768,24.483143],[54.420835,24.483127],[54.420852,24.483007],[54.420544,24.48297],[54.420347,24.483024],[54.420094,24.483],[54.419935,24.483038],[54.420003,24.48302],[54.42002,24.482891],[54.420103,24.48287],[54.420114,24.4828],[54.420318,24.48282],[54.420379,24.482805],[54.420372,24.482853],[54.4203,24.48283],[54.420103,24.482879],[54.420069,24.48297],[54.420157,24.482998],[54.420354,24.482948],[54.42037,24.482904],[54.420675,24.48294],[54.420871,24.48289],[54.420888,24.482769],[54.42078,24.482756],[54.420895,24.482727],[54.420916,24.482582],[54.420768,24.482566],[54.420926,24.482526],[54.420945,24.482404],[54.420838,24.48239],[54.420954,24.482361],[54.420967,24.48224],[54.420657,24.482212],[54.420503,24.48225],[54.42027,24.482219],[54.420214,24.482233],[54.420215,24.482222],[54.420132,24.482214],[54.420207,24.482195],[54.420214,24.482151],[54.420248,24.482159],[54.420444,24.482109],[54.420468,24.48202],[54.420378,24.481999],[54.420179,24.482058],[54.420073,24.482045],[54.420155,24.482024],[54.420161,24.481972],[54.420401,24.482],[54.420512,24.481972],[54.420511,24.481995],[54.420583,24.481999],[54.420501,24.48202],[54.420481,24.482143],[54.42079,24.482184],[54.420987,24.482135],[54.421007,24.482012],[54.420895,24.481997],[54.421032,24.481962],[54.42104,24.48183],[54.420715,24.481813],[54.420613,24.481839],[54.420621,24.481788],[54.420283,24.481748],[54.4202,24.481769],[54.420202,24.48172],[54.42007,24.481706],[54.419873,24.481755],[54.419867,24.481818],[54.420003,24.481821],[54.420086,24.4818],[54.420075,24.481879],[54.419851,24.481856],[54.419655,24.481906],[54.419639,24.482031],[54.419611,24.482038],[54.419618,24.481986],[54.419294,24.481947],[54.419098,24.481997],[54.41909,24.482051],[54.418884,24.482029],[54.418825,24.482043],[54.418837,24.481991],[54.418801,24.481985],[54.418604,24.482034],[54.418591,24.482096],[54.418494,24.482084],[54.418298,24.482134],[54.418279,24.482261],[54.418601,24.482301],[54.41846,24.482285],[54.418264,24.482334]],[[54.418798,24.482252],[54.41881,24.482172],[54.419,24.482193],[54.419057,24.482178],[54.419032,24.482355],[54.418842,24.482331],[54.41878,24.482346],[54.418784,24.482322],[54.418601,24.482301],[54.418798,24.482252]],[[54.419675,24.482302],[54.419658,24.482444],[54.419995,24.482476],[54.420047,24.482463],[54.420043,24.482486],[54.41984,24.482465],[54.419643,24.482515],[54.419619,24.48271],[54.419716,24.48272],[54.419605,24.482748],[54.419586,24.482879],[54.41956,24.482885],[54.419568,24.482829],[54.419409,24.482812],[54.419494,24.482791],[54.419514,24.482659],[54.419388,24.482643],[54.419525,24.482609],[54.419527,24.482589],[54.419598,24.482572],[54.419624,24.482308],[54.419675,24.482302]],[[54.420172,24.482529],[54.420175,24.482505],[54.420365,24.482528],[54.420423,24.482513],[54.42042,24.482534],[54.420223,24.482516],[54.420172,24.482529]],[[54.420543,24.482564],[54.420544,24.482552],[54.420575,24.482556],[54.420543,24.482564]],[[54.418653,24.482104],[54.418685,24.482096],[54.418684,24.482108],[54.418653,24.482104]],[[54.419713,24.482206],[54.419717,24.482207],[54.419713,24.482207],[54.419713,24.482206]],[[54.419176,24.482383],[54.419174,24.482403],[54.419157,24.482408],[54.419163,24.482373],[54.419197,24.482377],[54.419176,24.482383]],[[54.418849,24.482858],[54.418851,24.482817],[54.418977,24.482786],[54.418975,24.4828],[54.419142,24.482821],[54.419048,24.482844],[54.419045,24.482868],[54.418849,24.482858]]]}},{"type":"Feature","properties":{},"geometry":{"type":"Polygon","coordinates":[[[54.417324,24.487723],[54.417238,24.487724],[54.417042,24.487773],[54.417042,24.487819],[54.417128,24.487818],[54.417325,24.487769],[54.417324,24.487723]]]}},{"type":"Feature","properties":{},"geometry":{"type":"Polygon","coordinates":[[[54.416244,24.487954],[54.41616,24.487957],[54.416262,24.487931],[54.416254,24.487801],[54.41605,24.487812],[54.416102,24.487798],[54.416103,24.487769],[54.415997,24.487765],[54.415801,24.487815],[54.4158,24.487844],[54.41587,24.487846],[54.415801,24.487864],[54.415809,24.487994],[54.415894,24.487989],[54.415812,24.48801],[54.415813,24.488066],[54.416049,24.48806],[54.416245,24.48801],[54.416244,24.487954]]]}},{"type":"Feature","properties":{},"geometry":{"type":"Polygon","coordinates":[[[54.416594,24.488048],[54.416594,24.488038],[54.416666,24.48802],[54.416665,24.487971],[54.416443,24.487975],[54.416246,24.488024],[54.416246,24.488047],[54.416139,24.488074],[54.416152,24.488298],[54.416039,24.488326],[54.416038,24.488379],[54.415949,24.488402],[54.415953,24.488438],[54.416037,24.488424],[54.416035,24.488538],[54.41633,24.488543],[54.416454,24.488512],[54.416453,24.488527],[54.416497,24.488529],[54.416694,24.488479],[54.416696,24.488436],[54.416527,24.488457],[54.416723,24.488408],[54.416725,24.488369],[54.416499,24.48842],[54.416348,24.488417],[54.416349,24.488407],[54.416749,24.488305],[54.416748,24.488248],[54.416719,24.488248],[54.41675,24.488241],[54.416746,24.488148],[54.41661,24.488148],[54.416669,24.488133],[54.416665,24.488042],[54.416594,24.488048]],[[54.416274,24.488387],[54.416274,24.48835],[54.416279,24.48835],[54.416274,24.488387]]]}},{"type":"Feature","properties":{},"geometry":{"type":"Polygon","coordinates":[[[54.415869,24.489089],[54.416257,24.488988],[54.416252,24.488881],[54.416061,24.488923],[54.416058,24.48884],[54.415999,24.488841],[54.415803,24.488891],[54.41581,24.489091],[54.415869,24.489089]]]}},{"type":"Feature","properties":{},"geometry":{"type":"Polygon","coordinates":[[[54.415679,24.488851],[54.41562,24.488852],[54.415423,24.488901],[54.415427,24.489101],[54.415486,24.4891],[54.415683,24.489051],[54.415679,24.488851]]]}},{"type":"Feature","properties":{},"geometry":{"type":"Polygon","coordinates":[[[54.415525,24.489196],[54.41568,24.489188],[54.415876,24.489139],[54.415873,24.489095],[54.415719,24.489105],[54.415523,24.489155],[54.415525,24.489196]]]}},{"type":"Feature","properties":{},"geometry":{"type":"Polygon","coordinates":[[[54.415835,24.489171],[54.415784,24.489169],[54.415588,24.489219],[54.415585,24.489299],[54.415636,24.4893],[54.415833,24.489251],[54.415835,24.489171]]]}},{"type":"Feature","properties":{},"geometry":{"type":"Polygon","coordinates":[[[54.416267,24.489502],[54.415416,24.489523],[54.41522,24.489573],[54.415224,24.489726],[54.416095,24.489705],[54.416292,24.489655],[54.41629,24.489586],[54.416269,24.489586],[54.416267,24.489502]]]}},{"type":"Feature","properties":{},"geometry":{"type":"Polygon","coordinates":[[[54.416985,24.501951],[54.416862,24.501998],[54.417057,24.502139],[54.417254,24.502089],[54.41747,24.501885],[54.41724,24.501685],[54.417044,24.501735],[54.416966,24.501807],[54.417023,24.501868],[54.416985,24.501951]]]}},{"type":"Feature","properties":{},"geometry":{"type":"Polygon","coordinates":[[[54.416562,24.502014],[54.416758,24.501965],[54.416758,24.50195],[54.416865,24.501923],[54.41685,24.501875],[54.416375,24.501978],[54.416377,24.502024],[54.416562,24.502014]]]}},{"type":"Feature","properties":{},"geometry":{"type":"Polygon","coordinates":[[[54.417381,24.502437],[54.417577,24.502387],[54.417619,24.50236],[54.41759,24.502323],[54.417394,24.502372],[54.417352,24.5024],[54.417381,24.502437]]]}},{"type":"Feature","properties":{},"geometry":{"type":"Polygon","coordinates":[[[54.417932,24.502489],[54.417885,24.502453],[54.417689,24.502502],[54.417665,24.502528],[54.417712,24.502564],[54.417908,24.502514],[54.417932,24.502489]]]}},{"type":"Feature","properties":{},"geometry":{"type":"Polygon","coordinates":[[[54.415526,24.502419],[54.415501,24.502417],[54.415304,24.502466],[54.4153,24.502526],[54.415522,24.502478],[54.415526,24.502419]]]}},{"type":"Feature","properties":{},"geometry":{"type":"Polygon","coordinates":[[[54.417504,24.502442],[54.417421,24.502442],[54.417225,24.502491],[54.417225,24.502606],[54.417304,24.502611],[54.4175,24.502562],[54.417504,24.502442]]]}},{"type":"Feature","properties":{},"geometry":{"type":"Polygon","coordinates":[[[54.416995,24.502628],[54.416892,24.50263],[54.416696,24.502679],[54.416696,24.502704],[54.4168,24.502701],[54.416996,24.502652],[54.416995,24.502628]]]}},{"type":"Feature","properties":{},"geometry":{"type":"Polygon","coordinates":[[[54.415468,24.502603],[54.41539,24.502607],[54.415194,24.502657],[54.415196,24.50269],[54.415214,24.502689],[54.415199,24.502693],[54.415198,24.502731],[54.415269,24.502731],[54.415466,24.502682],[54.415466,24.502644],[54.415441,24.502644],[54.415469,24.502637],[54.415468,24.502603]]]}},{"type":"Feature","properties":{},"geometry":{"type":"Polygon","coordinates":[[[54.417408,24.502771],[54.417402,24.50271],[54.4173,24.502726],[54.417299,24.502712],[54.417054,24.502722],[54.417054,24.502707],[54.416945,24.502702],[54.416748,24.502752],[54.416745,24.502812],[54.416863,24.502814],[54.416864,24.502843],[54.417212,24.50282],[54.417408,24.502771]]]}},{"type":"Feature","properties":{},"geometry":{"type":"Polygon","coordinates":[[[54.415243,24.5029],[54.415251,24.50295],[54.415489,24.502897],[54.415489,24.502906],[54.415615,24.502911],[54.415811,24.502861],[54.415815,24.502783],[54.415689,24.502779],[54.415616,24.502797],[54.415618,24.502785],[54.415565,24.502779],[54.415462,24.502805],[54.415458,24.502778],[54.4152,24.502834],[54.415206,24.502888],[54.415401,24.50286],[54.415243,24.5029]]]}},{"type":"Feature","properties":{},"geometry":{"type":"Polygon","coordinates":[[[54.417069,24.503148],[54.417176,24.503152],[54.417372,24.503102],[54.417374,24.50306],[54.417267,24.503056],[54.417071,24.503105],[54.417069,24.503148]]]}},{"type":"Feature","properties":{},"geometry":{"type":"Polygon","coordinates":[[[54.417526,24.503139],[54.417465,24.503137],[54.417268,24.503186],[54.417265,24.503276],[54.417409,24.503278],[54.417605,24.503229],[54.417604,24.503168],[54.417525,24.503177],[54.417526,24.503139]]]}},{"type":"Feature","properties":{},"geometry":{"type":"Polygon","coordinates":[[[54.415728,24.503421],[54.415635,24.503418],[54.415438,24.503468],[54.415436,24.503523],[54.41553,24.503526],[54.415726,24.503477],[54.415728,24.503421]]]}},{"type":"Feature","properties":{},"geometry":{"type":"Polygon","coordinates":[[[54.415852,24.503558],[54.415809,24.503559],[54.415613,24.503608],[54.415616,24.503691],[54.415855,24.50364],[54.415852,24.503558]]]}},{"type":"Feature","properties":{},"geometry":{"type":"Polygon","coordinates":[[[54.417698,24.50357],[54.417468,24.503618],[54.41746,24.503835],[54.41769,24.503787],[54.417698,24.50357]]]}},{"type":"Feature","properties":{},"geometry":{"type":"Polygon","coordinates":[[[54.415784,24.50493],[54.415587,24.504979],[54.415541,24.505015],[54.415598,24.505076],[54.415794,24.505027],[54.415841,24.50499],[54.415784,24.50493]]]}},{"type":"Feature","properties":{},"geometry":{"type":"Polygon","coordinates":[[[54.418935,24.480072],[54.418939,24.480052],[54.418873,24.480042],[54.418677,24.480092],[54.418671,24.480128],[54.418747,24.480134],[54.418746,24.480181],[54.418783,24.480181],[54.41898,24.480132],[54.418981,24.480071],[54.418935,24.480072]]]}},{"type":"Feature","properties":{},"geometry":{"type":"Polygon","coordinates":[[[54.420657,24.480302],[54.42066,24.480236],[54.420569,24.480232],[54.420373,24.480282],[54.420366,24.480413],[54.420705,24.480438],[54.420901,24.480388],[54.420903,24.480342],[54.420695,24.480334],[54.420696,24.480302],[54.420657,24.480302]]]}},{"type":"Feature","properties":{},"geometry":{"type":"Polygon","coordinates":[[[54.419993,24.480828],[54.419929,24.480822],[54.419733,24.480872],[54.419727,24.480926],[54.419791,24.480932],[54.419987,24.480883],[54.419993,24.480828]]]}},{"type":"Feature","properties":{},"geometry":{"type":"Polygon","coordinates":[[[54.419748,24.48167],[54.419421,24.481631],[54.419318,24.481657],[54.419322,24.48163],[54.418982,24.481589],[54.418891,24.481612],[54.418898,24.481561],[54.418579,24.481524],[54.418382,24.481574],[54.418364,24.481708],[54.41844,24.481717],[54.418347,24.48174],[54.418353,24.48188],[54.418537,24.481874],[54.418624,24.481852],[54.418617,24.481899],[54.418659,24.481905],[54.418855,24.481855],[54.418863,24.481804],[54.419104,24.481833],[54.419207,24.481807],[54.419205,24.481817],[54.419532,24.481856],[54.419728,24.481807],[54.419748,24.48167]],[[54.41873,24.481743],[54.418685,24.481744],[54.418774,24.481722],[54.418764,24.481785],[54.418732,24.481794],[54.41873,24.481743]]]}},{"type":"Feature","properties":{},"geometry":{"type":"Polygon","coordinates":[[[54.41954,24.489259],[54.419432,24.489274],[54.419432,24.489265],[54.41933,24.489268],[54.419133,24.489317],[54.419135,24.489356],[54.419395,24.489337],[54.419395,24.489369],[54.419499,24.489368],[54.419695,24.489319],[54.419694,24.489265],[54.419541,24.489279],[54.41954,24.489259]]]}},{"type":"Feature","properties":{},"geometry":{"type":"Polygon","coordinates":[[[54.419077,24.489301],[54.418987,24.489305],[54.418791,24.489354],[54.418797,24.489478],[54.418887,24.489475],[54.419083,24.489425],[54.419077,24.489301]]]}},{"type":"Feature","properties":{},"geometry":{"type":"Polygon","coordinates":[[[54.419661,24.489381],[54.419557,24.489378],[54.41936,24.489428],[54.419357,24.48953],[54.419462,24.489533],[54.419658,24.489483],[54.419661,24.489381]]]}},{"type":"Feature","properties":{},"geometry":{"type":"Polygon","coordinates":[[[54.419183,24.489537],[54.41896,24.489589],[54.41897,24.489661],[54.419193,24.489609],[54.419183,24.489537]]]}},{"type":"Feature","properties":{},"geometry":{"type":"Polygon","coordinates":[[[54.419684,24.489774],[54.419563,24.489776],[54.419367,24.489826],[54.419368,24.489871],[54.419488,24.489868],[54.419685,24.489819],[54.419684,24.489774]]]}},{"type":"Feature","properties":{},"geometry":{"type":"Polygon","coordinates":[[[54.419188,24.49029],[54.419043,24.490326],[54.419044,24.49036],[54.41919,24.49034],[54.419191,24.490354],[54.419241,24.490353],[54.419377,24.490318],[54.419382,24.490347],[54.419466,24.490342],[54.419662,24.490293],[54.419659,24.490172],[54.419434,24.490218],[54.419432,24.490181],[54.419381,24.490183],[54.419185,24.490233],[54.419188,24.49029]]]}},{"type":"Feature","properties":{},"geometry":{"type":"Polygon","coordinates":[[[54.418021,24.502521],[54.418218,24.502471],[54.41842,24.502393],[54.418376,24.5023],[54.41818,24.502349],[54.417978,24.502428],[54.418021,24.502521]]]}}]}