{"type":"FeatureCollection","features":[{"type":"Feature","properties":{},"geometry":{"type":"Polygon","coordinates":[[[54.390733,24.482477],[54.39058,24.482459],[54.390563,24.482582],[54.390712,24.4826],[54.390733,24.482477]]]}},{"type":"Feature","properties":{},"geometry":{"type":"Polygon","coordinates":[[[54.390927,24.482822],[54.39105,24.482612],[54.390942,24.482565],[54.390825,24.482772],[54.390927,24.482822]]]}},{"type":"Feature","properties":{},"geometry":{"type":"Polygon","coordinates":[[[54.391043,24.482872],[54.391164,24.482666],[54.391062,24.48262],[54.390947,24.482828],[54.391043,24.482872]]]}},{"type":"Feature","properties":{},"geometry":{"type":"Polygon","coordinates":[[[54.390518,24.482654],[54.390461,24.482735],[54.390725,24.482878],[54.390781,24.482797],[54.390518,24.482654]]]}},{"type":"Feature","properties":{},"geometry":{"type":"Polygon","coordinates":[[[54.39121,24.482931],[54.391241,24.482881],[54.391398,24.482951],[54.391477,24.482807],[54.391195,24.48268],[54.391155,24.48275],[54.391256,24.482798],[54.391247,24.482816],[54.391264,24.482825],[54.391243,24.482863],[54.391191,24.482839],[54.39115,24.482902],[54.39121,24.482931]]]}},{"type":"Feature","properties":{},"geometry":{"type":"Polygon","coordinates":[[[54.389987,24.482899],[54.390077,24.48283],[54.389997,24.482755],[54.389907,24.482825],[54.389987,24.482899]]]}},{"type":"Feature","properties":{},"geometry":{"type":"Polygon","coordinates":[[[54.391682,24.483008],[54.391757,24.482889],[54.391509,24.482769],[54.391275,24.48317],[54.391518,24.483288],[54.391595,24.483165],[54.391505,24.483101],[54.391578,24.482981],[54.391626,24.483003],[54.391635,24.482987],[54.391682,24.483008]]]}},{"type":"Feature","properties":{},"geometry":{"type":"Polygon","coordinates":[[[54.392042,24.483006],[54.392022,24.483043],[54.392133,24.483095],[54.392156,24.483057],[54.392042,24.483006]]]}},{"type":"Feature","properties":{},"geometry":{"type":"Polygon","coordinates":[[[54.391056,24.482942],[54.390997,24.483025],[54.391253,24.483173],[54.391317,24.483091],[54.391056,24.482942]]]}},{"type":"Feature","properties":{},"geometry":{"type":"Polygon","coordinates":[[[54.392296,24.483082],[54.392174,24.483027],[54.392146,24.483078],[54.392258,24.483129],[54.392207,24.483218],[54.392276,24.483248],[54.392334,24.483146],[54.392282,24.48312],[54.392296,24.483082]]]}},{"type":"Feature","properties":{},"geometry":{"type":"Polygon","coordinates":[[[54.39239,24.48336],[54.392491,24.483185],[54.392379,24.483134],[54.392282,24.483312],[54.39239,24.48336]]]}},{"type":"Feature","properties":{},"geometry":{"type":"Polygon","coordinates":[[[54.391532,24.483387],[54.391516,24.483417],[54.391627,24.483462],[54.391642,24.483432],[54.391532,24.483387]]]}},{"type":"Feature","properties":{},"geometry":{"type":"Polygon","coordinates":[[[54.391423,24.483503],[54.391224,24.483358],[54.391015,24.483564],[54.391235,24.483716],[54.391315,24.483624],[54.39125,24.483572],[54.39127,24.483548],[54.391339,24.483599],[54.391423,24.483503]]]}},{"type":"Feature","properties":{},"geometry":{"type":"Polygon","coordinates":[[[54.391274,24.483685],[54.391186,24.48376],[54.391339,24.483902],[54.391426,24.483826],[54.391274,24.483685]]]}},{"type":"Feature","properties":{},"geometry":{"type":"Polygon","coordinates":[[[54.390771,24.484369],[54.39068,24.484447],[54.390814,24.484568],[54.390905,24.48449],[54.390771,24.484369]]]}},{"type":"Feature","properties":{},"geometry":{"type":"Polygon","coordinates":[[[54.392406,24.488973],[54.392607,24.489053],[54.392714,24.489126],[54.392905,24.489326],[54.393257,24.489185],[54.393272,24.489275],[54.393291,24.489282],[54.393822,24.489213],[54.393769,24.488876],[54.39375,24.488869],[54.393177,24.488944],[54.393117,24.488913],[54.393062,24.488853],[54.393036,24.488793],[54.393029,24.488729],[54.393043,24.488665],[54.393076,24.488608],[54.393125,24.488561],[54.3932,24.488525],[54.393726,24.488479],[54.393668,24.487924],[54.392872,24.487985],[54.392909,24.488341],[54.392656,24.488654],[54.392483,24.488575],[54.392314,24.488534],[54.392295,24.488626],[54.392215,24.488605],[54.392125,24.48894],[54.392406,24.488973]]]}},{"type":"Feature","properties":{},"geometry":{"type":"Polygon","coordinates":[[[54.392322,24.49094],[54.392395,24.490877],[54.392507,24.490877],[54.39257,24.490997],[54.392588,24.491004],[54.392998,24.490951],[54.39332,24.491137],[54.3934,24.491031],[54.393474,24.491116],[54.393566,24.49117],[54.393685,24.4912],[54.393753,24.491196],[54.393441,24.491575],[54.393494,24.491719],[54.39384,24.491955],[54.395063,24.490487],[54.394882,24.49037],[54.394497,24.490409],[54.394352,24.490468],[54.394068,24.490814],[54.394024,24.490709],[54.393951,24.490631],[54.393855,24.490578],[54.393757,24.490556],[54.393859,24.490501],[54.393997,24.490325],[54.39391,24.489821],[54.393519,24.489846],[54.393237,24.48969],[54.392995,24.489698],[54.392899,24.490086],[54.392856,24.490178],[54.392767,24.490289],[54.392729,24.490281],[54.392598,24.490361],[54.392349,24.490475],[54.392143,24.490511],[54.391935,24.490511],[54.391736,24.490465],[54.391721,24.490502],[54.391735,24.490577],[54.3917,24.4906],[54.391651,24.49071],[54.391724,24.490779],[54.391961,24.490829],[54.392322,24.49094]]]}},{"type":"Feature","properties":{},"geometry":{"type":"Polygon","coordinates":[[[54.392169,24.491164],[54.39221,24.49149],[54.392518,24.491465],[54.392503,24.491348],[54.392911,24.491305],[54.392884,24.491096],[54.392169,24.491164]]]}},{"type":"Feature","properties":{},"geometry":{"type":"Polygon","coordinates":[[[54.393005,24.491898],[54.392949,24.491537],[54.39246,24.491593],[54.392547,24.492146],[54.392978,24.492098],[54.393005,24.491898]]]}},{"type":"Feature","properties":{},"geometry":{"type":"Polygon","coordinates":[[[54.392823,24.492406],[54.392226,24.492479],[54.392288,24.492864],[54.392885,24.492792],[54.392823,24.492406]]]}},{"type":"Feature","properties":{},"geometry":{"type":"Polygon","coordinates":[[[54.39052,24.493044],[54.390708,24.492873],[54.390587,24.492771],[54.390399,24.492942],[54.39052,24.493044]]]}},{"type":"Feature","properties":{},"geometry":{"type":"Polygon","coordinates":[[[54.389311,24.493854],[54.389361,24.494209],[54.390186,24.49412],[54.390136,24.493766],[54.389311,24.493854]]]}},{"type":"Feature","properties":{},"geometry":{"type":"Polygon","coordinates":[[[54.392741,24.49608],[54.392756,24.496086],[54.392812,24.496043],[54.393671,24.495958],[54.393587,24.495321],[54.392676,24.495443],[54.392741,24.49608]]]}},{"type":"Feature","properties":{},"geometry":{"type":"Polygon","coordinates":[[[54.390205,24.496364],[54.390524,24.49635],[54.390521,24.496275],[54.390395,24.496273],[54.390391,24.496244],[54.390463,24.496237],[54.390449,24.496121],[54.390512,24.496115],[54.390514,24.496146],[54.390557,24.496151],[54.390568,24.496332],[54.390658,24.496334],[54.390645,24.496105],[54.390591,24.495682],[54.390109,24.495729],[54.390113,24.495837],[54.390241,24.495839],[54.39027,24.49607],[54.390244,24.496073],[54.390239,24.49603],[54.390224,24.496025],[54.390147,24.496033],[54.390156,24.496107],[54.390171,24.496113],[54.390205,24.496364]]]}},{"type":"Feature","properties":{},"geometry":{"type":"Polygon","coordinates":[[[54.391541,24.496979],[54.391543,24.497018],[54.391678,24.497018],[54.391677,24.496979],[54.391541,24.496979]]]}},{"type":"Feature","properties":{},"geometry":{"type":"Polygon","coordinates":[[[54.391422,24.496985],[54.391421,24.497019],[54.391511,24.497027],[54.391512,24.496992],[54.391422,24.496985]]]}},{"type":"Feature","properties":{},"geometry":{"type":"Polygon","coordinates":[[[54.391607,24.49709],[54.391615,24.497128],[54.391685,24.497123],[54.391677,24.497086],[54.391607,24.49709]]]}},{"type":"Feature","properties":{},"geometry":{"type":"Polygon","coordinates":[[[54.391186,24.49705],[54.391184,24.497144],[54.391319,24.497152],[54.391324,24.497058],[54.391186,24.49705]]]}},{"type":"Feature","properties":{},"geometry":{"type":"Polygon","coordinates":[[[54.391232,24.497178],[54.39123,24.497241],[54.391358,24.49725],[54.39136,24.497186],[54.391232,24.497178]]]}},{"type":"Feature","properties":{},"geometry":{"type":"Polygon","coordinates":[[[54.391368,24.497883],[54.391404,24.498122],[54.391497,24.498179],[54.391648,24.498234],[54.392064,24.498215],[54.392033,24.497997],[54.391505,24.497815],[54.391368,24.497883]]]}},{"type":"Feature","properties":{},"geometry":{"type":"Polygon","coordinates":[[[54.39337,24.498123],[54.393313,24.498116],[54.39331,24.498197],[54.393367,24.498203],[54.39337,24.498123]]]}},{"type":"Feature","properties":{},"geometry":{"type":"Polygon","coordinates":[[[54.389896,24.498215],[54.389941,24.498568],[54.390989,24.498467],[54.390944,24.498113],[54.389896,24.498215]]]}},{"type":"Feature","properties":{},"geometry":{"type":"Polygon","coordinates":[[[54.391623,24.500751],[54.39166,24.500999],[54.391936,24.500975],[54.391904,24.500732],[54.391623,24.500751]]]}},{"type":"Feature","properties":{},"geometry":{"type":"Polygon","coordinates":[[[54.390332,24.502527],[54.390406,24.5031],[54.390433,24.50311],[54.391185,24.503046],[54.391128,24.502532],[54.391446,24.50249],[54.391008,24.498853],[54.39098,24.498843],[54.389877,24.498968],[54.390312,24.502373],[54.389868,24.502417],[54.389887,24.502566],[54.38991,24.502575],[54.390332,24.502527]]]}},{"type":"Feature","properties":{},"geometry":{"type":"Polygon","coordinates":[[[54.392091,24.503633],[54.392099,24.503682],[54.392206,24.503675],[54.392198,24.503626],[54.392091,24.503633]]]}},{"type":"Feature","properties":{},"geometry":{"type":"Polygon","coordinates":[[[54.392463,24.503763],[54.392463,24.503812],[54.39257,24.503816],[54.392569,24.503767],[54.392463,24.503763]]]}},{"type":"Feature","properties":{},"geometry":{"type":"Polygon","coordinates":[[[54.392283,24.503734],[54.392105,24.503737],[54.392111,24.503839],[54.392289,24.503836],[54.392283,24.503734]]]}},{"type":"Feature","properties":{},"geometry":{"type":"Polygon","coordinates":[[[54.392347,24.503906],[54.392379,24.504127],[54.392605,24.504107],[54.392573,24.503886],[54.392347,24.503906]]]}},{"type":"Feature","properties":{},"geometry":{"type":"Polygon","coordinates":[[[54.392054,24.50394],[54.392065,24.504132],[54.39208,24.504138],[54.392131,24.504135],[54.392119,24.503943],[54.392054,24.50394]]]}},{"type":"Feature","properties":{},"geometry":{"type":"Polygon","coordinates":[[[54.392164,24.503927],[54.392222,24.504432],[54.392237,24.504437],[54.392344,24.504427],[54.392287,24.503922],[54.392164,24.503927]]]}},{"type":"Feature","properties":{},"geometry":{"type":"Polygon","coordinates":[[[54.392511,24.504268],[54.392523,24.504304],[54.392607,24.50429],[54.392595,24.504255],[54.392511,24.504268]]]}},{"type":"Feature","properties":{},"geometry":{"type":"Polygon","coordinates":[[[54.392381,24.504171],[54.392397,24.504407],[54.392412,24.504412],[54.392519,24.504406],[54.392503,24.504171],[54.392381,24.504171]]]}},{"type":"Feature","properties":{},"geometry":{"type":"Polygon","coordinates":[[[54.39209,24.504227],[54.392098,24.504395],[54.392113,24.504401],[54.392163,24.504399],[54.392155,24.504231],[54.39209,24.504227]]]}},{"type":"Feature","properties":{},"geometry":{"type":"Polygon","coordinates":[[[54.392177,24.504496],[54.39221,24.504771],[54.392668,24.504733],[54.392635,24.504458],[54.392177,24.504496]]]}},{"type":"Feature","properties":{},"geometry":{"type":"Polygon","coordinates":[[[54.392173,24.504863],[54.392181,24.504943],[54.392251,24.504944],[54.392243,24.504864],[54.392173,24.504863]]]}},{"type":"Feature","properties":{},"geometry":{"type":"Polygon","coordinates":[[[54.392452,24.504825],[54.392482,24.505074],[54.392497,24.505079],[54.392607,24.505069],[54.392578,24.50482],[54.392452,24.504825]]]}},{"type":"Feature","properties":{},"geometry":{"type":"Polygon","coordinates":[[[54.392319,24.505083],[54.392322,24.505193],[54.39245,24.505196],[54.392447,24.505087],[54.392319,24.505083]]]}},{"type":"Feature","properties":{},"geometry":{"type":"Polygon","coordinates":[[[54.392208,24.505104],[54.392211,24.505213],[54.392284,24.505218],[54.392281,24.505109],[54.392208,24.505104]]]}},{"type":"Feature","properties":{},"geometry":{"type":"Polygon","coordinates":[[[54.392522,24.505149],[54.392558,24.505648],[54.392573,24.505654],[54.392788,24.505641],[54.392752,24.505141],[54.392522,24.505149]]]}},{"type":"Feature","properties":{},"geometry":{"type":"Polygon","coordinates":[[[54.389795,24.505218],[54.389842,24.505811],[54.389857,24.505817],[54.390071,24.505803],[54.390044,24.505462],[54.390028,24.505456],[54.390008,24.50521],[54.389795,24.505218]]]}},{"type":"Feature","properties":{},"geometry":{"type":"Polygon","coordinates":[[[54.39177,24.50681],[54.391776,24.506856],[54.39188,24.506852],[54.391875,24.506806],[54.39177,24.50681]]]}},{"type":"Feature","properties":{},"geometry":{"type":"Polygon","coordinates":[[[54.391978,24.506869],[54.392001,24.506959],[54.392082,24.506951],[54.39207,24.506902],[54.392113,24.506893],[54.392103,24.506851],[54.391978,24.506869]]]}},{"type":"Feature","properties":{},"geometry":{"type":"Polygon","coordinates":[[[54.39188,24.506896],[54.391888,24.506957],[54.391939,24.506959],[54.391931,24.506898],[54.39188,24.506896]]]}},{"type":"Feature","properties":{},"geometry":{"type":"Polygon","coordinates":[[[54.39253,24.506794],[54.392556,24.507137],[54.392757,24.507131],[54.39273,24.506788],[54.39253,24.506794]]]}},{"type":"Feature","properties":{},"geometry":{"type":"Polygon","coordinates":[[[54.391814,24.507055],[54.391816,24.507144],[54.391957,24.507147],[54.391955,24.507058],[54.391814,24.507055]]]}},{"type":"Feature","properties":{},"geometry":{"type":"Polygon","coordinates":[[[54.392904,24.50716],[54.392911,24.507214],[54.393007,24.507211],[54.393,24.507157],[54.392904,24.50716]]]}},{"type":"Feature","properties":{},"geometry":{"type":"Polygon","coordinates":[[[54.391531,24.507352],[54.391541,24.50749],[54.391959,24.507471],[54.391949,24.507333],[54.391531,24.507352]]]}},{"type":"Feature","properties":{},"geometry":{"type":"Polygon","coordinates":[[[54.391047,24.507429],[54.391046,24.50751],[54.391194,24.507517],[54.391195,24.507436],[54.391047,24.507429]]]}},{"type":"Feature","properties":{},"geometry":{"type":"Polygon","coordinates":[[[54.393103,24.508731],[54.393231,24.50874],[54.393232,24.508705],[54.393104,24.508696],[54.393103,24.508714],[54.39297,24.508709],[54.39297,24.508739],[54.392986,24.508745],[54.393103,24.508742],[54.393103,24.508731]]]}},{"type":"Feature","properties":{},"geometry":{"type":"Polygon","coordinates":[[[54.393078,24.509783],[54.393106,24.509742],[54.393021,24.509696],[54.392992,24.509738],[54.393078,24.509783]]]}},{"type":"Feature","properties":{},"geometry":{"type":"Polygon","coordinates":[[[54.404697,24.481102],[54.40464,24.481125],[54.404658,24.48116],[54.404673,24.481165],[54.404729,24.481142],[54.404697,24.481102]]]}},{"type":"Feature","properties":{},"geometry":{"type":"Polygon","coordinates":[[[54.403932,24.481589],[54.40446,24.481319],[54.404298,24.481041],[54.404282,24.481036],[54.403673,24.48131],[54.403932,24.481589]]]}},{"type":"Feature","properties":{},"geometry":{"type":"Polygon","coordinates":[[[54.40312,24.483405],[54.403046,24.483188],[54.40328,24.483056],[54.403104,24.482716],[54.402779,24.482279],[54.402754,24.48227],[54.402448,24.482394],[54.402388,24.482365],[54.402402,24.482252],[54.402377,24.482242],[54.402291,24.482238],[54.401421,24.483154],[54.401422,24.483271],[54.401463,24.483334],[54.401663,24.483384],[54.401861,24.483299],[54.402176,24.483214],[54.402596,24.483225],[54.40312,24.483405]]]}},{"type":"Feature","properties":{},"geometry":{"type":"Polygon","coordinates":[[[54.404382,24.485279],[54.404488,24.485035],[54.404557,24.484816],[54.404555,24.48452],[54.403751,24.484451],[54.40362,24.484898],[54.403526,24.485074],[54.40334,24.485265],[54.403966,24.485806],[54.404163,24.485615],[54.404382,24.485279]]]}},{"type":"Feature","properties":{},"geometry":{"type":"Polygon","coordinates":[[[54.401222,24.486368],[54.400743,24.486123],[54.400631,24.486302],[54.40032,24.486616],[54.400169,24.486792],[54.400636,24.487122],[54.400769,24.487164],[54.400881,24.487122],[54.401222,24.486368]]]}},{"type":"Feature","properties":{},"geometry":{"type":"Polygon","coordinates":[[[54.404098,24.486299],[54.404023,24.48626],[54.403971,24.486254],[54.403234,24.486607],[54.403444,24.48716],[54.403478,24.487193],[54.403568,24.487221],[54.403805,24.487137],[54.404159,24.486947],[54.404427,24.48675],[54.404455,24.486711],[54.404446,24.486663],[54.404098,24.486299]],[[54.403966,24.486545],[54.404072,24.486675],[54.403651,24.486899],[54.403592,24.486735],[54.403966,24.486545]]]}},{"type":"Feature","properties":{},"geometry":{"type":"Polygon","coordinates":[[[54.395144,24.487174],[54.395019,24.487192],[54.39497,24.487235],[54.395012,24.487275],[54.394866,24.487404],[54.394906,24.48744],[54.394864,24.487477],[54.394986,24.48759],[54.395172,24.487659],[54.395556,24.487317],[54.395524,24.487287],[54.395256,24.487186],[54.395144,24.487174]]]}},{"type":"Feature","properties":{},"geometry":{"type":"Polygon","coordinates":[[[54.394113,24.487773],[54.394066,24.487813],[54.394198,24.487939],[54.394521,24.488303],[54.394536,24.488309],[54.394621,24.488242],[54.394793,24.488419],[54.394972,24.488485],[54.395047,24.488424],[54.395146,24.488461],[54.395363,24.488285],[54.39529,24.48821],[54.395387,24.488131],[54.395214,24.487954],[54.395051,24.487894],[54.394762,24.487478],[54.394635,24.487349],[54.39462,24.487343],[54.394578,24.487378],[54.394555,24.487364],[54.394369,24.487515],[54.394521,24.487665],[54.394431,24.487741],[54.394275,24.4876],[54.394095,24.487756],[54.394113,24.487773]]]}},{"type":"Feature","properties":{},"geometry":{"type":"Polygon","coordinates":[[[54.402895,24.489601],[54.40264,24.488142],[54.402288,24.488086],[54.401773,24.487981],[54.401156,24.487769],[54.400126,24.487309],[54.399558,24.48694],[54.398983,24.486508],[54.398968,24.486502],[54.397734,24.487851],[54.398874,24.488706],[54.400196,24.489399],[54.400981,24.489719],[54.401772,24.489889],[54.402615,24.489949],[54.402895,24.489601]]]}},{"type":"Feature","properties":{},"geometry":{"type":"Polygon","coordinates":[[[54.39483,24.48892],[54.394723,24.48888],[54.394717,24.488832],[54.394508,24.488755],[54.394327,24.488773],[54.394339,24.488873],[54.39419,24.488888],[54.394231,24.489235],[54.394393,24.489295],[54.394398,24.489338],[54.394607,24.489414],[54.394794,24.489396],[54.39478,24.489283],[54.394872,24.489274],[54.39483,24.48892]]]}},{"type":"Feature","properties":{},"geometry":{"type":"Polygon","coordinates":[[[54.394913,24.48965],[54.394806,24.48961],[54.3948,24.489561],[54.394592,24.489484],[54.39441,24.489501],[54.394421,24.489601],[54.394271,24.489615],[54.394312,24.489967],[54.394473,24.490026],[54.394481,24.490096],[54.39469,24.490173],[54.394878,24.490155],[54.394861,24.49001],[54.394954,24.490001],[54.394913,24.48965]]]}},{"type":"Feature","properties":{},"geometry":{"type":"Polygon","coordinates":[[[54.400417,24.490699],[54.400377,24.490434],[54.400058,24.490467],[54.400098,24.490732],[54.400417,24.490699]]]}},{"type":"Feature","properties":{},"geometry":{"type":"Polygon","coordinates":[[[54.395595,24.491113],[54.395797,24.490881],[54.395558,24.490709],[54.395387,24.490647],[54.395185,24.490879],[54.395424,24.49105],[54.395595,24.491113]]]}},{"type":"Feature","properties":{},"geometry":{"type":"Polygon","coordinates":[[[54.395186,24.491038],[54.395007,24.491243],[54.395249,24.491417],[54.395583,24.491525],[54.395684,24.491408],[54.395589,24.49134],[54.395632,24.49129],[54.395383,24.491111],[54.395186,24.491038]]]}},{"type":"Feature","properties":{},"geometry":{"type":"Polygon","coordinates":[[[54.395129,24.491547],[54.394932,24.491475],[54.394754,24.49168],[54.394995,24.491853],[54.39533,24.491961],[54.395431,24.491844],[54.395336,24.491776],[54.395379,24.491727],[54.395129,24.491547]]]}},{"type":"Feature","properties":{},"geometry":{"type":"Polygon","coordinates":[[[54.398498,24.491854],[54.398541,24.492176],[54.398556,24.492182],[54.398682,24.492163],[54.398639,24.491846],[54.398498,24.491854]]]}},{"type":"Feature","properties":{},"geometry":{"type":"Polygon","coordinates":[[[54.394946,24.49213],[54.39501,24.49205],[54.394857,24.491949],[54.394662,24.491877],[54.394639,24.491905],[54.394529,24.491865],[54.394395,24.492033],[54.394486,24.492093],[54.394448,24.492141],[54.394583,24.492231],[54.394778,24.492303],[54.394834,24.492232],[54.394947,24.492274],[54.395021,24.49218],[54.394946,24.49213]]]}},{"type":"Feature","properties":{},"geometry":{"type":"Polygon","coordinates":[[[54.398753,24.492225],[54.398781,24.49246],[54.39911,24.492426],[54.399097,24.492326],[54.399082,24.49232],[54.398862,24.492347],[54.39884,24.492221],[54.398753,24.492225]]]}},{"type":"Feature","properties":{},"geometry":{"type":"Polygon","coordinates":[[[54.393984,24.49204],[54.393805,24.492246],[54.394047,24.492419],[54.394379,24.492526],[54.39448,24.492409],[54.394385,24.492341],[54.394428,24.492291],[54.394178,24.492112],[54.393984,24.49204]]]}},{"type":"Feature","properties":{},"geometry":{"type":"Polygon","coordinates":[[[54.398617,24.49223],[54.398525,24.492233],[54.39857,24.492562],[54.398662,24.492559],[54.398617,24.49223]]]}},{"type":"Feature","properties":{},"geometry":{"type":"Polygon","coordinates":[[[54.395653,24.492258],[54.395588,24.492557],[54.396012,24.492637],[54.396078,24.492338],[54.395653,24.492258]]]}},{"type":"Feature","properties":{},"geometry":{"type":"Polygon","coordinates":[[[54.399918,24.49302],[54.399973,24.493406],[54.400719,24.493326],[54.400664,24.492941],[54.399918,24.49302]]]}},{"type":"Feature","properties":{},"geometry":{"type":"Polygon","coordinates":[[[54.403286,24.494063],[54.403322,24.494353],[54.403627,24.494329],[54.403653,24.494365],[54.403701,24.49439],[54.403772,24.494399],[54.40382,24.494379],[54.40406,24.494503],[54.404173,24.494326],[54.404281,24.494366],[54.404564,24.493922],[54.404408,24.493851],[54.404423,24.493827],[54.404413,24.493822],[54.404569,24.493576],[54.404542,24.493562],[54.404596,24.493477],[54.404418,24.493385],[54.404365,24.493468],[54.404296,24.493434],[54.404047,24.493458],[54.403979,24.493576],[54.403873,24.493527],[54.403722,24.493543],[54.403718,24.493515],[54.403703,24.493509],[54.403359,24.493544],[54.403368,24.493617],[54.403273,24.493627],[54.403326,24.494059],[54.403286,24.494063]]]}},{"type":"Feature","properties":{},"geometry":{"type":"Polygon","coordinates":[[[54.393597,24.494488],[54.393536,24.494488],[54.39353,24.494447],[54.393515,24.494441],[54.393367,24.494459],[54.393371,24.494483],[54.39331,24.49449],[54.393345,24.49473],[54.393629,24.494704],[54.393597,24.494488]]]}},{"type":"Feature","properties":{},"geometry":{"type":"Polygon","coordinates":[[[54.393632,24.495242],[54.393739,24.496008],[54.393879,24.496],[54.394084,24.495817],[54.3943,24.495792],[54.394215,24.495182],[54.393632,24.495242]]]}},{"type":"Feature","properties":{},"geometry":{"type":"Polygon","coordinates":[[[54.39431,24.497106],[54.39439,24.49739],[54.394656,24.497514],[54.394784,24.497448],[54.3949,24.497354],[54.394889,24.497279],[54.394933,24.497216],[54.395012,24.497178],[54.395045,24.497119],[54.394542,24.496821],[54.39431,24.497106]]]}},{"type":"Feature","properties":{},"geometry":{"type":"Polygon","coordinates":[[[54.405124,24.497186],[54.40519,24.49721],[54.405316,24.496909],[54.405444,24.496697],[54.405443,24.496404],[54.404485,24.49605],[54.404158,24.496949],[54.403928,24.497053],[54.404358,24.49798],[54.404389,24.497991],[54.404639,24.497784],[54.404755,24.497736],[54.404727,24.49768],[54.405124,24.497186]]]}},{"type":"Feature","properties":{},"geometry":{"type":"Polygon","coordinates":[[[54.404137,24.498111],[54.404151,24.498083],[54.404083,24.498057],[54.404069,24.498085],[54.404137,24.498111]]]}},{"type":"Feature","properties":{},"geometry":{"type":"Polygon","coordinates":[[[54.404086,24.498386],[54.404168,24.498298],[54.404191,24.498246],[54.404172,24.498214],[54.404186,24.498199],[54.4041,24.498137],[54.404081,24.49813],[54.40407,24.498144],[54.403978,24.498096],[54.403208,24.498413],[54.403016,24.498458],[54.402864,24.498563],[54.402757,24.498744],[54.40274,24.498873],[54.402759,24.498984],[54.402809,24.499041],[54.40277,24.499106],[54.402825,24.499141],[54.40285,24.499176],[54.402864,24.49922],[54.402856,24.499279],[54.403192,24.499403],[54.403358,24.499428],[54.403426,24.49942],[54.403154,24.499593],[54.403093,24.499605],[54.40308,24.499633],[54.403087,24.499668],[54.403154,24.499754],[54.403381,24.499851],[54.403476,24.499943],[54.403581,24.500013],[54.403726,24.500076],[54.403851,24.50011],[54.40398,24.500123],[54.40411,24.500117],[54.404135,24.500134],[54.404109,24.500161],[54.404113,24.500183],[54.404141,24.500206],[54.404323,24.50028],[54.404439,24.500281],[54.404483,24.500253],[54.404483,24.500286],[54.404503,24.500293],[54.404782,24.500274],[54.405209,24.500179],[54.405527,24.50003],[54.405658,24.500028],[54.405712,24.499988],[54.40572,24.499928],[54.405911,24.499777],[54.405958,24.499783],[54.40599,24.499766],[54.406015,24.499735],[54.406047,24.499633],[54.406275,24.499354],[54.406393,24.499145],[54.406494,24.498898],[54.406549,24.49861],[54.406565,24.498338],[54.406542,24.498114],[54.406464,24.497809],[54.405643,24.497652],[54.405791,24.497852],[54.405871,24.49802],[54.405922,24.498291],[54.40593,24.498508],[54.40592,24.498713],[54.405882,24.498867],[54.405791,24.499035],[54.405713,24.499138],[54.405491,24.499342],[54.405367,24.499437],[54.405053,24.499607],[54.404746,24.499696],[54.40449,24.499725],[54.404484,24.500216],[54.404468,24.500188],[54.404468,24.499855],[54.404484,24.499831],[54.404464,24.499797],[54.404214,24.499702],[54.4041,24.4997],[54.404072,24.499726],[54.404111,24.499771],[54.404069,24.499783],[54.404071,24.499825],[54.404049,24.499826],[54.403997,24.49972],[54.403922,24.499663],[54.403782,24.499624],[54.403805,24.499603],[54.403806,24.49956],[54.403783,24.499516],[54.403697,24.499431],[54.403574,24.499385],[54.403748,24.499281],[54.403851,24.499147],[54.4038,24.499106],[54.403771,24.499054],[54.403766,24.498978],[54.403448,24.498861],[54.403566,24.498708],[54.403672,24.498637],[54.403649,24.498586],[54.403946,24.49847],[54.404086,24.498386]],[[54.403734,24.499627],[54.403727,24.499628],[54.403727,24.499626],[54.403734,24.499627]]]}},{"type":"Feature","properties":{},"geometry":{"type":"Polygon","coordinates":[[[54.396073,24.498517],[54.39607,24.498583],[54.396142,24.49859],[54.396144,24.498524],[54.396073,24.498517]]]}},{"type":"Feature","properties":{},"geometry":{"type":"Polygon","coordinates":[[[54.404709,24.49931],[54.404882,24.499274],[54.404964,24.499305],[54.405045,24.49931],[54.405193,24.499288],[54.405265,24.499199],[54.405349,24.499128],[54.405415,24.499093],[54.40546,24.499043],[54.405477,24.498969],[54.405471,24.498892],[54.405428,24.498828],[54.405468,24.498747],[54.405469,24.498538],[54.405522,24.498508],[54.405546,24.498447],[54.405466,24.498116],[54.405417,24.498068],[54.405209,24.498001],[54.405129,24.498028],[54.405089,24.49808],[54.4051,24.498143],[54.405077,24.498165],[54.405047,24.498153],[54.404875,24.498333],[54.404851,24.498402],[54.404855,24.498473],[54.40483,24.498577],[54.404772,24.498671],[54.404698,24.498736],[54.404569,24.498791],[54.404451,24.498802],[54.404327,24.498776],[54.404234,24.498809],[54.404127,24.498878],[54.40417,24.49892],[54.404128,24.498955],[54.404065,24.498942],[54.404006,24.498969],[54.40397,24.499012],[54.403959,24.499091],[54.403992,24.499162],[54.404345,24.499302],[54.404479,24.499333],[54.404559,24.499307],[54.404709,24.49931]]]}},{"type":"Feature","properties":{},"geometry":{"type":"Polygon","coordinates":[[[54.393466,24.49866],[54.393621,24.499665],[54.395385,24.499477],[54.395275,24.498669],[54.395151,24.498548],[54.393466,24.49866]]]}},{"type":"Feature","properties":{},"geometry":{"type":"Polygon","coordinates":[[[54.395419,24.499844],[54.395447,24.499997],[54.395577,24.499986],[54.395549,24.499832],[54.395419,24.499844]]]}},{"type":"Feature","properties":{},"geometry":{"type":"Polygon","coordinates":[[[54.395241,24.500009],[54.395264,24.500113],[54.395279,24.500119],[54.395311,24.500113],[54.395288,24.500008],[54.395241,24.500009]]]}},{"type":"Feature","properties":{},"geometry":{"type":"Polygon","coordinates":[[[54.394931,24.500335],[54.394869,24.500337],[54.39489,24.500451],[54.394952,24.500449],[54.394931,24.500335]]]}},{"type":"Feature","properties":{},"geometry":{"type":"Polygon","coordinates":[[[54.394922,24.50055],[54.395064,24.501399],[54.395645,24.501326],[54.395503,24.500478],[54.394922,24.50055]]]}},{"type":"Feature","properties":{},"geometry":{"type":"Polygon","coordinates":[[[54.395661,24.501895],[54.395658,24.501997],[54.395759,24.502005],[54.395762,24.501903],[54.395661,24.501895]]]}},{"type":"Feature","properties":{},"geometry":{"type":"Polygon","coordinates":[[[54.395441,24.502211],[54.395492,24.502519],[54.395939,24.502466],[54.395888,24.502158],[54.395441,24.502211]]]}},{"type":"Feature","properties":{},"geometry":{"type":"Polygon","coordinates":[[[54.397401,24.504687],[54.397407,24.504788],[54.397494,24.50479],[54.397489,24.504689],[54.397401,24.504687]]]}},{"type":"Feature","properties":{},"geometry":{"type":"Polygon","coordinates":[[[54.393604,24.509096],[54.393607,24.509151],[54.393673,24.509154],[54.39367,24.509099],[54.393604,24.509096]]]}},{"type":"Feature","properties":{},"geometry":{"type":"Polygon","coordinates":[[[54.393159,24.509674],[54.393203,24.509653],[54.393182,24.509616],[54.393302,24.509793],[54.39364,24.509622],[54.393628,24.509602],[54.39381,24.509509],[54.393578,24.509131],[54.393563,24.509125],[54.393369,24.509224],[54.393418,24.509305],[54.393366,24.509245],[54.393317,24.509272],[54.393434,24.509442],[54.39345,24.509448],[54.393491,24.509424],[54.393505,24.509447],[54.393349,24.509527],[54.393311,24.509483],[54.393096,24.509587],[54.393159,24.509674]]]}},{"type":"Feature","properties":{},"geometry":{"type":"Polygon","coordinates":[[[54.393818,24.509388],[54.39387,24.509453],[54.393905,24.509436],[54.393868,24.509376],[54.393818,24.509388]]]}},{"type":"Feature","properties":{},"geometry":{"type":"Polygon","coordinates":[[[54.393334,24.509406],[54.393287,24.509433],[54.393351,24.509505],[54.393397,24.509478],[54.393334,24.509406]]]}},{"type":"Feature","properties":{},"geometry":{"type":"Polygon","coordinates":[[[54.394018,24.509606],[54.393978,24.509629],[54.394093,24.50978],[54.394134,24.509757],[54.394018,24.509606]]]}},{"type":"Feature","properties":{},"geometry":{"type":"Polygon","coordinates":[[[54.394143,24.509771],[54.394128,24.509765],[54.394031,24.509807],[54.394077,24.509894],[54.394092,24.509899],[54.394188,24.509858],[54.394143,24.509771]]]}},{"type":"Feature","properties":{},"geometry":{"type":"Polygon","coordinates":[[[54.393869,24.509955],[54.393874,24.509991],[54.393931,24.509991],[54.393926,24.509955],[54.393869,24.509955]]]}},{"type":"Feature","properties":{},"geometry":{"type":"Polygon","coordinates":[[[54.393894,24.51014],[54.39421,24.510004],[54.394179,24.509944],[54.394163,24.509938],[54.393848,24.510074],[54.393894,24.51014]]]}},{"type":"Feature","properties":{},"geometry":{"type":"Polygon","coordinates":[[[54.406339,24.480101],[54.40627,24.479993],[54.406445,24.479901],[54.406373,24.479805],[54.406277,24.479856],[54.406264,24.479835],[54.406296,24.479818],[54.406176,24.479648],[54.405927,24.479779],[54.405983,24.479867],[54.405776,24.479976],[54.405813,24.480035],[54.405737,24.480075],[54.4058,24.480173],[54.405822,24.480175],[54.40592,24.480311],[54.406339,24.480101]]]}},{"type":"Feature","properties":{},"geometry":{"type":"Polygon","coordinates":[[[54.406758,24.480082],[54.406851,24.480005],[54.406771,24.479935],[54.406679,24.480012],[54.406758,24.480082]]]}},{"type":"Feature","properties":{},"geometry":{"type":"Polygon","coordinates":[[[54.406499,24.480382],[54.406538,24.480302],[54.406404,24.480249],[54.406365,24.480328],[54.406499,24.480382]]]}},{"type":"Feature","properties":{},"geometry":{"type":"Polygon","coordinates":[[[54.406302,24.480389],[54.406291,24.480385],[54.406233,24.480433],[54.406308,24.480507],[54.406269,24.48054],[54.40624,24.480513],[54.406279,24.480482],[54.406226,24.480438],[54.406187,24.480469],[54.406196,24.480478],[54.406104,24.480529],[54.406136,24.480569],[54.406151,24.480574],[54.406175,24.480558],[54.406229,24.480602],[54.406265,24.480572],[54.406452,24.480747],[54.406598,24.480624],[54.406403,24.480438],[54.406409,24.480429],[54.406459,24.480456],[54.406494,24.480409],[54.406349,24.480324],[54.406302,24.480389]],[[54.406373,24.480457],[54.406332,24.480417],[54.406379,24.480445],[54.406373,24.480457]],[[54.406225,24.480508],[54.406224,24.480509],[54.406217,24.480501],[54.406225,24.480508]]]}},{"type":"Feature","properties":{},"geometry":{"type":"Polygon","coordinates":[[[54.405748,24.480415],[54.405672,24.480452],[54.405699,24.480497],[54.405715,24.480503],[54.40579,24.480465],[54.405748,24.480415]]]}},{"type":"Feature","properties":{},"geometry":{"type":"Polygon","coordinates":[[[54.405254,24.480782],[54.405236,24.480761],[54.405294,24.480719],[54.405345,24.480777],[54.405377,24.480771],[54.405404,24.48079],[54.405523,24.480703],[54.405382,24.480543],[54.405367,24.480537],[54.405269,24.480608],[54.405173,24.48051],[54.405033,24.480612],[54.404982,24.480566],[54.404751,24.480736],[54.404962,24.480964],[54.405129,24.480857],[54.405144,24.480863],[54.405254,24.480782]]]}},{"type":"Feature","properties":{},"geometry":{"type":"Polygon","coordinates":[[[54.406358,24.481559],[54.406292,24.481447],[54.406178,24.481406],[54.406001,24.481509],[54.405923,24.481577],[54.406003,24.481671],[54.406142,24.481883],[54.406228,24.481951],[54.406342,24.481993],[54.40657,24.481846],[54.406358,24.481559]]]}},{"type":"Feature","properties":{},"geometry":{"type":"Polygon","coordinates":[[[54.405846,24.481639],[54.405621,24.481752],[54.40558,24.481799],[54.405601,24.481854],[54.405747,24.481985],[54.405815,24.482137],[54.40588,24.482196],[54.405994,24.482238],[54.406234,24.482088],[54.406065,24.481905],[54.40596,24.481681],[54.405846,24.481639]]]}},{"type":"Feature","properties":{},"geometry":{"type":"Polygon","coordinates":[[[54.405398,24.481892],[54.40529,24.481997],[54.405261,24.482119],[54.405287,24.48226],[54.405336,24.482344],[54.405376,24.482359],[54.405417,24.48244],[54.405531,24.482481],[54.405765,24.482366],[54.405735,24.482265],[54.405701,24.482252],[54.405655,24.482049],[54.405512,24.481934],[54.405398,24.481892]]]}},{"type":"Feature","properties":{},"geometry":{"type":"Polygon","coordinates":[[[54.406353,24.482608],[54.40638,24.482604],[54.406708,24.483103],[54.406723,24.483109],[54.406899,24.483013],[54.406565,24.482504],[54.40654,24.482504],[54.406501,24.482451],[54.406485,24.482446],[54.40631,24.482553],[54.406319,24.482566],[54.406107,24.48267],[54.406158,24.482733],[54.406365,24.482627],[54.406353,24.482608]]]}},{"type":"Feature","properties":{},"geometry":{"type":"Polygon","coordinates":[[[54.405455,24.483133],[54.405126,24.483265],[54.405318,24.483913],[54.404939,24.484017],[54.404994,24.484359],[54.405009,24.484364],[54.405718,24.484376],[54.405718,24.483857],[54.40547,24.483138],[54.405455,24.483133]]]}},{"type":"Feature","properties":{},"geometry":{"type":"Polygon","coordinates":[[[54.405017,24.484393],[54.404939,24.484734],[54.405634,24.484878],[54.405758,24.484485],[54.405017,24.484393]]]}},{"type":"Feature","properties":{},"geometry":{"type":"Polygon","coordinates":[[[54.407057,24.485619],[54.407351,24.485332],[54.407277,24.485269],[54.407262,24.485263],[54.406967,24.48555],[54.407057,24.485619]]]}},{"type":"Feature","properties":{},"geometry":{"type":"Polygon","coordinates":[[[54.406833,24.485677],[54.406875,24.485616],[54.406754,24.485552],[54.406713,24.485613],[54.406833,24.485677]]]}},{"type":"Feature","properties":{},"geometry":{"type":"Polygon","coordinates":[[[54.405913,24.487459],[54.405832,24.487429],[54.405686,24.487602],[54.405983,24.487822],[54.406064,24.487852],[54.406208,24.487672],[54.405913,24.487459]]]}},{"type":"Feature","properties":{},"geometry":{"type":"Polygon","coordinates":[[[54.406903,24.488107],[54.406497,24.488337],[54.406792,24.488751],[54.407197,24.488521],[54.406903,24.488107]]]}},{"type":"Feature","properties":{},"geometry":{"type":"Polygon","coordinates":[[[54.406961,24.490292],[54.406989,24.490373],[54.407004,24.490378],[54.407069,24.490357],[54.407036,24.490276],[54.406961,24.490292]]]}},{"type":"Feature","properties":{},"geometry":{"type":"Polygon","coordinates":[[[54.406361,24.493094],[54.406491,24.492966],[54.406379,24.492879],[54.406249,24.493007],[54.406361,24.493094]]]}},{"type":"Feature","properties":{},"geometry":{"type":"Polygon","coordinates":[[[54.406247,24.492254],[54.405376,24.492715],[54.405341,24.492999],[54.406217,24.493734],[54.406543,24.493462],[54.405967,24.492984],[54.406331,24.492648],[54.406158,24.492527],[54.406371,24.492427],[54.406263,24.49226],[54.406247,24.492254]]]}},{"type":"Feature","properties":{},"geometry":{"type":"Polygon","coordinates":[[[54.406387,24.49535],[54.406432,24.495282],[54.40635,24.49524],[54.406305,24.495308],[54.406387,24.49535]]]}},{"type":"Feature","properties":{},"geometry":{"type":"Polygon","coordinates":[[[54.406598,24.495288],[54.406472,24.495298],[54.40649,24.495325],[54.406615,24.495322],[54.406613,24.495294],[54.406598,24.495288]]]}},{"type":"Feature","properties":{},"geometry":{"type":"Polygon","coordinates":[[[54.406562,24.495341],[54.406486,24.495406],[54.406611,24.495518],[54.406687,24.495453],[54.406562,24.495341]]]}},{"type":"Feature","properties":{},"geometry":{"type":"Polygon","coordinates":[[[54.406395,24.495503],[54.406312,24.495545],[54.40638,24.495639],[54.406463,24.495597],[54.406395,24.495503]]]}},{"type":"Feature","properties":{},"geometry":{"type":"Polygon","coordinates":[[[54.406414,24.495622],[54.406361,24.495724],[54.406561,24.495809],[54.406632,24.495671],[54.406485,24.495609],[54.406467,24.495644],[54.406414,24.495622]]]}},{"type":"Feature","properties":{},"geometry":{"type":"Polygon","coordinates":[[[54.406266,24.495824],[54.406312,24.495759],[54.40627,24.495738],[54.406224,24.495803],[54.406266,24.495824]]]}},{"type":"Feature","properties":{},"geometry":{"type":"Polygon","coordinates":[[[54.406167,24.495971],[54.406173,24.49601],[54.406202,24.496035],[54.406256,24.496048],[54.406254,24.496027],[54.406217,24.496013],[54.406205,24.495974],[54.406167,24.495971]]]}},{"type":"Feature","properties":{},"geometry":{"type":"Polygon","coordinates":[[[54.406327,24.496131],[54.406312,24.496158],[54.4064,24.496198],[54.406415,24.496171],[54.406327,24.496131]]]}},{"type":"Feature","properties":{},"geometry":{"type":"Polygon","coordinates":[[[54.405962,24.496854],[54.405897,24.496904],[54.405992,24.496999],[54.406059,24.496951],[54.405962,24.496854]]]}},{"type":"Feature","properties":{},"geometry":{"type":"Polygon","coordinates":[[[54.407014,24.496758],[54.406722,24.496827],[54.406805,24.497122],[54.406843,24.497136],[54.407105,24.497066],[54.407052,24.496772],[54.407014,24.496758]]]}},{"type":"Feature","properties":{},"geometry":{"type":"Polygon","coordinates":[[[54.406329,24.496853],[54.406432,24.497223],[54.406755,24.497148],[54.406671,24.496778],[54.406329,24.496853]]]}},{"type":"Feature","properties":{},"geometry":{"type":"Polygon","coordinates":[[[54.406022,24.497332],[54.4058,24.497287],[54.40574,24.497548],[54.406015,24.4976],[54.40603,24.497536],[54.406068,24.497545],[54.406104,24.497396],[54.406007,24.497378],[54.406022,24.497332]]]}},{"type":"Feature","properties":{},"geometry":{"type":"Polygon","coordinates":[[[54.406432,24.504537],[54.406428,24.504679],[54.406538,24.504687],[54.406541,24.504544],[54.406432,24.504537]]]}},{"type":"Feature","properties":{},"geometry":{"type":"Polygon","coordinates":[[[54.406088,24.504593],[54.406141,24.504759],[54.406156,24.504764],[54.406248,24.504744],[54.406199,24.504576],[54.406088,24.504593]]]}},{"type":"Feature","properties":{},"geometry":{"type":"Polygon","coordinates":[[[54.406967,24.505746],[54.406926,24.505604],[54.406813,24.505504],[54.406674,24.505453],[54.406641,24.505485],[54.406359,24.505245],[54.406344,24.50524],[54.406082,24.505495],[54.406379,24.50574],[54.406623,24.505504],[54.406428,24.5057],[54.406702,24.505922],[54.406841,24.505973],[54.406932,24.505868],[54.406967,24.505746]]]}},{"type":"Feature","properties":{},"geometry":{"type":"Polygon","coordinates":[[[54.405385,24.505424],[54.405291,24.505739],[54.405507,24.505794],[54.405601,24.505479],[54.405385,24.505424]]]}},{"type":"Feature","properties":{},"geometry":{"type":"Polygon","coordinates":[[[54.40549,24.505929],[54.405179,24.505828],[54.405064,24.506126],[54.405374,24.506226],[54.40549,24.505929]]]}},{"type":"Feature","properties":{},"geometry":{"type":"Polygon","coordinates":[[[54.405066,24.506279],[54.404973,24.506527],[54.405267,24.506619],[54.40536,24.506371],[54.405066,24.506279]]]}},{"type":"Feature","properties":{},"geometry":{"type":"Polygon","coordinates":[[[54.404948,24.50662],[54.404806,24.507019],[54.405077,24.507117],[54.405252,24.506721],[54.404948,24.50662]]]}},{"type":"Feature","properties":{},"geometry":{"type":"Polygon","coordinates":[[[54.404437,24.507235],[54.404404,24.507263],[54.404512,24.507359],[54.404545,24.507331],[54.404437,24.507235]]]}},{"type":"Feature","properties":{},"geometry":{"type":"Polygon","coordinates":[[[54.406644,24.507341],[54.406601,24.50737],[54.406736,24.507526],[54.406779,24.507498],[54.406644,24.507341]]]}},{"type":"Feature","properties":{},"geometry":{"type":"Polygon","coordinates":[[[54.405529,24.506966],[54.404898,24.508066],[54.404993,24.508131],[54.405144,24.508187],[54.405508,24.508124],[54.406013,24.507214],[54.406006,24.507134],[54.405593,24.506955],[54.405529,24.506966]]]}},{"type":"Feature","properties":{},"geometry":{"type":"Polygon","coordinates":[[[54.406367,24.507886],[54.406249,24.507993],[54.406645,24.508385],[54.406766,24.50843],[54.406878,24.508315],[54.406488,24.50793],[54.406367,24.507886]]]}},{"type":"Feature","properties":{},"geometry":{"type":"Polygon","coordinates":[[[54.406098,24.508287],[54.40598,24.508394],[54.406377,24.508786],[54.406498,24.508831],[54.40661,24.508716],[54.40622,24.508332],[54.406098,24.508287]]]}},{"type":"Feature","properties":{},"geometry":{"type":"Polygon","coordinates":[[[54.405724,24.508722],[54.406121,24.509114],[54.406242,24.509159],[54.406292,24.509107],[54.406359,24.509151],[54.406399,24.509106],[54.406338,24.50906],[54.406354,24.509044],[54.405964,24.508659],[54.405842,24.508615],[54.405724,24.508722]]]}},{"type":"Feature","properties":{},"geometry":{"type":"Polygon","coordinates":[[[54.405538,24.509739],[54.405719,24.509476],[54.405477,24.509367],[54.405403,24.50945],[54.405351,24.509415],[54.405231,24.509371],[54.405105,24.509539],[54.405253,24.509684],[54.405373,24.509728],[54.405418,24.509695],[54.405538,24.509739]]]}},{"type":"Feature","properties":{},"geometry":{"type":"Polygon","coordinates":[[[54.410443,24.479885],[54.410374,24.479952],[54.410539,24.480086],[54.410608,24.480019],[54.410443,24.479885]]]}},{"type":"Feature","properties":{},"geometry":{"type":"Polygon","coordinates":[[[54.407183,24.482071],[54.407041,24.482137],[54.407181,24.482327],[54.407302,24.482429],[54.407416,24.48261],[54.407542,24.482657],[54.407732,24.482585],[54.407774,24.482454],[54.407375,24.482009],[54.407249,24.481963],[54.407183,24.482071]]]}},{"type":"Feature","properties":{},"geometry":{"type":"Polygon","coordinates":[[[54.409307,24.482887],[54.409312,24.483001],[54.409423,24.483003],[54.409418,24.482889],[54.409307,24.482887]]]}},{"type":"Feature","properties":{},"geometry":{"type":"Polygon","coordinates":[[[54.408793,24.48444],[54.408584,24.484581],[54.408829,24.484883],[54.40891,24.484913],[54.409119,24.484772],[54.408874,24.48447],[54.408793,24.48444]]]}},{"type":"Feature","properties":{},"geometry":{"type":"Polygon","coordinates":[[[54.408683,24.485106],[54.408415,24.484807],[54.408334,24.484777],[54.408129,24.484931],[54.408142,24.484996],[54.408361,24.485107],[54.408441,24.485137],[54.408462,24.485125],[54.408489,24.48516],[54.40857,24.485189],[54.408683,24.485106]]]}},{"type":"Feature","properties":{},"geometry":{"type":"Polygon","coordinates":[[[54.408978,24.485684],[54.409057,24.485622],[54.409016,24.485579],[54.409001,24.485574],[54.408922,24.485635],[54.408978,24.485684]]]}},{"type":"Feature","properties":{},"geometry":{"type":"Polygon","coordinates":[[[54.407378,24.485639],[54.407698,24.485879],[54.407779,24.485909],[54.40797,24.48571],[54.407909,24.485661],[54.40784,24.485636],[54.407645,24.485475],[54.407564,24.485445],[54.407378,24.485639]]]}},{"type":"Feature","properties":{},"geometry":{"type":"Polygon","coordinates":[[[54.409397,24.485985],[54.409484,24.48606],[54.409657,24.486083],[54.40974,24.486059],[54.409823,24.485975],[54.409869,24.485897],[54.4099,24.485784],[54.409894,24.48568],[54.409867,24.485574],[54.410504,24.486668],[54.410537,24.48668],[54.410896,24.486512],[54.410396,24.485631],[54.410435,24.485605],[54.410446,24.485532],[54.410437,24.48548],[54.410388,24.485446],[54.410283,24.485459],[54.410283,24.485436],[54.410395,24.485434],[54.410437,24.485407],[54.410467,24.485334],[54.41101,24.485117],[54.410837,24.484798],[54.410804,24.484786],[54.409836,24.485253],[54.409804,24.485312],[54.409673,24.485244],[54.409599,24.48533],[54.409423,24.4854],[54.409337,24.485483],[54.4093,24.485577],[54.409298,24.485763],[54.409317,24.485856],[54.409397,24.485985]]]}},{"type":"Feature","properties":{},"geometry":{"type":"Polygon","coordinates":[[[54.409129,24.485845],[54.409144,24.485851],[54.409203,24.485816],[54.409122,24.4857],[54.409177,24.485668],[54.409152,24.485632],[54.409136,24.485626],[54.409022,24.485692],[54.409129,24.485845]]]}},{"type":"Feature","properties":{},"geometry":{"type":"Polygon","coordinates":[[[54.40762,24.48604],[54.407715,24.485937],[54.407651,24.485895],[54.407557,24.485997],[54.40762,24.48604]]]}},{"type":"Feature","properties":{},"geometry":{"type":"Polygon","coordinates":[[[54.409262,24.48737],[54.409247,24.487364],[54.408884,24.487647],[54.408334,24.48801],[54.408637,24.488493],[54.408652,24.488499],[54.409526,24.488063],[54.409375,24.48779],[54.40936,24.487784],[54.408641,24.488186],[54.408605,24.488128],[54.409378,24.487696],[54.409262,24.48737]]]}},{"type":"Feature","properties":{},"geometry":{"type":"Polygon","coordinates":[[[54.407318,24.487873],[54.406913,24.488103],[54.407207,24.488517],[54.407613,24.488287],[54.407318,24.487873]]]}},{"type":"Feature","properties":{},"geometry":{"type":"Polygon","coordinates":[[[54.410556,24.488405],[54.410422,24.488416],[54.410427,24.488464],[54.410138,24.488492],[54.410183,24.488928],[54.410666,24.488893],[54.410653,24.488773],[54.41092,24.48875],[54.410877,24.488335],[54.410551,24.488356],[54.410556,24.488405]]]}},{"type":"Feature","properties":{},"geometry":{"type":"Polygon","coordinates":[[[54.407768,24.488343],[54.407361,24.488562],[54.40766,24.488954],[54.408035,24.488724],[54.407768,24.488343]]]}},{"type":"Feature","properties":{},"geometry":{"type":"Polygon","coordinates":[[[54.407309,24.488565],[54.406903,24.488795],[54.407198,24.489208],[54.407604,24.488978],[54.407309,24.488565]]]}},{"type":"Feature","properties":{},"geometry":{"type":"Polygon","coordinates":[[[54.410216,24.489184],[54.410231,24.489189],[54.410623,24.489153],[54.410674,24.489615],[54.410841,24.489607],[54.410777,24.48903],[54.410204,24.489076],[54.410216,24.489184]]]}},{"type":"Feature","properties":{},"geometry":{"type":"Polygon","coordinates":[[[54.409236,24.491267],[54.409283,24.491269],[54.409287,24.491161],[54.409037,24.491149],[54.409036,24.491182],[54.408959,24.49118],[54.408947,24.491294],[54.409008,24.491301],[54.409007,24.491323],[54.409023,24.491329],[54.409234,24.491334],[54.409236,24.491267]]]}},{"type":"Feature","properties":{},"geometry":{"type":"Polygon","coordinates":[[[54.407294,24.494291],[54.407536,24.494453],[54.408571,24.495082],[54.408138,24.49572],[54.406894,24.495031],[54.406715,24.495524],[54.406613,24.496087],[54.406559,24.496192],[54.406567,24.496251],[54.406604,24.496287],[54.406975,24.496412],[54.407049,24.496407],[54.407156,24.496373],[54.40725,24.496322],[54.407362,24.496229],[54.407843,24.49627],[54.408226,24.496387],[54.408295,24.496258],[54.408526,24.496384],[54.408978,24.496546],[54.40916,24.496565],[54.409269,24.496535],[54.409301,24.496483],[54.409291,24.49642],[54.409225,24.49633],[54.409127,24.496249],[54.408913,24.496141],[54.4085,24.49599],[54.408523,24.495932],[54.408277,24.495798],[54.40871,24.49516],[54.409024,24.495316],[54.409324,24.495365],[54.409684,24.495345],[54.410027,24.495252],[54.409931,24.495072],[54.409886,24.495055],[54.409672,24.494572],[54.409566,24.494055],[54.409603,24.494037],[54.409598,24.493851],[54.409554,24.493835],[54.409537,24.493457],[54.409895,24.493362],[54.409866,24.493152],[54.409532,24.493029],[54.409064,24.493135],[54.408549,24.493307],[54.407982,24.493622],[54.407631,24.493885],[54.407294,24.494291]]]}},{"type":"Feature","properties":{},"geometry":{"type":"Polygon","coordinates":[[[54.408035,24.496764],[54.407724,24.496686],[54.407491,24.496658],[54.407468,24.497083],[54.407512,24.4971],[54.40815,24.497178],[54.408288,24.496851],[54.408035,24.496764]]]}},{"type":"Feature","properties":{},"geometry":{"type":"Polygon","coordinates":[[[54.407376,24.496766],[54.407136,24.496768],[54.407129,24.49706],[54.407173,24.497076],[54.407388,24.497097],[54.407421,24.496782],[54.407376,24.496766]]]}},{"type":"Feature","properties":{},"geometry":{"type":"Polygon","coordinates":[[[54.409385,24.496689],[54.408703,24.496994],[54.40838,24.496868],[54.408294,24.497078],[54.408709,24.497309],[54.408835,24.497355],[54.409656,24.496965],[54.409511,24.496735],[54.409385,24.496689]]]}},{"type":"Feature","properties":{},"geometry":{"type":"Polygon","coordinates":[[[54.408002,24.497236],[54.407959,24.497276],[54.408051,24.497341],[54.408111,24.497357],[54.408166,24.497325],[54.408105,24.497266],[54.408002,24.497236]]]}},{"type":"Feature","properties":{},"geometry":{"type":"Polygon","coordinates":[[[54.409493,24.497975],[54.409165,24.497863],[54.40899,24.49793],[54.408992,24.498391],[54.409071,24.498419],[54.409461,24.498353],[54.409493,24.497975]]]}},{"type":"Feature","properties":{},"geometry":{"type":"Polygon","coordinates":[[[54.408874,24.498774],[54.408929,24.498784],[54.40894,24.498616],[54.408852,24.4986],[54.408836,24.49866],[54.408874,24.498774]]]}},{"type":"Feature","properties":{},"geometry":{"type":"Polygon","coordinates":[[[54.40948,24.498785],[54.409435,24.498769],[54.408993,24.498738],[54.409005,24.499092],[54.408919,24.499457],[54.40932,24.499568],[54.409427,24.499182],[54.40948,24.498785]]]}},{"type":"Feature","properties":{},"geometry":{"type":"Polygon","coordinates":[[[54.409941,24.500302],[54.40999,24.499746],[54.410027,24.499516],[54.409993,24.499445],[54.4099,24.49938],[54.409787,24.499363],[54.409615,24.499373],[54.409548,24.499419],[54.409498,24.499556],[54.409349,24.50004],[54.4093,24.500253],[54.409341,24.500381],[54.409448,24.500454],[54.409628,24.500484],[54.409761,24.500482],[54.409886,24.500418],[54.409941,24.500302]]]}},{"type":"Feature","properties":{},"geometry":{"type":"Polygon","coordinates":[[[54.408085,24.500876],[54.408054,24.500908],[54.408053,24.500954],[54.408025,24.501013],[54.408063,24.501044],[54.408079,24.50105],[54.40813,24.500977],[54.408162,24.500892],[54.408085,24.500876]]]}},{"type":"Feature","properties":{},"geometry":{"type":"Polygon","coordinates":[[[54.408723,24.501471],[54.408679,24.501799],[54.408731,24.501922],[54.408767,24.501956],[54.409036,24.501968],[54.409354,24.501958],[54.409445,24.501928],[54.40956,24.501856],[54.409599,24.501752],[54.409625,24.501605],[54.40962,24.501436],[54.408723,24.501471]]]}},{"type":"Feature","properties":{},"geometry":{"type":"Polygon","coordinates":[[[54.408025,24.50174],[54.407696,24.502403],[54.408129,24.502582],[54.40831,24.502105],[54.408437,24.501863],[54.408025,24.50174]]]}},{"type":"Feature","properties":{},"geometry":{"type":"Polygon","coordinates":[[[54.407515,24.502391],[54.407507,24.502438],[54.407566,24.502453],[54.407623,24.502395],[54.407663,24.502319],[54.407586,24.50231],[54.407515,24.502391]]]}},{"type":"Feature","properties":{},"geometry":{"type":"Polygon","coordinates":[[[54.407278,24.502951],[54.40724,24.502926],[54.407116,24.503077],[54.407194,24.503118],[54.407325,24.503001],[54.40735,24.502999],[54.407418,24.502891],[54.407345,24.502871],[54.407278,24.502951]]]}},{"type":"Feature","properties":{},"geometry":{"type":"Polygon","coordinates":[[[54.40688,24.503364],[54.406917,24.503485],[54.406932,24.50349],[54.407012,24.503473],[54.406958,24.50335],[54.40688,24.503364]]]}},{"type":"Feature","properties":{},"geometry":{"type":"Polygon","coordinates":[[[54.40972,24.503497],[54.409576,24.503605],[54.409909,24.503972],[54.410029,24.504016],[54.410173,24.503907],[54.40984,24.503541],[54.40972,24.503497]]]}},{"type":"Feature","properties":{},"geometry":{"type":"Polygon","coordinates":[[[54.40715,24.503686],[54.407036,24.503648],[54.406985,24.503805],[54.407089,24.503834],[54.40715,24.503686]]]}},{"type":"Feature","properties":{},"geometry":{"type":"Polygon","coordinates":[[[54.409259,24.504094],[54.409054,24.504354],[54.409349,24.504692],[54.409526,24.504757],[54.409787,24.504458],[54.409436,24.504159],[54.409259,24.504094]]]}},{"type":"Feature","properties":{},"geometry":{"type":"Polygon","coordinates":[[[54.407866,24.505725],[54.407868,24.505818],[54.408048,24.505848],[54.408043,24.505747],[54.407866,24.505725]]]}},{"type":"Feature","properties":{},"geometry":{"type":"Polygon","coordinates":[[[54.409487,24.506181],[54.409602,24.506119],[54.409687,24.506027],[54.409732,24.505913],[54.409734,24.505792],[54.409695,24.505686],[54.409621,24.505596],[54.409521,24.505531],[54.409388,24.505493],[54.409265,24.505495],[54.409148,24.505532],[54.40905,24.505601],[54.408981,24.505693],[54.408947,24.505801],[54.408954,24.505922],[54.409005,24.506033],[54.409094,24.506123],[54.409226,24.506186],[54.409357,24.506204],[54.409487,24.506181]]]}},{"type":"Feature","properties":{},"geometry":{"type":"Polygon","coordinates":[[[54.407472,24.506231],[54.407244,24.506239],[54.407028,24.506464],[54.407336,24.506699],[54.407507,24.506762],[54.407799,24.506454],[54.407642,24.506294],[54.407472,24.506231]]]}},{"type":"Feature","properties":{},"geometry":{"type":"Polygon","coordinates":[[[54.407243,24.507344],[54.407345,24.507255],[54.406919,24.506861],[54.406822,24.506949],[54.406855,24.506983],[54.406749,24.507074],[54.406783,24.507111],[54.406677,24.507196],[54.407031,24.507519],[54.407132,24.507432],[54.407114,24.507415],[54.407217,24.507327],[54.407243,24.507344]]]}},{"type":"Feature","properties":{},"geometry":{"type":"Polygon","coordinates":[[[54.409708,24.507562],[54.409481,24.507344],[54.409287,24.507513],[54.409648,24.507874],[54.409663,24.50788],[54.409725,24.507838],[54.409708,24.507562]]]}},{"type":"Feature","properties":{},"geometry":{"type":"Polygon","coordinates":[[[54.407186,24.507813],[54.407216,24.50778],[54.407167,24.507749],[54.407137,24.507782],[54.407186,24.507813]]]}},{"type":"Feature","properties":{},"geometry":{"type":"Polygon","coordinates":[[[54.410328,24.507795],[54.410258,24.507802],[54.410219,24.507725],[54.410122,24.507721],[54.40999,24.507756],[54.409856,24.507859],[54.409825,24.507938],[54.409854,24.50798],[54.409942,24.508025],[54.409988,24.508009],[54.410125,24.508004],[54.410347,24.507861],[54.410328,24.507795]]]}},{"type":"Feature","properties":{},"geometry":{"type":"Polygon","coordinates":[[[54.40888,24.50792],[54.408846,24.507921],[54.408851,24.508027],[54.408905,24.508031],[54.408904,24.508],[54.408933,24.507999],[54.40894,24.507861],[54.408877,24.507857],[54.40888,24.50792]]]}},{"type":"Feature","properties":{},"geometry":{"type":"Polygon","coordinates":[[[54.409246,24.508238],[54.409336,24.508164],[54.409293,24.508121],[54.409278,24.508116],[54.409189,24.50819],[54.409246,24.508238]]]}},{"type":"Feature","properties":{},"geometry":{"type":"Polygon","coordinates":[[[54.409072,24.508716],[54.409133,24.50868],[54.409112,24.508651],[54.409147,24.50863],[54.409174,24.508651],[54.409349,24.508548],[54.409288,24.508462],[54.409273,24.508456],[54.409228,24.508483],[54.409158,24.5084],[54.409014,24.508484],[54.409061,24.50855],[54.408987,24.508608],[54.409005,24.508634],[54.408969,24.508655],[54.409,24.508698],[54.409041,24.508688],[54.409072,24.508716]]]}},{"type":"Feature","properties":{},"geometry":{"type":"Polygon","coordinates":[[[54.407565,24.508896],[54.40763,24.508846],[54.407603,24.508817],[54.407587,24.508811],[54.407523,24.508861],[54.407565,24.508896]]]}},{"type":"Feature","properties":{},"geometry":{"type":"Polygon","coordinates":[[[54.407708,24.508969],[54.407656,24.509013],[54.407827,24.509171],[54.407879,24.509127],[54.407708,24.508969]]]}},{"type":"Feature","properties":{},"geometry":{"type":"Polygon","coordinates":[[[54.407568,24.509838],[54.407702,24.509701],[54.407322,24.509344],[54.407258,24.509321],[54.407289,24.509291],[54.40717,24.509197],[54.407129,24.509238],[54.407204,24.509301],[54.40706,24.509435],[54.407446,24.509794],[54.407568,24.509838]]]}},{"type":"Feature","properties":{},"geometry":{"type":"Polygon","coordinates":[[[54.407538,24.50905],[54.407416,24.509159],[54.407784,24.509501],[54.407905,24.509546],[54.408021,24.509428],[54.407659,24.509095],[54.407538,24.50905]]]}},{"type":"Feature","properties":{},"geometry":{"type":"Polygon","coordinates":[[[54.406811,24.509574],[54.406652,24.509706],[54.407014,24.510038],[54.407136,24.510082],[54.407301,24.509966],[54.406932,24.509618],[54.406811,24.509574]]]}},{"type":"Feature","properties":{},"geometry":{"type":"Polygon","coordinates":[[[54.409862,24.510312],[54.410205,24.51],[54.410005,24.509826],[54.409662,24.510138],[54.409862,24.510312]]]}},{"type":"Feature","properties":{},"geometry":{"type":"Polygon","coordinates":[[[54.411321,24.481841],[54.411222,24.481936],[54.411322,24.482014],[54.411499,24.481844],[54.411131,24.481526],[54.411116,24.48152],[54.410943,24.481686],[54.411039,24.481762],[54.411132,24.481673],[54.411198,24.48173],[54.411169,24.481758],[54.411229,24.481802],[54.411251,24.48178],[54.411321,24.481841]]]}},{"type":"Feature","properties":{},"geometry":{"type":"Polygon","coordinates":[[[54.410906,24.481767],[54.410876,24.481795],[54.410931,24.481835],[54.41096,24.481807],[54.410906,24.481767]]]}},{"type":"Feature","properties":{},"geometry":{"type":"Polygon","coordinates":[[[54.412578,24.482213],[54.412754,24.481938],[54.412378,24.481741],[54.412202,24.482016],[54.412578,24.482213]]]}},{"type":"Feature","properties":{},"geometry":{"type":"Polygon","coordinates":[[[54.411366,24.482163],[54.411445,24.482083],[54.411414,24.482058],[54.411398,24.482052],[54.41132,24.482132],[54.411366,24.482163]]]}},{"type":"Feature","properties":{},"geometry":{"type":"Polygon","coordinates":[[[54.410832,24.485218],[54.410723,24.485276],[54.410774,24.485354],[54.410789,24.48536],[54.410897,24.485302],[54.410832,24.485218]]]}},{"type":"Feature","properties":{},"geometry":{"type":"Polygon","coordinates":[[[54.41138,24.485666],[54.411484,24.485625],[54.411469,24.485595],[54.411454,24.485589],[54.41135,24.48563],[54.41138,24.485666]]]}},{"type":"Feature","properties":{},"geometry":{"type":"Polygon","coordinates":[[[54.411375,24.485678],[54.411414,24.485776],[54.411429,24.485781],[54.411486,24.485763],[54.411447,24.485665],[54.411375,24.485678]]]}},{"type":"Feature","properties":{},"geometry":{"type":"Polygon","coordinates":[[[54.413107,24.487233],[54.413184,24.487452],[54.413415,24.487448],[54.413404,24.487201],[54.413283,24.487199],[54.413284,24.487227],[54.413107,24.487233]]]}},{"type":"Feature","properties":{},"geometry":{"type":"Polygon","coordinates":[[[54.413528,24.48746],[54.413513,24.487454],[54.413245,24.487464],[54.413256,24.48771],[54.413539,24.487705],[54.413536,24.487627],[54.413503,24.487622],[54.413499,24.487535],[54.413532,24.487534],[54.413528,24.48746]]]}},{"type":"Feature","properties":{},"geometry":{"type":"Polygon","coordinates":[[[54.413061,24.487547],[54.412959,24.487562],[54.413014,24.487751],[54.413116,24.487736],[54.413061,24.487547]]]}},{"type":"Feature","properties":{},"geometry":{"type":"Polygon","coordinates":[[[54.415613,24.487685],[54.415615,24.487729],[54.415689,24.487731],[54.415687,24.487687],[54.415613,24.487685]]]}},{"type":"Feature","properties":{},"geometry":{"type":"Polygon","coordinates":[[[54.413519,24.487893],[54.413522,24.487954],[54.413605,24.487957],[54.413602,24.487896],[54.413519,24.487893]]]}},{"type":"Feature","properties":{},"geometry":{"type":"Polygon","coordinates":[[[54.415635,24.487942],[54.415702,24.487946],[54.415703,24.48797],[54.415718,24.487975],[54.415767,24.487974],[54.41576,24.487772],[54.415123,24.487771],[54.415123,24.487815],[54.415187,24.487821],[54.415187,24.488213],[54.415385,24.488218],[54.415385,24.487967],[54.415634,24.487967],[54.415634,24.487906],[54.415635,24.487942]]]}},{"type":"Feature","properties":{},"geometry":{"type":"Polygon","coordinates":[[[54.414839,24.488231],[54.414836,24.488326],[54.414983,24.488336],[54.414987,24.48824],[54.414839,24.488231]]]}},{"type":"Feature","properties":{},"geometry":{"type":"Polygon","coordinates":[[[54.415472,24.488296],[54.415474,24.488334],[54.415583,24.488336],[54.415581,24.488298],[54.415472,24.488296]]]}},{"type":"Feature","properties":{},"geometry":{"type":"Polygon","coordinates":[[[54.415318,24.488314],[54.415319,24.488397],[54.415451,24.488401],[54.41545,24.488318],[54.415318,24.488314]]]}},{"type":"Feature","properties":{},"geometry":{"type":"Polygon","coordinates":[[[54.414852,24.488358],[54.414856,24.488478],[54.414994,24.48848],[54.414991,24.488361],[54.414852,24.488358]]]}},{"type":"Feature","properties":{},"geometry":{"type":"Polygon","coordinates":[[[54.415412,24.488438],[54.415411,24.488484],[54.415446,24.48849],[54.415447,24.488444],[54.415412,24.488438]]]}},{"type":"Feature","properties":{},"geometry":{"type":"Polygon","coordinates":[[[54.415463,24.488644],[54.415465,24.488693],[54.41556,24.488696],[54.415558,24.488647],[54.415463,24.488644]]]}},{"type":"Feature","properties":{},"geometry":{"type":"Polygon","coordinates":[[[54.411174,24.48887],[54.411147,24.488931],[54.411198,24.488999],[54.411313,24.489001],[54.411433,24.489161],[54.411262,24.489253],[54.411329,24.489341],[54.412021,24.488957],[54.412063,24.489038],[54.411491,24.489354],[54.411585,24.489507],[54.411654,24.489492],[54.411713,24.489593],[54.411972,24.489645],[54.411955,24.489719],[54.412135,24.489761],[54.4123,24.489133],[54.412427,24.489136],[54.412498,24.489101],[54.412803,24.48968],[54.412818,24.489686],[54.412971,24.489606],[54.412938,24.489555],[54.413151,24.48946],[54.413212,24.489323],[54.413276,24.489353],[54.41332,24.489178],[54.41267,24.488961],[54.412675,24.488901],[54.412895,24.488943],[54.413504,24.488854],[54.41346,24.488561],[54.413445,24.488556],[54.412868,24.488625],[54.412817,24.488588],[54.412688,24.488656],[54.41261,24.48859],[54.412688,24.488551],[54.412573,24.488403],[54.412711,24.487974],[54.412875,24.488042],[54.412984,24.488106],[54.413119,24.487959],[54.412745,24.487759],[54.412516,24.487718],[54.412242,24.487705],[54.412264,24.487925],[54.412384,24.487939],[54.412399,24.48791],[54.412476,24.487917],[54.412339,24.488484],[54.412279,24.488494],[54.411996,24.487989],[54.412198,24.487949],[54.412172,24.487714],[54.411868,24.487782],[54.411582,24.487957],[54.411414,24.48813],[54.411586,24.488247],[54.411795,24.488076],[54.412028,24.488474],[54.411938,24.488729],[54.411214,24.488505],[54.411171,24.4886],[54.411356,24.488668],[54.411319,24.488851],[54.411174,24.48887]],[[54.412026,24.489504],[54.411847,24.489467],[54.411765,24.489357],[54.411965,24.489243],[54.411962,24.489302],[54.412063,24.489326],[54.412026,24.489504]],[[54.412883,24.489151],[54.413063,24.489208],[54.413016,24.489333],[54.412899,24.489389],[54.412843,24.489262],[54.412883,24.489151]]]}},{"type":"Feature","properties":{},"geometry":{"type":"Polygon","coordinates":[[[54.410835,24.489739],[54.410839,24.489782],[54.410903,24.489784],[54.410899,24.489741],[54.410835,24.489739]]]}},{"type":"Feature","properties":{},"geometry":{"type":"Polygon","coordinates":[[[54.41042,24.489495],[54.410256,24.489504],[54.410326,24.49009],[54.4109,24.49004],[54.410885,24.489913],[54.41087,24.489907],[54.410524,24.489941],[54.410508,24.489927],[54.410472,24.48993],[54.41042,24.489495]]]}},{"type":"Feature","properties":{},"geometry":{"type":"Polygon","coordinates":[[[54.412428,24.489949],[54.412432,24.490011],[54.412517,24.490013],[54.412513,24.48995],[54.412428,24.489949]]]}},{"type":"Feature","properties":{},"geometry":{"type":"Polygon","coordinates":[[[54.411163,24.490667],[54.411052,24.490661],[54.411051,24.490713],[54.411163,24.49072],[54.411163,24.490667]]]}},{"type":"Feature","properties":{},"geometry":{"type":"Polygon","coordinates":[[[54.411238,24.490955],[54.411236,24.490898],[54.411225,24.490894],[54.411239,24.490894],[54.411239,24.490801],[54.411155,24.490795],[54.411155,24.490888],[54.411168,24.490893],[54.411147,24.490894],[54.411148,24.490951],[54.411238,24.490955]]]}},{"type":"Feature","properties":{},"geometry":{"type":"Polygon","coordinates":[[[54.413428,24.490651],[54.413413,24.490645],[54.412924,24.490639],[54.412916,24.491132],[54.41341,24.491144],[54.413413,24.49098],[54.413128,24.490971],[54.413131,24.490816],[54.413426,24.490819],[54.413428,24.490651]]]}},{"type":"Feature","properties":{},"geometry":{"type":"Polygon","coordinates":[[[54.410416,24.490817],[54.410413,24.49103],[54.410714,24.491039],[54.410721,24.490771],[54.4106,24.490766],[54.410598,24.490812],[54.410416,24.490817]]]}},{"type":"Feature","properties":{},"geometry":{"type":"Polygon","coordinates":[[[54.412829,24.491185],[54.412828,24.491224],[54.412889,24.491231],[54.41289,24.491192],[54.412829,24.491185]]]}},{"type":"Feature","properties":{},"geometry":{"type":"Polygon","coordinates":[[[54.411185,24.491424],[54.411181,24.491501],[54.411234,24.491508],[54.411237,24.491432],[54.411185,24.491424]]]}},{"type":"Feature","properties":{},"geometry":{"type":"Polygon","coordinates":[[[54.410845,24.491317],[54.410457,24.491298],[54.410444,24.491622],[54.410831,24.491641],[54.410845,24.491317]]]}},{"type":"Feature","properties":{},"geometry":{"type":"Polygon","coordinates":[[[54.411435,24.491191],[54.411364,24.492099],[54.411875,24.492137],[54.411946,24.491228],[54.411435,24.491191]]]}},{"type":"Feature","properties":{},"geometry":{"type":"Polygon","coordinates":[[[54.412108,24.491697],[54.412107,24.491726],[54.4122,24.491734],[54.412201,24.491705],[54.412108,24.491697]]]}},{"type":"Feature","properties":{},"geometry":{"type":"Polygon","coordinates":[[[54.411581,24.492292],[54.411578,24.49238],[54.411721,24.492389],[54.411724,24.492301],[54.411581,24.492292]]]}},{"type":"Feature","properties":{},"geometry":{"type":"Polygon","coordinates":[[[54.411973,24.492459],[54.411972,24.492557],[54.412169,24.492564],[54.41217,24.492466],[54.411973,24.492459]]]}},{"type":"Feature","properties":{},"geometry":{"type":"Polygon","coordinates":[[[54.410876,24.496225],[54.410715,24.496035],[54.410614,24.495998],[54.410524,24.496051],[54.410438,24.495975],[54.410337,24.495938],[54.410046,24.496169],[54.41015,24.496288],[54.410069,24.496343],[54.410179,24.496484],[54.41028,24.496521],[54.410444,24.496418],[54.410348,24.496293],[54.410472,24.496187],[54.410552,24.496292],[54.410653,24.496329],[54.410876,24.496225]]]}},{"type":"Feature","properties":{},"geometry":{"type":"Polygon","coordinates":[[[54.415007,24.497077],[54.415118,24.496919],[54.41501,24.49686],[54.4149,24.497017],[54.415007,24.497077]]]}},{"type":"Feature","properties":{},"geometry":{"type":"Polygon","coordinates":[[[54.411825,24.497506],[54.411496,24.497386],[54.411403,24.497422],[54.411699,24.498182],[54.411825,24.498912],[54.41184,24.498917],[54.411958,24.498908],[54.41214,24.498678],[54.412034,24.498059],[54.412057,24.49805],[54.411825,24.497506]]]}},{"type":"Feature","properties":{},"geometry":{"type":"Polygon","coordinates":[[[54.410624,24.497708],[54.41061,24.498871],[54.410748,24.499018],[54.411008,24.499034],[54.411001,24.497521],[54.410798,24.49756],[54.410624,24.497708]]]}},{"type":"Feature","properties":{},"geometry":{"type":"Polygon","coordinates":[[[54.410436,24.501607],[54.410335,24.501603],[54.410333,24.501852],[54.410447,24.501893],[54.410547,24.501895],[54.410546,24.501832],[54.410682,24.501833],[54.410687,24.501608],[54.410656,24.501596],[54.410658,24.501565],[54.410544,24.501523],[54.410437,24.50152],[54.410436,24.501607]]]}},{"type":"Feature","properties":{},"geometry":{"type":"Polygon","coordinates":[[[54.413013,24.502973],[54.413098,24.503119],[54.413136,24.503133],[54.413208,24.503113],[54.413328,24.502823],[54.413417,24.502342],[54.412937,24.502047],[54.412778,24.501895],[54.412693,24.501783],[54.412612,24.501639],[54.412564,24.5015],[54.412526,24.501486],[54.411982,24.501472],[54.412018,24.501673],[54.412065,24.501807],[54.412137,24.50199],[54.412222,24.502147],[54.412374,24.502354],[54.412629,24.502656],[54.412874,24.50282],[54.413013,24.502973]]]}},{"type":"Feature","properties":{},"geometry":{"type":"Polygon","coordinates":[[[54.411529,24.502276],[54.411457,24.502349],[54.411685,24.502528],[54.411757,24.502455],[54.411529,24.502276]]]}},{"type":"Feature","properties":{},"geometry":{"type":"Polygon","coordinates":[[[54.411164,24.502254],[54.410947,24.502245],[54.410913,24.502838],[54.411371,24.50287],[54.411369,24.502708],[54.411234,24.502681],[54.41117,24.502633],[54.411164,24.502254]]]}},{"type":"Feature","properties":{},"geometry":{"type":"Polygon","coordinates":[[[54.411463,24.502535],[54.41146,24.502658],[54.411524,24.502664],[54.411527,24.502541],[54.411463,24.502535]]]}},{"type":"Feature","properties":{},"geometry":{"type":"Polygon","coordinates":[[[54.411796,24.502509],[54.411694,24.502566],[54.41187,24.50281],[54.411972,24.502753],[54.411796,24.502509]]]}},{"type":"Feature","properties":{},"geometry":{"type":"Polygon","coordinates":[[[54.411657,24.50276],[54.411573,24.502795],[54.411649,24.502947],[54.411664,24.502952],[54.411748,24.502917],[54.411672,24.502765],[54.411657,24.50276]]]}},{"type":"Feature","properties":{},"geometry":{"type":"Polygon","coordinates":[[[54.414934,24.504349],[54.415111,24.5042],[54.414915,24.504039],[54.414826,24.504005],[54.414667,24.504163],[54.414844,24.504316],[54.414934,24.504349]]]}},{"type":"Feature","properties":{},"geometry":{"type":"Polygon","coordinates":[[[54.410705,24.504046],[54.410233,24.503968],[54.410201,24.504126],[54.410321,24.504171],[54.410793,24.504249],[54.410825,24.50409],[54.410705,24.504046]]]}},{"type":"Feature","properties":{},"geometry":{"type":"Polygon","coordinates":[[[54.414444,24.504566],[54.414622,24.504417],[54.414426,24.504256],[54.414312,24.504214],[54.414153,24.504371],[54.414331,24.504524],[54.414444,24.504566]]]}},{"type":"Feature","properties":{},"geometry":{"type":"Polygon","coordinates":[[[54.414771,24.505008],[54.414948,24.50486],[54.414752,24.504698],[54.414671,24.504668],[54.414513,24.504826],[54.41469,24.504979],[54.414771,24.505008]]]}},{"type":"Feature","properties":{},"geometry":{"type":"Polygon","coordinates":[[[54.415328,24.505161],[54.415499,24.505013],[54.415303,24.504852],[54.415232,24.504826],[54.415073,24.504983],[54.415251,24.505136],[54.415328,24.505161]]]}},{"type":"Feature","properties":{},"geometry":{"type":"Polygon","coordinates":[[[54.410788,24.506798],[54.410812,24.506733],[54.410748,24.506713],[54.410762,24.50662],[54.410693,24.506581],[54.410546,24.50654],[54.410371,24.50656],[54.410298,24.506611],[54.410298,24.506661],[54.410335,24.50673],[54.410393,24.506744],[54.410517,24.506808],[54.410788,24.506798]]]}},{"type":"Feature","properties":{},"geometry":{"type":"Polygon","coordinates":[[[54.411059,24.506949],[54.410977,24.506911],[54.410945,24.506966],[54.410847,24.506938],[54.410793,24.506994],[54.410732,24.507106],[54.410726,24.507266],[54.410769,24.50734],[54.410838,24.507354],[54.410919,24.507332],[54.410937,24.50729],[54.411025,24.507194],[54.411059,24.506949]]]}},{"type":"Feature","properties":{},"geometry":{"type":"Polygon","coordinates":[[[54.410813,24.508596],[54.410809,24.508696],[54.411113,24.508711],[54.411116,24.508614],[54.410813,24.508596]]]}},{"type":"Feature","properties":{},"geometry":{"type":"Polygon","coordinates":[[[54.41158,24.508954],[54.411571,24.509162],[54.411709,24.509172],[54.411718,24.508964],[54.41158,24.508954]]]}},{"type":"Feature","properties":{},"geometry":{"type":"Polygon","coordinates":[[[54.410698,24.509064],[54.4107,24.509161],[54.410777,24.509165],[54.410775,24.509069],[54.410698,24.509064]]]}},{"type":"Feature","properties":{},"geometry":{"type":"Polygon","coordinates":[[[54.411248,24.508984],[54.411234,24.509309],[54.411249,24.509315],[54.411303,24.509317],[54.411317,24.508991],[54.411248,24.508984]]]}},{"type":"Feature","properties":{},"geometry":{"type":"Polygon","coordinates":[[[54.411502,24.50899],[54.411317,24.50898],[54.411307,24.509336],[54.411492,24.509346],[54.411502,24.50899]]]}},{"type":"Feature","properties":{},"geometry":{"type":"Polygon","coordinates":[[[54.411123,24.509147],[54.411122,24.509219],[54.411185,24.509226],[54.411186,24.509154],[54.411123,24.509147]]]}},{"type":"Feature","properties":{},"geometry":{"type":"Polygon","coordinates":[[[54.41156,24.509263],[54.411555,24.50948],[54.411688,24.509487],[54.411693,24.50927],[54.41156,24.509263]]]}},{"type":"Feature","properties":{},"geometry":{"type":"Polygon","coordinates":[[[54.411463,24.509529],[54.41146,24.509438],[54.410723,24.509449],[54.410727,24.509544],[54.411463,24.509529]]]}},{"type":"Feature","properties":{},"geometry":{"type":"Polygon","coordinates":[[[54.411355,24.509641],[54.411256,24.509681],[54.411333,24.509838],[54.411348,24.509843],[54.411447,24.509803],[54.41137,24.509647],[54.411355,24.509641]]]}},{"type":"Feature","properties":{},"geometry":{"type":"Polygon","coordinates":[[[54.418529,24.481901],[54.41853,24.481923],[54.41859,24.481926],[54.418588,24.481904],[54.418529,24.481901]]]}},{"type":"Feature","properties":{},"geometry":{"type":"Polygon","coordinates":[[[54.418799,24.482328],[54.41846,24.482285],[54.418442,24.482417],[54.41878,24.48246],[54.418799,24.482328]]]}},{"type":"Feature","properties":{},"geometry":{"type":"Polygon","coordinates":[[[54.418434,24.482447],[54.418417,24.482581],[54.418758,24.482619],[54.418775,24.482485],[54.418434,24.482447]]]}},{"type":"Feature","properties":{},"geometry":{"type":"Polygon","coordinates":[[[54.418396,24.482685],[54.418382,24.482821],[54.418723,24.482854],[54.418737,24.482718],[54.418396,24.482685]]]}},{"type":"Feature","properties":{},"geometry":{"type":"Polygon","coordinates":[[[54.418366,24.482861],[54.418361,24.482982],[54.418701,24.483001],[54.418707,24.482879],[54.418366,24.482861]]]}},{"type":"Feature","properties":{},"geometry":{"type":"Polygon","coordinates":[[[54.417238,24.487724],[54.417239,24.487769],[54.41734,24.487774],[54.417339,24.487729],[54.417238,24.487724]]]}},{"type":"Feature","properties":{},"geometry":{"type":"Polygon","coordinates":[[[54.415855,24.487746],[54.415853,24.48779],[54.4159,24.487797],[54.415902,24.487753],[54.415855,24.487746]]]}},{"type":"Feature","properties":{},"geometry":{"type":"Polygon","coordinates":[[[54.415997,24.487765],[54.415996,24.487795],[54.416117,24.487804],[54.416119,24.487775],[54.415997,24.487765]]]}},{"type":"Feature","properties":{},"geometry":{"type":"Polygon","coordinates":[[[54.415997,24.487814],[54.416006,24.487944],[54.416277,24.487936],[54.416269,24.487806],[54.415997,24.487814]]]}},{"type":"Feature","properties":{},"geometry":{"type":"Polygon","coordinates":[[[54.416008,24.487961],[54.41601,24.488017],[54.416261,24.488016],[54.416259,24.48796],[54.416008,24.487961]]]}},{"type":"Feature","properties":{},"geometry":{"type":"Polygon","coordinates":[[[54.416611,24.487972],[54.416613,24.488021],[54.416682,24.488026],[54.41668,24.487977],[54.416611,24.487972]]]}},{"type":"Feature","properties":{},"geometry":{"type":"Polygon","coordinates":[[[54.416443,24.487975],[54.41644,24.488121],[54.416608,24.488129],[54.416611,24.487983],[54.416443,24.487975]]]}},{"type":"Feature","properties":{},"geometry":{"type":"Polygon","coordinates":[[[54.416611,24.488044],[54.416615,24.488135],[54.416684,24.488139],[54.41668,24.488048],[54.416611,24.488044]]]}},{"type":"Feature","properties":{},"geometry":{"type":"Polygon","coordinates":[[[54.416701,24.488149],[54.416705,24.488242],[54.416765,24.488246],[54.416761,24.488153],[54.416701,24.488149]]]}},{"type":"Feature","properties":{},"geometry":{"type":"Polygon","coordinates":[[[54.416513,24.488186],[54.416534,24.488185],[54.416518,24.488187],[54.416526,24.488234],[54.416541,24.488239],[54.416591,24.488232],[54.416606,24.488248],[54.416697,24.48825],[54.416699,24.488155],[54.416618,24.488148],[54.416603,24.488132],[54.416437,24.48814],[54.416431,24.488026],[54.416335,24.488024],[54.416351,24.488306],[54.416476,24.488307],[54.416479,24.488365],[54.416541,24.488368],[54.416537,24.4883],[54.416519,24.488295],[54.416513,24.488186]],[[54.416587,24.488185],[54.416581,24.488182],[54.416592,24.488182],[54.416592,24.48821],[54.416587,24.488185]]]}},{"type":"Feature","properties":{},"geometry":{"type":"Polygon","coordinates":[[[54.415648,24.488202],[54.415652,24.488313],[54.415729,24.488317],[54.415725,24.488206],[54.415648,24.488202]]]}},{"type":"Feature","properties":{},"geometry":{"type":"Polygon","coordinates":[[[54.416706,24.488248],[54.416706,24.488305],[54.416764,24.48831],[54.416764,24.488254],[54.416706,24.488248]]]}},{"type":"Feature","properties":{},"geometry":{"type":"Polygon","coordinates":[[[54.4166,24.488263],[54.416596,24.488328],[54.416665,24.488336],[54.416669,24.488272],[54.4166,24.488263]]]}},{"type":"Feature","properties":{},"geometry":{"type":"Polygon","coordinates":[[[54.416146,24.488352],[54.41615,24.488389],[54.416206,24.488391],[54.416202,24.488354],[54.416146,24.488352]]]}},{"type":"Feature","properties":{},"geometry":{"type":"Polygon","coordinates":[[[54.415601,24.488338],[54.415602,24.488387],[54.415711,24.488391],[54.41571,24.488342],[54.415601,24.488338]]]}},{"type":"Feature","properties":{},"geometry":{"type":"Polygon","coordinates":[[[54.41674,24.488374],[54.416695,24.488368],[54.416694,24.488407],[54.416738,24.488413],[54.41674,24.488374]]]}},{"type":"Feature","properties":{},"geometry":{"type":"Polygon","coordinates":[[[54.416289,24.488387],[54.416291,24.488283],[54.416236,24.488277],[54.416232,24.488489],[54.416542,24.488499],[54.416543,24.488426],[54.416364,24.488418],[54.416364,24.488394],[54.416289,24.488387]]]}},{"type":"Feature","properties":{},"geometry":{"type":"Polygon","coordinates":[[[54.416652,24.488434],[54.416649,24.488477],[54.416709,24.488485],[54.416711,24.488441],[54.416652,24.488434]]]}},{"type":"Feature","properties":{},"geometry":{"type":"Polygon","coordinates":[[[54.416223,24.488882],[54.416227,24.488989],[54.416242,24.488995],[54.416272,24.488994],[54.416267,24.488886],[54.416223,24.488882]]]}},{"type":"Feature","properties":{},"geometry":{"type":"Polygon","coordinates":[[[54.415999,24.488841],[54.416006,24.489041],[54.416021,24.489047],[54.41608,24.489045],[54.416073,24.488845],[54.415999,24.488841]]]}},{"type":"Feature","properties":{},"geometry":{"type":"Polygon","coordinates":[[[54.41562,24.488852],[54.415624,24.489052],[54.415639,24.489058],[54.415698,24.489057],[54.415694,24.488856],[54.41562,24.488852]]]}},{"type":"Feature","properties":{},"geometry":{"type":"Polygon","coordinates":[[[54.415891,24.489144],[54.415888,24.4891],[54.415719,24.489105],[54.415722,24.489146],[54.415891,24.489144]]]}},{"type":"Feature","properties":{},"geometry":{"type":"Polygon","coordinates":[[[54.415784,24.489169],[54.415782,24.48925],[54.415848,24.489257],[54.41585,24.489176],[54.415784,24.489169]]]}},{"type":"Feature","properties":{},"geometry":{"type":"Polygon","coordinates":[[[54.415416,24.489523],[54.415421,24.489677],[54.416307,24.489661],[54.416305,24.489591],[54.416284,24.489586],[54.416282,24.489507],[54.415416,24.489523]]]}},{"type":"Feature","properties":{},"geometry":{"type":"Polygon","coordinates":[[[54.41724,24.501685],[54.417163,24.501757],[54.41722,24.501818],[54.417181,24.501902],[54.417059,24.501949],[54.417269,24.502095],[54.417485,24.501891],[54.41724,24.501685]]]}},{"type":"Feature","properties":{},"geometry":{"type":"Polygon","coordinates":[[[54.416805,24.501887],[54.41682,24.501934],[54.41688,24.501928],[54.416865,24.501881],[54.416805,24.501887]]]}},{"type":"Feature","properties":{},"geometry":{"type":"Polygon","coordinates":[[[54.416773,24.50197],[54.416772,24.501921],[54.416572,24.501928],[54.416574,24.501975],[54.416773,24.50197]]]}},{"type":"Feature","properties":{},"geometry":{"type":"Polygon","coordinates":[[[54.41759,24.502323],[54.417548,24.502351],[54.417592,24.502393],[54.417634,24.502365],[54.41759,24.502323]]]}},{"type":"Feature","properties":{},"geometry":{"type":"Polygon","coordinates":[[[54.417885,24.502453],[54.417861,24.502478],[54.417923,24.50252],[54.417947,24.502494],[54.417885,24.502453]]]}},{"type":"Feature","properties":{},"geometry":{"type":"Polygon","coordinates":[[[54.415501,24.502417],[54.415496,24.502476],[54.415537,24.502483],[54.415541,24.502424],[54.415501,24.502417]]]}},{"type":"Feature","properties":{},"geometry":{"type":"Polygon","coordinates":[[[54.417421,24.502442],[54.417421,24.502556],[54.417515,24.502568],[54.417519,24.502447],[54.417421,24.502442]]]}},{"type":"Feature","properties":{},"geometry":{"type":"Polygon","coordinates":[[[54.416892,24.50263],[54.416893,24.502654],[54.417011,24.502658],[54.41701,24.502633],[54.416892,24.50263]]]}},{"type":"Feature","properties":{},"geometry":{"type":"Polygon","coordinates":[[[54.415481,24.502688],[54.415481,24.502649],[54.415452,24.502644],[54.415485,24.502642],[54.415483,24.502609],[54.41539,24.502607],[54.415395,24.502682],[54.415481,24.502688]]]}},{"type":"Feature","properties":{},"geometry":{"type":"Polygon","coordinates":[[[54.417318,24.502791],[54.417314,24.502718],[54.417069,24.50272],[54.417054,24.502707],[54.416945,24.502702],[54.416942,24.502762],[54.417059,24.502772],[54.41706,24.502794],[54.417318,24.502791]]]}},{"type":"Feature","properties":{},"geometry":{"type":"Polygon","coordinates":[[[54.417417,24.502716],[54.417344,24.502715],[54.417349,24.502775],[54.417423,24.502776],[54.417417,24.502716]]]}},{"type":"Feature","properties":{},"geometry":{"type":"Polygon","coordinates":[[[54.415565,24.502779],[54.415561,24.502807],[54.415629,24.502818],[54.415633,24.502791],[54.415565,24.502779]]]}},{"type":"Feature","properties":{},"geometry":{"type":"Polygon","coordinates":[[[54.415396,24.502784],[54.415403,24.502838],[54.41548,24.502838],[54.415473,24.502784],[54.415396,24.502784]]]}},{"type":"Feature","properties":{},"geometry":{"type":"Polygon","coordinates":[[[54.415689,24.502779],[54.415685,24.502856],[54.415826,24.502867],[54.41583,24.502789],[54.415689,24.502779]]]}},{"type":"Feature","properties":{},"geometry":{"type":"Polygon","coordinates":[[[54.415439,24.50285],[54.415447,24.502901],[54.41552,24.502898],[54.415512,24.502848],[54.415439,24.50285]]]}},{"type":"Feature","properties":{},"geometry":{"type":"Polygon","coordinates":[[[54.417267,24.503056],[54.417265,24.503098],[54.417387,24.503108],[54.417389,24.503065],[54.417267,24.503056]]]}},{"type":"Feature","properties":{},"geometry":{"type":"Polygon","coordinates":[[[54.417541,24.503144],[54.417465,24.503137],[54.417461,24.503227],[54.417538,24.503234],[54.417541,24.503144]]]}},{"type":"Feature","properties":{},"geometry":{"type":"Polygon","coordinates":[[[54.417556,24.503169],[54.417557,24.50323],[54.41762,24.503235],[54.417619,24.503174],[54.417556,24.503169]]]}},{"type":"Feature","properties":{},"geometry":{"type":"Polygon","coordinates":[[[54.415635,24.503418],[54.415632,24.503473],[54.415741,24.503482],[54.415743,24.503427],[54.415635,24.503418]]]}},{"type":"Feature","properties":{},"geometry":{"type":"Polygon","coordinates":[[[54.415809,24.503559],[54.415813,24.503642],[54.41587,24.503646],[54.415867,24.503563],[54.415809,24.503559]]]}},{"type":"Feature","properties":{},"geometry":{"type":"Polygon","coordinates":[[[54.417664,24.503569],[54.417657,24.503786],[54.417672,24.503791],[54.417705,24.503792],[54.417713,24.503575],[54.417664,24.503569]]]}},{"type":"Feature","properties":{},"geometry":{"type":"Polygon","coordinates":[[[54.415356,24.503984],[54.415365,24.504022],[54.415439,24.504015],[54.41543,24.503978],[54.415356,24.503984]]]}},{"type":"Feature","properties":{},"geometry":{"type":"Polygon","coordinates":[[[54.41533,24.504341],[54.415411,24.504371],[54.415588,24.504222],[54.415441,24.504101],[54.415463,24.504086],[54.415408,24.504032],[54.415383,24.504049],[54.415394,24.504062],[54.415311,24.504031],[54.415152,24.504188],[54.41533,24.504341]]]}},{"type":"Feature","properties":{},"geometry":{"type":"Polygon","coordinates":[[[54.415627,24.504139],[54.415698,24.504088],[54.41564,24.504033],[54.415568,24.504083],[54.415627,24.504139]]]}},{"type":"Feature","properties":{},"geometry":{"type":"Polygon","coordinates":[[[54.415863,24.50435],[54.41604,24.504201],[54.415844,24.504039],[54.415792,24.50402],[54.415633,24.504178],[54.415811,24.504331],[54.415863,24.50435]]]}},{"type":"Feature","properties":{},"geometry":{"type":"Polygon","coordinates":[[[54.415441,24.504421],[54.415396,24.504457],[54.415461,24.504514],[54.415505,24.504478],[54.415441,24.504421]]]}},{"type":"Feature","properties":{},"geometry":{"type":"Polygon","coordinates":[[[54.415691,24.504831],[54.415868,24.504683],[54.415672,24.504521],[54.41561,24.504498],[54.415451,24.504656],[54.415629,24.504809],[54.415691,24.504831]]]}},{"type":"Feature","properties":{},"geometry":{"type":"Polygon","coordinates":[[[54.415784,24.50493],[54.415737,24.504966],[54.415809,24.505032],[54.415856,24.504996],[54.415784,24.50493]]]}},{"type":"Feature","properties":{},"geometry":{"type":"Polygon","coordinates":[[[54.418873,24.480042],[54.418867,24.480078],[54.418943,24.480092],[54.418942,24.480131],[54.418995,24.480137],[54.418996,24.480076],[54.418951,24.48007],[54.418954,24.480057],[54.418873,24.480042]]]}},{"type":"Feature","properties":{},"geometry":{"type":"Polygon","coordinates":[[[54.420672,24.480301],[54.420675,24.480242],[54.420569,24.480232],[54.420562,24.480364],[54.420673,24.480384],[54.420916,24.480394],[54.420919,24.480347],[54.42071,24.480334],[54.420711,24.480308],[54.420672,24.480301]]]}},{"type":"Feature","properties":{},"geometry":{"type":"Polygon","coordinates":[[[54.419929,24.480822],[54.419923,24.480877],[54.420002,24.480888],[54.420008,24.480834],[54.419929,24.480822]]]}},{"type":"Feature","properties":{},"geometry":{"type":"Polygon","coordinates":[[[54.418579,24.481524],[54.41856,24.481659],[54.418895,24.481701],[54.418913,24.481566],[54.418579,24.481524]]]}},{"type":"Feature","properties":{},"geometry":{"type":"Polygon","coordinates":[[[54.418982,24.481589],[54.41896,24.481742],[54.419315,24.481789],[54.419337,24.481636],[54.418982,24.481589]]]}},{"type":"Feature","properties":{},"geometry":{"type":"Polygon","coordinates":[[[54.419421,24.481631],[54.419401,24.481768],[54.419744,24.481812],[54.419763,24.481675],[54.419421,24.481631]]]}},{"type":"Feature","properties":{},"geometry":{"type":"Polygon","coordinates":[[[54.42007,24.481706],[54.420064,24.481769],[54.420215,24.481777],[54.420217,24.481726],[54.42007,24.481706]]]}},{"type":"Feature","properties":{},"geometry":{"type":"Polygon","coordinates":[[[54.418544,24.481691],[54.41855,24.481831],[54.418748,24.48183],[54.418745,24.481748],[54.41869,24.481744],[54.418687,24.481692],[54.418544,24.481691]]]}},{"type":"Feature","properties":{},"geometry":{"type":"Polygon","coordinates":[[[54.418826,24.48177],[54.418813,24.48185],[54.41887,24.481861],[54.418883,24.481781],[54.418826,24.48177]]]}},{"type":"Feature","properties":{},"geometry":{"type":"Polygon","coordinates":[[[54.420283,24.481748],[54.42026,24.481911],[54.420612,24.481957],[54.420636,24.481793],[54.420283,24.481748]]]}},{"type":"Feature","properties":{},"geometry":{"type":"Polygon","coordinates":[[[54.420715,24.481813],[54.420707,24.481946],[54.421047,24.481968],[54.421055,24.481835],[54.420715,24.481813]]]}},{"type":"Feature","properties":{},"geometry":{"type":"Polygon","coordinates":[[[54.419851,24.481856],[54.419834,24.481991],[54.42017,24.482029],[54.420187,24.481894],[54.419851,24.481856]]]}},{"type":"Feature","properties":{},"geometry":{"type":"Polygon","coordinates":[[[54.421022,24.482017],[54.420697,24.48197],[54.420677,24.482093],[54.421002,24.482141],[54.421022,24.482017]]]}},{"type":"Feature","properties":{},"geometry":{"type":"Polygon","coordinates":[[[54.419294,24.481947],[54.419275,24.482078],[54.419615,24.482122],[54.419633,24.481991],[54.419294,24.481947]]]}},{"type":"Feature","properties":{},"geometry":{"type":"Polygon","coordinates":[[[54.418801,24.481985],[54.418785,24.482055],[54.418836,24.482067],[54.418852,24.481997],[54.418801,24.481985]]]}},{"type":"Feature","properties":{},"geometry":{"type":"Polygon","coordinates":[[[54.420378,24.481999],[54.420353,24.482089],[54.420459,24.482115],[54.420484,24.482025],[54.420378,24.481999]]]}},{"type":"Feature","properties":{},"geometry":{"type":"Polygon","coordinates":[[[54.419737,24.4822],[54.419746,24.48215],[54.419746,24.482179],[54.419815,24.482185],[54.419815,24.482136],[54.419736,24.482123],[54.419852,24.482121],[54.41985,24.482025],[54.419674,24.482022],[54.419676,24.482114],[54.419661,24.482112],[54.419648,24.482184],[54.419737,24.4822]]]}},{"type":"Feature","properties":{},"geometry":{"type":"Polygon","coordinates":[[[54.418884,24.482029],[54.418874,24.482108],[54.419211,24.482149],[54.419222,24.48207],[54.418884,24.482029]]]}},{"type":"Feature","properties":{},"geometry":{"type":"Polygon","coordinates":[[[54.419907,24.482023],[54.419887,24.482154],[54.420223,24.4822],[54.420243,24.48207],[54.419907,24.482023]]]}},{"type":"Feature","properties":{},"geometry":{"type":"Polygon","coordinates":[[[54.418494,24.482084],[54.418475,24.482211],[54.418813,24.482257],[54.418832,24.48213],[54.418494,24.482084]]]}},{"type":"Feature","properties":{},"geometry":{"type":"Polygon","coordinates":[[[54.419713,24.4822],[54.419662,24.482202],[54.419663,24.48224],[54.419678,24.482245],[54.419729,24.482242],[54.419852,24.482267],[54.41986,24.482229],[54.419732,24.482203],[54.419728,24.482219],[54.419713,24.4822]]]}},{"type":"Feature","properties":{},"geometry":{"type":"Polygon","coordinates":[[[54.419372,24.482408],[54.419212,24.482394],[54.419192,24.482579],[54.41954,24.482614],[54.419545,24.48257],[54.419613,24.482577],[54.419652,24.482188],[54.419599,24.482179],[54.419601,24.482158],[54.419586,24.482153],[54.419255,24.482114],[54.419228,24.482308],[54.419489,24.482343],[54.419372,24.482333],[54.419372,24.482408]]]}},{"type":"Feature","properties":{},"geometry":{"type":"Polygon","coordinates":[[[54.42027,24.482219],[54.42026,24.482281],[54.420593,24.482329],[54.420603,24.482267],[54.42027,24.482219]]]}},{"type":"Feature","properties":{},"geometry":{"type":"Polygon","coordinates":[[[54.420657,24.482212],[54.420643,24.482332],[54.420969,24.482367],[54.420982,24.482246],[54.420657,24.482212]]]}},{"type":"Feature","properties":{},"geometry":{"type":"Polygon","coordinates":[[[54.419879,24.482189],[54.419855,24.482394],[54.420206,24.482432],[54.42023,24.482227],[54.419879,24.482189]]]}},{"type":"Feature","properties":{},"geometry":{"type":"Polygon","coordinates":[[[54.420258,24.482308],[54.420239,24.48244],[54.420576,24.482484],[54.420595,24.482352],[54.420258,24.482308]]]}},{"type":"Feature","properties":{},"geometry":{"type":"Polygon","coordinates":[[[54.420635,24.482364],[54.420616,24.482487],[54.420941,24.482532],[54.42096,24.48241],[54.420635,24.482364]]]}},{"type":"Feature","properties":{},"geometry":{"type":"Polygon","coordinates":[[[54.418842,24.482331],[54.418821,24.482465],[54.419157,24.482512],[54.419178,24.482378],[54.418842,24.482331]]]}},{"type":"Feature","properties":{},"geometry":{"type":"Polygon","coordinates":[[[54.418814,24.482496],[54.418805,24.482555],[54.419142,24.482601],[54.419151,24.482543],[54.418814,24.482496]]]}},{"type":"Feature","properties":{},"geometry":{"type":"Polygon","coordinates":[[[54.420191,24.482505],[54.41984,24.482465],[54.419816,24.482661],[54.420167,24.4827],[54.420191,24.482505]]]}},{"type":"Feature","properties":{},"geometry":{"type":"Polygon","coordinates":[[[54.420223,24.482516],[54.420209,24.482647],[54.420546,24.482681],[54.42056,24.482551],[54.420223,24.482516]]]}},{"type":"Feature","properties":{},"geometry":{"type":"Polygon","coordinates":[[[54.420606,24.482548],[54.420587,24.482694],[54.42091,24.482733],[54.420932,24.482588],[54.420606,24.482548]]]}},{"type":"Feature","properties":{},"geometry":{"type":"Polygon","coordinates":[[[54.420194,24.48267],[54.420186,24.482738],[54.420529,24.482777],[54.420538,24.482709],[54.420194,24.48267]]]}},{"type":"Feature","properties":{},"geometry":{"type":"Polygon","coordinates":[[[54.419191,24.482619],[54.419171,24.48275],[54.419509,24.482796],[54.419529,24.482665],[54.419191,24.482619]]]}},{"type":"Feature","properties":{},"geometry":{"type":"Polygon","coordinates":[[[54.418957,24.482661],[54.418929,24.482747],[54.419041,24.482779],[54.41907,24.482693],[54.418957,24.482661]]]}},{"type":"Feature","properties":{},"geometry":{"type":"Polygon","coordinates":[[[54.419802,24.482698],[54.419782,24.48283],[54.420118,24.482875],[54.420138,24.482743],[54.419802,24.482698]]]}},{"type":"Feature","properties":{},"geometry":{"type":"Polygon","coordinates":[[[54.420903,24.482774],[54.420578,24.482733],[54.420561,24.482854],[54.420886,24.482896],[54.420903,24.482774]]]}},{"type":"Feature","properties":{},"geometry":{"type":"Polygon","coordinates":[[[54.4203,24.48283],[54.420265,24.48292],[54.420369,24.482954],[54.420403,24.482864],[54.4203,24.48283]]]}},{"type":"Feature","properties":{},"geometry":{"type":"Polygon","coordinates":[[[54.419245,24.482795],[54.419228,24.482927],[54.419566,24.482967],[54.419583,24.482834],[54.419245,24.482795]]]}},{"type":"Feature","properties":{},"geometry":{"type":"Polygon","coordinates":[[[54.418763,24.482813],[54.418757,24.482922],[54.41886,24.482932],[54.418867,24.482823],[54.418763,24.482813]]]}},{"type":"Feature","properties":{},"geometry":{"type":"Polygon","coordinates":[[[54.4197,24.48285],[54.419682,24.482985],[54.420018,24.483026],[54.420036,24.482891],[54.4197,24.48285]]]}},{"type":"Feature","properties":{},"geometry":{"type":"Polygon","coordinates":[[[54.418873,24.482852],[54.418857,24.482995],[54.419204,24.48303],[54.41922,24.482888],[54.418873,24.482852]]]}},{"type":"Feature","properties":{},"geometry":{"type":"Polygon","coordinates":[[[54.420544,24.48297],[54.420527,24.48309],[54.42085,24.483132],[54.420867,24.483012],[54.420544,24.48297]]]}},{"type":"Feature","properties":{},"geometry":{"type":"Polygon","coordinates":[[[54.420012,24.483048],[54.419673,24.483014],[54.41966,24.483134],[54.419999,24.483168],[54.420012,24.483048]]]}},{"type":"Feature","properties":{},"geometry":{"type":"Polygon","coordinates":[[[54.420094,24.483],[54.420075,24.483162],[54.420429,24.483199],[54.420447,24.483037],[54.420094,24.483]]]}},{"type":"Feature","properties":{},"geometry":{"type":"Polygon","coordinates":[[[54.42052,24.483123],[54.420507,24.483251],[54.420841,24.483283],[54.420854,24.483155],[54.42052,24.483123]]]}},{"type":"Feature","properties":{},"geometry":{"type":"Polygon","coordinates":[[[54.419482,24.489262],[54.419484,24.489303],[54.419557,24.489306],[54.419555,24.489265],[54.419482,24.489262]]]}},{"type":"Feature","properties":{},"geometry":{"type":"Polygon","coordinates":[[[54.41933,24.489268],[54.419331,24.489307],[54.419448,24.489309],[54.419447,24.48927],[54.41933,24.489268]]]}},{"type":"Feature","properties":{},"geometry":{"type":"Polygon","coordinates":[[[54.419591,24.489266],[54.419592,24.48932],[54.41971,24.489324],[54.41971,24.489271],[54.419591,24.489266]]]}},{"type":"Feature","properties":{},"geometry":{"type":"Polygon","coordinates":[[[54.418987,24.489305],[54.418994,24.489429],[54.419098,24.489431],[54.419092,24.489307],[54.418987,24.489305]]]}},{"type":"Feature","properties":{},"geometry":{"type":"Polygon","coordinates":[[[54.419557,24.489378],[54.419554,24.489481],[54.419673,24.489489],[54.419676,24.489386],[54.419557,24.489378]]]}},{"type":"Feature","properties":{},"geometry":{"type":"Polygon","coordinates":[[[54.419157,24.48954],[54.419166,24.489612],[54.419181,24.489618],[54.419208,24.489615],[54.419198,24.489542],[54.419157,24.48954]]]}},{"type":"Feature","properties":{},"geometry":{"type":"Polygon","coordinates":[[[54.419563,24.489776],[54.419564,24.489821],[54.4197,24.489824],[54.419699,24.489779],[54.419563,24.489776]]]}},{"type":"Feature","properties":{},"geometry":{"type":"Polygon","coordinates":[[[54.419677,24.490298],[54.419675,24.490178],[54.419611,24.490173],[54.419613,24.490255],[54.419571,24.490258],[54.419579,24.490298],[54.419677,24.490298]]]}},{"type":"Feature","properties":{},"geometry":{"type":"Polygon","coordinates":[[[54.419381,24.490183],[54.419387,24.490305],[54.419402,24.490311],[54.419453,24.490309],[54.419447,24.490187],[54.419381,24.490183]]]}},{"type":"Feature","properties":{},"geometry":{"type":"Polygon","coordinates":[[[54.419239,24.490277],[54.41924,24.490311],[54.41933,24.490314],[54.419329,24.49028],[54.419239,24.490277]]]}},{"type":"Feature","properties":{},"geometry":{"type":"Polygon","coordinates":[[[54.418376,24.5023],[54.418174,24.502378],[54.418218,24.502471],[54.418233,24.502477],[54.418435,24.502399],[54.418391,24.502306],[54.418376,24.5023]]]}}]}