{"type":"FeatureCollection","features":[{"type":"Feature","properties":{},"geometry":{"type":"Polygon","coordinates":[[[54.390501,24.482828],[54.39071,24.482873],[54.390763,24.482795],[54.390819,24.482822],[54.390946,24.482849],[54.390941,24.482857],[54.390986,24.48288],[54.391184,24.482923],[54.391143,24.482993],[54.391056,24.482942],[54.390847,24.482897],[54.390788,24.48298],[54.391029,24.483123],[54.391086,24.483135],[54.391294,24.483238],[54.391503,24.483283],[54.39158,24.48316],[54.39149,24.483096],[54.391557,24.482986],[54.391667,24.483003],[54.391742,24.482883],[54.391509,24.482769],[54.391298,24.482727],[54.391143,24.482669],[54.391149,24.48266],[54.390942,24.482565],[54.390732,24.48252],[54.3907,24.482577],[54.390718,24.482472],[54.390508,24.482427],[54.390371,24.482414],[54.390354,24.482537],[54.390563,24.482582],[54.390691,24.482594],[54.390624,24.482713],[54.390518,24.482654],[54.390309,24.482609],[54.390252,24.48269],[54.390501,24.482828]]]}},{"type":"Feature","properties":{},"geometry":{"type":"Polygon","coordinates":[[[54.389972,24.482894],[54.390062,24.482824],[54.389997,24.482755],[54.389788,24.48271],[54.389698,24.48278],[54.389763,24.482849],[54.389972,24.482894]]]}},{"type":"Feature","properties":{},"geometry":{"type":"Polygon","coordinates":[[[54.392072,24.483267],[54.392166,24.48331],[54.392375,24.483354],[54.392476,24.48318],[54.392379,24.483134],[54.392262,24.483109],[54.392281,24.483077],[54.392174,24.483027],[54.391833,24.482961],[54.391812,24.482998],[54.391908,24.483045],[54.392049,24.483084],[54.391997,24.483173],[54.392104,24.483209],[54.392072,24.483267]]]}},{"type":"Feature","properties":{},"geometry":{"type":"Polygon","coordinates":[[[54.391612,24.483457],[54.391627,24.483427],[54.391532,24.483387],[54.391322,24.483342],[54.391307,24.483372],[54.391402,24.483412],[54.391612,24.483457]]]}},{"type":"Feature","properties":{},"geometry":{"type":"Polygon","coordinates":[[[54.391248,24.483679],[54.3913,24.483619],[54.391249,24.483578],[54.391324,24.483594],[54.391408,24.483498],[54.391224,24.483358],[54.391014,24.483313],[54.390805,24.483519],[54.39103,24.48367],[54.390977,24.483715],[54.391115,24.483851],[54.391324,24.483896],[54.391411,24.48382],[54.391274,24.483685],[54.391248,24.483679]]]}},{"type":"Feature","properties":{},"geometry":{"type":"Polygon","coordinates":[[[54.390799,24.484563],[54.39089,24.484485],[54.390771,24.484369],[54.390562,24.484324],[54.39047,24.484402],[54.390589,24.484518],[54.390799,24.484563]]]}},{"type":"Feature","properties":{},"geometry":{"type":"Polygon","coordinates":[[[54.391531,24.488884],[54.391542,24.488984],[54.391392,24.488998],[54.391433,24.48935],[54.391592,24.489383],[54.391603,24.489479],[54.392715,24.489717],[54.392638,24.49003],[54.392595,24.490122],[54.392505,24.490233],[54.392468,24.490225],[54.392336,24.490305],[54.392088,24.490419],[54.391882,24.490455],[54.39169,24.490455],[54.391474,24.490409],[54.391459,24.490446],[54.391473,24.490521],[54.391438,24.490544],[54.39139,24.490654],[54.391462,24.490723],[54.391725,24.490779],[54.392041,24.490877],[54.392194,24.49091],[54.392032,24.491096],[54.392051,24.491109],[54.391959,24.491119],[54.391982,24.491303],[54.391964,24.491315],[54.391842,24.491289],[54.391708,24.491457],[54.3918,24.491517],[54.391762,24.491564],[54.391297,24.491464],[54.391119,24.49167],[54.39136,24.491843],[54.39233,24.492057],[54.392337,24.492102],[54.392547,24.492146],[54.392672,24.49213],[54.394184,24.492454],[54.394285,24.492338],[54.39419,24.492269],[54.394233,24.49222],[54.394106,24.492129],[54.394583,24.492231],[54.394627,24.492175],[54.394752,24.492202],[54.394827,24.492108],[54.394752,24.492059],[54.394815,24.491978],[54.394662,24.491877],[54.394009,24.491737],[54.394072,24.491661],[54.395132,24.491889],[54.395234,24.491772],[54.395139,24.491703],[54.395182,24.491654],[54.394932,24.491475],[54.394334,24.491346],[54.394418,24.491245],[54.395386,24.491452],[54.395487,24.491335],[54.395392,24.491267],[54.395435,24.491218],[54.395186,24.491038],[54.394681,24.49093],[54.394708,24.490897],[54.395424,24.49105],[54.395626,24.490818],[54.395387,24.490647],[54.394988,24.490561],[54.395053,24.490483],[54.394882,24.49037],[54.394743,24.49034],[54.394516,24.490354],[54.394357,24.490379],[54.394282,24.49041],[54.39396,24.490341],[54.393978,24.490318],[54.393919,24.489975],[54.394481,24.490096],[54.394669,24.490078],[54.394653,24.489933],[54.394745,24.489924],[54.394704,24.489573],[54.394599,24.48955],[54.394592,24.489484],[54.393488,24.489247],[54.393791,24.489207],[54.394398,24.489338],[54.394585,24.489319],[54.394572,24.489206],[54.394664,24.489197],[54.394622,24.488843],[54.394516,24.488821],[54.394508,24.488755],[54.393337,24.488504],[54.393708,24.488472],[54.393677,24.48818],[54.394793,24.488419],[54.394853,24.48837],[54.394968,24.488395],[54.395185,24.488219],[54.395111,24.488144],[54.395209,24.488065],[54.395036,24.487889],[54.394801,24.487551],[54.394986,24.48759],[54.39537,24.487249],[54.395338,24.487219],[54.395256,24.487186],[54.392692,24.486637],[54.39258,24.486624],[54.392455,24.486642],[54.392405,24.486686],[54.392447,24.486725],[54.392302,24.486854],[54.392341,24.486891],[54.3923,24.486927],[54.392422,24.487041],[54.394215,24.487425],[54.39416,24.48747],[54.394312,24.487619],[54.394303,24.487627],[54.394275,24.4876],[54.394066,24.487555],[54.39395,24.487656],[54.392576,24.487361],[54.392151,24.487705],[54.392334,24.487892],[54.392613,24.487951],[54.392648,24.488285],[54.392598,24.488346],[54.39163,24.488138],[54.391449,24.488156],[54.39146,24.488256],[54.391311,24.488271],[54.391353,24.488618],[54.391511,24.488652],[54.39152,24.488721],[54.391886,24.488799],[54.391863,24.488884],[54.392125,24.48894],[54.392223,24.488941],[54.392357,24.489005],[54.391713,24.488867],[54.391531,24.488884]],[[54.392848,24.490961],[54.393026,24.491066],[54.392654,24.490986],[54.392848,24.490961]],[[54.393602,24.49118],[54.393595,24.491188],[54.393304,24.491125],[54.393327,24.491095],[54.393392,24.491132],[54.393602,24.49118]],[[54.393301,24.491545],[54.393317,24.491589],[54.392497,24.491413],[54.392488,24.491342],[54.392552,24.491335],[54.393336,24.491503],[54.393301,24.491545]]]}},{"type":"Feature","properties":{},"geometry":{"type":"Polygon","coordinates":[[[54.392808,24.492401],[54.392598,24.492356],[54.392017,24.492434],[54.392079,24.492819],[54.392288,24.492864],[54.39287,24.492786],[54.392808,24.492401]]]}},{"type":"Feature","properties":{},"geometry":{"type":"Polygon","coordinates":[[[54.390505,24.493039],[54.390693,24.492868],[54.390587,24.492771],[54.390377,24.492726],[54.39019,24.492897],[54.390296,24.492994],[54.390505,24.493039]]]}},{"type":"Feature","properties":{},"geometry":{"type":"Polygon","coordinates":[[[54.390121,24.493761],[54.389912,24.493716],[54.389102,24.493809],[54.389151,24.494164],[54.389361,24.494209],[54.39017,24.494115],[54.390121,24.493761]]]}},{"type":"Feature","properties":{},"geometry":{"type":"Polygon","coordinates":[[[54.392532,24.496036],[54.392741,24.49608],[54.392797,24.496038],[54.393536,24.495965],[54.393739,24.496008],[54.393864,24.495994],[54.394069,24.495811],[54.394285,24.495786],[54.3942,24.495176],[54.393991,24.495132],[54.393423,24.495197],[54.393435,24.495286],[54.393363,24.495271],[54.392466,24.495398],[54.392532,24.496036]]]}},{"type":"Feature","properties":{},"geometry":{"type":"Polygon","coordinates":[[[54.390205,24.496364],[54.390509,24.496344],[54.390508,24.496319],[54.390643,24.496328],[54.39063,24.496099],[54.390618,24.496097],[54.390576,24.495677],[54.390366,24.495632],[54.390016,24.495667],[54.390018,24.495681],[54.3899,24.495685],[54.389904,24.495792],[54.390035,24.49582],[54.390056,24.495989],[54.389938,24.495988],[54.389947,24.496062],[54.389964,24.496066],[54.389995,24.496319],[54.390205,24.496364]]]}},{"type":"Feature","properties":{},"geometry":{"type":"Polygon","coordinates":[[[54.391421,24.497019],[54.391496,24.497021],[54.391496,24.497007],[54.391663,24.497013],[54.391661,24.496974],[54.391452,24.496929],[54.391332,24.496934],[54.391332,24.496952],[54.391212,24.49694],[54.391211,24.496974],[54.391421,24.497019]]]}},{"type":"Feature","properties":{},"geometry":{"type":"Polygon","coordinates":[[[54.391615,24.497128],[54.39167,24.497118],[54.391662,24.49708],[54.391452,24.497035],[54.391398,24.497045],[54.391406,24.497083],[54.391615,24.497128]]]}},{"type":"Feature","properties":{},"geometry":{"type":"Polygon","coordinates":[[[54.390974,24.4971],[54.391184,24.497144],[54.391304,24.497146],[54.391309,24.497052],[54.3911,24.497007],[54.390976,24.497005],[54.390974,24.4971]]]}},{"type":"Feature","properties":{},"geometry":{"type":"Polygon","coordinates":[[[54.391343,24.497244],[54.391345,24.497181],[54.391135,24.497136],[54.391023,24.497133],[54.391021,24.497196],[54.39123,24.497241],[54.391343,24.497244]]]}},{"type":"Feature","properties":{},"geometry":{"type":"Polygon","coordinates":[[[54.389275,24.497434],[54.38931,24.497674],[54.389403,24.49773],[54.391497,24.498179],[54.391913,24.49816],[54.391881,24.497941],[54.391505,24.497815],[54.389411,24.497366],[54.389275,24.497434]]]}},{"type":"Feature","properties":{},"geometry":{"type":"Polygon","coordinates":[[[54.390929,24.498107],[54.39072,24.498062],[54.389687,24.49817],[54.389731,24.498524],[54.389941,24.498568],[54.390974,24.498461],[54.390929,24.498107]]]}},{"type":"Feature","properties":{},"geometry":{"type":"Polygon","coordinates":[[[54.391414,24.500706],[54.391451,24.500954],[54.39166,24.500999],[54.391921,24.500969],[54.391889,24.500727],[54.391679,24.500682],[54.391414,24.500706]]]}},{"type":"Feature","properties":{},"geometry":{"type":"Polygon","coordinates":[[[54.389887,24.502566],[54.389963,24.502558],[54.390022,24.503017],[54.390406,24.5031],[54.391157,24.503036],[54.3911,24.502522],[54.391418,24.50248],[54.39098,24.498843],[54.390596,24.498761],[54.389493,24.498885],[54.389931,24.502312],[54.389554,24.50235],[54.389573,24.502499],[54.389887,24.502566]]]}},{"type":"Feature","properties":{},"geometry":{"type":"Polygon","coordinates":[[[54.392191,24.50367],[54.392183,24.503621],[54.391974,24.503576],[54.391882,24.503588],[54.39189,24.503638],[54.392099,24.503682],[54.392191,24.50367]]]}},{"type":"Feature","properties":{},"geometry":{"type":"Polygon","coordinates":[[[54.392554,24.503762],[54.392344,24.503717],[54.392253,24.503726],[54.392058,24.503684],[54.391895,24.503692],[54.391902,24.503794],[54.392111,24.503839],[54.392274,24.503831],[54.39227,24.50377],[54.392463,24.503812],[54.392554,24.503811],[54.392554,24.503762]]]}},{"type":"Feature","properties":{},"geometry":{"type":"Polygon","coordinates":[[[54.391958,24.503906],[54.391844,24.503895],[54.391855,24.504088],[54.391981,24.504115],[54.39199,24.504193],[54.39188,24.504182],[54.391888,24.504351],[54.392204,24.504428],[54.391968,24.504451],[54.392001,24.504726],[54.39221,24.504771],[54.392653,24.504727],[54.39262,24.504452],[54.392411,24.504407],[54.392329,24.504415],[54.392326,24.504392],[54.392397,24.504407],[54.392504,24.504401],[54.392497,24.504298],[54.392523,24.504304],[54.392592,24.504285],[54.39258,24.504249],[54.392492,24.50423],[54.392488,24.504165],[54.392295,24.504124],[54.392294,24.504108],[54.392379,24.504127],[54.39259,24.504102],[54.392558,24.503881],[54.392349,24.503836],[54.392138,24.503861],[54.392142,24.503889],[54.392063,24.503872],[54.391955,24.503882],[54.391958,24.503906]]]}},{"type":"Feature","properties":{},"geometry":{"type":"Polygon","coordinates":[[[54.392228,24.504858],[54.392018,24.504814],[54.391964,24.504818],[54.391972,24.504898],[54.392181,24.504943],[54.392236,24.504938],[54.392228,24.504858]]]}},{"type":"Feature","properties":{},"geometry":{"type":"Polygon","coordinates":[[[54.392563,24.504815],[54.392353,24.50477],[54.392243,24.50478],[54.392272,24.505029],[54.392482,24.505074],[54.392592,24.505063],[54.392563,24.504815]]]}},{"type":"Feature","properties":{},"geometry":{"type":"Polygon","coordinates":[[[54.392222,24.505036],[54.392109,24.505039],[54.39211,24.50507],[54.391999,24.50506],[54.392002,24.505169],[54.392211,24.505213],[54.392269,24.505212],[54.392268,24.505182],[54.392319,24.505193],[54.392349,24.505603],[54.392558,24.505648],[54.392773,24.505636],[54.392737,24.505136],[54.392527,24.505091],[54.392432,24.505097],[54.392431,24.505081],[54.392222,24.505036]]]}},{"type":"Feature","properties":{},"geometry":{"type":"Polygon","coordinates":[[[54.389842,24.505811],[54.390056,24.505797],[54.389993,24.505205],[54.389784,24.50516],[54.389585,24.505173],[54.389632,24.505766],[54.389842,24.505811]]]}},{"type":"Feature","properties":{},"geometry":{"type":"Polygon","coordinates":[[[54.391922,24.506942],[54.392001,24.506959],[54.392067,24.506945],[54.392055,24.506897],[54.392098,24.506888],[54.392088,24.506846],[54.39165,24.506756],[54.391561,24.506765],[54.391567,24.506811],[54.391777,24.506856],[54.39167,24.506852],[54.391678,24.506913],[54.391888,24.506957],[54.391924,24.506953],[54.391922,24.506942]]]}},{"type":"Feature","properties":{},"geometry":{"type":"Polygon","coordinates":[[[54.392715,24.506783],[54.392506,24.506738],[54.392321,24.50675],[54.392347,24.507092],[54.392556,24.507137],[54.392696,24.507128],[54.392702,24.507169],[54.392911,24.507214],[54.392992,24.507205],[54.392985,24.507152],[54.392776,24.507107],[54.39274,24.507111],[54.392715,24.506783]]]}},{"type":"Feature","properties":{},"geometry":{"type":"Polygon","coordinates":[[[54.39194,24.507053],[54.391731,24.507008],[54.391605,24.50701],[54.391606,24.507099],[54.391816,24.507144],[54.391942,24.507142],[54.39194,24.507053]]]}},{"type":"Feature","properties":{},"geometry":{"type":"Polygon","coordinates":[[[54.391944,24.507466],[54.391934,24.507327],[54.391725,24.507282],[54.391322,24.507307],[54.391332,24.507445],[54.391541,24.50749],[54.391944,24.507466]]]}},{"type":"Feature","properties":{},"geometry":{"type":"Polygon","coordinates":[[[54.39118,24.507431],[54.390971,24.507386],[54.390838,24.507384],[54.390837,24.507465],[54.391046,24.50751],[54.391179,24.507511],[54.39118,24.507431]]]}},{"type":"Feature","properties":{},"geometry":{"type":"Polygon","coordinates":[[[54.403707,24.481539],[54.403821,24.481563],[54.40372,24.481661],[54.403691,24.481783],[54.403717,24.481923],[54.403766,24.482007],[54.403803,24.482015],[54.403847,24.482103],[54.405417,24.48244],[54.405651,24.482324],[54.405622,24.482223],[54.405588,24.482216],[54.405569,24.48213],[54.405609,24.482138],[54.405671,24.482236],[54.407416,24.48261],[54.407605,24.482539],[54.407647,24.482408],[54.407249,24.481963],[54.406445,24.48179],[54.406178,24.481406],[54.404608,24.481069],[54.404591,24.481079],[54.404487,24.481057],[54.404431,24.481081],[54.404448,24.481115],[54.404508,24.481128],[54.404386,24.481212],[54.404282,24.481036],[54.404073,24.480991],[54.403463,24.481265],[54.403707,24.481539]],[[54.403928,24.481577],[54.404037,24.481522],[54.40415,24.481625],[54.403928,24.481577]],[[54.404434,24.481337],[54.40441,24.481331],[54.404424,24.481324],[54.404434,24.481337]]]}},{"type":"Feature","properties":{},"geometry":{"type":"Polygon","coordinates":[[[54.403255,24.483046],[54.403079,24.482706],[54.402754,24.48227],[54.402405,24.482195],[54.402319,24.48223],[54.402028,24.482167],[54.401942,24.482163],[54.401072,24.483079],[54.401073,24.483196],[54.401114,24.483259],[54.401638,24.483375],[54.401836,24.48329],[54.402151,24.483205],[54.402428,24.483212],[54.402746,24.483321],[54.403095,24.483396],[54.403021,24.483179],[54.403255,24.483046]]]}},{"type":"Feature","properties":{},"geometry":{"type":"Polygon","coordinates":[[[54.404367,24.485274],[54.404472,24.48503],[54.404542,24.48481],[54.40454,24.484515],[54.40433,24.48447],[54.403542,24.484406],[54.40341,24.484853],[54.403317,24.485029],[54.40313,24.48522],[54.403742,24.485756],[54.403951,24.4858],[54.404147,24.485609],[54.404367,24.485274]]]}},{"type":"Feature","properties":{},"geometry":{"type":"Polygon","coordinates":[[[54.400111,24.486571],[54.39996,24.486747],[54.400426,24.487077],[54.400754,24.487158],[54.400866,24.487117],[54.401207,24.486363],[54.400743,24.486123],[54.400534,24.486079],[54.400422,24.486257],[54.400111,24.486571]]]}},{"type":"Feature","properties":{},"geometry":{"type":"Polygon","coordinates":[[[54.404122,24.486933],[54.40439,24.486736],[54.404417,24.486697],[54.404408,24.486649],[54.404023,24.48626],[54.403447,24.486142],[54.402711,24.486495],[54.40292,24.487048],[54.402954,24.487081],[54.40353,24.487207],[54.403767,24.487123],[54.404122,24.486933]]]}},{"type":"Feature","properties":{},"geometry":{"type":"Polygon","coordinates":[[[54.401757,24.487976],[54.401144,24.487765],[54.400111,24.487303],[54.399543,24.486934],[54.398968,24.486502],[54.398758,24.486457],[54.397524,24.487807],[54.398665,24.488661],[54.399986,24.489355],[54.400756,24.489669],[54.401757,24.489883],[54.4026,24.489943],[54.40288,24.489596],[54.402625,24.488136],[54.401757,24.487976]]]}},{"type":"Feature","properties":{},"geometry":{"type":"Polygon","coordinates":[[[54.400402,24.490694],[54.400362,24.490428],[54.400152,24.490383],[54.399848,24.490422],[54.399889,24.490687],[54.400098,24.490732],[54.400402,24.490694]]]}},{"type":"Feature","properties":{},"geometry":{"type":"Polygon","coordinates":[[[54.398624,24.49184],[54.398415,24.491795],[54.398289,24.491809],[54.398332,24.492131],[54.398541,24.492176],[54.398667,24.492158],[54.398624,24.49184]]]}},{"type":"Feature","properties":{},"geometry":{"type":"Polygon","coordinates":[[[54.398825,24.492216],[54.398616,24.492171],[54.398543,24.49218],[54.398547,24.492213],[54.398392,24.492179],[54.398316,24.492188],[54.398361,24.492517],[54.39857,24.492562],[54.398647,24.492553],[54.398629,24.492428],[54.398781,24.49246],[54.399095,24.49242],[54.399082,24.49232],[54.398872,24.492275],[54.398836,24.49228],[54.398825,24.492216]]]}},{"type":"Feature","properties":{},"geometry":{"type":"Polygon","coordinates":[[[54.395997,24.492631],[54.396062,24.492332],[54.395444,24.492213],[54.395378,24.492512],[54.395997,24.492631]]]}},{"type":"Feature","properties":{},"geometry":{"type":"Polygon","coordinates":[[[54.404418,24.493784],[54.407274,24.494397],[54.407601,24.494595],[54.40766,24.49477],[54.40781,24.494958],[54.408088,24.495106],[54.408321,24.495156],[54.407991,24.495642],[54.406894,24.495031],[54.406632,24.494975],[54.406524,24.495272],[54.40614,24.495195],[54.406095,24.495263],[54.406162,24.4953],[54.406311,24.495332],[54.406277,24.495361],[54.406387,24.495467],[54.406451,24.495481],[54.406439,24.495545],[54.406417,24.495541],[54.406395,24.495503],[54.406185,24.495458],[54.40614,24.495481],[54.403267,24.494869],[54.403153,24.494874],[54.403077,24.49491],[54.40306,24.494967],[54.403075,24.495025],[54.402705,24.494951],[54.402592,24.49497],[54.402533,24.494995],[54.402414,24.495059],[54.402303,24.495164],[54.40225,24.495268],[54.402274,24.495349],[54.402321,24.495372],[54.406631,24.496295],[54.40679,24.496278],[54.406898,24.496231],[54.40699,24.496168],[54.407174,24.496207],[54.407716,24.496253],[54.407945,24.496324],[54.408207,24.49638],[54.408234,24.496329],[54.408609,24.49641],[54.408791,24.496429],[54.4089,24.496399],[54.408932,24.496347],[54.408922,24.496284],[54.408863,24.496202],[54.410179,24.496484],[54.410343,24.49638],[54.410247,24.496256],[54.410274,24.496233],[54.410552,24.496292],[54.410775,24.496187],[54.410614,24.495998],[54.408941,24.495639],[54.40865,24.49587],[54.408754,24.495989],[54.408673,24.496044],[54.408698,24.496076],[54.408481,24.495984],[54.408504,24.495925],[54.408263,24.495794],[54.408649,24.495226],[54.409261,24.495341],[54.409621,24.495322],[54.409964,24.495229],[54.409867,24.495048],[54.409653,24.494565],[54.40954,24.494014],[54.409518,24.493451],[54.409564,24.493205],[54.409532,24.493029],[54.4063,24.492337],[54.406247,24.492254],[54.406024,24.492206],[54.405927,24.492257],[54.404926,24.492042],[54.404458,24.492148],[54.403943,24.49232],[54.403376,24.492635],[54.403025,24.492898],[54.402751,24.493221],[54.402813,24.49326],[54.402798,24.493279],[54.402874,24.493326],[54.402863,24.493342],[54.403058,24.493472],[54.40151,24.493141],[54.401457,24.493224],[54.400666,24.493055],[54.400649,24.492935],[54.40044,24.49289],[54.40009,24.492931],[54.400007,24.492913],[54.399907,24.492924],[54.39991,24.492952],[54.399709,24.492975],[54.399762,24.493393],[54.403087,24.494106],[54.403112,24.494308],[54.403322,24.494353],[54.403476,24.494337],[54.403719,24.494391],[54.403836,24.494453],[54.404045,24.494498],[54.404185,24.494278],[54.404124,24.494246],[54.404418,24.493784]],[[54.406507,24.495318],[54.406504,24.495328],[54.406397,24.495305],[54.406507,24.495318]]]}},{"type":"Feature","properties":{},"geometry":{"type":"Polygon","coordinates":[[[54.393519,24.494469],[54.393515,24.494441],[54.393305,24.494397],[54.393158,24.494414],[54.393161,24.494438],[54.3931,24.494446],[54.393135,24.494685],[54.393345,24.49473],[54.393613,24.494698],[54.393582,24.494482],[54.393519,24.494469]]]}},{"type":"Feature","properties":{},"geometry":{"type":"Polygon","coordinates":[[[54.402817,24.496428],[54.402807,24.496452],[54.402224,24.496327],[54.402052,24.496743],[54.402369,24.496852],[54.402311,24.496839],[54.40205,24.496949],[54.402249,24.497341],[54.403825,24.497678],[54.403839,24.497708],[54.403359,24.497605],[54.40328,24.497632],[54.403239,24.497684],[54.40325,24.497746],[54.403314,24.497897],[54.403318,24.497995],[54.403345,24.498066],[54.403402,24.498102],[54.40351,24.498125],[54.403125,24.498283],[54.402229,24.498092],[54.402134,24.498108],[54.40206,24.498137],[54.401902,24.498247],[54.401759,24.498411],[54.401752,24.498492],[54.398668,24.497833],[54.398557,24.497832],[54.398388,24.497873],[54.398275,24.497938],[54.398168,24.498046],[54.398129,24.498111],[54.398184,24.498147],[54.398209,24.498181],[54.398222,24.498226],[54.398215,24.498285],[54.401529,24.498995],[54.401234,24.499182],[54.401174,24.499194],[54.40116,24.499221],[54.401196,24.499302],[54.401235,24.499343],[54.401329,24.499391],[54.402158,24.499569],[54.402163,24.499695],[54.402215,24.499723],[54.40219,24.49975],[54.402194,24.499772],[54.402264,24.499818],[54.404483,24.500286],[54.404761,24.500267],[54.405188,24.500172],[54.405667,24.499947],[54.405928,24.49974],[54.406255,24.499347],[54.406373,24.499138],[54.406474,24.49889],[54.406529,24.498602],[54.406545,24.49833],[54.406522,24.498107],[54.406444,24.497802],[54.405364,24.497592],[54.405512,24.497792],[54.405592,24.49796],[54.405643,24.498231],[54.405651,24.498448],[54.40564,24.498653],[54.405603,24.498807],[54.405512,24.498975],[54.405434,24.499078],[54.405322,24.499183],[54.405143,24.499145],[54.405252,24.499057],[54.405358,24.498901],[54.40544,24.498736],[54.405445,24.498549],[54.405429,24.498461],[54.405391,24.498453],[54.405412,24.498398],[54.405332,24.498066],[54.405283,24.498019],[54.404514,24.497852],[54.404599,24.497783],[54.405002,24.4973],[54.405251,24.496952],[54.405413,24.496686],[54.405411,24.496392],[54.404485,24.49605],[54.404049,24.495956],[54.403996,24.4961],[54.402444,24.495768],[54.402247,24.496264],[54.40261,24.496383],[54.402817,24.496428]],[[54.403283,24.499245],[54.403411,24.499157],[54.403467,24.499095],[54.403843,24.499184],[54.403881,24.49928],[54.403964,24.499342],[54.404816,24.499524],[54.404752,24.499553],[54.40354,24.499293],[54.403523,24.499329],[54.403434,24.499315],[54.403343,24.499329],[54.403154,24.499289],[54.403283,24.499245]],[[54.404161,24.498264],[54.404461,24.498328],[54.404464,24.498389],[54.40444,24.498494],[54.4044,24.498557],[54.403936,24.498457],[54.404068,24.498379],[54.404161,24.498264]]]}},{"type":"Feature","properties":{},"geometry":{"type":"Polygon","coordinates":[[[54.394333,24.496777],[54.394101,24.497061],[54.394181,24.497346],[54.394432,24.497463],[54.394641,24.497508],[54.394769,24.497442],[54.394885,24.497348],[54.394874,24.497274],[54.394918,24.497211],[54.394997,24.497172],[54.39503,24.497114],[54.394542,24.496821],[54.394333,24.496777]]]}},{"type":"Feature","properties":{},"geometry":{"type":"Polygon","coordinates":[[[54.393352,24.498198],[54.393355,24.498117],[54.393103,24.498071],[54.393101,24.498152],[54.393352,24.498198]]]}},{"type":"Feature","properties":{},"geometry":{"type":"Polygon","coordinates":[[[54.396127,24.498585],[54.396129,24.498519],[54.395863,24.498472],[54.395861,24.498538],[54.396127,24.498585]]]}},{"type":"Feature","properties":{},"geometry":{"type":"Polygon","coordinates":[[[54.394926,24.498498],[54.393256,24.498615],[54.393412,24.49962],[54.393621,24.499665],[54.39537,24.499471],[54.39526,24.498664],[54.395136,24.498542],[54.394926,24.498498]]]}},{"type":"Feature","properties":{},"geometry":{"type":"Polygon","coordinates":[[[54.395534,24.499827],[54.395325,24.499782],[54.39521,24.499799],[54.395238,24.499953],[54.395447,24.499997],[54.395562,24.49998],[54.395534,24.499827]]]}},{"type":"Feature","properties":{},"geometry":{"type":"Polygon","coordinates":[[[54.395273,24.500002],[54.395064,24.499958],[54.395031,24.499964],[54.395055,24.500068],[54.395264,24.500113],[54.395296,24.500107],[54.395273,24.500002]]]}},{"type":"Feature","properties":{},"geometry":{"type":"Polygon","coordinates":[[[54.394916,24.50033],[54.394707,24.500285],[54.39466,24.500292],[54.39468,24.500406],[54.39489,24.500451],[54.394937,24.500444],[54.394916,24.50033]]]}},{"type":"Feature","properties":{},"geometry":{"type":"Polygon","coordinates":[[[54.395488,24.500472],[54.395279,24.500427],[54.394713,24.500506],[54.394855,24.501354],[54.395064,24.501399],[54.39563,24.50132],[54.395488,24.500472]]]}},{"type":"Feature","properties":{},"geometry":{"type":"Polygon","coordinates":[[[54.395658,24.501997],[54.395744,24.502],[54.395747,24.501897],[54.395538,24.501852],[54.395452,24.50185],[54.395449,24.501953],[54.395658,24.501997]]]}},{"type":"Feature","properties":{},"geometry":{"type":"Polygon","coordinates":[[[54.395873,24.502153],[54.395664,24.502108],[54.395232,24.502166],[54.395283,24.502474],[54.395492,24.502519],[54.395924,24.502461],[54.395873,24.502153]]]}},{"type":"Feature","properties":{},"geometry":{"type":"Polygon","coordinates":[[[54.397473,24.504684],[54.397264,24.504639],[54.397192,24.504642],[54.397198,24.504743],[54.397407,24.504788],[54.397479,24.504785],[54.397473,24.504684]]]}},{"type":"Feature","properties":{},"geometry":{"type":"Polygon","coordinates":[[[54.39297,24.508739],[54.393088,24.508737],[54.393088,24.508727],[54.393216,24.508734],[54.393217,24.5087],[54.393008,24.508655],[54.39276,24.508664],[54.392761,24.508694],[54.39297,24.508739]]]}},{"type":"Feature","properties":{},"geometry":{"type":"Polygon","coordinates":[[[54.393174,24.509204],[54.393156,24.5092],[54.393108,24.509227],[54.393213,24.50938],[54.393124,24.509361],[54.393078,24.509388],[54.393116,24.509441],[54.392886,24.509542],[54.392934,24.509624],[54.393016,24.509641],[54.393065,24.509722],[54.393021,24.509696],[54.392811,24.509652],[54.392783,24.509693],[54.392854,24.509733],[54.393063,24.509778],[54.393086,24.509744],[54.393287,24.509787],[54.393625,24.509616],[54.393613,24.509596],[54.393795,24.509504],[54.393746,24.509425],[54.393855,24.509448],[54.393889,24.50943],[54.393853,24.509371],[54.393692,24.509336],[54.393574,24.509144],[54.393658,24.509149],[54.393655,24.509094],[54.393446,24.509049],[54.393395,24.509051],[54.393397,24.50909],[54.393354,24.50908],[54.393159,24.509179],[54.393174,24.509204]]]}},{"type":"Feature","properties":{},"geometry":{"type":"Polygon","coordinates":[[[54.394128,24.509765],[54.394103,24.50976],[54.394119,24.509751],[54.394018,24.509606],[54.393809,24.509561],[54.393768,24.509584],[54.393869,24.509729],[54.393888,24.509733],[54.393822,24.509762],[54.393867,24.509849],[54.394077,24.509894],[54.394173,24.509852],[54.394128,24.509765]]]}},{"type":"Feature","properties":{},"geometry":{"type":"Polygon","coordinates":[[[54.393954,24.509893],[54.393853,24.509937],[54.393701,24.509905],[54.393659,24.50991],[54.393665,24.509946],[54.393776,24.50997],[54.393639,24.510029],[54.39367,24.510089],[54.393879,24.510134],[54.394195,24.509998],[54.394163,24.509938],[54.393954,24.509893]]]}},{"type":"Feature","properties":{},"geometry":{"type":"Polygon","coordinates":[[[54.406324,24.480095],[54.406255,24.479987],[54.40643,24.479895],[54.406373,24.479805],[54.406261,24.479781],[54.406176,24.479648],[54.405967,24.479603],[54.405718,24.479734],[54.405773,24.479822],[54.405567,24.479931],[54.405604,24.47999],[54.405527,24.48003],[54.405696,24.480261],[54.405905,24.480306],[54.406324,24.480095]]]}},{"type":"Feature","properties":{},"geometry":{"type":"Polygon","coordinates":[[[54.406743,24.480076],[54.406836,24.48],[54.406771,24.479935],[54.406562,24.479891],[54.40647,24.479967],[54.406534,24.480031],[54.406743,24.480076]]]}},{"type":"Feature","properties":{},"geometry":{"type":"Polygon","coordinates":[[[54.405984,24.480432],[54.405894,24.480484],[54.405926,24.480524],[54.406101,24.480572],[54.406227,24.480696],[54.406437,24.480741],[54.406583,24.480618],[54.406403,24.480442],[54.406444,24.48045],[54.406479,24.480403],[54.406408,24.48036],[54.406484,24.480376],[54.406523,24.480297],[54.406404,24.480249],[54.406194,24.480204],[54.406156,24.480283],[54.40614,24.480279],[54.406093,24.480342],[54.405977,24.480424],[54.405984,24.480432]]]}},{"type":"Feature","properties":{},"geometry":{"type":"Polygon","coordinates":[[[54.405699,24.480497],[54.405775,24.48046],[54.405748,24.480415],[54.405538,24.48037],[54.405463,24.480407],[54.40549,24.480452],[54.405699,24.480497]]]}},{"type":"Feature","properties":{},"geometry":{"type":"Polygon","coordinates":[[[54.405389,24.480784],[54.405508,24.480697],[54.405367,24.480537],[54.404963,24.480465],[54.404861,24.48054],[54.404773,24.480522],[54.404541,24.480691],[54.404738,24.480913],[54.404947,24.480958],[54.405111,24.480853],[54.405129,24.480857],[54.405239,24.480777],[54.405221,24.480756],[54.405389,24.480784]]]}},{"type":"Feature","properties":{},"geometry":{"type":"Polygon","coordinates":[[[54.406708,24.483103],[54.406884,24.483008],[54.40655,24.482498],[54.40652,24.482492],[54.406485,24.482446],[54.406276,24.482401],[54.406101,24.482508],[54.406109,24.48252],[54.405898,24.482625],[54.405933,24.482682],[54.406143,24.482727],[54.406246,24.482674],[54.406498,24.483058],[54.406708,24.483103]]]}},{"type":"Feature","properties":{},"geometry":{"type":"Polygon","coordinates":[[[54.405245,24.483088],[54.404917,24.48322],[54.405108,24.483868],[54.40473,24.483972],[54.404784,24.484314],[54.404994,24.484359],[54.405703,24.48437],[54.405703,24.483852],[54.405455,24.483133],[54.405245,24.483088]]]}},{"type":"Feature","properties":{},"geometry":{"type":"Polygon","coordinates":[[[54.405619,24.484873],[54.405743,24.48448],[54.405533,24.484435],[54.404808,24.484348],[54.40473,24.484689],[54.405619,24.484873]]]}},{"type":"Feature","properties":{},"geometry":{"type":"Polygon","coordinates":[[[54.405983,24.487822],[54.406127,24.487642],[54.405832,24.487429],[54.404715,24.48719],[54.404569,24.487363],[54.404866,24.487583],[54.405983,24.487822]]]}},{"type":"Feature","properties":{},"geometry":{"type":"Polygon","coordinates":[[[54.405962,24.496854],[54.405753,24.49681],[54.405688,24.496859],[54.405767,24.496948],[54.405977,24.496993],[54.406044,24.496945],[54.405962,24.496854]]]}},{"type":"Feature","properties":{},"geometry":{"type":"Polygon","coordinates":[[[54.406732,24.497106],[54.406805,24.497122],[54.407066,24.497047],[54.407344,24.497081],[54.407346,24.497057],[54.407468,24.497083],[54.407817,24.497118],[54.408709,24.497309],[54.40953,24.496918],[54.409385,24.496689],[54.40764,24.496315],[54.407106,24.496554],[54.40688,24.496527],[54.406879,24.496546],[54.406635,24.496494],[54.406577,24.496637],[54.406526,24.496637],[54.406525,24.496653],[54.406491,24.496646],[54.406199,24.496715],[54.406218,24.496784],[54.40612,24.496809],[54.406223,24.497178],[54.406432,24.497223],[54.40674,24.497142],[54.406732,24.497106]]]}},{"type":"Feature","properties":{},"geometry":{"type":"Polygon","coordinates":[[[54.405591,24.497243],[54.405531,24.497503],[54.406,24.497594],[54.406014,24.497531],[54.406053,24.497539],[54.406089,24.497391],[54.405993,24.49737],[54.406007,24.497326],[54.405591,24.497243]]]}},{"type":"Feature","properties":{},"geometry":{"type":"Polygon","coordinates":[[[54.406184,24.50457],[54.405975,24.504525],[54.405879,24.504548],[54.405932,24.504714],[54.406141,24.504759],[54.406233,24.504739],[54.406184,24.50457]]]}},{"type":"Feature","properties":{},"geometry":{"type":"Polygon","coordinates":[[[54.405527,24.50567],[54.406702,24.505922],[54.406793,24.505817],[54.406828,24.505695],[54.406787,24.505553],[54.406674,24.505453],[54.406567,24.50543],[54.406344,24.50524],[54.406135,24.505195],[54.406015,24.505311],[54.404754,24.505041],[54.404509,24.505288],[54.404782,24.50551],[54.405115,24.505582],[54.405082,24.505694],[54.405492,24.505789],[54.405527,24.50567]]]}},{"type":"Feature","properties":{},"geometry":{"type":"Polygon","coordinates":[[[54.404888,24.505735],[54.404672,24.505959],[54.40498,24.506195],[54.407336,24.506699],[54.407629,24.506391],[54.407472,24.506231],[54.405116,24.505726],[54.404888,24.505735]]]}},{"type":"Feature","properties":{},"geometry":{"type":"Polygon","coordinates":[[[54.405252,24.506613],[54.405345,24.506365],[54.405066,24.506279],[54.404857,24.506234],[54.404764,24.506482],[54.405042,24.506569],[54.405252,24.506613]]]}},{"type":"Feature","properties":{},"geometry":{"type":"Polygon","coordinates":[[[54.404167,24.508256],[54.404049,24.508363],[54.404445,24.508755],[54.405486,24.508978],[54.405385,24.509076],[54.405654,24.509326],[54.405136,24.509215],[54.40506,24.509278],[54.403819,24.509012],[54.403777,24.50906],[54.403573,24.509016],[54.403447,24.509184],[54.403595,24.509329],[54.405253,24.509684],[54.405274,24.509664],[54.407014,24.510038],[54.407179,24.509921],[54.406926,24.509682],[54.407446,24.509794],[54.40758,24.509657],[54.407306,24.509399],[54.407784,24.509501],[54.4079,24.509383],[54.407618,24.509124],[54.407812,24.509166],[54.407864,24.509122],[54.407708,24.508969],[54.407499,24.508924],[54.407447,24.508968],[54.407528,24.509048],[54.405936,24.508707],[54.405917,24.508688],[54.406377,24.508786],[54.406489,24.508672],[54.406098,24.508287],[54.405201,24.508095],[54.40525,24.508086],[54.406645,24.508385],[54.406757,24.508271],[54.406367,24.507886],[54.405554,24.507712],[54.405862,24.507159],[54.405855,24.507079],[54.405593,24.506955],[54.405171,24.506865],[54.405237,24.506716],[54.404948,24.50662],[54.404739,24.506575],[54.404673,24.506758],[54.4035,24.506507],[54.403435,24.506518],[54.402804,24.507617],[54.402899,24.507682],[54.404352,24.507993],[54.404305,24.508036],[54.404627,24.508354],[54.404167,24.508256]]]}},{"type":"Feature","properties":{},"geometry":{"type":"Polygon","coordinates":[[[54.410443,24.479885],[54.410233,24.47984],[54.410164,24.479907],[54.410314,24.480035],[54.410524,24.48008],[54.410593,24.480014],[54.410443,24.479885]]]}},{"type":"Feature","properties":{},"geometry":{"type":"Polygon","coordinates":[[[54.409403,24.482883],[54.409194,24.482838],[54.409097,24.482842],[54.409102,24.482956],[54.409312,24.483001],[54.409408,24.482998],[54.409403,24.482883]]]}},{"type":"Feature","properties":{},"geometry":{"type":"Polygon","coordinates":[[[54.408793,24.48444],[54.407677,24.484201],[54.407467,24.484342],[54.407712,24.484644],[54.408829,24.484883],[54.409038,24.484742],[54.408793,24.48444]]]}},{"type":"Feature","properties":{},"geometry":{"type":"Polygon","coordinates":[[[54.407012,24.484692],[54.407025,24.484756],[54.407244,24.484868],[54.407349,24.48489],[54.407373,24.48492],[54.408489,24.48516],[54.408602,24.485076],[54.408334,24.484777],[54.407217,24.484538],[54.407012,24.484692]]]}},{"type":"Feature","properties":{},"geometry":{"type":"Polygon","coordinates":[[[54.407889,24.48568],[54.407828,24.485631],[54.407776,24.48562],[54.407564,24.485445],[54.407278,24.485383],[54.407336,24.485327],[54.407262,24.485263],[54.407052,24.485219],[54.406954,24.485314],[54.406448,24.485206],[54.406262,24.485399],[54.406582,24.48564],[54.407698,24.485879],[54.407889,24.48568]]]}},{"type":"Feature","properties":{},"geometry":{"type":"Polygon","coordinates":[[[54.409484,24.48606],[54.409624,24.486071],[54.409707,24.486047],[54.409731,24.486023],[54.410051,24.486571],[54.410504,24.486668],[54.410863,24.4865],[54.410363,24.485619],[54.410402,24.485593],[54.410413,24.48552],[54.410404,24.485468],[54.410388,24.485446],[54.410282,24.485423],[54.410362,24.485422],[54.410404,24.485395],[54.410434,24.485322],[54.410544,24.485278],[54.410564,24.485309],[54.410774,24.485354],[54.410882,24.485296],[54.410832,24.485218],[54.410742,24.485199],[54.410978,24.485104],[54.410804,24.484786],[54.41035,24.484689],[54.409382,24.485156],[54.40937,24.485179],[54.40922,24.485147],[54.409146,24.485233],[54.40897,24.485303],[54.408883,24.485386],[54.408847,24.48548],[54.408846,24.48554],[54.408792,24.485529],[54.408713,24.48559],[54.408753,24.485633],[54.408815,24.485646],[54.408852,24.485705],[54.408863,24.485759],[54.408943,24.485888],[54.409031,24.485963],[54.409484,24.48606]]]}},{"type":"Feature","properties":{},"geometry":{"type":"Polygon","coordinates":[[[54.407605,24.486034],[54.4077,24.485931],[54.407651,24.485895],[54.407442,24.48585],[54.407347,24.485952],[54.407396,24.485989],[54.407605,24.486034]]]}},{"type":"Feature","properties":{},"geometry":{"type":"Polygon","coordinates":[[[54.408675,24.487602],[54.408125,24.487965],[54.408427,24.488449],[54.408637,24.488493],[54.409511,24.488057],[54.40936,24.487784],[54.40924,24.487759],[54.409363,24.48769],[54.409247,24.487364],[54.409038,24.487319],[54.408675,24.487602]]]}},{"type":"Feature","properties":{},"geometry":{"type":"Polygon","coordinates":[[[54.407589,24.488973],[54.40756,24.488931],[54.407644,24.488949],[54.40802,24.488719],[54.407768,24.488343],[54.407565,24.4883],[54.407598,24.488281],[54.407318,24.487873],[54.407109,24.487828],[54.406708,24.488066],[54.406693,24.488062],[54.406288,24.488293],[54.406567,24.488701],[54.406722,24.488734],[54.406694,24.48875],[54.406974,24.489158],[54.407183,24.489203],[54.407589,24.488973]],[[54.407164,24.488533],[54.407154,24.488531],[54.40716,24.488528],[54.407164,24.488533]]]}},{"type":"Feature","properties":{},"geometry":{"type":"Polygon","coordinates":[[[54.407021,24.490271],[54.406811,24.490226],[54.406752,24.490247],[54.40678,24.490328],[54.406989,24.490373],[54.407054,24.490352],[54.407021,24.490271]]]}},{"type":"Feature","properties":{},"geometry":{"type":"Polygon","coordinates":[[[54.408828,24.491104],[54.408827,24.491137],[54.408749,24.491135],[54.408737,24.49125],[54.408799,24.491263],[54.408798,24.491278],[54.409007,24.491323],[54.409219,24.491329],[54.409221,24.491262],[54.409268,24.491263],[54.409272,24.491156],[54.409062,24.491111],[54.408828,24.491104]]]}},{"type":"Feature","properties":{},"geometry":{"type":"Polygon","coordinates":[[[54.407749,24.497231],[54.407842,24.497296],[54.408096,24.497352],[54.408151,24.49732],[54.408105,24.497266],[54.407792,24.497191],[54.407749,24.497231]]]}},{"type":"Feature","properties":{},"geometry":{"type":"Polygon","coordinates":[[[54.40791,24.498159],[54.408992,24.498391],[54.409383,24.498324],[54.409415,24.497947],[54.409165,24.497863],[54.408083,24.497632],[54.407908,24.497698],[54.40791,24.498159]]]}},{"type":"Feature","properties":{},"geometry":{"type":"Polygon","coordinates":[[[54.409382,24.499166],[54.409435,24.498769],[54.408924,24.498659],[54.408924,24.498611],[54.408715,24.498566],[54.408643,24.498555],[54.408629,24.498624],[54.408379,24.498607],[54.408391,24.498961],[54.408305,24.499325],[54.408661,24.49942],[54.409276,24.499552],[54.409382,24.499166]]]}},{"type":"Feature","properties":{},"geometry":{"type":"Polygon","coordinates":[[[54.409926,24.500296],[54.409975,24.49974],[54.410012,24.49951],[54.409978,24.499439],[54.4099,24.49938],[54.409578,24.499318],[54.409406,24.499328],[54.409338,24.499374],[54.40914,24.499995],[54.40909,24.500208],[54.409132,24.500337],[54.409223,24.500403],[54.409613,24.500479],[54.409746,24.500476],[54.409871,24.500412],[54.409926,24.500296]]]}},{"type":"Feature","properties":{},"geometry":{"type":"Polygon","coordinates":[[[54.407845,24.500863],[54.407843,24.500909],[54.407815,24.500968],[54.407854,24.500999],[54.408063,24.501044],[54.408114,24.500971],[54.408147,24.500887],[54.407876,24.500831],[54.407845,24.500863]]]}},{"type":"Feature","properties":{},"geometry":{"type":"Polygon","coordinates":[[[54.410544,24.501523],[54.408973,24.501186],[54.408867,24.501184],[54.408866,24.501271],[54.408765,24.501266],[54.408764,24.501415],[54.408514,24.501426],[54.408469,24.501754],[54.408542,24.501906],[54.408752,24.50195],[54.409021,24.501962],[54.409339,24.501953],[54.40943,24.501922],[54.409545,24.501851],[54.409593,24.501693],[54.410333,24.501852],[54.410433,24.501853],[54.410432,24.501791],[54.410568,24.501791],[54.410573,24.501566],[54.410542,24.501559],[54.410544,24.501523]]]}},{"type":"Feature","properties":{},"geometry":{"type":"Polygon","coordinates":[[[54.407905,24.502532],[54.408114,24.502577],[54.408295,24.5021],[54.408422,24.501858],[54.408025,24.50174],[54.407815,24.501695],[54.407521,24.502286],[54.407377,24.502265],[54.407306,24.502347],[54.407298,24.502393],[54.407551,24.502448],[54.407594,24.502403],[54.407905,24.502532]]]}},{"type":"Feature","properties":{},"geometry":{"type":"Polygon","coordinates":[[[54.407081,24.502892],[54.40703,24.502881],[54.406906,24.503032],[54.406969,24.503068],[54.407179,24.503113],[54.40731,24.502996],[54.407335,24.502994],[54.407403,24.502885],[54.407135,24.502826],[54.407081,24.502892]]]}},{"type":"Feature","properties":{},"geometry":{"type":"Polygon","coordinates":[[[54.406943,24.503344],[54.406734,24.5033],[54.406671,24.503319],[54.406708,24.50344],[54.406917,24.503485],[54.406997,24.503468],[54.406943,24.503344]]]}},{"type":"Feature","properties":{},"geometry":{"type":"Polygon","coordinates":[[[54.410201,24.504126],[54.410673,24.504204],[54.410705,24.504046],[54.410008,24.503897],[54.410053,24.503863],[54.40972,24.503497],[54.408063,24.503142],[54.407919,24.50325],[54.408251,24.503616],[54.408561,24.503683],[54.408543,24.503771],[54.410201,24.504126]]]}},{"type":"Feature","properties":{},"geometry":{"type":"Polygon","coordinates":[[[54.409349,24.504692],[54.40961,24.504393],[54.409259,24.504094],[54.406816,24.50357],[54.406611,24.503831],[54.406906,24.504168],[54.409349,24.504692]]]}},{"type":"Feature","properties":{},"geometry":{"type":"Polygon","coordinates":[[[54.406523,24.504681],[54.406525,24.504539],[54.406316,24.504494],[54.406222,24.504492],[54.406218,24.504635],[54.406428,24.504679],[54.406523,24.504681]]]}},{"type":"Feature","properties":{},"geometry":{"type":"Polygon","coordinates":[[[54.408033,24.505842],[54.408028,24.505741],[54.407819,24.505697],[54.407657,24.50568],[54.407659,24.505774],[54.408033,24.505842]]]}},{"type":"Feature","properties":{},"geometry":{"type":"Polygon","coordinates":[[[54.409472,24.506175],[54.409587,24.506114],[54.409672,24.506021],[54.409717,24.505908],[54.409719,24.505787],[54.40968,24.50568],[54.409606,24.50559],[54.409506,24.505526],[54.409388,24.505493],[54.409178,24.505448],[54.409055,24.50545],[54.408939,24.505487],[54.408841,24.505556],[54.408772,24.505649],[54.408738,24.505756],[54.408745,24.505877],[54.408795,24.505989],[54.408884,24.506078],[54.409001,24.506135],[54.409342,24.506198],[54.409472,24.506175]]]}},{"type":"Feature","properties":{},"geometry":{"type":"Polygon","coordinates":[[[54.407231,24.50734],[54.407333,24.507251],[54.406919,24.506861],[54.406751,24.506825],[54.406654,24.506913],[54.406687,24.506947],[54.406581,24.507038],[54.406615,24.507075],[54.406509,24.507161],[54.406851,24.507478],[54.407019,24.507514],[54.40712,24.507428],[54.407102,24.50741],[54.407194,24.507332],[54.407231,24.50734]]]}},{"type":"Feature","properties":{},"geometry":{"type":"Polygon","coordinates":[[[54.406644,24.507341],[54.406435,24.507297],[54.406392,24.507325],[54.406511,24.507476],[54.406721,24.507521],[54.406764,24.507492],[54.406644,24.507341]]]}},{"type":"Feature","properties":{},"geometry":{"type":"Polygon","coordinates":[[[54.409625,24.507869],[54.409615,24.507893],[54.409645,24.507935],[54.409717,24.507974],[54.409927,24.508019],[54.409973,24.508004],[54.41011,24.507998],[54.410332,24.507855],[54.410313,24.507789],[54.41023,24.507772],[54.410204,24.507719],[54.409994,24.507674],[54.409913,24.507676],[54.40978,24.507711],[54.409705,24.507769],[54.409692,24.507556],[54.409481,24.507344],[54.409272,24.5073],[54.409078,24.507468],[54.409438,24.50783],[54.409625,24.507869]]]}},{"type":"Feature","properties":{},"geometry":{"type":"Polygon","coordinates":[[[54.406957,24.507704],[54.406928,24.507737],[54.406962,24.507762],[54.407171,24.507807],[54.407201,24.507774],[54.407167,24.507749],[54.406957,24.507704]]]}},{"type":"Feature","properties":{},"geometry":{"type":"Polygon","coordinates":[[[54.408925,24.507856],[54.408716,24.507811],[54.408668,24.507813],[54.408671,24.507875],[54.408637,24.507876],[54.408642,24.507982],[54.40889,24.508025],[54.408889,24.507995],[54.408918,24.507994],[54.408914,24.507905],[54.408927,24.507904],[54.408925,24.507856]]]}},{"type":"Feature","properties":{},"geometry":{"type":"Polygon","coordinates":[[[54.409231,24.508233],[54.40932,24.508159],[54.409278,24.508116],[54.409068,24.508071],[54.408979,24.508145],[54.409022,24.508188],[54.409231,24.508233]]]}},{"type":"Feature","properties":{},"geometry":{"type":"Polygon","coordinates":[[[54.409057,24.508711],[54.409117,24.508675],[54.409097,24.508646],[54.409113,24.508636],[54.409158,24.508646],[54.409334,24.508542],[54.409273,24.508456],[54.409184,24.508437],[54.409158,24.5084],[54.408948,24.508355],[54.408805,24.50844],[54.408851,24.508505],[54.408777,24.508563],[54.408796,24.508589],[54.40876,24.50861],[54.40879,24.508653],[54.409057,24.508711]]]}},{"type":"Feature","properties":{},"geometry":{"type":"Polygon","coordinates":[[[54.40755,24.50889],[54.407615,24.508841],[54.407587,24.508811],[54.407378,24.508766],[54.407313,24.508816],[54.40734,24.508846],[54.40755,24.50889]]]}},{"type":"Feature","properties":{},"geometry":{"type":"Polygon","coordinates":[[[54.409847,24.510306],[54.41019,24.509994],[54.410005,24.509826],[54.409796,24.509781],[54.409452,24.510093],[54.409638,24.510262],[54.409847,24.510306]]]}},{"type":"Feature","properties":{},"geometry":{"type":"Polygon","coordinates":[[[54.411484,24.481839],[54.411116,24.48152],[54.410907,24.481475],[54.410733,24.481641],[54.410814,24.481711],[54.411079,24.481767],[54.411112,24.481796],[54.411013,24.481891],[54.411097,24.481964],[54.411307,24.482009],[54.411484,24.481839]]]}},{"type":"Feature","properties":{},"geometry":{"type":"Polygon","coordinates":[[[54.410696,24.481722],[54.410667,24.48175],[54.410706,24.481784],[54.410916,24.481829],[54.410945,24.481801],[54.410906,24.481767],[54.410696,24.481722]]]}},{"type":"Feature","properties":{},"geometry":{"type":"Polygon","coordinates":[[[54.412353,24.482162],[54.412563,24.482207],[54.412739,24.481932],[54.412378,24.481741],[54.412169,24.481696],[54.411993,24.481971],[54.412353,24.482162]]]}},{"type":"Feature","properties":{},"geometry":{"type":"Polygon","coordinates":[[[54.411351,24.482158],[54.41143,24.482077],[54.411398,24.482052],[54.411189,24.482007],[54.41111,24.482087],[54.411142,24.482113],[54.411351,24.482158]]]}},{"type":"Feature","properties":{},"geometry":{"type":"Polygon","coordinates":[[[54.41139,24.485651],[54.411468,24.48562],[54.411454,24.485589],[54.411244,24.485544],[54.41114,24.485585],[54.411155,24.485616],[54.411194,24.485624],[54.411166,24.485633],[54.411204,24.485731],[54.411414,24.485776],[54.411471,24.485757],[54.411432,24.48566],[54.41139,24.485651]]]}},{"type":"Feature","properties":{},"geometry":{"type":"Polygon","coordinates":[[[54.4131,24.487731],[54.413084,24.487673],[54.413256,24.48771],[54.413524,24.4877],[54.413521,24.487621],[54.413488,24.487614],[54.413484,24.487529],[54.413516,24.487528],[54.413513,24.487454],[54.413399,24.48743],[54.413388,24.487195],[54.413179,24.48715],[54.413074,24.487154],[54.413075,24.487182],[54.412898,24.487189],[54.412975,24.487407],[54.413035,24.48742],[54.413041,24.48754],[54.412836,24.487496],[54.41275,24.487517],[54.412804,24.487706],[54.413014,24.487751],[54.4131,24.487731]]]}},{"type":"Feature","properties":{},"geometry":{"type":"Polygon","coordinates":[[[54.413587,24.48789],[54.413378,24.487846],[54.41331,24.487848],[54.413312,24.487909],[54.413522,24.487954],[54.41359,24.487952],[54.413587,24.48789]]]}},{"type":"Feature","properties":{},"geometry":{"type":"Polygon","coordinates":[[[54.415751,24.487968],[54.415745,24.487767],[54.415788,24.487776],[54.415796,24.487899],[54.415864,24.487914],[54.415798,24.487916],[54.4158,24.487972],[54.41601,24.488017],[54.416128,24.488013],[54.416141,24.488248],[54.416026,24.488232],[54.416025,24.488314],[54.415936,24.488308],[54.41594,24.488344],[54.416024,24.488362],[54.416022,24.488444],[54.416232,24.488489],[54.416527,24.488493],[54.416527,24.488451],[54.416694,24.488479],[54.416696,24.488436],[54.416487,24.488391],[54.416442,24.488389],[54.416441,24.488402],[54.416274,24.488372],[54.416275,24.488321],[54.416723,24.488408],[54.416725,24.488369],[54.416524,24.488326],[54.416523,24.488312],[54.41665,24.48833],[54.416652,24.488293],[54.416749,24.488305],[54.416748,24.488248],[54.416717,24.488242],[54.41675,24.488241],[54.416746,24.488148],[54.416669,24.488131],[54.416665,24.488042],[54.416594,24.488027],[54.416595,24.488017],[54.416666,24.48802],[54.416665,24.487971],[54.416456,24.487926],[54.416262,24.48793],[54.416254,24.487801],[54.415894,24.487724],[54.415788,24.487726],[54.415673,24.487702],[54.415671,24.487682],[54.415462,24.487637],[54.415403,24.48764],[54.415406,24.487684],[54.415644,24.487727],[54.415644,24.487744],[54.415536,24.487721],[54.414913,24.487726],[54.414913,24.48777],[54.414978,24.487784],[54.414978,24.488168],[54.415187,24.488213],[54.41537,24.488213],[54.41537,24.487962],[54.415619,24.487961],[54.415619,24.487952],[54.415751,24.487968]],[[54.416233,24.487932],[54.416233,24.487952],[54.416159,24.487936],[54.416233,24.487932]]]}},{"type":"Feature","properties":{},"geometry":{"type":"Polygon","coordinates":[[[54.414643,24.488313],[54.414646,24.488433],[54.414856,24.488478],[54.414979,24.488475],[54.414976,24.488355],[54.41484,24.488326],[54.414968,24.48833],[54.414972,24.488235],[54.414762,24.48819],[54.41463,24.488186],[54.414627,24.488281],[54.414763,24.488311],[54.414643,24.488313]]]}},{"type":"Feature","properties":{},"geometry":{"type":"Polygon","coordinates":[[[54.415602,24.488387],[54.415696,24.488385],[54.415695,24.488336],[54.415567,24.488309],[54.415566,24.488295],[54.415714,24.488311],[54.41571,24.4882],[54.415501,24.488155],[54.415438,24.488157],[54.415442,24.488266],[54.415356,24.488247],[54.415263,24.488251],[54.415264,24.488276],[54.415108,24.488269],[54.41511,24.488352],[54.415319,24.488397],[54.415436,24.488396],[54.415435,24.488351],[54.415602,24.488387]]]}},{"type":"Feature","properties":{},"geometry":{"type":"Polygon","coordinates":[[[54.415431,24.488484],[54.415432,24.488438],[54.415203,24.488393],[54.415202,24.488439],[54.415431,24.488484]]]}},{"type":"Feature","properties":{},"geometry":{"type":"Polygon","coordinates":[[[54.415543,24.488642],[54.415334,24.488597],[54.415253,24.488599],[54.415255,24.488648],[54.415465,24.488693],[54.415545,24.48869],[54.415543,24.488642]]]}},{"type":"Feature","properties":{},"geometry":{"type":"Polygon","coordinates":[[[54.410346,24.48836],[54.410212,24.488371],[54.410217,24.488419],[54.409929,24.488447],[54.409974,24.488883],[54.410183,24.488928],[54.41065,24.488887],[54.410638,24.488768],[54.410905,24.488745],[54.410862,24.48833],[54.410653,24.488285],[54.410341,24.488312],[54.410346,24.48836]]]}},{"type":"Feature","properties":{},"geometry":{"type":"Polygon","coordinates":[[[54.410965,24.488825],[54.410938,24.488886],[54.410988,24.488954],[54.411123,24.488983],[54.411224,24.489116],[54.411052,24.489208],[54.411105,24.489291],[54.411295,24.489331],[54.411375,24.489462],[54.411465,24.489482],[54.411503,24.489548],[54.411762,24.489602],[54.411746,24.489674],[54.41212,24.489755],[54.412285,24.489127],[54.412327,24.489128],[54.412593,24.489635],[54.412803,24.48968],[54.412956,24.4896],[54.412923,24.48955],[54.413136,24.489455],[54.41319,24.489333],[54.413261,24.489348],[54.413305,24.489173],[54.412655,24.488956],[54.41266,24.488896],[54.41288,24.488938],[54.413489,24.488848],[54.413445,24.488556],[54.413235,24.488511],[54.412737,24.488571],[54.412656,24.488553],[54.412673,24.488545],[54.412558,24.488398],[54.412683,24.488009],[54.41276,24.488056],[54.412969,24.488101],[54.413104,24.487954],[54.412745,24.487759],[54.412306,24.487673],[54.412033,24.48766],[54.412035,24.487682],[54.411948,24.487664],[54.411659,24.487738],[54.411372,24.487912],[54.411204,24.488085],[54.411362,24.488196],[54.411571,24.488241],[54.411664,24.488165],[54.411818,24.488429],[54.411735,24.488666],[54.411214,24.488505],[54.411005,24.48846],[54.410961,24.488555],[54.411146,24.488623],[54.411109,24.488807],[54.410965,24.488825]],[[54.411981,24.487983],[54.412183,24.487944],[54.41218,24.487907],[54.412254,24.487923],[54.412162,24.488306],[54.411981,24.487983]],[[54.411851,24.489294],[54.41182,24.489445],[54.41175,24.489351],[54.411851,24.489294]]]}},{"type":"Feature","properties":{},"geometry":{"type":"Polygon","coordinates":[[[54.410007,24.489139],[54.410216,24.489184],[54.41042,24.489165],[54.410465,24.48957],[54.410674,24.489615],[54.410826,24.489601],[54.410762,24.489025],[54.410552,24.48898],[54.409995,24.489031],[54.410007,24.489139]]]}},{"type":"Feature","properties":{},"geometry":{"type":"Polygon","coordinates":[[[54.410884,24.489736],[54.410675,24.489691],[54.410626,24.489694],[54.410629,24.489737],[54.410839,24.489782],[54.410888,24.489778],[54.410884,24.489736]]]}},{"type":"Feature","properties":{},"geometry":{"type":"Polygon","coordinates":[[[54.410326,24.49009],[54.410885,24.490035],[54.41087,24.489907],[54.41066,24.489862],[54.410451,24.489883],[54.410405,24.48949],[54.410195,24.489445],[54.410047,24.48946],[54.410116,24.490045],[54.410326,24.49009]]]}},{"type":"Feature","properties":{},"geometry":{"type":"Polygon","coordinates":[[[54.412502,24.490007],[54.412498,24.489945],[54.412288,24.4899],[54.412219,24.489904],[54.412223,24.489967],[54.412432,24.490011],[54.412502,24.490007]]]}},{"type":"Feature","properties":{},"geometry":{"type":"Polygon","coordinates":[[[54.411148,24.490662],[54.410939,24.490617],[54.410842,24.490616],[54.410842,24.490668],[54.411051,24.490713],[54.411147,24.490714],[54.411148,24.490662]]]}},{"type":"Feature","properties":{},"geometry":{"type":"Polygon","coordinates":[[[54.410939,24.490906],[54.411148,24.490951],[54.411223,24.490949],[54.411221,24.490892],[54.411202,24.490888],[54.411224,24.490888],[54.411224,24.490795],[54.411015,24.49075],[54.410945,24.49075],[54.410945,24.490843],[54.410968,24.490848],[54.410937,24.490849],[54.410939,24.490906]]]}},{"type":"Feature","properties":{},"geometry":{"type":"Polygon","coordinates":[[[54.413413,24.490645],[54.413204,24.4906],[54.412714,24.490595],[54.412707,24.491087],[54.412916,24.491132],[54.413395,24.491138],[54.413397,24.490975],[54.413188,24.49093],[54.413114,24.490929],[54.413116,24.49081],[54.413411,24.490814],[54.413413,24.490645]]]}},{"type":"Feature","properties":{},"geometry":{"type":"Polygon","coordinates":[[[54.410207,24.490772],[54.410203,24.490985],[54.410413,24.49103],[54.410699,24.491033],[54.410706,24.490766],[54.410497,24.490721],[54.410391,24.490721],[54.410389,24.490768],[54.410207,24.490772]]]}},{"type":"Feature","properties":{},"geometry":{"type":"Polygon","coordinates":[[[54.412666,24.491142],[54.41262,24.49114],[54.412619,24.491179],[54.412828,24.491224],[54.412874,24.491226],[54.412875,24.491187],[54.412666,24.491142]]]}},{"type":"Feature","properties":{},"geometry":{"type":"Polygon","coordinates":[[[54.411722,24.491178],[54.411226,24.491146],[54.411204,24.491422],[54.410975,24.49138],[54.410972,24.491456],[54.411198,24.491502],[54.411154,24.492055],[54.411364,24.492099],[54.41186,24.492132],[54.411931,24.491223],[54.411722,24.491178]]]}},{"type":"Feature","properties":{},"geometry":{"type":"Polygon","coordinates":[[[54.410816,24.491635],[54.41083,24.491311],[54.41062,24.491266],[54.410248,24.491253],[54.410234,24.491577],[54.410444,24.491622],[54.410816,24.491635]]]}},{"type":"Feature","properties":{},"geometry":{"type":"Polygon","coordinates":[[[54.411899,24.491652],[54.411898,24.491681],[54.412107,24.491726],[54.412185,24.491729],[54.412186,24.491699],[54.411976,24.491654],[54.411899,24.491652]]]}},{"type":"Feature","properties":{},"geometry":{"type":"Polygon","coordinates":[[[54.411706,24.492383],[54.411709,24.492296],[54.411499,24.492251],[54.411372,24.492247],[54.411369,24.492335],[54.411578,24.49238],[54.411706,24.492383]]]}},{"type":"Feature","properties":{},"geometry":{"type":"Polygon","coordinates":[[[54.412155,24.492461],[54.411946,24.492416],[54.411763,24.492414],[54.411762,24.492512],[54.411972,24.492557],[54.412154,24.492558],[54.412155,24.492461]]]}},{"type":"Feature","properties":{},"geometry":{"type":"Polygon","coordinates":[[[54.414992,24.497071],[54.415103,24.496914],[54.41501,24.49686],[54.414801,24.496815],[54.41469,24.496973],[54.414782,24.497026],[54.414992,24.497071]]]}},{"type":"Feature","properties":{},"geometry":{"type":"Polygon","coordinates":[[[54.41181,24.4975],[54.411496,24.497386],[54.411287,24.497341],[54.411193,24.497377],[54.411489,24.498137],[54.411615,24.498867],[54.411825,24.498912],[54.411943,24.498902],[54.412125,24.498673],[54.412019,24.498054],[54.412041,24.498045],[54.41181,24.4975]]]}},{"type":"Feature","properties":{},"geometry":{"type":"Polygon","coordinates":[[[54.410415,24.497664],[54.410401,24.498826],[54.410539,24.498973],[54.410748,24.499018],[54.410993,24.499029],[54.410985,24.497515],[54.410776,24.49747],[54.410589,24.497515],[54.410415,24.497664]]]}},{"type":"Feature","properties":{},"geometry":{"type":"Polygon","coordinates":[[[54.412489,24.502861],[54.412574,24.503006],[54.413098,24.503119],[54.41317,24.503099],[54.41329,24.502809],[54.413379,24.502328],[54.412899,24.502033],[54.412741,24.501881],[54.412655,24.501769],[54.412574,24.501625],[54.412526,24.501486],[54.412002,24.501374],[54.411458,24.50136],[54.411494,24.50156],[54.411541,24.501695],[54.411614,24.501878],[54.411698,24.502035],[54.41185,24.502242],[54.412106,24.502543],[54.412351,24.502708],[54.412489,24.502861]]]}},{"type":"Feature","properties":{},"geometry":{"type":"Polygon","coordinates":[[[54.411491,24.502531],[54.411253,24.50249],[54.411251,24.502613],[54.411509,24.502659],[54.411511,24.502561],[54.411643,24.502757],[54.411448,24.502715],[54.411363,24.50275],[54.41144,24.502902],[54.411649,24.502947],[54.411733,24.502911],[54.411658,24.502763],[54.411855,24.502805],[54.411957,24.502748],[54.411796,24.502509],[54.411703,24.502489],[54.411742,24.502449],[54.411529,24.502276],[54.411319,24.502231],[54.411248,24.502304],[54.411461,24.502477],[54.411535,24.502493],[54.411484,24.502521],[54.411491,24.502531]]]}},{"type":"Feature","properties":{},"geometry":{"type":"Polygon","coordinates":[[[54.410913,24.502838],[54.411356,24.502864],[54.411354,24.502702],[54.411216,24.502673],[54.411155,24.502628],[54.411149,24.502248],[54.41094,24.502203],[54.410738,24.5022],[54.410704,24.502793],[54.410913,24.502838]]]}},{"type":"Feature","properties":{},"geometry":{"type":"Polygon","coordinates":[[[54.413587,24.50374],[54.413428,24.503897],[54.413605,24.50405],[54.414844,24.504316],[54.414919,24.504253],[54.41533,24.504341],[54.415438,24.504251],[54.415811,24.504331],[54.415988,24.504182],[54.415792,24.50402],[54.415077,24.503867],[54.414982,24.503961],[54.414194,24.503792],[54.414129,24.503856],[54.413587,24.50374]]]}},{"type":"Feature","properties":{},"geometry":{"type":"Polygon","coordinates":[[[54.414331,24.504524],[54.414508,24.504375],[54.414312,24.504214],[54.412741,24.503877],[54.412583,24.504035],[54.41276,24.504188],[54.414331,24.504524]]]}},{"type":"Feature","properties":{},"geometry":{"type":"Polygon","coordinates":[[[54.414671,24.504668],[54.413555,24.504429],[54.413396,24.504586],[54.413573,24.504739],[54.414216,24.504877],[54.414273,24.504927],[54.415313,24.505155],[54.415377,24.50511],[54.415332,24.505067],[54.415428,24.504987],[54.415232,24.504826],[54.414732,24.504719],[54.414671,24.504668]]]}},{"type":"Feature","properties":{},"geometry":{"type":"Polygon","coordinates":[[[54.410797,24.506728],[54.410732,24.506708],[54.410747,24.506615],[54.410678,24.506576],[54.410336,24.506495],[54.410162,24.506515],[54.410089,24.506566],[54.410089,24.506616],[54.410126,24.506685],[54.410175,24.506695],[54.410292,24.506758],[54.410502,24.506803],[54.410773,24.506792],[54.410797,24.506728]]]}},{"type":"Feature","properties":{},"geometry":{"type":"Polygon","coordinates":[[[54.410922,24.507285],[54.41101,24.507189],[54.411043,24.506943],[54.410977,24.506911],[54.410768,24.506867],[54.41074,24.506915],[54.410637,24.506893],[54.410584,24.506949],[54.410523,24.507061],[54.410517,24.507221],[54.41056,24.507295],[54.410823,24.507348],[54.410904,24.507326],[54.410922,24.507285]]]}},{"type":"Feature","properties":{},"geometry":{"type":"Polygon","coordinates":[[[54.410603,24.508552],[54.410599,24.508652],[54.410809,24.508696],[54.411097,24.508706],[54.4111,24.508608],[54.410891,24.508563],[54.410603,24.508552]]]}},{"type":"Feature","properties":{},"geometry":{"type":"Polygon","coordinates":[[[54.411039,24.508939],[54.411031,24.509118],[54.410913,24.509103],[54.410912,24.509174],[54.411027,24.509199],[54.411025,24.509265],[54.411097,24.50928],[54.411097,24.509291],[54.411348,24.509337],[54.411346,24.509412],[54.411236,24.509388],[54.410514,24.509405],[54.410517,24.509499],[54.410727,24.509544],[54.411448,24.509523],[54.411446,24.509456],[54.411555,24.50948],[54.411673,24.509482],[54.411678,24.509265],[54.41148,24.509222],[54.411482,24.509143],[54.411571,24.509162],[54.411694,24.509167],[54.411703,24.508958],[54.411494,24.508913],[54.41137,24.508909],[54.411368,24.508959],[54.411278,24.508939],[54.411039,24.508939]]]}},{"type":"Feature","properties":{},"geometry":{"type":"Polygon","coordinates":[[[54.41076,24.509063],[54.410551,24.509018],[54.410489,24.50902],[54.410491,24.509116],[54.4107,24.509161],[54.410762,24.50916],[54.41076,24.509063]]]}},{"type":"Feature","properties":{},"geometry":{"type":"Polygon","coordinates":[[[54.411355,24.509641],[54.411145,24.509596],[54.411047,24.509636],[54.411124,24.509793],[54.411333,24.509838],[54.411432,24.509798],[54.411355,24.509641]]]}},{"type":"Feature","properties":{},"geometry":{"type":"Polygon","coordinates":[[[54.41853,24.481923],[54.418575,24.48192],[54.418573,24.481898],[54.418364,24.481854],[54.41832,24.481856],[54.418321,24.481878],[54.41853,24.481923]]]}},{"type":"Feature","properties":{},"geometry":{"type":"Polygon","coordinates":[[[54.418442,24.482417],[54.418988,24.482486],[54.418986,24.482505],[54.41855,24.482435],[54.418224,24.482402],[54.418208,24.482536],[54.418417,24.482581],[54.418743,24.482614],[54.418752,24.482544],[54.418981,24.482577],[54.418968,24.482664],[54.418748,24.482616],[54.41872,24.482702],[54.419026,24.482773],[54.419043,24.482723],[54.419494,24.482791],[54.419514,24.482659],[54.419127,24.482592],[54.419131,24.482566],[54.419525,24.482609],[54.41953,24.482565],[54.419598,24.482572],[54.419632,24.482233],[54.419658,24.482238],[54.419645,24.482349],[54.419855,24.482394],[54.420926,24.482526],[54.420945,24.482404],[54.420736,24.482359],[54.420208,24.482282],[54.42021,24.48227],[54.420643,24.482332],[54.420954,24.482361],[54.420967,24.48224],[54.420758,24.482196],[54.420447,24.482167],[54.42044,24.48223],[54.420208,24.482194],[54.420228,24.482064],[54.420018,24.48202],[54.419697,24.481978],[54.419696,24.48199],[54.419571,24.481976],[54.419409,24.481941],[54.419084,24.481902],[54.419066,24.482033],[54.419446,24.482098],[54.419441,24.482122],[54.419203,24.482088],[54.419207,24.482064],[54.418997,24.482019],[54.418834,24.482001],[54.418837,24.481991],[54.418591,24.48194],[54.418576,24.48201],[54.418669,24.48203],[54.418664,24.482063],[54.418874,24.482108],[54.419038,24.482126],[54.419018,24.482263],[54.419162,24.482294],[54.419156,24.482361],[54.419172,24.482364],[54.418251,24.48224],[54.418233,24.482372],[54.418442,24.482417]],[[54.4198,24.482135],[54.42006,24.482176],[54.420058,24.482188],[54.4198,24.482157],[54.4198,24.482135]]]}},{"type":"Feature","properties":{},"geometry":{"type":"Polygon","coordinates":[[[54.418857,24.482995],[54.419189,24.483025],[54.4192,24.482922],[54.419551,24.482957],[54.419878,24.483007],[54.419877,24.483017],[54.419463,24.48297],[54.41945,24.483089],[54.41966,24.483134],[54.419984,24.483163],[54.419986,24.483143],[54.4203,24.483183],[54.420298,24.483206],[54.420507,24.483251],[54.420826,24.483278],[54.420839,24.483149],[54.42063,24.483104],[54.420426,24.483088],[54.420428,24.483069],[54.420835,24.483127],[54.420852,24.483007],[54.420643,24.482962],[54.420361,24.482928],[54.420388,24.482858],[54.420115,24.48279],[54.420123,24.482738],[54.419914,24.482693],[54.419592,24.482653],[54.419573,24.482785],[54.419782,24.48283],[54.42006,24.482864],[54.420056,24.482876],[54.420144,24.482904],[54.420332,24.482944],[54.420322,24.483008],[54.42001,24.482967],[54.420021,24.482886],[54.419811,24.482841],[54.419035,24.48275],[54.419023,24.482843],[54.418851,24.482824],[54.418714,24.482788],[54.418722,24.482713],[54.418512,24.482668],[54.418186,24.48264],[54.418172,24.482776],[54.41847,24.482828],[54.418157,24.482816],[54.418151,24.482938],[54.418361,24.482982],[54.418686,24.482995],[54.418688,24.482958],[54.418857,24.482995]],[[54.418549,24.482843],[54.418487,24.48283],[54.41855,24.482835],[54.418549,24.482843]]]}},{"type":"Feature","properties":{},"geometry":{"type":"Polygon","coordinates":[[[54.417324,24.487723],[54.417115,24.487678],[54.417029,24.487679],[54.417029,24.487725],[54.417239,24.487769],[54.417325,24.487769],[54.417324,24.487723]]]}},{"type":"Feature","properties":{},"geometry":{"type":"Polygon","coordinates":[[[54.416006,24.489041],[54.416065,24.48904],[54.416062,24.488954],[54.416257,24.488988],[54.416252,24.488881],[54.415849,24.488795],[54.41579,24.488796],[54.415797,24.488996],[54.416006,24.489041]]]}},{"type":"Feature","properties":{},"geometry":{"type":"Polygon","coordinates":[[[54.41551,24.48906],[54.415512,24.489102],[54.415624,24.489126],[54.415575,24.489124],[54.415572,24.489205],[54.415833,24.489251],[54.415835,24.489171],[54.415723,24.489146],[54.415876,24.489139],[54.415873,24.489095],[54.41567,24.489051],[54.415683,24.489051],[54.415679,24.488851],[54.415469,24.488806],[54.41541,24.488807],[54.415414,24.489007],[54.415631,24.489052],[54.41551,24.48906]]]}},{"type":"Feature","properties":{},"geometry":{"type":"Polygon","coordinates":[[[54.415211,24.489632],[54.415421,24.489677],[54.416292,24.489655],[54.41629,24.489586],[54.416269,24.489582],[54.416267,24.489502],[54.416057,24.489457],[54.415207,24.489478],[54.415211,24.489632]]]}},{"type":"Feature","properties":{},"geometry":{"type":"Polygon","coordinates":[[[54.416548,24.501871],[54.416362,24.501883],[54.416364,24.50193],[54.416574,24.501975],[54.41667,24.501971],[54.416758,24.501965],[54.416757,24.501921],[54.41682,24.501934],[54.416865,24.501923],[54.416862,24.501913],[54.417044,24.502044],[54.417254,24.502089],[54.41747,24.501885],[54.41724,24.501685],[54.417031,24.50164],[54.416953,24.501713],[54.41701,24.501774],[54.416972,24.501857],[54.416858,24.501901],[54.41685,24.501875],[54.416641,24.50183],[54.416596,24.501842],[54.416609,24.501884],[54.416548,24.501871]]]}},{"type":"Feature","properties":{},"geometry":{"type":"Polygon","coordinates":[[[54.417577,24.502387],[54.417619,24.50236],[54.41759,24.502323],[54.417381,24.502278],[54.417338,24.502306],[54.417368,24.502343],[54.417577,24.502387]]]}},{"type":"Feature","properties":{},"geometry":{"type":"Polygon","coordinates":[[[54.417676,24.502408],[54.417652,24.502433],[54.417699,24.502469],[54.417908,24.502514],[54.417932,24.502489],[54.417885,24.502453],[54.417676,24.502408]]]}},{"type":"Feature","properties":{},"geometry":{"type":"Polygon","coordinates":[[[54.415522,24.502478],[54.415526,24.502419],[54.415291,24.502372],[54.415287,24.502431],[54.415522,24.502478]]]}},{"type":"Feature","properties":{},"geometry":{"type":"Polygon","coordinates":[[[54.4175,24.502562],[54.417504,24.502442],[54.417295,24.502397],[54.417211,24.502397],[54.417211,24.502512],[54.4175,24.502562]]]}},{"type":"Feature","properties":{},"geometry":{"type":"Polygon","coordinates":[[[54.416893,24.502654],[54.416996,24.502652],[54.416995,24.502628],[54.416786,24.502583],[54.416683,24.502585],[54.416683,24.502609],[54.416893,24.502654]]]}},{"type":"Feature","properties":{},"geometry":{"type":"Polygon","coordinates":[[[54.415439,24.502638],[54.415469,24.502637],[54.415468,24.502603],[54.415258,24.502559],[54.415181,24.502562],[54.415183,24.502595],[54.415197,24.502599],[54.415185,24.502599],[54.415185,24.502637],[54.415395,24.502682],[54.415466,24.502682],[54.415466,24.502644],[54.415439,24.502638]]]}},{"type":"Feature","properties":{},"geometry":{"type":"Polygon","coordinates":[[[54.417408,24.502771],[54.417402,24.50271],[54.417193,24.502665],[54.417135,24.502677],[54.41709,24.502667],[54.416901,24.502674],[54.416735,24.502658],[54.416732,24.502717],[54.41706,24.502794],[54.417302,24.502785],[54.417302,24.502765],[54.417408,24.502771]]]}},{"type":"Feature","properties":{},"geometry":{"type":"Polygon","coordinates":[[[54.415238,24.502856],[54.415447,24.502901],[54.415505,24.502893],[54.415497,24.502843],[54.415452,24.502833],[54.415465,24.502832],[54.415459,24.502785],[54.415477,24.502789],[54.415476,24.502812],[54.415685,24.502856],[54.415811,24.502861],[54.415815,24.502783],[54.415605,24.502739],[54.41548,24.502734],[54.415479,24.502755],[54.415355,24.502735],[54.415353,24.502755],[54.415249,24.502733],[54.415187,24.50274],[54.415193,24.502793],[54.415242,24.502804],[54.415229,24.502806],[54.415238,24.502856]]]}},{"type":"Feature","properties":{},"geometry":{"type":"Polygon","coordinates":[[[54.417605,24.503229],[54.417604,24.503168],[54.417352,24.503101],[54.417372,24.503102],[54.417374,24.50306],[54.417165,24.503015],[54.417057,24.503011],[54.417056,24.503053],[54.417255,24.503096],[54.417252,24.503182],[54.417461,24.503227],[54.417605,24.503229]]]}},{"type":"Feature","properties":{},"geometry":{"type":"Polygon","coordinates":[[[54.415726,24.503477],[54.415728,24.503421],[54.415519,24.503377],[54.415425,24.503373],[54.415423,24.503429],[54.415632,24.503473],[54.415726,24.503477]]]}},{"type":"Feature","properties":{},"geometry":{"type":"Polygon","coordinates":[[[54.415852,24.503558],[54.4156,24.503514],[54.415603,24.503597],[54.415855,24.50364],[54.415852,24.503558]]]}},{"type":"Feature","properties":{},"geometry":{"type":"Polygon","coordinates":[[[54.41769,24.503787],[54.417698,24.50357],[54.417455,24.503524],[54.417447,24.503741],[54.41769,24.503787]]]}},{"type":"Feature","properties":{},"geometry":{"type":"Polygon","coordinates":[[[54.415441,24.504421],[54.415231,24.504377],[54.415191,24.504409],[54.414755,24.504315],[54.414596,24.504473],[54.414774,24.504625],[54.415629,24.504809],[54.415806,24.50466],[54.41561,24.504498],[54.41549,24.504473],[54.415441,24.504421]]]}},{"type":"Feature","properties":{},"geometry":{"type":"Polygon","coordinates":[[[54.415784,24.50493],[54.415574,24.504885],[54.415528,24.504921],[54.415585,24.504982],[54.415794,24.505027],[54.415841,24.50499],[54.415784,24.50493]]]}},{"type":"Feature","properties":{},"geometry":{"type":"Polygon","coordinates":[[[54.418937,24.480061],[54.418939,24.480052],[54.418664,24.479998],[54.418658,24.480033],[54.418734,24.48005],[54.418733,24.480086],[54.41898,24.480132],[54.418981,24.480071],[54.418937,24.480061]]]}},{"type":"Feature","properties":{},"geometry":{"type":"Polygon","coordinates":[[[54.420657,24.480294],[54.42066,24.480236],[54.420451,24.480192],[54.42036,24.480188],[54.420353,24.480319],[54.420658,24.480379],[54.420901,24.480388],[54.420903,24.480342],[54.420657,24.480294]]]}},{"type":"Feature","properties":{},"geometry":{"type":"Polygon","coordinates":[[[54.419987,24.480883],[54.419993,24.480828],[54.41972,24.480777],[54.419714,24.480832],[54.419987,24.480883]]]}},{"type":"Feature","properties":{},"geometry":{"type":"Polygon","coordinates":[[[54.419728,24.481807],[54.419748,24.48167],[54.419539,24.481625],[54.419212,24.481586],[54.419209,24.481606],[54.418689,24.481516],[54.418369,24.481479],[54.418351,24.481614],[54.41856,24.481659],[54.418753,24.481681],[54.41875,24.481697],[54.41896,24.481742],[54.4193,24.481784],[54.419305,24.481747],[54.419728,24.481807]]]}},{"type":"Feature","properties":{},"geometry":{"type":"Polygon","coordinates":[[[54.419834,24.481991],[54.420149,24.482023],[54.420144,24.482044],[54.420444,24.482109],[54.420468,24.48202],[54.420168,24.481954],[54.420159,24.481987],[54.420171,24.481892],[54.420485,24.481938],[54.420468,24.482048],[54.420677,24.482093],[54.420987,24.482135],[54.421007,24.482012],[54.420599,24.48194],[54.420601,24.481923],[54.420707,24.481946],[54.421032,24.481962],[54.42104,24.48183],[54.420831,24.481785],[54.420537,24.48177],[54.41986,24.481661],[54.419854,24.481724],[54.420064,24.481769],[54.420051,24.481863],[54.419642,24.481811],[54.419625,24.481946],[54.419834,24.481991]]]}},{"type":"Feature","properties":{},"geometry":{"type":"Polygon","coordinates":[[[54.4187,24.481826],[54.418855,24.481855],[54.418868,24.481775],[54.418674,24.481731],[54.418672,24.481686],[54.418463,24.481641],[54.418334,24.481646],[54.41834,24.481786],[54.41855,24.481831],[54.4187,24.481826]]]}},{"type":"Feature","properties":{},"geometry":{"type":"Polygon","coordinates":[[[54.418798,24.482252],[54.418817,24.482124],[54.418607,24.48208],[54.418285,24.482039],[54.418266,24.482166],[54.418475,24.482211],[54.418798,24.482252]]]}},{"type":"Feature","properties":{},"geometry":{"type":"Polygon","coordinates":[[[54.420561,24.482854],[54.420871,24.48289],[54.420888,24.482769],[54.420313,24.482659],[54.420158,24.482643],[54.420159,24.482636],[54.420895,24.482727],[54.420916,24.482582],[54.420707,24.482537],[54.420396,24.482503],[54.420395,24.482513],[54.41963,24.48242],[54.419606,24.482616],[54.419816,24.482661],[54.419978,24.482677],[54.419976,24.482693],[54.420186,24.482738],[54.420359,24.482755],[54.420352,24.482809],[54.420561,24.482854]]]}},{"type":"Feature","properties":{},"geometry":{"type":"Polygon","coordinates":[[[54.419592,24.48932],[54.419695,24.489319],[54.419694,24.489265],[54.419485,24.48922],[54.41912,24.489223],[54.419122,24.489262],[54.419331,24.489307],[54.419433,24.489303],[54.419432,24.489292],[54.419592,24.48932]]]}},{"type":"Feature","properties":{},"geometry":{"type":"Polygon","coordinates":[[[54.419077,24.489301],[54.418867,24.489256],[54.418778,24.48926],[54.418784,24.489384],[54.418994,24.489429],[54.419083,24.489425],[54.419077,24.489301]]]}},{"type":"Feature","properties":{},"geometry":{"type":"Polygon","coordinates":[[[54.419658,24.489483],[54.419661,24.489381],[54.419452,24.489336],[54.419347,24.489333],[54.419344,24.489436],[54.419554,24.489481],[54.419658,24.489483]]]}},{"type":"Feature","properties":{},"geometry":{"type":"Polygon","coordinates":[[[54.419183,24.489537],[54.418947,24.489495],[54.418957,24.489567],[54.419193,24.489609],[54.419183,24.489537]]]}},{"type":"Feature","properties":{},"geometry":{"type":"Polygon","coordinates":[[[54.419684,24.489774],[54.419474,24.489729],[54.419353,24.489731],[54.419355,24.489776],[54.419564,24.489821],[54.419685,24.489819],[54.419684,24.489774]]]}},{"type":"Feature","properties":{},"geometry":{"type":"Polygon","coordinates":[[[54.419177,24.490245],[54.419029,24.490232],[54.419031,24.490266],[54.41924,24.490311],[54.419315,24.490309],[54.419314,24.490289],[54.419438,24.490303],[54.419436,24.490267],[54.419579,24.490298],[54.419662,24.490293],[54.419659,24.490172],[54.41945,24.490127],[54.419402,24.490128],[54.419403,24.490175],[54.419223,24.490136],[54.419172,24.490138],[54.419177,24.490245]]]}},{"type":"Feature","properties":{},"geometry":{"type":"Polygon","coordinates":[[[54.418218,24.502471],[54.41842,24.502393],[54.418376,24.5023],[54.418167,24.502255],[54.417965,24.502334],[54.418008,24.502426],[54.418218,24.502471]]]}}]}