{"type":"FeatureCollection","features":[{"type":"Feature","properties":{},"geometry":{"type":"Polygon","coordinates":[[[54.390743,24.482524],[54.390718,24.482472],[54.39058,24.482459],[54.390563,24.482582],[54.390589,24.482634],[54.390723,24.482646],[54.390743,24.482524]]]}},{"type":"Feature","properties":{},"geometry":{"type":"Polygon","coordinates":[[[54.391035,24.482607],[54.390942,24.482565],[54.390825,24.482772],[54.390851,24.482824],[54.390937,24.482868],[54.390953,24.482841],[54.390972,24.48288],[54.391053,24.482919],[54.391174,24.482712],[54.391149,24.48266],[54.391062,24.48262],[54.391052,24.48264],[54.391035,24.482607]]]}},{"type":"Feature","properties":{},"geometry":{"type":"Polygon","coordinates":[[[54.390518,24.482654],[54.390461,24.482735],[54.390487,24.482787],[54.390736,24.482925],[54.390791,24.482843],[54.390765,24.482792],[54.390518,24.482654]]]}},{"type":"Feature","properties":{},"geometry":{"type":"Polygon","coordinates":[[[54.391221,24.482977],[54.391255,24.48292],[54.391383,24.482986],[54.391312,24.483107],[54.391302,24.483085],[54.391056,24.482942],[54.390997,24.483025],[54.391023,24.483077],[54.391264,24.48322],[54.391285,24.483191],[54.391301,24.483222],[54.391528,24.483334],[54.391605,24.483212],[54.39158,24.48316],[54.391533,24.483118],[54.39159,24.483025],[54.391636,24.483049],[54.391646,24.483031],[54.391693,24.483055],[54.391768,24.482935],[54.391742,24.482883],[54.391509,24.482769],[54.391475,24.482828],[54.391462,24.482801],[54.391195,24.48268],[54.391155,24.48275],[54.391181,24.482802],[54.391257,24.482838],[54.391239,24.482871],[54.391191,24.482839],[54.39115,24.482902],[54.391176,24.482954],[54.391221,24.482977]]]}},{"type":"Feature","properties":{},"geometry":{"type":"Polygon","coordinates":[[[54.390062,24.482824],[54.389997,24.482755],[54.389907,24.482825],[54.389933,24.482877],[54.389998,24.482946],[54.390088,24.482876],[54.390062,24.482824]]]}},{"type":"Feature","properties":{},"geometry":{"type":"Polygon","coordinates":[[[54.392286,24.483295],[54.392345,24.483192],[54.392281,24.483077],[54.392174,24.483027],[54.39215,24.48307],[54.392141,24.483051],[54.392042,24.483006],[54.392022,24.483043],[54.392047,24.483095],[54.392143,24.483141],[54.392162,24.483111],[54.392172,24.48313],[54.392239,24.483161],[54.392207,24.483218],[54.392232,24.48327],[54.392286,24.483295]]]}},{"type":"Feature","properties":{},"geometry":{"type":"Polygon","coordinates":[[[54.392476,24.48318],[54.392379,24.483134],[54.392282,24.483312],[54.392307,24.483364],[54.392401,24.483406],[54.392501,24.483232],[54.392476,24.48318]]]}},{"type":"Feature","properties":{},"geometry":{"type":"Polygon","coordinates":[[[54.391532,24.483387],[54.391516,24.483417],[54.391542,24.483469],[54.391637,24.483509],[54.391652,24.483479],[54.391627,24.483427],[54.391532,24.483387]]]}},{"type":"Feature","properties":{},"geometry":{"type":"Polygon","coordinates":[[[54.391295,24.483706],[54.391326,24.483671],[54.391276,24.4836],[54.391284,24.483591],[54.39135,24.483646],[54.391433,24.48355],[54.391408,24.483498],[54.391224,24.483358],[54.391015,24.483564],[54.39104,24.483616],[54.391212,24.483738],[54.391186,24.48376],[54.391212,24.483812],[54.39135,24.483948],[54.391437,24.483872],[54.391411,24.48382],[54.391295,24.483706]]]}},{"type":"Feature","properties":{},"geometry":{"type":"Polygon","coordinates":[[[54.390771,24.484369],[54.39068,24.484447],[54.390705,24.484499],[54.390824,24.484615],[54.390916,24.484537],[54.39089,24.484485],[54.390771,24.484369]]]}},{"type":"Feature","properties":{},"geometry":{"type":"Polygon","coordinates":[[[54.392495,24.489053],[54.392688,24.489149],[54.392871,24.489317],[54.392918,24.489384],[54.393267,24.489244],[54.393304,24.48934],[54.393835,24.489271],[54.393782,24.488934],[54.39375,24.488869],[54.393172,24.488945],[54.393098,24.488906],[54.393049,24.488851],[54.393042,24.488787],[54.393056,24.488723],[54.393089,24.488666],[54.393138,24.488619],[54.393213,24.488583],[54.393739,24.488537],[54.393681,24.487982],[54.393649,24.487917],[54.392872,24.487985],[54.392909,24.488341],[54.392655,24.488656],[54.392483,24.488575],[54.392314,24.488534],[54.392295,24.488626],[54.392215,24.488605],[54.392125,24.48894],[54.392157,24.489005],[54.392335,24.489014],[54.392495,24.489053]]]}},{"type":"Feature","properties":{},"geometry":{"type":"Polygon","coordinates":[[[54.392335,24.490998],[54.392408,24.490935],[54.392535,24.490935],[54.392601,24.491062],[54.393016,24.491008],[54.393333,24.491195],[54.393422,24.491077],[54.393495,24.491159],[54.393587,24.491213],[54.393719,24.491237],[54.393441,24.491575],[54.393511,24.491754],[54.393847,24.491986],[54.39483,24.490806],[54.39502,24.490792],[54.395004,24.490647],[54.395096,24.490638],[54.395055,24.490287],[54.394931,24.490034],[54.394923,24.48992],[54.395015,24.489911],[54.394973,24.489557],[54.394622,24.488843],[54.394555,24.48885],[54.394508,24.488755],[54.394327,24.488773],[54.394339,24.488873],[54.39419,24.488888],[54.394231,24.489235],[54.394411,24.489602],[54.394271,24.489615],[54.394312,24.489967],[54.394527,24.490404],[54.394352,24.490468],[54.394064,24.490818],[54.394011,24.490704],[54.393938,24.490627],[54.393845,24.490576],[54.39401,24.490383],[54.393923,24.489879],[54.393891,24.489814],[54.393513,24.489847],[54.393237,24.48969],[54.392995,24.489698],[54.392899,24.490086],[54.392856,24.490178],[54.392767,24.490289],[54.392729,24.490281],[54.392598,24.490361],[54.392349,24.490475],[54.392143,24.490511],[54.391935,24.490511],[54.391736,24.490465],[54.391721,24.490502],[54.391735,24.490577],[54.3917,24.4906],[54.391651,24.49071],[54.391683,24.490775],[54.391756,24.490844],[54.391974,24.490887],[54.392335,24.490998]]]}},{"type":"Feature","properties":{},"geometry":{"type":"Polygon","coordinates":[[[54.392869,24.491091],[54.392169,24.491164],[54.39221,24.49149],[54.392235,24.491542],[54.392528,24.491512],[54.392513,24.491394],[54.392921,24.491352],[54.392895,24.491143],[54.392869,24.491091]]]}},{"type":"Feature","properties":{},"geometry":{"type":"Polygon","coordinates":[[[54.393015,24.491944],[54.392959,24.491584],[54.392934,24.491532],[54.39246,24.491593],[54.392547,24.492146],[54.392572,24.492198],[54.392988,24.492144],[54.393015,24.491944]]]}},{"type":"Feature","properties":{},"geometry":{"type":"Polygon","coordinates":[[[54.392833,24.492453],[54.392808,24.492401],[54.392226,24.492479],[54.392288,24.492864],[54.392314,24.492916],[54.392896,24.492838],[54.392833,24.492453]]]}},{"type":"Feature","properties":{},"geometry":{"type":"Polygon","coordinates":[[[54.390693,24.492868],[54.390587,24.492771],[54.390399,24.492942],[54.390425,24.492994],[54.390531,24.49309],[54.390718,24.49292],[54.390693,24.492868]]]}},{"type":"Feature","properties":{},"geometry":{"type":"Polygon","coordinates":[[[54.390121,24.493761],[54.389311,24.493854],[54.389361,24.494209],[54.389386,24.49426],[54.390196,24.494167],[54.390147,24.493813],[54.390121,24.493761]]]}},{"type":"Feature","properties":{},"geometry":{"type":"Polygon","coordinates":[[[54.392741,24.49608],[54.392766,24.496132],[54.392823,24.49609],[54.393682,24.496005],[54.393598,24.495367],[54.393572,24.495316],[54.392676,24.495443],[54.392741,24.49608]]]}},{"type":"Feature","properties":{},"geometry":{"type":"Polygon","coordinates":[[[54.39023,24.496415],[54.390414,24.496393],[54.390534,24.496396],[54.390532,24.496322],[54.390506,24.49627],[54.390472,24.496271],[54.390459,24.496168],[54.390522,24.496161],[54.39054,24.496198],[54.39056,24.496197],[54.390568,24.496332],[54.390593,24.496384],[54.390668,24.49638],[54.390655,24.496151],[54.390601,24.495729],[54.390576,24.495677],[54.390226,24.495712],[54.390228,24.495727],[54.390109,24.495729],[54.390113,24.495837],[54.390139,24.495889],[54.390247,24.495885],[54.39027,24.49607],[54.390247,24.496072],[54.390224,24.496025],[54.390147,24.496033],[54.390156,24.496107],[54.390179,24.496154],[54.390205,24.496364],[54.39023,24.496415]]]}},{"type":"Feature","properties":{},"geometry":{"type":"Polygon","coordinates":[[[54.391661,24.496974],[54.391541,24.496979],[54.391568,24.497069],[54.391689,24.497064],[54.391661,24.496974]]]}},{"type":"Feature","properties":{},"geometry":{"type":"Polygon","coordinates":[[[54.391497,24.496987],[54.391422,24.496985],[54.391421,24.497019],[54.391446,24.497071],[54.391521,24.497073],[54.391522,24.497039],[54.391497,24.496987]]]}},{"type":"Feature","properties":{},"geometry":{"type":"Polygon","coordinates":[[[54.391641,24.497179],[54.391695,24.49717],[54.391662,24.49708],[54.391607,24.49709],[54.391641,24.497179]]]}},{"type":"Feature","properties":{},"geometry":{"type":"Polygon","coordinates":[[[54.39123,24.497241],[54.391256,24.497293],[54.391368,24.497296],[54.39137,24.497233],[54.391345,24.497181],[54.391329,24.49718],[54.391335,24.497104],[54.391309,24.497052],[54.391186,24.49705],[54.391184,24.497144],[54.391209,24.497196],[54.391231,24.497197],[54.39123,24.497241]]]}},{"type":"Feature","properties":{},"geometry":{"type":"Polygon","coordinates":[[[54.393355,24.498117],[54.393313,24.498116],[54.39331,24.498197],[54.393336,24.498249],[54.393378,24.49825],[54.39338,24.498169],[54.393355,24.498117]]]}},{"type":"Feature","properties":{},"geometry":{"type":"Polygon","coordinates":[[[54.391404,24.498122],[54.391659,24.498642],[54.391752,24.498698],[54.392168,24.498679],[54.392136,24.49846],[54.391881,24.497941],[54.391505,24.497815],[54.391368,24.497883],[54.391404,24.498122]]]}},{"type":"Feature","properties":{},"geometry":{"type":"Polygon","coordinates":[[[54.390929,24.498107],[54.389896,24.498215],[54.389941,24.498568],[54.389966,24.49862],[54.390999,24.498513],[54.390955,24.498159],[54.390929,24.498107]]]}},{"type":"Feature","properties":{},"geometry":{"type":"Polygon","coordinates":[[[54.391623,24.500751],[54.39166,24.500999],[54.391686,24.501051],[54.391947,24.501021],[54.391914,24.500779],[54.391889,24.500727],[54.391623,24.500751]]]}},{"type":"Feature","properties":{},"geometry":{"type":"Polygon","coordinates":[[[54.390341,24.502597],[54.390406,24.5031],[54.390452,24.503195],[54.391204,24.503131],[54.391147,24.502617],[54.391465,24.502575],[54.391027,24.498938],[54.39098,24.498843],[54.389877,24.498968],[54.390312,24.502373],[54.389868,24.502417],[54.389887,24.502566],[54.389925,24.502644],[54.390341,24.502597]]]}},{"type":"Feature","properties":{},"geometry":{"type":"Polygon","coordinates":[[[54.392125,24.503734],[54.392217,24.503722],[54.392183,24.503621],[54.392091,24.503633],[54.392125,24.503734]]]}},{"type":"Feature","properties":{},"geometry":{"type":"Polygon","coordinates":[[[54.392489,24.503864],[54.39258,24.503863],[54.392579,24.503814],[54.392554,24.503762],[54.392463,24.503763],[54.392463,24.503812],[54.392489,24.503864]]]}},{"type":"Feature","properties":{},"geometry":{"type":"Polygon","coordinates":[[[54.392293,24.503781],[54.392268,24.503729],[54.392105,24.503737],[54.392111,24.503839],[54.392137,24.503891],[54.3923,24.503883],[54.392293,24.503781]]]}},{"type":"Feature","properties":{},"geometry":{"type":"Polygon","coordinates":[[[54.392423,24.504459],[54.392529,24.504453],[54.392518,24.504289],[54.392549,24.504356],[54.392617,24.504337],[54.39258,24.504249],[54.392517,24.504267],[54.392513,24.504217],[54.392489,24.504169],[54.392616,24.504154],[54.392584,24.503933],[54.392558,24.503881],[54.392347,24.503906],[54.392379,24.504127],[54.3924,24.50417],[54.392381,24.504171],[54.392397,24.504407],[54.392423,24.504459]]]}},{"type":"Feature","properties":{},"geometry":{"type":"Polygon","coordinates":[[[54.392104,24.503938],[54.392054,24.50394],[54.392065,24.504132],[54.39209,24.504184],[54.392141,24.504182],[54.39213,24.50399],[54.392104,24.503938]]]}},{"type":"Feature","properties":{},"geometry":{"type":"Polygon","coordinates":[[[54.392272,24.503917],[54.392164,24.503927],[54.392222,24.504432],[54.392247,24.504484],[54.392355,24.504473],[54.392297,24.503969],[54.392272,24.503917]]]}},{"type":"Feature","properties":{},"geometry":{"type":"Polygon","coordinates":[[[54.392139,24.504225],[54.39209,24.504227],[54.392098,24.504395],[54.392123,24.504447],[54.392173,24.504445],[54.392165,24.504277],[54.392139,24.504225]]]}},{"type":"Feature","properties":{},"geometry":{"type":"Polygon","coordinates":[[[54.39262,24.504452],[54.392177,24.504496],[54.39221,24.504771],[54.392236,24.504823],[54.392678,24.504779],[54.392645,24.504504],[54.39262,24.504452]]]}},{"type":"Feature","properties":{},"geometry":{"type":"Polygon","coordinates":[[[54.392228,24.504858],[54.392173,24.504863],[54.392181,24.504943],[54.392206,24.504995],[54.392261,24.50499],[54.392253,24.50491],[54.392228,24.504858]]]}},{"type":"Feature","properties":{},"geometry":{"type":"Polygon","coordinates":[[[54.392563,24.504815],[54.392452,24.504825],[54.392482,24.505074],[54.392507,24.505126],[54.392618,24.505115],[54.392588,24.504866],[54.392563,24.504815]]]}},{"type":"Feature","properties":{},"geometry":{"type":"Polygon","coordinates":[[[54.392431,24.505081],[54.392319,24.505083],[54.392322,24.505193],[54.392347,24.505245],[54.39246,24.505243],[54.392457,24.505133],[54.392431,24.505081]]]}},{"type":"Feature","properties":{},"geometry":{"type":"Polygon","coordinates":[[[54.392266,24.505103],[54.392208,24.505104],[54.392211,24.505213],[54.392237,24.505265],[54.392295,24.505264],[54.392292,24.505155],[54.392266,24.505103]]]}},{"type":"Feature","properties":{},"geometry":{"type":"Polygon","coordinates":[[[54.392737,24.505136],[54.392522,24.505149],[54.392558,24.505648],[54.392584,24.5057],[54.392798,24.505688],[54.392762,24.505188],[54.392737,24.505136]]]}},{"type":"Feature","properties":{},"geometry":{"type":"Polygon","coordinates":[[[54.389993,24.505205],[54.389795,24.505218],[54.389842,24.505811],[54.389867,24.505863],[54.390082,24.505849],[54.390019,24.505257],[54.389993,24.505205]]]}},{"type":"Feature","properties":{},"geometry":{"type":"Polygon","coordinates":[[[54.391802,24.506908],[54.39188,24.5069],[54.391913,24.507009],[54.391949,24.507005],[54.391941,24.506944],[54.391916,24.506892],[54.39189,24.506895],[54.391859,24.506801],[54.39177,24.50681],[54.391802,24.506908]]]}},{"type":"Feature","properties":{},"geometry":{"type":"Polygon","coordinates":[[[54.392088,24.506846],[54.391978,24.506869],[54.392026,24.507011],[54.392093,24.506997],[54.39208,24.506949],[54.392124,24.50694],[54.392088,24.506846]]]}},{"type":"Feature","properties":{},"geometry":{"type":"Polygon","coordinates":[[[54.392715,24.506783],[54.39253,24.506794],[54.392556,24.507137],[54.392582,24.507189],[54.392767,24.507177],[54.392741,24.506835],[54.392715,24.506783]]]}},{"type":"Feature","properties":{},"geometry":{"type":"Polygon","coordinates":[[[54.39194,24.507053],[54.391814,24.507055],[54.391816,24.507144],[54.391841,24.507196],[54.391967,24.507194],[54.391965,24.507105],[54.39194,24.507053]]]}},{"type":"Feature","properties":{},"geometry":{"type":"Polygon","coordinates":[[[54.392985,24.507152],[54.392904,24.50716],[54.392937,24.507266],[54.393018,24.507257],[54.392985,24.507152]]]}},{"type":"Feature","properties":{},"geometry":{"type":"Polygon","coordinates":[[[54.391934,24.507327],[54.391531,24.507352],[54.391541,24.50749],[54.391567,24.507542],[54.39197,24.507518],[54.39196,24.507379],[54.391934,24.507327]]]}},{"type":"Feature","properties":{},"geometry":{"type":"Polygon","coordinates":[[[54.39118,24.507431],[54.391047,24.507429],[54.391046,24.50751],[54.391071,24.507562],[54.391205,24.507563],[54.391206,24.507483],[54.39118,24.507431]]]}},{"type":"Feature","properties":{},"geometry":{"type":"Polygon","coordinates":[[[54.392996,24.508791],[54.393114,24.508789],[54.393088,24.508707],[54.39297,24.508709],[54.392996,24.508791]]]}},{"type":"Feature","properties":{},"geometry":{"type":"Polygon","coordinates":[[[54.393021,24.509696],[54.392992,24.509738],[54.393018,24.50979],[54.393089,24.50983],[54.393117,24.509789],[54.393091,24.509737],[54.393021,24.509696]]]}},{"type":"Feature","properties":{},"geometry":{"type":"Polygon","coordinates":[[[54.404697,24.481102],[54.40464,24.481125],[54.404683,24.481212],[54.40474,24.481188],[54.404697,24.481102]]]}},{"type":"Feature","properties":{},"geometry":{"type":"Polygon","coordinates":[[[54.404471,24.481365],[54.404282,24.481036],[54.403673,24.48131],[54.403698,24.481362],[54.403942,24.481635],[54.404471,24.481365]]]}},{"type":"Feature","properties":{},"geometry":{"type":"Polygon","coordinates":[[[54.403063,24.483266],[54.403297,24.483133],[54.403079,24.482706],[54.402754,24.48227],[54.402445,24.482395],[54.402413,24.48238],[54.402419,24.482329],[54.402377,24.482242],[54.402291,24.482238],[54.401421,24.483154],[54.401422,24.483271],[54.401506,24.483421],[54.40168,24.483461],[54.401878,24.483376],[54.402193,24.483291],[54.402613,24.483302],[54.403138,24.483482],[54.403063,24.483266]]]}},{"type":"Feature","properties":{},"geometry":{"type":"Polygon","coordinates":[[[54.404392,24.485325],[54.404498,24.485082],[54.404568,24.484862],[54.404565,24.484567],[54.40454,24.484515],[54.403751,24.484451],[54.40362,24.484898],[54.403526,24.485074],[54.40334,24.485265],[54.403365,24.485317],[54.403977,24.485852],[54.404173,24.485661],[54.404392,24.485325]]]}},{"type":"Feature","properties":{},"geometry":{"type":"Polygon","coordinates":[[[54.400631,24.486302],[54.40032,24.486616],[54.400169,24.486792],[54.400195,24.486844],[54.400661,24.487174],[54.400779,24.48721],[54.400892,24.487169],[54.401233,24.486415],[54.401207,24.486363],[54.400743,24.486123],[54.400631,24.486302]]]}},{"type":"Feature","properties":{},"geometry":{"type":"Polygon","coordinates":[[[54.40406,24.486285],[54.404023,24.48626],[54.403971,24.486254],[54.403234,24.486607],[54.403444,24.48716],[54.403507,24.48729],[54.403541,24.487323],[54.403594,24.487337],[54.403831,24.487253],[54.404185,24.487062],[54.404453,24.486866],[54.404481,24.486827],[54.404472,24.486779],[54.404408,24.486649],[54.40406,24.486285]],[[54.403843,24.486806],[54.403638,24.486905],[54.403618,24.48685],[54.404011,24.48665],[54.404044,24.486691],[54.403843,24.486806]]]}},{"type":"Feature","properties":{},"geometry":{"type":"Polygon","coordinates":[[[54.394092,24.487865],[54.394223,24.487991],[54.394546,24.488355],[54.394637,24.488284],[54.394911,24.488843],[54.395093,24.489029],[54.395204,24.48894],[54.395268,24.489005],[54.395485,24.48883],[54.395437,24.488733],[54.395509,24.488676],[54.395279,24.488208],[54.395299,24.488227],[54.395683,24.487885],[54.39537,24.487249],[54.395338,24.487219],[54.395256,24.487186],[54.395144,24.487174],[54.395019,24.487192],[54.39497,24.487235],[54.394996,24.487289],[54.394866,24.487404],[54.394891,24.487454],[54.394864,24.487477],[54.395097,24.487951],[54.395036,24.487889],[54.394747,24.487473],[54.39462,24.487343],[54.394572,24.487382],[54.394555,24.487364],[54.394369,24.487515],[54.394395,24.487567],[54.394504,24.487679],[54.394426,24.487745],[54.394275,24.4876],[54.394095,24.487756],[54.394106,24.487779],[54.394066,24.487813],[54.394092,24.487865]]]}},{"type":"Feature","properties":{},"geometry":{"type":"Polygon","coordinates":[[[54.40265,24.488188],[54.402625,24.488136],[54.402288,24.488086],[54.401773,24.487981],[54.401144,24.487765],[54.400111,24.487303],[54.399543,24.486934],[54.398968,24.486502],[54.397734,24.487851],[54.397759,24.487903],[54.398899,24.488758],[54.400221,24.489451],[54.400991,24.489765],[54.401782,24.489935],[54.402626,24.489995],[54.402906,24.489648],[54.40265,24.488188]]]}},{"type":"Feature","properties":{},"geometry":{"type":"Polygon","coordinates":[[[54.400428,24.490745],[54.400387,24.49048],[54.400362,24.490428],[54.400058,24.490467],[54.400098,24.490732],[54.400124,24.490784],[54.400428,24.490745]]]}},{"type":"Feature","properties":{},"geometry":{"type":"Polygon","coordinates":[[[54.39558,24.492092],[54.395614,24.492053],[54.395718,24.492127],[54.395819,24.492011],[54.395601,24.491555],[54.395711,24.491635],[54.395913,24.491403],[54.395626,24.490818],[54.395387,24.490647],[54.395185,24.490879],[54.395307,24.491125],[54.395186,24.491038],[54.395007,24.491243],[54.395339,24.491919],[54.39558,24.492092]]]}},{"type":"Feature","properties":{},"geometry":{"type":"Polygon","coordinates":[[[54.39865,24.491892],[54.398624,24.49184],[54.398498,24.491854],[54.398541,24.492176],[54.398567,24.492228],[54.398692,24.49221],[54.39865,24.491892]]]}},{"type":"Feature","properties":{},"geometry":{"type":"Polygon","coordinates":[[[54.395182,24.491654],[54.394932,24.491475],[54.394754,24.49168],[54.395086,24.492355],[54.395327,24.492528],[54.395361,24.492489],[54.395464,24.492564],[54.395566,24.492447],[54.395182,24.491654]]]}},{"type":"Feature","properties":{},"geometry":{"type":"Polygon","coordinates":[[[54.399121,24.492472],[54.399107,24.492372],[54.399082,24.49232],[54.398864,24.492347],[54.398825,24.492216],[54.398753,24.492225],[54.398781,24.49246],[54.398806,24.492512],[54.399121,24.492472]]]}},{"type":"Feature","properties":{},"geometry":{"type":"Polygon","coordinates":[[[54.398602,24.492224],[54.398525,24.492233],[54.39857,24.492562],[54.398596,24.492614],[54.398672,24.492605],[54.398627,24.492276],[54.398602,24.492224]]]}},{"type":"Feature","properties":{},"geometry":{"type":"Polygon","coordinates":[[[54.394623,24.491927],[54.394529,24.491865],[54.394395,24.492033],[54.394775,24.492808],[54.394911,24.492897],[54.394984,24.492806],[54.39508,24.492869],[54.395154,24.492775],[54.395111,24.492686],[54.395143,24.492645],[54.394815,24.491978],[54.394662,24.491877],[54.394623,24.491927]]]}},{"type":"Feature","properties":{},"geometry":{"type":"Polygon","coordinates":[[[54.396088,24.492384],[54.396062,24.492332],[54.395653,24.492258],[54.395588,24.492557],[54.395613,24.492609],[54.396022,24.492683],[54.396088,24.492384]]]}},{"type":"Feature","properties":{},"geometry":{"type":"Polygon","coordinates":[[[54.394233,24.49222],[54.393984,24.49204],[54.393805,24.492246],[54.394133,24.492912],[54.394374,24.493086],[54.394408,24.493047],[54.394511,24.493121],[54.394613,24.493004],[54.394233,24.49222]]]}},{"type":"Feature","properties":{},"geometry":{"type":"Polygon","coordinates":[[[54.400649,24.492935],[54.399918,24.49302],[54.399973,24.493406],[54.399998,24.493458],[54.400729,24.493373],[54.400675,24.492987],[54.400649,24.492935]]]}},{"type":"Feature","properties":{},"geometry":{"type":"Polygon","coordinates":[[[54.403893,24.495035],[54.403886,24.494975],[54.403958,24.494967],[54.403972,24.494996],[54.404071,24.494986],[54.40402,24.494567],[54.403991,24.494508],[54.404069,24.494549],[54.404179,24.494772],[54.404289,24.494822],[54.404328,24.494902],[54.404411,24.494946],[54.404694,24.494501],[54.4044,24.493904],[54.404579,24.493623],[54.404564,24.493591],[54.404607,24.493523],[54.404581,24.493471],[54.404418,24.493385],[54.404364,24.49347],[54.404296,24.493434],[54.404047,24.493458],[54.403978,24.493577],[54.403873,24.493527],[54.40372,24.493543],[54.403703,24.493509],[54.403359,24.493544],[54.403368,24.493617],[54.403273,24.493627],[54.403326,24.494059],[54.403286,24.494063],[54.403322,24.494353],[54.403347,24.494405],[54.403453,24.494394],[54.403774,24.495047],[54.403893,24.495035]]]}},{"type":"Feature","properties":{},"geometry":{"type":"Polygon","coordinates":[[[54.393582,24.494482],[54.393537,24.494488],[54.393515,24.494441],[54.393367,24.494459],[54.393371,24.494483],[54.39331,24.49449],[54.393345,24.49473],[54.39337,24.494782],[54.393639,24.49475],[54.393608,24.494534],[54.393582,24.494482]]]}},{"type":"Feature","properties":{},"geometry":{"type":"Polygon","coordinates":[[[54.393632,24.495242],[54.393739,24.496008],[54.393765,24.49606],[54.393889,24.496046],[54.394095,24.495863],[54.394311,24.495838],[54.394226,24.495228],[54.3942,24.495176],[54.393632,24.495242]]]}},{"type":"Feature","properties":{},"geometry":{"type":"Polygon","coordinates":[[[54.39431,24.497106],[54.394416,24.497442],[54.394667,24.49756],[54.394794,24.497494],[54.394911,24.4974],[54.3949,24.497326],[54.394943,24.497263],[54.395022,24.497224],[54.395056,24.497165],[54.39503,24.497114],[54.394542,24.496821],[54.39431,24.497106]]]}},{"type":"Feature","properties":{},"geometry":{"type":"Polygon","coordinates":[[[54.404714,24.497818],[54.404769,24.497837],[54.404838,24.497671],[54.405014,24.497458],[54.40508,24.497593],[54.405293,24.497674],[54.405507,24.497165],[54.405388,24.496923],[54.405466,24.496794],[54.405464,24.4965],[54.405411,24.496392],[54.404485,24.49605],[54.404158,24.496949],[54.403928,24.497053],[54.404411,24.498088],[54.404464,24.498045],[54.404598,24.498309],[54.404859,24.498199],[54.404687,24.49785],[54.404714,24.497818]]]}},{"type":"Feature","properties":{},"geometry":{"type":"Polygon","coordinates":[[[54.404083,24.498057],[54.404069,24.498085],[54.404095,24.498137],[54.404148,24.498157],[54.404161,24.498129],[54.404135,24.498077],[54.404083,24.498057]]]}},{"type":"Feature","properties":{},"geometry":{"type":"Polygon","coordinates":[[[54.404181,24.498356],[54.404204,24.498304],[54.404187,24.498269],[54.404199,24.498257],[54.404167,24.498192],[54.404081,24.49813],[54.404068,24.498147],[54.403978,24.498096],[54.403208,24.498413],[54.403016,24.498458],[54.402864,24.498563],[54.402757,24.498744],[54.40274,24.498873],[54.402759,24.498984],[54.402797,24.499061],[54.40277,24.499106],[54.403422,24.50043],[54.403587,24.500455],[54.403733,24.500438],[54.403849,24.500396],[54.403977,24.500308],[54.404059,24.500207],[54.404123,24.500204],[54.404347,24.500659],[54.404375,24.500682],[54.404418,24.500705],[54.404477,24.500711],[54.40457,24.50069],[54.404587,24.500664],[54.404562,24.500602],[54.404563,24.500352],[54.404713,24.500342],[54.404868,24.500651],[54.404929,24.500669],[54.405016,24.500633],[54.405086,24.500573],[54.40511,24.500587],[54.405191,24.500499],[54.405164,24.500443],[54.405181,24.500329],[54.405149,24.500257],[54.405222,24.500241],[54.40531,24.5002],[54.405359,24.500295],[54.405424,24.500361],[54.405458,24.500431],[54.405579,24.500453],[54.405584,24.500428],[54.405699,24.500442],[54.405784,24.500416],[54.405813,24.500365],[54.40581,24.500329],[54.405665,24.500033],[54.405804,24.499935],[54.405846,24.50002],[54.405877,24.500017],[54.405962,24.500156],[54.40602,24.500189],[54.40608,24.500171],[54.406124,24.500094],[54.406144,24.500008],[54.406172,24.500007],[54.40618,24.499892],[54.406075,24.499678],[54.406289,24.499416],[54.406407,24.499207],[54.406508,24.498959],[54.406563,24.498671],[54.406579,24.498399],[54.406556,24.498176],[54.406478,24.497871],[54.406444,24.497802],[54.405643,24.497652],[54.405677,24.497721],[54.405822,24.497917],[54.405871,24.49802],[54.405922,24.498291],[54.40592,24.498713],[54.405882,24.498867],[54.405791,24.499035],[54.405713,24.499138],[54.40551,24.499324],[54.405373,24.499046],[54.405438,24.498932],[54.405477,24.498957],[54.405539,24.49896],[54.405614,24.498917],[54.405638,24.498857],[54.405557,24.498525],[54.405332,24.498066],[54.405283,24.498019],[54.405209,24.498001],[54.405129,24.498028],[54.405089,24.49808],[54.4051,24.498143],[54.405071,24.498172],[54.405047,24.498153],[54.404875,24.498333],[54.404851,24.498402],[54.404855,24.498473],[54.40483,24.498577],[54.404772,24.498671],[54.404698,24.498736],[54.404569,24.498791],[54.404451,24.498802],[54.404327,24.498776],[54.404234,24.498809],[54.404127,24.498878],[54.404154,24.498933],[54.404128,24.498955],[54.404065,24.498942],[54.404006,24.498969],[54.40397,24.499012],[54.403959,24.499091],[54.404218,24.499621],[54.404493,24.499724],[54.404486,24.500056],[54.404325,24.499746],[54.404214,24.499702],[54.4041,24.4997],[54.404072,24.499726],[54.404095,24.499782],[54.404069,24.499783],[54.404071,24.499825],[54.404035,24.499826],[54.403968,24.49971],[54.403894,24.499653],[54.403814,24.499632],[54.403461,24.49892],[54.403579,24.498766],[54.403685,24.498695],[54.403662,24.498644],[54.403959,24.498528],[54.404099,24.498444],[54.404181,24.498356]],[[54.404634,24.499393],[54.404794,24.499383],[54.404923,24.499644],[54.404746,24.499696],[54.40466,24.499705],[54.404725,24.499606],[54.404634,24.499393]]]}},{"type":"Feature","properties":{},"geometry":{"type":"Polygon","coordinates":[[[54.396129,24.498519],[54.396073,24.498517],[54.39607,24.498583],[54.396096,24.498635],[54.396152,24.498637],[54.396154,24.498571],[54.396129,24.498519]]]}},{"type":"Feature","properties":{},"geometry":{"type":"Polygon","coordinates":[[[54.395136,24.498542],[54.393466,24.49866],[54.393621,24.499665],[54.393647,24.499717],[54.395395,24.499523],[54.395285,24.498715],[54.39526,24.498664],[54.395136,24.498542]]]}},{"type":"Feature","properties":{},"geometry":{"type":"Polygon","coordinates":[[[54.395534,24.499827],[54.395419,24.499844],[54.395447,24.499997],[54.395473,24.500049],[54.395588,24.500032],[54.39556,24.499879],[54.395534,24.499827]]]}},{"type":"Feature","properties":{},"geometry":{"type":"Polygon","coordinates":[[[54.395273,24.500002],[54.395241,24.500009],[54.395289,24.500165],[54.395322,24.500159],[54.395273,24.500002]]]}},{"type":"Feature","properties":{},"geometry":{"type":"Polygon","coordinates":[[[54.394941,24.500381],[54.394916,24.50033],[54.394869,24.500337],[54.39489,24.500451],[54.394915,24.500503],[54.394962,24.500496],[54.394941,24.500381]]]}},{"type":"Feature","properties":{},"geometry":{"type":"Polygon","coordinates":[[[54.395488,24.500472],[54.394922,24.50055],[54.395064,24.501399],[54.395089,24.501451],[54.395655,24.501372],[54.395513,24.500524],[54.395488,24.500472]]]}},{"type":"Feature","properties":{},"geometry":{"type":"Polygon","coordinates":[[[54.395747,24.501897],[54.395661,24.501895],[54.395658,24.501997],[54.395684,24.502049],[54.395769,24.502052],[54.395772,24.501949],[54.395747,24.501897]]]}},{"type":"Feature","properties":{},"geometry":{"type":"Polygon","coordinates":[[[54.395873,24.502153],[54.395441,24.502211],[54.395492,24.502519],[54.395518,24.502571],[54.395949,24.502513],[54.395899,24.502205],[54.395873,24.502153]]]}},{"type":"Feature","properties":{},"geometry":{"type":"Polygon","coordinates":[[[54.397473,24.504684],[54.397401,24.504687],[54.397407,24.504788],[54.397432,24.50484],[54.397505,24.504837],[54.397499,24.504736],[54.397473,24.504684]]]}},{"type":"Feature","properties":{},"geometry":{"type":"Polygon","coordinates":[[[54.393217,24.5087],[54.393104,24.508696],[54.393102,24.50873],[54.393128,24.508782],[54.393241,24.508786],[54.393243,24.508752],[54.393217,24.5087]]]}},{"type":"Feature","properties":{},"geometry":{"type":"Polygon","coordinates":[[[54.393655,24.509094],[54.393604,24.509096],[54.393607,24.509151],[54.393632,24.509203],[54.393683,24.509201],[54.393681,24.509146],[54.393655,24.509094]]]}},{"type":"Feature","properties":{},"geometry":{"type":"Polygon","coordinates":[[[54.393287,24.509433],[54.393344,24.509529],[54.393311,24.509483],[54.393096,24.509587],[54.393169,24.50972],[54.393213,24.509699],[54.393203,24.509658],[54.393313,24.509839],[54.39365,24.509668],[54.39364,24.509647],[54.39382,24.509556],[54.393563,24.509125],[54.393369,24.509224],[54.393453,24.509372],[54.393366,24.509245],[54.393317,24.509272],[54.393448,24.509476],[54.393396,24.509503],[54.393334,24.509406],[54.393287,24.509433]],[[54.393501,24.50945],[54.3935,24.50945],[54.393496,24.509442],[54.393501,24.50945]]]}},{"type":"Feature","properties":{},"geometry":{"type":"Polygon","coordinates":[[[54.393853,24.509371],[54.393818,24.509388],[54.39388,24.5095],[54.393915,24.509482],[54.393853,24.509371]]]}},{"type":"Feature","properties":{},"geometry":{"type":"Polygon","coordinates":[[[54.394102,24.509946],[54.394198,24.509904],[54.394119,24.509751],[54.394018,24.509606],[54.393978,24.509629],[54.394077,24.509787],[54.394031,24.509807],[54.394102,24.509946]]]}},{"type":"Feature","properties":{},"geometry":{"type":"Polygon","coordinates":[[[54.394163,24.509938],[54.393941,24.510034],[54.393911,24.50995],[54.393869,24.509955],[54.393874,24.509991],[54.3939,24.510043],[54.39393,24.510039],[54.393848,24.510074],[54.393905,24.510186],[54.39422,24.51005],[54.394163,24.509938]]]}},{"type":"Feature","properties":{},"geometry":{"type":"Polygon","coordinates":[[[54.406349,24.480147],[54.406286,24.480036],[54.406455,24.479947],[54.406373,24.479805],[54.406297,24.479845],[54.406176,24.479648],[54.405927,24.479779],[54.405977,24.47987],[54.405776,24.479976],[54.405807,24.480037],[54.405737,24.480075],[54.405825,24.480225],[54.405841,24.480217],[54.405931,24.480358],[54.406349,24.480147]]]}},{"type":"Feature","properties":{},"geometry":{"type":"Polygon","coordinates":[[[54.406836,24.48],[54.406771,24.479935],[54.406679,24.480012],[54.406704,24.480064],[54.406768,24.480128],[54.406861,24.480052],[54.406836,24.48]]]}},{"type":"Feature","properties":{},"geometry":{"type":"Polygon","coordinates":[[[54.406404,24.480249],[54.406369,24.480336],[54.406349,24.480324],[54.406299,24.480393],[54.406291,24.480385],[54.406233,24.480433],[54.406246,24.480458],[54.406226,24.480438],[54.406187,24.480469],[54.406196,24.480488],[54.406185,24.480475],[54.406104,24.480529],[54.406161,24.480621],[54.406193,24.480599],[54.40624,24.480648],[54.40628,24.480614],[54.406462,24.480793],[54.406608,24.48067],[54.406583,24.480618],[54.406457,24.480495],[54.40647,24.480502],[54.406504,24.480455],[54.406487,24.480419],[54.406509,24.480428],[54.406548,24.480349],[54.406523,24.480297],[54.406404,24.480249]],[[54.406287,24.480524],[54.406276,24.480501],[54.406294,24.480519],[54.406287,24.480524]]]}},{"type":"Feature","properties":{},"geometry":{"type":"Polygon","coordinates":[[[54.405748,24.480415],[54.405672,24.480452],[54.405725,24.480549],[54.4058,24.480512],[54.405748,24.480415]]]}},{"type":"Feature","properties":{},"geometry":{"type":"Polygon","coordinates":[[[54.405371,24.480829],[54.405394,24.480812],[54.405415,24.480836],[54.405534,24.480749],[54.405508,24.480697],[54.405367,24.480537],[54.405263,24.480613],[54.405173,24.48051],[54.405027,24.480617],[54.404982,24.480566],[54.404751,24.480736],[54.404776,24.480788],[54.404973,24.48101],[54.405145,24.480899],[54.405154,24.480909],[54.405265,24.480829],[54.405252,24.480803],[54.405311,24.480761],[54.405371,24.480829]]]}},{"type":"Feature","properties":{},"geometry":{"type":"Polygon","coordinates":[[[54.406178,24.481406],[54.406001,24.481509],[54.405923,24.481577],[54.406114,24.481967],[54.406195,24.48206],[54.406333,24.482272],[54.40642,24.482341],[54.406647,24.482194],[54.406456,24.481804],[54.406244,24.481517],[54.406178,24.481406]]]}},{"type":"Feature","properties":{},"geometry":{"type":"Polygon","coordinates":[[[54.40558,24.481799],[54.405793,24.482243],[54.405926,24.482364],[54.406006,24.482526],[54.406072,24.482586],[54.406312,24.482436],[54.40612,24.482046],[54.405961,24.481874],[54.405846,24.481639],[54.405621,24.481752],[54.40558,24.481799]]]}},{"type":"Feature","properties":{},"geometry":{"type":"Polygon","coordinates":[[[54.405398,24.481892],[54.40529,24.481997],[54.405261,24.482119],[54.405287,24.48226],[54.405479,24.482649],[54.405527,24.482733],[54.405555,24.482723],[54.405608,24.482829],[54.405843,24.482714],[54.405813,24.482612],[54.405755,24.482494],[54.405733,24.482396],[54.405542,24.482007],[54.405398,24.481892]]]}},{"type":"Feature","properties":{},"geometry":{"type":"Polygon","coordinates":[[[54.406399,24.482645],[54.406733,24.483155],[54.406909,24.48306],[54.40655,24.482498],[54.40653,24.482509],[54.406485,24.482446],[54.40631,24.482553],[54.406321,24.482576],[54.406314,24.482564],[54.406107,24.48267],[54.406168,24.482779],[54.406375,24.482673],[54.406353,24.482628],[54.406376,24.482659],[54.406399,24.482645]]]}},{"type":"Feature","properties":{},"geometry":{"type":"Polygon","coordinates":[[[54.405743,24.48448],[54.405189,24.484413],[54.405728,24.484422],[54.405729,24.483904],[54.405455,24.483133],[54.405126,24.483265],[54.405318,24.483913],[54.404939,24.484017],[54.404994,24.484359],[54.405015,24.484402],[54.404939,24.484734],[54.404965,24.484786],[54.405644,24.484925],[54.405768,24.484532],[54.405743,24.48448]]]}},{"type":"Feature","properties":{},"geometry":{"type":"Polygon","coordinates":[[[54.407336,24.485327],[54.407262,24.485263],[54.406967,24.48555],[54.406993,24.485602],[54.407067,24.485666],[54.407362,24.485379],[54.407336,24.485327]]]}},{"type":"Feature","properties":{},"geometry":{"type":"Polygon","coordinates":[[[54.406859,24.48561],[54.406754,24.485552],[54.406713,24.485613],[54.406738,24.485665],[54.406844,24.485723],[54.406885,24.485662],[54.406859,24.48561]]]}},{"type":"Feature","properties":{},"geometry":{"type":"Polygon","coordinates":[[[54.405822,24.487879],[54.406119,24.488099],[54.406263,24.487919],[54.406127,24.487642],[54.405832,24.487429],[54.405686,24.487602],[54.405822,24.487879]]]}},{"type":"Feature","properties":{},"geometry":{"type":"Polygon","coordinates":[[[54.406903,24.488107],[54.406497,24.488337],[54.406802,24.488797],[54.407208,24.488567],[54.406903,24.488107]]]}},{"type":"Feature","properties":{},"geometry":{"type":"Polygon","coordinates":[[[54.407021,24.490271],[54.406961,24.490292],[54.407014,24.490425],[54.40708,24.490404],[54.407021,24.490271]]]}},{"type":"Feature","properties":{},"geometry":{"type":"Polygon","coordinates":[[[54.406476,24.49296],[54.406379,24.492879],[54.406249,24.493007],[54.406275,24.493059],[54.406372,24.49314],[54.406501,24.493012],[54.406476,24.49296]]]}},{"type":"Feature","properties":{},"geometry":{"type":"Polygon","coordinates":[[[54.406247,24.492254],[54.405376,24.492715],[54.405341,24.492999],[54.405368,24.493055],[54.406228,24.493784],[54.406555,24.493512],[54.406527,24.493456],[54.405996,24.493016],[54.406342,24.492698],[54.406315,24.492642],[54.4062,24.492562],[54.406382,24.492477],[54.406247,24.492254]]]}},{"type":"Feature","properties":{},"geometry":{"type":"Polygon","coordinates":[[[54.406417,24.495276],[54.40635,24.49524],[54.406305,24.495308],[54.40633,24.49536],[54.406397,24.495396],[54.406442,24.495328],[54.406417,24.495276]]]}},{"type":"Feature","properties":{},"geometry":{"type":"Polygon","coordinates":[[[54.406672,24.495447],[54.406592,24.495369],[54.406625,24.495368],[54.406598,24.495288],[54.406472,24.495298],[54.4065,24.495371],[54.406528,24.49537],[54.406486,24.495406],[54.406512,24.495458],[54.406622,24.495564],[54.406698,24.495499],[54.406672,24.495447]]]}},{"type":"Feature","properties":{},"geometry":{"type":"Polygon","coordinates":[[[54.406571,24.495855],[54.406643,24.495717],[54.406617,24.495665],[54.406485,24.495609],[54.40647,24.495637],[54.406395,24.495503],[54.406312,24.495545],[54.406385,24.495677],[54.406361,24.495724],[54.406387,24.495776],[54.406571,24.495855]]]}},{"type":"Feature","properties":{},"geometry":{"type":"Polygon","coordinates":[[[54.406297,24.495754],[54.40627,24.495738],[54.406224,24.495803],[54.40625,24.495855],[54.406276,24.495871],[54.406322,24.495806],[54.406297,24.495754]]]}},{"type":"Feature","properties":{},"geometry":{"type":"Polygon","coordinates":[[[54.406228,24.496087],[54.406266,24.496094],[54.406239,24.496021],[54.406211,24.496011],[54.40619,24.495968],[54.406167,24.495971],[54.406198,24.496062],[54.406228,24.496087]]]}},{"type":"Feature","properties":{},"geometry":{"type":"Polygon","coordinates":[[[54.406327,24.496131],[54.406312,24.496158],[54.406337,24.49621],[54.40641,24.496245],[54.406426,24.496218],[54.4064,24.496166],[54.406327,24.496131]]]}},{"type":"Feature","properties":{},"geometry":{"type":"Polygon","coordinates":[[[54.405962,24.496854],[54.405897,24.496904],[54.405923,24.496956],[54.406002,24.497045],[54.406069,24.496997],[54.406044,24.496945],[54.405962,24.496854]]]}},{"type":"Feature","properties":{},"geometry":{"type":"Polygon","coordinates":[[[54.407156,24.497364],[54.407262,24.497361],[54.407423,24.4973],[54.407536,24.497221],[54.407542,24.497235],[54.407961,24.49728],[54.407984,24.497328],[54.408077,24.497392],[54.408121,24.497403],[54.408176,24.497372],[54.40814,24.497307],[54.408181,24.497313],[54.408319,24.496986],[54.408244,24.496834],[54.408035,24.496764],[54.407724,24.496686],[54.407491,24.496658],[54.407489,24.496683],[54.40729,24.496279],[54.407856,24.496328],[54.408239,24.496445],[54.408286,24.496356],[54.408577,24.496947],[54.40838,24.496868],[54.408294,24.497078],[54.408507,24.497511],[54.408922,24.497741],[54.409133,24.497641],[54.40923,24.497673],[54.409363,24.497693],[54.409492,24.497677],[54.40954,24.497645],[54.409553,24.497611],[54.409543,24.497548],[54.409502,24.497465],[54.409742,24.497351],[54.40953,24.496918],[54.409385,24.496689],[54.409168,24.496785],[54.408891,24.496233],[54.408758,24.496113],[54.408532,24.496001],[54.408504,24.495925],[54.4083,24.495814],[54.408691,24.495239],[54.408789,24.495361],[54.409067,24.495509],[54.409368,24.495558],[54.409727,24.495538],[54.41007,24.495445],[54.409886,24.495083],[54.409685,24.49463],[54.409659,24.494506],[54.410123,24.494382],[54.410094,24.494172],[54.409532,24.493029],[54.409064,24.493135],[54.408549,24.493307],[54.408054,24.493578],[54.407631,24.493885],[54.407294,24.494291],[54.407835,24.495391],[54.408076,24.495552],[54.408134,24.495486],[54.408171,24.495511],[54.408441,24.495205],[54.408549,24.495114],[54.408136,24.495723],[54.406894,24.495031],[54.406715,24.495524],[54.406613,24.496087],[54.406568,24.496158],[54.40656,24.496224],[54.406837,24.4968],[54.406722,24.496827],[54.406805,24.497122],[54.406869,24.497251],[54.407037,24.497207],[54.407093,24.49732],[54.407156,24.497364]]]}},{"type":"Feature","properties":{},"geometry":{"type":"Polygon","coordinates":[[[54.406656,24.496773],[54.406329,24.496853],[54.406458,24.497275],[54.406766,24.497194],[54.406682,24.496825],[54.406656,24.496773]]]}},{"type":"Feature","properties":{},"geometry":{"type":"Polygon","coordinates":[[[54.406007,24.497326],[54.4058,24.497287],[54.40574,24.497548],[54.405765,24.4976],[54.406026,24.497646],[54.40604,24.497583],[54.406079,24.497591],[54.406114,24.497443],[54.406089,24.497391],[54.406031,24.497382],[54.406007,24.497326]]]}},{"type":"Feature","properties":{},"geometry":{"type":"Polygon","coordinates":[[[54.406525,24.504539],[54.406432,24.504537],[54.406428,24.504679],[54.406453,24.504731],[54.406549,24.504733],[54.406551,24.504591],[54.406525,24.504539]]]}},{"type":"Feature","properties":{},"geometry":{"type":"Polygon","coordinates":[[[54.406184,24.50457],[54.406088,24.504593],[54.406167,24.504811],[54.406258,24.504791],[54.406184,24.50457]]]}},{"type":"Feature","properties":{},"geometry":{"type":"Polygon","coordinates":[[[54.406674,24.505453],[54.406633,24.505494],[54.406344,24.50524],[54.406082,24.505495],[54.406108,24.505547],[54.40639,24.505787],[54.406445,24.505734],[54.406662,24.506176],[54.406936,24.506398],[54.407027,24.506293],[54.407062,24.506171],[54.407021,24.506029],[54.406787,24.505553],[54.406674,24.505453]]]}},{"type":"Feature","properties":{},"geometry":{"type":"Polygon","coordinates":[[[54.405586,24.505474],[54.405385,24.505424],[54.405291,24.505739],[54.405316,24.505791],[54.405518,24.505841],[54.405611,24.505526],[54.405586,24.505474]]]}},{"type":"Feature","properties":{},"geometry":{"type":"Polygon","coordinates":[[[54.4055,24.505975],[54.405475,24.505923],[54.405179,24.505828],[54.405064,24.506126],[54.405089,24.506178],[54.405385,24.506273],[54.4055,24.505975]]]}},{"type":"Feature","properties":{},"geometry":{"type":"Polygon","coordinates":[[[54.405345,24.506365],[54.405066,24.506279],[54.404973,24.506527],[54.404999,24.506579],[54.405277,24.506665],[54.40537,24.506417],[54.405345,24.506365]]]}},{"type":"Feature","properties":{},"geometry":{"type":"Polygon","coordinates":[[[54.405237,24.506716],[54.404948,24.50662],[54.404806,24.507019],[54.404831,24.507071],[54.405087,24.507163],[54.405262,24.506768],[54.405237,24.506716]]]}},{"type":"Feature","properties":{},"geometry":{"type":"Polygon","coordinates":[[[54.404437,24.507235],[54.404404,24.507263],[54.404429,24.507315],[54.404523,24.507406],[54.404556,24.507378],[54.40453,24.507326],[54.404437,24.507235]]]}},{"type":"Feature","properties":{},"geometry":{"type":"Polygon","coordinates":[[[54.406644,24.507341],[54.406601,24.50737],[54.406746,24.507573],[54.40679,24.507544],[54.406644,24.507341]]]}},{"type":"Feature","properties":{},"geometry":{"type":"Polygon","coordinates":[[[54.405855,24.507079],[54.405593,24.506955],[54.405529,24.506966],[54.404898,24.508066],[54.405153,24.508585],[54.405248,24.50865],[54.405611,24.508587],[54.406117,24.507678],[54.40611,24.507598],[54.405855,24.507079]]]}},{"type":"Feature","properties":{},"geometry":{"type":"Polygon","coordinates":[[[54.406849,24.508801],[54.406961,24.508686],[54.406757,24.508271],[54.406367,24.507886],[54.406249,24.507993],[54.406453,24.508408],[54.406849,24.508801]]]}},{"type":"Feature","properties":{},"geometry":{"type":"Polygon","coordinates":[[[54.406581,24.509202],[54.406693,24.509087],[54.406489,24.508672],[54.406098,24.508287],[54.40598,24.508394],[54.406185,24.50881],[54.406581,24.509202]]]}},{"type":"Feature","properties":{},"geometry":{"type":"Polygon","coordinates":[[[54.406299,24.509036],[54.406267,24.50907],[54.406232,24.508999],[54.405842,24.508615],[54.405724,24.508722],[54.405928,24.509137],[54.406325,24.509529],[54.406437,24.509415],[54.406307,24.509151],[54.406369,24.509197],[54.40641,24.509153],[54.406384,24.509101],[54.406299,24.509036]]]}},{"type":"Feature","properties":{},"geometry":{"type":"Polygon","coordinates":[[[54.405105,24.509539],[54.405307,24.509951],[54.405455,24.510095],[54.405518,24.510037],[54.40562,24.510106],[54.405801,24.509843],[54.405598,24.509432],[54.405477,24.509367],[54.405383,24.509473],[54.405231,24.509371],[54.405105,24.509539]]]}},{"type":"Feature","properties":{},"geometry":{"type":"Polygon","coordinates":[[[54.410443,24.479885],[54.410374,24.479952],[54.410399,24.480004],[54.410549,24.480132],[54.410618,24.480066],[54.410593,24.480014],[54.410443,24.479885]]]}},{"type":"Feature","properties":{},"geometry":{"type":"Polygon","coordinates":[[[54.407254,24.48257],[54.407394,24.48276],[54.407514,24.482862],[54.407629,24.483043],[54.407818,24.482971],[54.40786,24.48284],[54.407647,24.482408],[54.407249,24.481963],[54.407183,24.482071],[54.407041,24.482137],[54.407254,24.48257]]]}},{"type":"Feature","properties":{},"geometry":{"type":"Polygon","coordinates":[[[54.409403,24.482883],[54.409307,24.482887],[54.409312,24.483001],[54.409337,24.483053],[54.409433,24.48305],[54.409429,24.482935],[54.409403,24.482883]]]}},{"type":"Feature","properties":{},"geometry":{"type":"Polygon","coordinates":[[[54.408793,24.48444],[54.408584,24.484581],[54.40872,24.484858],[54.408965,24.48516],[54.409174,24.485019],[54.409038,24.484742],[54.408793,24.48444]]]}},{"type":"Feature","properties":{},"geometry":{"type":"Polygon","coordinates":[[[54.408142,24.484996],[54.408278,24.485273],[54.408497,24.485384],[54.408558,24.485349],[54.408625,24.485437],[54.408738,24.485353],[54.408602,24.485076],[54.408334,24.484777],[54.408129,24.484931],[54.408142,24.484996]]]}},{"type":"Feature","properties":{},"geometry":{"type":"Polygon","coordinates":[[[54.409136,24.485626],[54.409066,24.485667],[54.409001,24.485574],[54.408922,24.485635],[54.408988,24.48573],[54.409026,24.485701],[54.409154,24.485897],[54.409214,24.485863],[54.40914,24.485742],[54.409187,24.485714],[54.409136,24.485626]]]}},{"type":"Feature","properties":{},"geometry":{"type":"Polygon","coordinates":[[[54.409452,24.486098],[54.40954,24.486173],[54.40968,24.486183],[54.409762,24.486159],[54.409845,24.486076],[54.409892,24.485998],[54.409923,24.485884],[54.409916,24.48578],[54.409884,24.485678],[54.409908,24.485663],[54.41056,24.486781],[54.410919,24.486613],[54.410424,24.485727],[54.410457,24.485706],[54.410469,24.485633],[54.410432,24.485525],[54.410459,24.485507],[54.410489,24.485435],[54.41075,24.48533],[54.410799,24.485406],[54.410908,24.485348],[54.410873,24.485281],[54.411033,24.485217],[54.410804,24.484786],[54.409836,24.485253],[54.409801,24.485318],[54.409673,24.485244],[54.409599,24.48533],[54.409423,24.4854],[54.409337,24.485483],[54.4093,24.485577],[54.409298,24.485763],[54.409317,24.485856],[54.409452,24.486098]]]}},{"type":"Feature","properties":{},"geometry":{"type":"Polygon","coordinates":[[[54.407828,24.485631],[54.407809,24.485647],[54.407564,24.485445],[54.407378,24.485639],[54.407514,24.485916],[54.407574,24.485963],[54.407586,24.48595],[54.407557,24.485997],[54.407582,24.486049],[54.407631,24.486086],[54.40768,24.486033],[54.407834,24.486156],[54.408026,24.485957],[54.407889,24.48568],[54.407828,24.485631]]]}},{"type":"Feature","properties":{},"geometry":{"type":"Polygon","coordinates":[[[54.408884,24.487647],[54.408334,24.48801],[54.408662,24.488545],[54.409536,24.488109],[54.40936,24.487784],[54.408633,24.48819],[54.40862,24.488172],[54.409389,24.487742],[54.409247,24.487364],[54.408884,24.487647]]]}},{"type":"Feature","properties":{},"geometry":{"type":"Polygon","coordinates":[[[54.407318,24.487873],[54.406913,24.488103],[54.407218,24.488563],[54.407623,24.488333],[54.407318,24.487873]]]}},{"type":"Feature","properties":{},"geometry":{"type":"Polygon","coordinates":[[[54.410556,24.488405],[54.410422,24.488416],[54.410427,24.488464],[54.410138,24.488492],[54.410183,24.488928],[54.410209,24.48898],[54.410676,24.488939],[54.410664,24.48882],[54.410931,24.488797],[54.410888,24.488382],[54.410862,24.48833],[54.410551,24.488356],[54.410556,24.488405]]]}},{"type":"Feature","properties":{},"geometry":{"type":"Polygon","coordinates":[[[54.407768,24.488343],[54.407361,24.488562],[54.40767,24.489001],[54.408046,24.488771],[54.407768,24.488343]]]}},{"type":"Feature","properties":{},"geometry":{"type":"Polygon","coordinates":[[[54.407309,24.488565],[54.406903,24.488795],[54.407209,24.489255],[54.407614,24.489025],[54.407309,24.488565]]]}},{"type":"Feature","properties":{},"geometry":{"type":"Polygon","coordinates":[[[54.410216,24.489184],[54.410242,24.489236],[54.410628,24.4892],[54.410674,24.489615],[54.4107,24.489667],[54.410852,24.489653],[54.410787,24.489076],[54.410762,24.489025],[54.410204,24.489076],[54.410216,24.489184]]]}},{"type":"Feature","properties":{},"geometry":{"type":"Polygon","coordinates":[[[54.409294,24.491315],[54.409297,24.491208],[54.409272,24.491156],[54.409037,24.491149],[54.409036,24.491182],[54.408959,24.49118],[54.408947,24.491294],[54.408972,24.491346],[54.40902,24.491348],[54.409033,24.491375],[54.409245,24.491381],[54.409247,24.491314],[54.409294,24.491315]]]}},{"type":"Feature","properties":{},"geometry":{"type":"Polygon","coordinates":[[[54.409547,24.498215],[54.409415,24.497947],[54.409165,24.497863],[54.40899,24.49793],[54.408992,24.498391],[54.409124,24.498659],[54.409514,24.498592],[54.409547,24.498215]]]}},{"type":"Feature","properties":{},"geometry":{"type":"Polygon","coordinates":[[[54.408899,24.498826],[54.408939,24.49883],[54.40895,24.498663],[54.408924,24.498611],[54.408852,24.4986],[54.408836,24.49866],[54.408899,24.498826]]]}},{"type":"Feature","properties":{},"geometry":{"type":"Polygon","coordinates":[[[54.40951,24.498921],[54.409435,24.498769],[54.408993,24.498738],[54.409005,24.499092],[54.408919,24.499457],[54.408994,24.499609],[54.409351,24.499704],[54.409457,24.499318],[54.40951,24.498921]]]}},{"type":"Feature","properties":{},"geometry":{"type":"Polygon","coordinates":[[[54.409951,24.500348],[54.410001,24.499792],[54.410037,24.499562],[54.409978,24.499439],[54.4099,24.49938],[54.409787,24.499363],[54.409615,24.499373],[54.409548,24.499419],[54.409498,24.499556],[54.409349,24.50004],[54.4093,24.500253],[54.409367,24.500433],[54.409458,24.5005],[54.409638,24.500531],[54.409771,24.500528],[54.409896,24.500464],[54.409951,24.500348]]]}},{"type":"Feature","properties":{},"geometry":{"type":"Polygon","coordinates":[[[54.408085,24.500876],[54.408054,24.500908],[54.408053,24.500954],[54.408025,24.501013],[54.40805,24.501064],[54.408089,24.501096],[54.40814,24.501023],[54.408172,24.500939],[54.408147,24.500887],[54.408085,24.500876]]]}},{"type":"Feature","properties":{},"geometry":{"type":"Polygon","coordinates":[[[54.409605,24.501431],[54.408723,24.501471],[54.408679,24.501799],[54.408756,24.501974],[54.408777,24.502002],[54.409046,24.502014],[54.409364,24.502005],[54.409456,24.501974],[54.40957,24.501903],[54.40961,24.501798],[54.409636,24.501651],[54.40963,24.501483],[54.409605,24.501431]]]}},{"type":"Feature","properties":{},"geometry":{"type":"Polygon","coordinates":[[[54.408422,24.501858],[54.408025,24.50174],[54.407696,24.502403],[54.407722,24.502455],[54.40814,24.502629],[54.408321,24.502152],[54.408448,24.50191],[54.408422,24.501858]]]}},{"type":"Feature","properties":{},"geometry":{"type":"Polygon","coordinates":[[[54.407515,24.502391],[54.407507,24.502438],[54.407532,24.50249],[54.407577,24.5025],[54.407633,24.502441],[54.407673,24.502365],[54.407648,24.502313],[54.407586,24.50231],[54.407515,24.502391]]]}},{"type":"Feature","properties":{},"geometry":{"type":"Polygon","coordinates":[[[54.40724,24.502926],[54.407116,24.503077],[54.407141,24.503129],[54.407204,24.503165],[54.407335,24.503048],[54.407361,24.503046],[54.407429,24.502937],[54.407403,24.502885],[54.407345,24.502871],[54.407275,24.502956],[54.40724,24.502926]]]}},{"type":"Feature","properties":{},"geometry":{"type":"Polygon","coordinates":[[[54.406943,24.503344],[54.40688,24.503364],[54.406943,24.503537],[54.407022,24.50352],[54.406943,24.503344]]]}},{"type":"Feature","properties":{},"geometry":{"type":"Polygon","coordinates":[[[54.407134,24.50368],[54.407036,24.503648],[54.406985,24.503805],[54.407011,24.503857],[54.407099,24.503881],[54.40716,24.503732],[54.407134,24.50368]]]}},{"type":"Feature","properties":{},"geometry":{"type":"Polygon","coordinates":[[[54.410255,24.504274],[54.410053,24.503863],[54.40972,24.503497],[54.409576,24.503605],[54.409778,24.504017],[54.410111,24.504383],[54.410255,24.504274]]]}},{"type":"Feature","properties":{},"geometry":{"type":"Polygon","coordinates":[[[54.409259,24.504094],[54.409054,24.504354],[54.409352,24.50496],[54.409647,24.505298],[54.409908,24.504999],[54.40961,24.504393],[54.409259,24.504094]]]}},{"type":"Feature","properties":{},"geometry":{"type":"Polygon","coordinates":[[[54.408028,24.505741],[54.407866,24.505725],[54.407868,24.505818],[54.407893,24.50587],[54.408058,24.505894],[54.408054,24.505793],[54.408028,24.505741]]]}},{"type":"Feature","properties":{},"geometry":{"type":"Polygon","coordinates":[[[54.409498,24.506227],[54.409612,24.506166],[54.409697,24.506073],[54.409743,24.50596],[54.409744,24.505839],[54.40968,24.50568],[54.409606,24.50559],[54.409506,24.505526],[54.409388,24.505493],[54.409265,24.505495],[54.409148,24.505532],[54.40905,24.505601],[54.408981,24.505693],[54.408947,24.505801],[54.408954,24.505922],[54.40903,24.506085],[54.409119,24.506175],[54.409236,24.506232],[54.409368,24.50625],[54.409498,24.506227]]]}},{"type":"Feature","properties":{},"geometry":{"type":"Polygon","coordinates":[[[54.407244,24.506239],[54.407028,24.506464],[54.407315,24.507048],[54.407623,24.507283],[54.407916,24.506975],[54.407629,24.506391],[54.407472,24.506231],[54.407244,24.506239]]]}},{"type":"Feature","properties":{},"geometry":{"type":"Polygon","coordinates":[[[54.407228,24.507362],[54.407251,24.507381],[54.407353,24.507292],[54.407333,24.507251],[54.406919,24.506861],[54.406822,24.506949],[54.406844,24.506992],[54.406749,24.507074],[54.406772,24.507119],[54.406677,24.507196],[54.406697,24.507238],[54.407039,24.507556],[54.40714,24.507469],[54.407129,24.507446],[54.407228,24.507362]]]}},{"type":"Feature","properties":{},"geometry":{"type":"Polygon","coordinates":[[[54.409718,24.507608],[54.409692,24.507556],[54.409481,24.507344],[54.409287,24.507513],[54.409313,24.507565],[54.409673,24.507926],[54.409735,24.507884],[54.409718,24.507608]]]}},{"type":"Feature","properties":{},"geometry":{"type":"Polygon","coordinates":[[[54.407201,24.507774],[54.407167,24.507749],[54.407137,24.507782],[54.407163,24.507834],[54.407197,24.507859],[54.407226,24.507826],[54.407201,24.507774]]]}},{"type":"Feature","properties":{},"geometry":{"type":"Polygon","coordinates":[[[54.410313,24.507789],[54.410247,24.507805],[54.410204,24.507719],[54.410122,24.507721],[54.40999,24.507756],[54.409856,24.507859],[54.409825,24.507938],[54.40988,24.508032],[54.409952,24.508071],[54.409998,24.508056],[54.410135,24.50805],[54.410357,24.507907],[54.410313,24.507789]]]}},{"type":"Feature","properties":{},"geometry":{"type":"Polygon","coordinates":[[[54.40888,24.50792],[54.408846,24.507921],[54.408851,24.508027],[54.408877,24.508079],[54.408916,24.508077],[54.408914,24.508047],[54.408944,24.508046],[54.408951,24.507908],[54.408925,24.507856],[54.408877,24.507857],[54.40888,24.50792]]]}},{"type":"Feature","properties":{},"geometry":{"type":"Polygon","coordinates":[[[54.40932,24.508159],[54.409278,24.508116],[54.409189,24.50819],[54.409214,24.508242],[54.409257,24.508285],[54.409346,24.50821],[54.40932,24.508159]]]}},{"type":"Feature","properties":{},"geometry":{"type":"Polygon","coordinates":[[[54.409083,24.508762],[54.409143,24.508727],[54.409127,24.508695],[54.409166,24.508672],[54.409184,24.508698],[54.40936,24.508594],[54.409273,24.508456],[54.40922,24.508487],[54.409158,24.5084],[54.409014,24.508484],[54.409052,24.508555],[54.408987,24.508608],[54.409001,24.508636],[54.408969,24.508655],[54.409025,24.50875],[54.409059,24.50873],[54.409083,24.508762]]]}},{"type":"Feature","properties":{},"geometry":{"type":"Polygon","coordinates":[[[54.407587,24.508811],[54.407523,24.508861],[54.407575,24.508942],[54.40764,24.508893],[54.407587,24.508811]]]}},{"type":"Feature","properties":{},"geometry":{"type":"Polygon","coordinates":[[[54.407708,24.508969],[54.407656,24.509013],[54.407682,24.509065],[54.407838,24.509218],[54.40789,24.509174],[54.407864,24.509122],[54.407708,24.508969]]]}},{"type":"Feature","properties":{},"geometry":{"type":"Polygon","coordinates":[[[54.407274,24.509285],[54.40717,24.509197],[54.407129,24.509238],[54.407154,24.50929],[54.407184,24.509315],[54.40706,24.509435],[54.407264,24.50985],[54.407651,24.510209],[54.407785,24.510072],[54.40758,24.509657],[54.40727,24.509366],[54.407299,24.509337],[54.407274,24.509285]]]}},{"type":"Feature","properties":{},"geometry":{"type":"Polygon","coordinates":[[[54.407538,24.50905],[54.407416,24.509159],[54.40762,24.509575],[54.407988,24.509917],[54.408104,24.509798],[54.4079,24.509383],[54.407538,24.50905]]]}},{"type":"Feature","properties":{},"geometry":{"type":"Polygon","coordinates":[[[54.407218,24.510453],[54.407383,24.510337],[54.407179,24.509921],[54.406811,24.509574],[54.406652,24.509706],[54.406856,24.510122],[54.407218,24.510453]]]}},{"type":"Feature","properties":{},"geometry":{"type":"Polygon","coordinates":[[[54.41019,24.509994],[54.410005,24.509826],[54.409662,24.510138],[54.409687,24.51019],[54.409872,24.510358],[54.410216,24.510046],[54.41019,24.509994]]]}},{"type":"Feature","properties":{},"geometry":{"type":"Polygon","coordinates":[[[54.411248,24.481987],[54.411332,24.482061],[54.41151,24.481891],[54.411484,24.481839],[54.411116,24.48152],[54.410943,24.481686],[54.410968,24.481738],[54.411049,24.481808],[54.411146,24.481715],[54.411182,24.481746],[54.411169,24.481758],[54.411195,24.48181],[54.411239,24.481848],[54.411266,24.481823],[54.411305,24.481856],[54.411222,24.481936],[54.411248,24.481987]]]}},{"type":"Feature","properties":{},"geometry":{"type":"Polygon","coordinates":[[[54.410906,24.481767],[54.410876,24.481795],[54.410902,24.481847],[54.410941,24.481881],[54.410971,24.481853],[54.410945,24.481801],[54.410906,24.481767]]]}},{"type":"Feature","properties":{},"geometry":{"type":"Polygon","coordinates":[[[54.412764,24.481984],[54.412739,24.481932],[54.412378,24.481741],[54.412202,24.482016],[54.412227,24.482068],[54.412588,24.482259],[54.412764,24.481984]]]}},{"type":"Feature","properties":{},"geometry":{"type":"Polygon","coordinates":[[[54.41143,24.482077],[54.411398,24.482052],[54.41132,24.482132],[54.411345,24.482184],[54.411377,24.482209],[54.411455,24.482129],[54.41143,24.482077]]]}},{"type":"Feature","properties":{},"geometry":{"type":"Polygon","coordinates":[[[54.411494,24.485672],[54.411454,24.485589],[54.41135,24.48563],[54.411439,24.485828],[54.411496,24.485809],[54.411447,24.48569],[54.411494,24.485672]]]}},{"type":"Feature","properties":{},"geometry":{"type":"Polygon","coordinates":[[[54.413512,24.487622],[54.41351,24.487581],[54.413542,24.48758],[54.413539,24.487506],[54.413513,24.487454],[54.413424,24.487458],[54.413414,24.487247],[54.413388,24.487195],[54.413283,24.487199],[54.413284,24.487227],[54.413107,24.487233],[54.41321,24.487504],[54.413247,24.487502],[54.413256,24.48771],[54.413282,24.487762],[54.41355,24.487752],[54.413546,24.487673],[54.413512,24.487622]]]}},{"type":"Feature","properties":{},"geometry":{"type":"Polygon","coordinates":[[[54.413046,24.487541],[54.412959,24.487562],[54.413039,24.487803],[54.413126,24.487782],[54.413046,24.487541]]]}},{"type":"Feature","properties":{},"geometry":{"type":"Polygon","coordinates":[[[54.415635,24.487769],[54.415631,24.487795],[54.415619,24.487771],[54.415123,24.487771],[54.415123,24.487815],[54.415148,24.487867],[54.415187,24.487867],[54.415187,24.488213],[54.415213,24.488265],[54.415395,24.488265],[54.415395,24.488013],[54.415645,24.488013],[54.415644,24.487961],[54.415661,24.487994],[54.415714,24.487993],[54.415729,24.488022],[54.415777,24.48802],[54.415771,24.487818],[54.415745,24.487766],[54.415699,24.487767],[54.415671,24.487682],[54.415613,24.487685],[54.415635,24.487769]]]}},{"type":"Feature","properties":{},"geometry":{"type":"Polygon","coordinates":[[[54.413587,24.48789],[54.413519,24.487893],[54.413522,24.487954],[54.413547,24.488006],[54.413616,24.488004],[54.413613,24.487942],[54.413587,24.48789]]]}},{"type":"Feature","properties":{},"geometry":{"type":"Polygon","coordinates":[[[54.415005,24.488527],[54.414989,24.488382],[54.414997,24.488287],[54.414972,24.488235],[54.414839,24.488231],[54.414856,24.488478],[54.414881,24.48853],[54.415005,24.488527]]]}},{"type":"Feature","properties":{},"geometry":{"type":"Polygon","coordinates":[[[54.4155,24.488386],[54.415593,24.488382],[54.415566,24.488292],[54.415472,24.488296],[54.4155,24.488386]]]}},{"type":"Feature","properties":{},"geometry":{"type":"Polygon","coordinates":[[[54.415435,24.488313],[54.415318,24.488314],[54.415319,24.488397],[54.415344,24.488449],[54.415412,24.488448],[54.415411,24.488484],[54.415437,24.488536],[54.415457,24.488536],[54.415458,24.48849],[54.415437,24.488448],[54.415461,24.488448],[54.41546,24.488365],[54.415435,24.488313]]]}},{"type":"Feature","properties":{},"geometry":{"type":"Polygon","coordinates":[[[54.41549,24.488745],[54.415571,24.488742],[54.415569,24.488693],[54.415543,24.488642],[54.415463,24.488644],[54.415465,24.488693],[54.41549,24.488745]]]}},{"type":"Feature","properties":{},"geometry":{"type":"Polygon","coordinates":[[[54.411174,24.48887],[54.411147,24.488931],[54.411223,24.489051],[54.411334,24.489047],[54.411424,24.489166],[54.411262,24.489253],[54.41134,24.489388],[54.412041,24.488998],[54.412062,24.489039],[54.411491,24.489354],[54.41161,24.489559],[54.411674,24.489535],[54.411738,24.489645],[54.411962,24.489687],[54.411955,24.489719],[54.411981,24.489771],[54.412146,24.489807],[54.412311,24.489179],[54.412437,24.489182],[54.412518,24.489143],[54.412828,24.489732],[54.412981,24.489652],[54.412955,24.489599],[54.413161,24.489507],[54.413223,24.489368],[54.413287,24.4894],[54.41333,24.489225],[54.413305,24.489173],[54.412684,24.488966],[54.412685,24.488948],[54.412906,24.48899],[54.413514,24.4889],[54.41347,24.488608],[54.413445,24.488556],[54.412861,24.488626],[54.412817,24.488588],[54.412683,24.488658],[54.412643,24.488625],[54.412698,24.488597],[54.412588,24.488436],[54.412722,24.488021],[54.4129,24.488094],[54.412994,24.488153],[54.413129,24.488005],[54.413104,24.487954],[54.412745,24.487759],[54.412516,24.487718],[54.412242,24.487705],[54.412264,24.487925],[54.41229,24.487977],[54.412394,24.487986],[54.412409,24.487956],[54.412465,24.487961],[54.412339,24.488484],[54.412268,24.488496],[54.41201,24.488035],[54.412208,24.487996],[54.412183,24.48776],[54.412157,24.487708],[54.411868,24.487782],[54.411582,24.487957],[54.411414,24.48813],[54.411439,24.488182],[54.411597,24.488293],[54.411814,24.488116],[54.412026,24.488479],[54.411938,24.488729],[54.411214,24.488505],[54.411171,24.4886],[54.411196,24.488652],[54.411348,24.488707],[54.411319,24.488851],[54.411174,24.48887]],[[54.411988,24.489354],[54.412054,24.489368],[54.412026,24.489504],[54.411834,24.489464],[54.411784,24.489398],[54.411962,24.489297],[54.411988,24.489354]],[[54.412893,24.489198],[54.413048,24.489246],[54.413016,24.489333],[54.41289,24.489393],[54.412853,24.489308],[54.412893,24.489198]]]}},{"type":"Feature","properties":{},"geometry":{"type":"Polygon","coordinates":[[[54.410864,24.489834],[54.410913,24.48983],[54.410884,24.489736],[54.410835,24.489739],[54.410864,24.489834]]]}},{"type":"Feature","properties":{},"geometry":{"type":"Polygon","coordinates":[[[54.410405,24.48949],[54.410256,24.489504],[54.410326,24.49009],[54.410351,24.490142],[54.410911,24.490087],[54.410895,24.489959],[54.41087,24.489907],[54.410516,24.489942],[54.410508,24.489927],[54.410476,24.48993],[54.41043,24.489542],[54.410405,24.48949]]]}},{"type":"Feature","properties":{},"geometry":{"type":"Polygon","coordinates":[[[54.412498,24.489945],[54.412428,24.489949],[54.412432,24.490011],[54.412458,24.490063],[54.412528,24.490059],[54.412523,24.489997],[54.412498,24.489945]]]}},{"type":"Feature","properties":{},"geometry":{"type":"Polygon","coordinates":[[[54.411174,24.490714],[54.411148,24.490662],[54.411052,24.490661],[54.411051,24.490713],[54.411076,24.490765],[54.411173,24.490766],[54.411174,24.490714]]]}},{"type":"Feature","properties":{},"geometry":{"type":"Polygon","coordinates":[[[54.411173,24.491003],[54.411248,24.491001],[54.41125,24.490847],[54.411224,24.490795],[54.411155,24.490795],[54.411148,24.490951],[54.411173,24.491003]]]}},{"type":"Feature","properties":{},"geometry":{"type":"Polygon","coordinates":[[[54.413439,24.490697],[54.413413,24.490645],[54.412924,24.490639],[54.412916,24.491132],[54.412942,24.491184],[54.413421,24.49119],[54.413423,24.491027],[54.413397,24.490975],[54.413139,24.490972],[54.413141,24.490862],[54.413436,24.490866],[54.413439,24.490697]]]}},{"type":"Feature","properties":{},"geometry":{"type":"Polygon","coordinates":[[[54.410416,24.490817],[54.410413,24.49103],[54.410438,24.491082],[54.410725,24.491085],[54.410732,24.490818],[54.410706,24.490766],[54.4106,24.490766],[54.410598,24.490812],[54.410416,24.490817]]]}},{"type":"Feature","properties":{},"geometry":{"type":"Polygon","coordinates":[[[54.412875,24.491187],[54.412829,24.491185],[54.412828,24.491224],[54.412853,24.491276],[54.412899,24.491278],[54.4129,24.491239],[54.412875,24.491187]]]}},{"type":"Feature","properties":{},"geometry":{"type":"Polygon","coordinates":[[[54.411222,24.491426],[54.411185,24.491424],[54.411181,24.491501],[54.411207,24.491553],[54.411244,24.491555],[54.411248,24.491478],[54.411222,24.491426]]]}},{"type":"Feature","properties":{},"geometry":{"type":"Polygon","coordinates":[[[54.410855,24.491363],[54.41083,24.491311],[54.410457,24.491298],[54.410444,24.491622],[54.410469,24.491674],[54.410842,24.491687],[54.410855,24.491363]]]}},{"type":"Feature","properties":{},"geometry":{"type":"Polygon","coordinates":[[[54.411931,24.491223],[54.411435,24.491191],[54.411364,24.492099],[54.411389,24.492151],[54.411885,24.492184],[54.411956,24.491275],[54.411931,24.491223]]]}},{"type":"Feature","properties":{},"geometry":{"type":"Polygon","coordinates":[[[54.412108,24.491697],[54.412133,24.491778],[54.41221,24.49178],[54.412186,24.491699],[54.412108,24.491697]]]}},{"type":"Feature","properties":{},"geometry":{"type":"Polygon","coordinates":[[[54.411709,24.492296],[54.411581,24.492292],[54.411578,24.49238],[54.411604,24.492432],[54.411731,24.492435],[54.411734,24.492347],[54.411709,24.492296]]]}},{"type":"Feature","properties":{},"geometry":{"type":"Polygon","coordinates":[[[54.412155,24.492461],[54.411973,24.492459],[54.411972,24.492557],[54.411997,24.492609],[54.41218,24.49261],[54.412181,24.492513],[54.412155,24.492461]]]}},{"type":"Feature","properties":{},"geometry":{"type":"Polygon","coordinates":[[[54.410488,24.496072],[54.410337,24.495938],[54.410046,24.496169],[54.410116,24.496311],[54.410069,24.496343],[54.410239,24.496689],[54.410349,24.49683],[54.410513,24.496727],[54.410441,24.496581],[54.410586,24.496458],[54.410722,24.496638],[54.410945,24.496534],[54.410775,24.496187],[54.410614,24.495998],[54.410488,24.496072]]]}},{"type":"Feature","properties":{},"geometry":{"type":"Polygon","coordinates":[[[54.415103,24.496914],[54.41501,24.49686],[54.4149,24.497017],[54.414925,24.497069],[54.415017,24.497123],[54.415128,24.496966],[54.415103,24.496914]]]}},{"type":"Feature","properties":{},"geometry":{"type":"Polygon","coordinates":[[[54.41181,24.4975],[54.411496,24.497386],[54.411403,24.497422],[54.411699,24.498182],[54.411825,24.498912],[54.41185,24.498964],[54.411968,24.498954],[54.412151,24.498725],[54.412045,24.498106],[54.412067,24.498097],[54.41181,24.4975]]]}},{"type":"Feature","properties":{},"geometry":{"type":"Polygon","coordinates":[[[54.410624,24.497708],[54.41061,24.498871],[54.410636,24.498923],[54.410774,24.499069],[54.411018,24.499081],[54.411011,24.497567],[54.410985,24.497515],[54.410798,24.49756],[54.410624,24.497708]]]}},{"type":"Feature","properties":{},"geometry":{"type":"Polygon","coordinates":[[[54.410544,24.501523],[54.410437,24.50152],[54.410436,24.501607],[54.410335,24.501603],[54.410333,24.501852],[54.410525,24.502241],[54.410625,24.502243],[54.410624,24.50218],[54.410759,24.502181],[54.410765,24.501956],[54.410544,24.501523]]]}},{"type":"Feature","properties":{},"geometry":{"type":"Polygon","coordinates":[[[54.412938,24.50295],[54.413077,24.503103],[54.413162,24.503248],[54.413233,24.503229],[54.413354,24.502939],[54.413443,24.502458],[54.413379,24.502328],[54.412899,24.502033],[54.412741,24.501881],[54.412624,24.501714],[54.412526,24.501486],[54.411982,24.501472],[54.412018,24.501673],[54.412065,24.501807],[54.412137,24.50199],[54.412286,24.502277],[54.412438,24.502484],[54.412693,24.502785],[54.412938,24.50295]]]}},{"type":"Feature","properties":{},"geometry":{"type":"Polygon","coordinates":[[[54.41188,24.502857],[54.411983,24.5028],[54.411796,24.502509],[54.411716,24.502553],[54.411767,24.502501],[54.411742,24.502449],[54.411529,24.502276],[54.411457,24.502349],[54.411483,24.502401],[54.411697,24.502573],[54.41188,24.502857]]]}},{"type":"Feature","properties":{},"geometry":{"type":"Polygon","coordinates":[[[54.411149,24.502248],[54.410947,24.502245],[54.410913,24.502838],[54.410938,24.50289],[54.411382,24.502916],[54.411379,24.502754],[54.411354,24.502702],[54.411224,24.502679],[54.41118,24.502646],[54.411175,24.5023],[54.411149,24.502248]]]}},{"type":"Feature","properties":{},"geometry":{"type":"Polygon","coordinates":[[[54.411512,24.502535],[54.411463,24.502535],[54.41146,24.502658],[54.411486,24.50271],[54.411535,24.502711],[54.411538,24.502587],[54.411512,24.502535]]]}},{"type":"Feature","properties":{},"geometry":{"type":"Polygon","coordinates":[[[54.411657,24.50276],[54.411573,24.502795],[54.411674,24.502999],[54.411759,24.502963],[54.411657,24.50276]]]}},{"type":"Feature","properties":{},"geometry":{"type":"Polygon","coordinates":[[[54.414826,24.504005],[54.414667,24.504163],[54.414818,24.50447],[54.414995,24.504623],[54.415173,24.504474],[54.415022,24.504167],[54.414826,24.504005]]]}},{"type":"Feature","properties":{},"geometry":{"type":"Polygon","coordinates":[[[54.410233,24.503968],[54.410201,24.504126],[54.410403,24.504538],[54.410875,24.504616],[54.410907,24.504457],[54.410705,24.504046],[54.410233,24.503968]]]}},{"type":"Feature","properties":{},"geometry":{"type":"Polygon","coordinates":[[[54.414312,24.504214],[54.414153,24.504371],[54.414345,24.504761],[54.414522,24.504913],[54.414546,24.504893],[54.414649,24.505103],[54.414826,24.505256],[54.415004,24.505107],[54.414868,24.50483],[54.414671,24.504668],[54.414658,24.504681],[54.414508,24.504375],[54.414312,24.504214]]]}},{"type":"Feature","properties":{},"geometry":{"type":"Polygon","coordinates":[[[54.415232,24.504826],[54.415073,24.504983],[54.415192,24.505225],[54.41537,24.505378],[54.415547,24.505229],[54.415428,24.504987],[54.415232,24.504826]]]}},{"type":"Feature","properties":{},"geometry":{"type":"Polygon","coordinates":[[[54.410823,24.50678],[54.410797,24.506728],[54.410765,24.506718],[54.410773,24.506667],[54.410747,24.506615],[54.410678,24.506576],[54.410546,24.50654],[54.410371,24.50656],[54.410298,24.506611],[54.410298,24.506661],[54.410361,24.506781],[54.410409,24.506791],[54.410527,24.506854],[54.410799,24.506844],[54.410823,24.50678]]]}},{"type":"Feature","properties":{},"geometry":{"type":"Polygon","coordinates":[[[54.411069,24.506995],[54.411043,24.506943],[54.410977,24.506911],[54.410945,24.506966],[54.410847,24.506938],[54.410793,24.506994],[54.410732,24.507106],[54.410726,24.507266],[54.410795,24.507392],[54.410849,24.5074],[54.410929,24.507378],[54.410948,24.507337],[54.411036,24.507241],[54.411069,24.506995]]]}},{"type":"Feature","properties":{},"geometry":{"type":"Polygon","coordinates":[[[54.410964,24.508601],[54.410813,24.508596],[54.410809,24.508696],[54.410834,24.508748],[54.410986,24.508753],[54.410987,24.508736],[54.410996,24.508754],[54.411123,24.508758],[54.411126,24.50866],[54.4111,24.508608],[54.410973,24.508605],[54.410973,24.508619],[54.410964,24.508601]]]}},{"type":"Feature","properties":{},"geometry":{"type":"Polygon","coordinates":[[[54.411703,24.508958],[54.41158,24.508954],[54.411571,24.509162],[54.411597,24.509214],[54.41172,24.509218],[54.411728,24.50901],[54.411703,24.508958]]]}},{"type":"Feature","properties":{},"geometry":{"type":"Polygon","coordinates":[[[54.41076,24.509063],[54.410698,24.509064],[54.4107,24.509161],[54.410726,24.509213],[54.410788,24.509212],[54.410785,24.509115],[54.41076,24.509063]]]}},{"type":"Feature","properties":{},"geometry":{"type":"Polygon","coordinates":[[[54.411332,24.509388],[54.411502,24.509392],[54.411513,24.509036],[54.411487,24.508984],[54.411317,24.50898],[54.411316,24.509016],[54.411302,24.508986],[54.411248,24.508984],[54.411234,24.509309],[54.411259,24.509361],[54.411313,24.509363],[54.411314,24.50935],[54.411332,24.509388]]]}},{"type":"Feature","properties":{},"geometry":{"type":"Polygon","coordinates":[[[54.411171,24.509148],[54.411123,24.509147],[54.411122,24.509219],[54.411147,24.509271],[54.411195,24.509272],[54.411197,24.5092],[54.411171,24.509148]]]}},{"type":"Feature","properties":{},"geometry":{"type":"Polygon","coordinates":[[[54.411678,24.509265],[54.41156,24.509263],[54.411555,24.50948],[54.411581,24.509532],[54.411699,24.509534],[54.411703,24.509316],[54.411678,24.509265]]]}},{"type":"Feature","properties":{},"geometry":{"type":"Polygon","coordinates":[[[54.410752,24.509595],[54.411078,24.509586],[54.411077,24.509558],[54.41109,24.509584],[54.411473,24.509575],[54.411471,24.509485],[54.411445,24.509433],[54.411062,24.509442],[54.411063,24.509467],[54.411049,24.50944],[54.410723,24.509449],[54.410727,24.509544],[54.410752,24.509595]]]}},{"type":"Feature","properties":{},"geometry":{"type":"Polygon","coordinates":[[[54.411355,24.509641],[54.411256,24.509681],[54.411359,24.50989],[54.411457,24.50985],[54.411355,24.509641]]]}},{"type":"Feature","properties":{},"geometry":{"type":"Polygon","coordinates":[[[54.418556,24.481975],[54.4186,24.481972],[54.418573,24.481898],[54.418529,24.481901],[54.418556,24.481975]]]}},{"type":"Feature","properties":{},"geometry":{"type":"Polygon","coordinates":[[[54.418809,24.482374],[54.418784,24.482322],[54.41846,24.482285],[54.418442,24.482417],[54.418458,24.482449],[54.418434,24.482447],[54.418417,24.482581],[54.418443,24.482633],[54.418769,24.482666],[54.418785,24.482532],[54.418771,24.482504],[54.418791,24.482506],[54.418809,24.482374]]]}},{"type":"Feature","properties":{},"geometry":{"type":"Polygon","coordinates":[[[54.418386,24.483034],[54.418711,24.483047],[54.418717,24.482925],[54.418704,24.482898],[54.418733,24.4829],[54.418747,24.482765],[54.418722,24.482713],[54.418396,24.482685],[54.418382,24.482821],[54.418402,24.482862],[54.418366,24.482861],[54.418361,24.482982],[54.418386,24.483034]]]}},{"type":"Feature","properties":{},"geometry":{"type":"Polygon","coordinates":[[[54.417264,24.487821],[54.41735,24.487821],[54.41735,24.487775],[54.417324,24.487723],[54.417238,24.487724],[54.417239,24.487769],[54.417264,24.487821]]]}},{"type":"Feature","properties":{},"geometry":{"type":"Polygon","coordinates":[[[54.415887,24.487747],[54.415855,24.487746],[54.415853,24.48779],[54.415879,24.487842],[54.415911,24.487843],[54.415912,24.487799],[54.415887,24.487747]]]}},{"type":"Feature","properties":{},"geometry":{"type":"Polygon","coordinates":[[[54.41601,24.488017],[54.416035,24.488069],[54.416271,24.488062],[54.416258,24.487984],[54.416288,24.487983],[54.41628,24.487853],[54.416254,24.487801],[54.416122,24.487808],[54.416103,24.487769],[54.415997,24.487765],[54.41601,24.488017]]]}},{"type":"Feature","properties":{},"geometry":{"type":"Polygon","coordinates":[[[54.416416,24.48802],[54.416335,24.488024],[54.416351,24.488306],[54.416377,24.488358],[54.416478,24.488354],[54.416504,24.488417],[54.416552,24.488415],[54.416526,24.488232],[54.416552,24.488286],[54.416599,24.488279],[54.416596,24.488328],[54.416621,24.488379],[54.416676,24.488382],[54.416669,24.488296],[54.416706,24.488296],[54.416731,24.488356],[54.416774,24.488356],[54.416772,24.4882],[54.416746,24.488148],[54.416701,24.488149],[54.416702,24.488186],[54.416694,24.488169],[54.41668,24.488072],[54.416692,24.488072],[54.416691,24.488023],[54.416665,24.487971],[54.416611,24.487972],[54.416613,24.488012],[54.416595,24.487977],[54.416443,24.487975],[54.416441,24.488072],[54.416416,24.48802]],[[54.416619,24.488148],[54.416619,24.488142],[54.416622,24.488148],[54.416619,24.488148]],[[54.416621,24.488044],[54.416621,24.488038],[54.416624,24.488043],[54.416621,24.488044]],[[54.416444,24.488131],[54.416449,24.488139],[54.416445,24.488139],[54.416444,24.488131]]]}},{"type":"Feature","properties":{},"geometry":{"type":"Polygon","coordinates":[[[54.415628,24.488439],[54.415722,24.488437],[54.415709,24.488364],[54.41574,24.488363],[54.415736,24.488252],[54.41571,24.4882],[54.415648,24.488202],[54.415663,24.488337],[54.415601,24.488338],[54.415602,24.488387],[54.415628,24.488439]]]}},{"type":"Feature","properties":{},"geometry":{"type":"Polygon","coordinates":[[[54.416175,24.488441],[54.416216,24.488437],[54.416187,24.488349],[54.416146,24.488352],[54.416175,24.488441]]]}},{"type":"Feature","properties":{},"geometry":{"type":"Polygon","coordinates":[[[54.41675,24.488421],[54.416725,24.488369],[54.416695,24.488368],[54.416694,24.488407],[54.416719,24.488459],[54.416749,24.48846],[54.41675,24.488421]]]}},{"type":"Feature","properties":{},"geometry":{"type":"Polygon","coordinates":[[[54.416301,24.488329],[54.416276,24.488277],[54.416236,24.488277],[54.416232,24.488489],[54.416257,24.488541],[54.416552,24.488545],[54.416554,24.488472],[54.416528,24.48842],[54.416363,24.488418],[54.416349,24.488388],[54.4163,24.488387],[54.416301,24.488329]]]}},{"type":"Feature","properties":{},"geometry":{"type":"Polygon","coordinates":[[[54.416652,24.488434],[54.416649,24.488477],[54.416675,24.488529],[54.416719,24.488531],[54.416722,24.488488],[54.416696,24.488436],[54.416652,24.488434]]]}},{"type":"Feature","properties":{},"geometry":{"type":"Polygon","coordinates":[[[54.416252,24.488881],[54.416223,24.488882],[54.416227,24.488989],[54.416253,24.489041],[54.416282,24.48904],[54.416278,24.488933],[54.416252,24.488881]]]}},{"type":"Feature","properties":{},"geometry":{"type":"Polygon","coordinates":[[[54.416058,24.48884],[54.415999,24.488841],[54.416006,24.489041],[54.416032,24.489093],[54.416091,24.489092],[54.416084,24.488892],[54.416058,24.48884]]]}},{"type":"Feature","properties":{},"geometry":{"type":"Polygon","coordinates":[[[54.415679,24.488851],[54.41562,24.488852],[54.415624,24.489052],[54.415649,24.489104],[54.415708,24.489103],[54.415704,24.488903],[54.415679,24.488851]]]}},{"type":"Feature","properties":{},"geometry":{"type":"Polygon","coordinates":[[[54.415769,24.489103],[54.415719,24.489105],[54.415722,24.489146],[54.415747,24.489198],[54.415783,24.489197],[54.415782,24.48925],[54.415807,24.489302],[54.415858,24.489303],[54.41586,24.489222],[54.415846,24.489194],[54.415902,24.489191],[54.415899,24.489147],[54.415873,24.489095],[54.415774,24.489101],[54.415775,24.489116],[54.415769,24.489103]]]}},{"type":"Feature","properties":{},"geometry":{"type":"Polygon","coordinates":[[[54.415421,24.489677],[54.415446,24.489729],[54.416317,24.489707],[54.416315,24.489638],[54.416267,24.489502],[54.415416,24.489523],[54.415421,24.489677]]]}},{"type":"Feature","properties":{},"geometry":{"type":"Polygon","coordinates":[[[54.417212,24.501835],[54.417181,24.501902],[54.417059,24.501949],[54.417084,24.502001],[54.417279,24.502141],[54.417496,24.501937],[54.41747,24.501885],[54.41724,24.501685],[54.417163,24.501757],[54.417212,24.501835]]]}},{"type":"Feature","properties":{},"geometry":{"type":"Polygon","coordinates":[[[54.416846,24.501986],[54.41689,24.501975],[54.41685,24.501875],[54.416805,24.501887],[54.416846,24.501986]]]}},{"type":"Feature","properties":{},"geometry":{"type":"Polygon","coordinates":[[[54.416709,24.502017],[54.416784,24.502016],[54.416783,24.501968],[54.416757,24.501916],[54.416682,24.501917],[54.416683,24.501955],[54.416668,24.501925],[54.416572,24.501928],[54.416574,24.501975],[54.416599,24.502027],[54.416696,24.502023],[54.416694,24.501988],[54.416709,24.502017]]]}},{"type":"Feature","properties":{},"geometry":{"type":"Polygon","coordinates":[[[54.41759,24.502323],[54.417548,24.502351],[54.417603,24.502439],[54.417645,24.502411],[54.41759,24.502323]]]}},{"type":"Feature","properties":{},"geometry":{"type":"Polygon","coordinates":[[[54.417885,24.502453],[54.417861,24.502478],[54.417887,24.50253],[54.417933,24.502566],[54.417957,24.502541],[54.417932,24.502489],[54.417885,24.502453]]]}},{"type":"Feature","properties":{},"geometry":{"type":"Polygon","coordinates":[[[54.415526,24.502419],[54.415501,24.502417],[54.415496,24.502476],[54.415522,24.502528],[54.415547,24.50253],[54.415552,24.502471],[54.415526,24.502419]]]}},{"type":"Feature","properties":{},"geometry":{"type":"Polygon","coordinates":[[[54.417504,24.502442],[54.417421,24.502442],[54.417421,24.502556],[54.417446,24.502608],[54.417526,24.502614],[54.41753,24.502494],[54.417504,24.502442]]]}},{"type":"Feature","properties":{},"geometry":{"type":"Polygon","coordinates":[[[54.417328,24.502837],[54.417325,24.502764],[54.417299,24.502712],[54.417061,24.502721],[54.417054,24.502707],[54.416994,24.502704],[54.417021,24.502704],[54.416995,24.502628],[54.416892,24.50263],[54.416918,24.502706],[54.416945,24.502705],[54.416942,24.502762],[54.416967,24.502814],[54.417072,24.502819],[54.417086,24.502846],[54.417328,24.502837]]]}},{"type":"Feature","properties":{},"geometry":{"type":"Polygon","coordinates":[[[54.415493,24.502655],[54.415468,24.502603],[54.41539,24.502607],[54.415395,24.502682],[54.41542,24.502733],[54.415491,24.502734],[54.415493,24.502655]]]}},{"type":"Feature","properties":{},"geometry":{"type":"Polygon","coordinates":[[[54.417428,24.502762],[54.417402,24.50271],[54.417344,24.502715],[54.417349,24.502775],[54.417375,24.502827],[54.417433,24.502823],[54.417428,24.502762]]]}},{"type":"Feature","properties":{},"geometry":{"type":"Polygon","coordinates":[[[54.415565,24.502779],[54.415561,24.502807],[54.415587,24.502859],[54.41564,24.502864],[54.415643,24.502837],[54.415618,24.502785],[54.415565,24.502779]]]}},{"type":"Feature","properties":{},"geometry":{"type":"Polygon","coordinates":[[[54.415458,24.502778],[54.415396,24.502784],[54.415403,24.502838],[54.415428,24.50289],[54.415445,24.502889],[54.415473,24.502953],[54.41553,24.502945],[54.415522,24.502895],[54.415458,24.502778]]]}},{"type":"Feature","properties":{},"geometry":{"type":"Polygon","coordinates":[[[54.415815,24.502783],[54.415689,24.502779],[54.415685,24.502856],[54.415711,24.502908],[54.415837,24.502913],[54.41584,24.502835],[54.415815,24.502783]]]}},{"type":"Feature","properties":{},"geometry":{"type":"Polygon","coordinates":[[[54.417267,24.503056],[54.417265,24.503098],[54.417291,24.50315],[54.417398,24.503154],[54.417399,24.503112],[54.417374,24.50306],[54.417267,24.503056]]]}},{"type":"Feature","properties":{},"geometry":{"type":"Polygon","coordinates":[[[54.417552,24.503191],[54.417526,24.503139],[54.417465,24.503137],[54.417461,24.503227],[54.417487,24.503279],[54.417548,24.503281],[54.417552,24.503191]]]}},{"type":"Feature","properties":{},"geometry":{"type":"Polygon","coordinates":[[[54.417604,24.503168],[54.417556,24.503169],[54.417557,24.50323],[54.417582,24.503282],[54.41763,24.503281],[54.417629,24.50322],[54.417604,24.503168]]]}},{"type":"Feature","properties":{},"geometry":{"type":"Polygon","coordinates":[[[54.415728,24.503421],[54.415635,24.503418],[54.415632,24.503473],[54.415658,24.503525],[54.415752,24.503529],[54.415754,24.503473],[54.415728,24.503421]]]}},{"type":"Feature","properties":{},"geometry":{"type":"Polygon","coordinates":[[[54.415852,24.503558],[54.415809,24.503559],[54.415813,24.503642],[54.415838,24.503694],[54.415881,24.503692],[54.415878,24.50361],[54.415852,24.503558]]]}},{"type":"Feature","properties":{},"geometry":{"type":"Polygon","coordinates":[[[54.417698,24.50357],[54.417664,24.503569],[54.417657,24.503786],[54.417682,24.503838],[54.417716,24.503839],[54.417723,24.503622],[54.417698,24.50357]]]}},{"type":"Feature","properties":{},"geometry":{"type":"Polygon","coordinates":[[[54.415289,24.504465],[54.415466,24.504618],[54.415644,24.504469],[54.415507,24.504192],[54.415452,24.504147],[54.415473,24.504132],[54.415435,24.504064],[54.415449,24.504061],[54.415415,24.503972],[54.415356,24.503984],[54.41539,24.504073],[54.415434,24.504132],[54.415311,24.504031],[54.415152,24.504188],[54.415289,24.504465]]]}},{"type":"Feature","properties":{},"geometry":{"type":"Polygon","coordinates":[[[54.415698,24.504114],[54.41564,24.504033],[54.415568,24.504083],[54.415637,24.504186],[54.415721,24.504355],[54.415898,24.504508],[54.416076,24.504359],[54.415988,24.504182],[54.415792,24.50402],[54.415698,24.504114]]]}},{"type":"Feature","properties":{},"geometry":{"type":"Polygon","coordinates":[[[54.415809,24.504957],[54.41591,24.504872],[54.415806,24.50466],[54.41561,24.504498],[54.415451,24.504656],[54.415556,24.504868],[54.415733,24.505021],[54.415755,24.505002],[54.41582,24.505079],[54.415866,24.505042],[54.415809,24.504957]]]}},{"type":"Feature","properties":{},"geometry":{"type":"Polygon","coordinates":[[[54.418892,24.48013],[54.418945,24.480138],[54.418968,24.480183],[54.419005,24.480184],[54.419007,24.480123],[54.418981,24.480071],[54.418873,24.480042],[54.418867,24.480078],[54.418892,24.48013]]]}},{"type":"Feature","properties":{},"geometry":{"type":"Polygon","coordinates":[[[54.42066,24.480236],[54.420569,24.480232],[54.420562,24.480364],[54.420588,24.480416],[54.420927,24.48044],[54.420929,24.480394],[54.420903,24.480342],[54.420712,24.480334],[54.42066,24.480236]]]}},{"type":"Feature","properties":{},"geometry":{"type":"Polygon","coordinates":[[[54.419993,24.480828],[54.419929,24.480822],[54.419923,24.480877],[54.419949,24.480929],[54.420012,24.480935],[54.420019,24.48088],[54.419993,24.480828]]]}},{"type":"Feature","properties":{},"geometry":{"type":"Polygon","coordinates":[[[54.418575,24.481883],[54.418759,24.481876],[54.418755,24.481795],[54.41873,24.481743],[54.418698,24.481744],[54.41869,24.481723],[54.418905,24.481747],[54.418924,24.481613],[54.418898,24.481561],[54.418579,24.481524],[54.41856,24.481659],[54.418575,24.48169],[54.418544,24.481691],[54.41855,24.481831],[54.418575,24.481883]]]}},{"type":"Feature","properties":{},"geometry":{"type":"Polygon","coordinates":[[[54.419322,24.48163],[54.418982,24.481589],[54.41896,24.481742],[54.418985,24.481794],[54.419325,24.481835],[54.419348,24.481682],[54.419322,24.48163]]]}},{"type":"Feature","properties":{},"geometry":{"type":"Polygon","coordinates":[[[54.419748,24.48167],[54.419421,24.481631],[54.419401,24.481768],[54.419427,24.48182],[54.419754,24.481859],[54.419773,24.481722],[54.419748,24.48167]]]}},{"type":"Feature","properties":{},"geometry":{"type":"Polygon","coordinates":[[[54.42007,24.481706],[54.420064,24.481769],[54.420089,24.481821],[54.42015,24.481826],[54.420152,24.48181],[54.420157,24.481821],[54.420225,24.481824],[54.420228,24.481772],[54.420202,24.48172],[54.42007,24.481706]]]}},{"type":"Feature","properties":{},"geometry":{"type":"Polygon","coordinates":[[[54.418868,24.481775],[54.418826,24.48177],[54.418813,24.48185],[54.418838,24.481902],[54.41888,24.481907],[54.418893,24.481827],[54.418868,24.481775]]]}},{"type":"Feature","properties":{},"geometry":{"type":"Polygon","coordinates":[[[54.420621,24.481788],[54.420283,24.481748],[54.42026,24.481911],[54.420285,24.481963],[54.420623,24.482003],[54.420646,24.48184],[54.420621,24.481788]]]}},{"type":"Feature","properties":{},"geometry":{"type":"Polygon","coordinates":[[[54.420702,24.482145],[54.421012,24.482187],[54.421032,24.482064],[54.421003,24.482011],[54.421058,24.482014],[54.421066,24.481882],[54.42104,24.48183],[54.420715,24.481813],[54.420707,24.481946],[54.420721,24.481974],[54.420697,24.48197],[54.420677,24.482093],[54.420702,24.482145]]]}},{"type":"Feature","properties":{},"geometry":{"type":"Polygon","coordinates":[[[54.419905,24.482192],[54.419879,24.482189],[54.419869,24.482272],[54.419845,24.482224],[54.419825,24.48222],[54.419819,24.482168],[54.419862,24.482168],[54.41986,24.482071],[54.419835,24.482019],[54.419674,24.482022],[54.419676,24.482114],[54.419661,24.482112],[54.419648,24.482184],[54.419689,24.482292],[54.41974,24.48229],[54.419739,24.482272],[54.419749,24.482292],[54.419862,24.482313],[54.419866,24.482297],[54.419855,24.482394],[54.41988,24.482446],[54.420217,24.482479],[54.420241,24.482274],[54.420227,24.482246],[54.420253,24.482116],[54.420228,24.482064],[54.420182,24.482059],[54.420197,24.481941],[54.420171,24.481889],[54.419851,24.481856],[54.419834,24.481991],[54.41986,24.482043],[54.419903,24.482047],[54.419887,24.482154],[54.419905,24.482192]],[[54.419761,24.482208],[54.419755,24.482207],[54.419756,24.482199],[54.419761,24.482208]]]}},{"type":"Feature","properties":{},"geometry":{"type":"Polygon","coordinates":[[[54.419253,24.48236],[54.419368,24.482374],[54.419366,24.482408],[54.419212,24.482394],[54.419192,24.482579],[54.419213,24.482621],[54.419191,24.482619],[54.419171,24.48275],[54.419197,24.482802],[54.419243,24.482808],[54.419228,24.482927],[54.419253,24.482979],[54.419576,24.483013],[54.419593,24.482881],[54.419568,24.482829],[54.419522,24.482824],[54.419539,24.482711],[54.419514,24.482659],[54.419468,24.482653],[54.419551,24.482661],[54.419556,24.482607],[54.419562,24.482618],[54.419623,24.482624],[54.419663,24.482234],[54.419637,24.482182],[54.419599,24.482179],[54.419592,24.482165],[54.419625,24.482168],[54.419644,24.482038],[54.419618,24.481986],[54.419294,24.481947],[54.419275,24.482078],[54.419295,24.482118],[54.419255,24.482114],[54.419228,24.482308],[54.419253,24.48236]]]}},{"type":"Feature","properties":{},"geometry":{"type":"Polygon","coordinates":[[[54.418837,24.481991],[54.418801,24.481985],[54.418785,24.482055],[54.418811,24.482107],[54.418847,24.482114],[54.418862,24.482043],[54.418837,24.481991]]]}},{"type":"Feature","properties":{},"geometry":{"type":"Polygon","coordinates":[[[54.420468,24.48202],[54.420378,24.481999],[54.420353,24.482089],[54.420379,24.482141],[54.420469,24.482161],[54.420494,24.482072],[54.420468,24.48202]]]}},{"type":"Feature","properties":{},"geometry":{"type":"Polygon","coordinates":[[[54.419207,24.482064],[54.418884,24.482029],[54.418874,24.482108],[54.418899,24.48216],[54.419222,24.482195],[54.419232,24.482116],[54.419207,24.482064]]]}},{"type":"Feature","properties":{},"geometry":{"type":"Polygon","coordinates":[[[54.418817,24.482124],[54.418494,24.482084],[54.418475,24.482211],[54.418501,24.482263],[54.418823,24.482303],[54.418842,24.482176],[54.418817,24.482124]]]}},{"type":"Feature","properties":{},"geometry":{"type":"Polygon","coordinates":[[[54.420265,24.482492],[54.420586,24.482531],[54.420606,24.482399],[54.420594,24.482374],[54.420613,24.482314],[54.420588,24.482262],[54.42027,24.482219],[54.42026,24.482281],[54.420274,24.48231],[54.420258,24.482308],[54.420239,24.48244],[54.420265,24.482492]]]}},{"type":"Feature","properties":{},"geometry":{"type":"Polygon","coordinates":[[[54.420641,24.482538],[54.420952,24.482578],[54.420971,24.482456],[54.420948,24.48241],[54.420979,24.482413],[54.420993,24.482292],[54.420967,24.48224],[54.420657,24.482212],[54.420643,24.482332],[54.420661,24.482368],[54.420635,24.482364],[54.420616,24.482487],[54.420641,24.482538]]]}},{"type":"Feature","properties":{},"geometry":{"type":"Polygon","coordinates":[[[54.41883,24.482607],[54.419152,24.482648],[54.419161,24.482589],[54.419145,24.482555],[54.419168,24.482558],[54.419189,24.482424],[54.419163,24.482372],[54.418842,24.482331],[54.418821,24.482465],[54.418838,24.482499],[54.418814,24.482496],[54.418805,24.482555],[54.41883,24.482607]]]}},{"type":"Feature","properties":{},"geometry":{"type":"Polygon","coordinates":[[[54.419782,24.48283],[54.419797,24.482861],[54.4197,24.48285],[54.419682,24.482985],[54.419697,24.483017],[54.419673,24.483014],[54.41966,24.483134],[54.419685,24.483186],[54.42001,24.483215],[54.420022,24.483095],[54.42001,24.48307],[54.420028,24.483072],[54.420046,24.482938],[54.420032,24.48291],[54.420129,24.482922],[54.420148,24.48279],[54.420125,24.482741],[54.420178,24.482746],[54.420202,24.482551],[54.420176,24.482499],[54.41984,24.482465],[54.419816,24.482661],[54.419836,24.482702],[54.419802,24.482698],[54.419782,24.48283]]]}},{"type":"Feature","properties":{},"geometry":{"type":"Polygon","coordinates":[[[54.420211,24.48279],[54.42054,24.482823],[54.420548,24.482755],[54.420533,24.482725],[54.420556,24.482728],[54.42057,24.482597],[54.420545,24.482545],[54.420223,24.482516],[54.420209,24.482647],[54.420222,24.482673],[54.420194,24.48267],[54.420186,24.482738],[54.420211,24.48279]]]}},{"type":"Feature","properties":{},"geometry":{"type":"Polygon","coordinates":[[[54.420892,24.482776],[54.42092,24.482779],[54.420942,24.482634],[54.420916,24.482582],[54.420606,24.482548],[54.420587,24.482694],[54.420608,24.482736],[54.420578,24.482733],[54.420561,24.482854],[54.420587,24.482906],[54.420897,24.482942],[54.420914,24.482821],[54.420892,24.482776]]]}},{"type":"Feature","properties":{},"geometry":{"type":"Polygon","coordinates":[[[54.419055,24.482687],[54.418957,24.482661],[54.418929,24.482747],[54.418954,24.482799],[54.419052,24.482825],[54.41908,24.482739],[54.419055,24.482687]]]}},{"type":"Feature","properties":{},"geometry":{"type":"Polygon","coordinates":[[[54.420388,24.482858],[54.4203,24.48283],[54.420265,24.48292],[54.420291,24.482972],[54.420379,24.483],[54.420414,24.48291],[54.420388,24.482858]]]}},{"type":"Feature","properties":{},"geometry":{"type":"Polygon","coordinates":[[[54.418851,24.482817],[54.418763,24.482813],[54.418757,24.482922],[54.418782,24.482974],[54.418859,24.482978],[54.418883,24.483047],[54.419215,24.483077],[54.41923,24.482934],[54.419205,24.482882],[54.418872,24.482859],[54.418851,24.482817]]]}},{"type":"Feature","properties":{},"geometry":{"type":"Polygon","coordinates":[[[54.420532,24.483303],[54.420852,24.48333],[54.420864,24.483201],[54.420853,24.483178],[54.420878,24.483059],[54.420852,24.483007],[54.420544,24.48297],[54.420527,24.48309],[54.420544,24.483125],[54.42052,24.483123],[54.420507,24.483251],[54.420532,24.483303]]]}},{"type":"Feature","properties":{},"geometry":{"type":"Polygon","coordinates":[[[54.420432,24.483032],[54.420094,24.483],[54.420075,24.483162],[54.420101,24.483214],[54.42044,24.483245],[54.420458,24.483084],[54.420432,24.483032]]]}},{"type":"Feature","properties":{},"geometry":{"type":"Polygon","coordinates":[[[54.41951,24.489355],[54.419567,24.489352],[54.41954,24.489259],[54.419482,24.489262],[54.41951,24.489355]]]}},{"type":"Feature","properties":{},"geometry":{"type":"Polygon","coordinates":[[[54.419357,24.489359],[54.419458,24.489355],[54.419432,24.489265],[54.41933,24.489268],[54.419357,24.489359]]]}},{"type":"Feature","properties":{},"geometry":{"type":"Polygon","coordinates":[[[54.419694,24.489265],[54.419591,24.489266],[54.419592,24.48932],[54.419617,24.489372],[54.419721,24.489371],[54.41972,24.489317],[54.419694,24.489265]]]}},{"type":"Feature","properties":{},"geometry":{"type":"Polygon","coordinates":[[[54.419077,24.489301],[54.418987,24.489305],[54.418994,24.489429],[54.419019,24.489481],[54.419109,24.489477],[54.419102,24.489353],[54.419077,24.489301]]]}},{"type":"Feature","properties":{},"geometry":{"type":"Polygon","coordinates":[[[54.419661,24.489381],[54.419557,24.489378],[54.419554,24.489481],[54.419579,24.489533],[54.419684,24.489535],[54.419687,24.489433],[54.419661,24.489381]]]}},{"type":"Feature","properties":{},"geometry":{"type":"Polygon","coordinates":[[[54.419183,24.489537],[54.419157,24.48954],[54.419166,24.489612],[54.419192,24.489664],[54.419218,24.489661],[54.419208,24.489589],[54.419183,24.489537]]]}},{"type":"Feature","properties":{},"geometry":{"type":"Polygon","coordinates":[[[54.41959,24.489873],[54.41971,24.489871],[54.419709,24.489826],[54.419684,24.489774],[54.419563,24.489776],[54.419564,24.489821],[54.41959,24.489873]]]}},{"type":"Feature","properties":{},"geometry":{"type":"Polygon","coordinates":[[[54.419604,24.49035],[54.419688,24.490345],[54.419685,24.490224],[54.419659,24.490172],[54.419611,24.490173],[54.419613,24.490269],[54.419605,24.490252],[54.419571,24.490258],[54.419604,24.49035]]]}},{"type":"Feature","properties":{},"geometry":{"type":"Polygon","coordinates":[[[54.419432,24.490181],[54.419381,24.490183],[54.419387,24.490305],[54.419412,24.490357],[54.419463,24.490355],[54.419458,24.490233],[54.419432,24.490181]]]}},{"type":"Feature","properties":{},"geometry":{"type":"Polygon","coordinates":[[[54.419266,24.490363],[54.419341,24.490361],[54.419314,24.490275],[54.419239,24.490277],[54.419266,24.490363]]]}},{"type":"Feature","properties":{},"geometry":{"type":"Polygon","coordinates":[[[54.418376,24.5023],[54.418174,24.502378],[54.418243,24.502523],[54.418445,24.502445],[54.418376,24.5023]]]}}]}