{"type":"FeatureCollection","features":[{"type":"Feature","properties":{},"geometry":{"type":"Polygon","coordinates":[[[54.377897,24.48052],[54.377929,24.480548],[54.37789,24.48056],[54.377721,24.480713],[54.377841,24.480823],[54.379243,24.480388],[54.379412,24.480235],[54.379397,24.480222],[54.379439,24.480209],[54.379621,24.480038],[54.379524,24.479952],[54.379852,24.47985],[54.380036,24.479682],[54.380019,24.479667],[54.380063,24.479653],[54.380233,24.479498],[54.380094,24.479373],[54.378693,24.479808],[54.378523,24.479963],[54.378537,24.479975],[54.378493,24.479989],[54.378309,24.480157],[54.378409,24.480248],[54.37808,24.48035],[54.377897,24.48052]]]}},{"type":"Feature","properties":{},"geometry":{"type":"Polygon","coordinates":[[[54.379668,24.480419],[54.379709,24.48045],[54.37945,24.480531],[54.379208,24.480817],[54.379335,24.480907],[54.379462,24.480867],[54.379489,24.480887],[54.378954,24.481053],[54.378863,24.481163],[54.378892,24.481183],[54.378821,24.481205],[54.378597,24.481479],[54.378617,24.481493],[54.378567,24.481508],[54.378342,24.481782],[54.378425,24.481838],[54.378459,24.481827],[54.37834,24.481973],[54.378395,24.482011],[54.37834,24.482028],[54.378235,24.482156],[54.378349,24.482233],[54.37798,24.482348],[54.377608,24.482798],[54.377879,24.482984],[54.380067,24.482304],[54.380016,24.482363],[54.380066,24.4824],[54.380817,24.482166],[54.380931,24.482036],[54.38095,24.48205],[54.380985,24.482039],[54.380966,24.482061],[54.381147,24.482191],[54.381079,24.482213],[54.381037,24.482181],[54.380286,24.482414],[54.38023,24.482476],[54.379911,24.482575],[54.379693,24.482837],[54.37987,24.482959],[54.379629,24.483034],[54.379405,24.482876],[54.378654,24.483109],[54.378562,24.483217],[54.378708,24.48332],[54.378225,24.48347],[54.378086,24.483642],[54.378109,24.483859],[54.37832,24.484001],[54.377927,24.484123],[54.377814,24.484257],[54.378006,24.484391],[54.378067,24.484372],[54.378034,24.48441],[54.378218,24.48454],[54.378263,24.484526],[54.378239,24.484554],[54.378423,24.484686],[54.378485,24.484667],[54.378453,24.484705],[54.378631,24.484833],[54.378699,24.484812],[54.378662,24.484857],[54.378849,24.484984],[54.378907,24.484966],[54.378877,24.485],[54.379068,24.485138],[54.379114,24.485123],[54.37909,24.485151],[54.379279,24.485286],[54.37935,24.485264],[54.379308,24.485314],[54.379483,24.485436],[54.379617,24.485395],[54.37955,24.485474],[54.379706,24.485584],[54.378537,24.485947],[54.377906,24.486755],[54.377985,24.486806],[54.377627,24.486917],[54.377437,24.487134],[54.377523,24.487197],[54.377647,24.487158],[54.377747,24.487231],[54.377662,24.487329],[54.377718,24.487369],[54.37767,24.487423],[54.377858,24.487559],[54.377935,24.487535],[54.377946,24.487543],[54.377857,24.487645],[54.378003,24.487751],[54.37773,24.488062],[54.377301,24.488195],[54.377244,24.488263],[54.378043,24.488819],[54.380546,24.488042],[54.380603,24.487975],[54.380371,24.487813],[54.380985,24.487622],[54.380855,24.487778],[54.381022,24.487894],[54.381537,24.487741],[54.380677,24.488008],[54.380345,24.488412],[54.380321,24.488419],[54.380166,24.488606],[54.380328,24.488718],[54.380521,24.488658],[54.3805,24.488681],[54.380585,24.488744],[54.37985,24.488987],[54.379687,24.489167],[54.379837,24.489279],[54.380304,24.489134],[54.380358,24.489172],[54.380008,24.48928],[54.379907,24.489399],[54.380046,24.489497],[54.379717,24.489599],[54.37969,24.48958],[54.378939,24.489813],[54.378899,24.489859],[54.37893,24.489881],[54.379342,24.489753],[54.37918,24.489944],[54.379243,24.489988],[54.379065,24.490043],[54.378904,24.490239],[54.378996,24.490302],[54.378811,24.490359],[54.378656,24.490542],[54.378667,24.490549],[54.378627,24.490562],[54.378467,24.490759],[54.378491,24.490775],[54.378416,24.490798],[54.378267,24.490974],[54.37831,24.491005],[54.378201,24.491039],[54.378055,24.49121],[54.378172,24.491292],[54.377954,24.49136],[54.37777,24.491574],[54.378008,24.491743],[54.378513,24.491586],[54.37842,24.491702],[54.378678,24.491875],[54.378775,24.491844],[54.378729,24.491899],[54.378914,24.492028],[54.379845,24.491739],[54.379833,24.491753],[54.379901,24.491802],[54.38006,24.491753],[54.380041,24.491838],[54.377871,24.492515],[54.377756,24.492644],[54.378007,24.492829],[54.379417,24.492391],[54.379481,24.492435],[54.379545,24.492416],[54.379515,24.492452],[54.379595,24.492508],[54.378141,24.492959],[54.377956,24.493166],[54.378165,24.493321],[54.378527,24.493208],[54.378466,24.493278],[54.378569,24.493353],[54.378392,24.493408],[54.378285,24.493529],[54.378329,24.493562],[54.378254,24.493585],[54.378204,24.493644],[54.378268,24.493689],[54.378367,24.493658],[54.378363,24.493675],[54.378155,24.49374],[54.378141,24.493775],[54.378181,24.493789],[54.378006,24.493843],[54.377803,24.494084],[54.378016,24.494232],[54.378215,24.494171],[54.378201,24.494186],[54.378353,24.494296],[54.378036,24.494394],[54.377925,24.494521],[54.378118,24.49466],[54.378232,24.494625],[54.37817,24.494696],[54.378362,24.494835],[54.378711,24.494727],[54.378807,24.494796],[54.377838,24.495097],[54.377732,24.495222],[54.377923,24.495357],[54.378417,24.495203],[54.378338,24.495295],[54.37839,24.495332],[54.378302,24.495359],[54.378256,24.495416],[54.377965,24.495507],[54.377707,24.495812],[54.377926,24.495965],[54.379436,24.495496],[54.378401,24.495821],[54.37819,24.49608],[54.378405,24.496226],[54.379097,24.496015],[54.378986,24.496149],[54.379041,24.496186],[54.378744,24.496279],[54.378627,24.496421],[54.378895,24.496603],[54.379153,24.496523],[54.379114,24.496569],[54.379192,24.496624],[54.378156,24.496946],[54.378049,24.497065],[54.378298,24.497249],[54.378023,24.497334],[54.377916,24.497454],[54.378168,24.497639],[54.378379,24.497574],[54.378452,24.497628],[54.378271,24.497684],[54.378077,24.497902],[54.378194,24.497989],[54.380475,24.497281],[54.380504,24.497301],[54.378171,24.498025],[54.377977,24.498244],[54.377999,24.498259],[54.377939,24.498278],[54.377764,24.498474],[54.377898,24.498573],[54.381904,24.497329],[54.382062,24.497125],[54.381944,24.497035],[54.380792,24.497392],[54.380866,24.497292],[54.380796,24.497234],[54.381129,24.497131],[54.381189,24.497059],[54.382151,24.49676],[54.382977,24.497328],[54.383628,24.497126],[54.383685,24.497165],[54.384436,24.496932],[54.384488,24.496867],[54.38448,24.496862],[54.384643,24.496808],[54.384687,24.496756],[54.384641,24.496724],[54.384656,24.496705],[54.387583,24.495797],[54.387727,24.495711],[54.387712,24.495692],[54.387858,24.495601],[54.387813,24.495501],[54.387791,24.495392],[54.387823,24.495303],[54.387995,24.495105],[54.387888,24.495036],[54.385416,24.495804],[54.385755,24.495401],[54.385787,24.495391],[54.385848,24.495322],[54.38583,24.495309],[54.385869,24.495265],[54.38608,24.4952],[54.386244,24.495],[54.386205,24.494974],[54.386306,24.494943],[54.386466,24.494744],[54.386414,24.494709],[54.386521,24.494676],[54.386681,24.494478],[54.386636,24.494447],[54.386743,24.494414],[54.386893,24.494228],[54.387641,24.493996],[54.387358,24.494681],[54.387698,24.49491],[54.389119,24.494469],[54.389134,24.494774],[54.389223,24.494771],[54.389231,24.494932],[54.389342,24.494927],[54.393097,24.493761],[54.393072,24.493242],[54.393301,24.49317],[54.393328,24.493134],[54.393925,24.492949],[54.393876,24.492595],[54.39332,24.492659],[54.393325,24.492645],[54.39411,24.492401],[54.394184,24.492454],[54.399787,24.490714],[54.399877,24.490611],[54.40007,24.490551],[54.400098,24.490732],[54.400402,24.490694],[54.402905,24.489916],[54.402895,24.489851],[54.406355,24.488777],[54.406594,24.48848],[54.406776,24.488745],[54.407249,24.488599],[54.406903,24.488795],[54.407183,24.489203],[54.410937,24.488036],[54.411339,24.487801],[54.411399,24.487782],[54.411775,24.487552],[54.411756,24.487524],[54.412391,24.487327],[54.413265,24.486891],[54.413114,24.486618],[54.412742,24.486733],[54.413118,24.486524],[54.413001,24.486198],[54.411124,24.486781],[54.411073,24.486707],[54.407318,24.487873],[54.406607,24.488275],[54.4065,24.487661],[54.409987,24.486578],[54.410132,24.486398],[54.409836,24.486185],[54.406427,24.487244],[54.406379,24.48697],[54.406042,24.48692],[54.405527,24.486815],[54.405179,24.486695],[54.405644,24.48654],[54.405999,24.486349],[54.406267,24.486153],[54.406294,24.486114],[54.406285,24.486066],[54.4059,24.485677],[54.405848,24.485671],[54.404063,24.486225],[54.403937,24.486169],[54.404621,24.485951],[54.404809,24.485534],[54.407706,24.484634],[54.407902,24.484443],[54.408126,24.484094],[54.411221,24.483132],[54.411345,24.482739],[54.41062,24.482652],[54.409457,24.483013],[54.409457,24.482983],[54.410159,24.482765],[54.410154,24.48265],[54.410057,24.482653],[54.409457,24.48284],[54.409457,24.482686],[54.409314,24.48227],[54.409387,24.48223],[54.40926,24.482037],[54.413018,24.480869],[54.413208,24.480798],[54.413249,24.480667],[54.412851,24.480222],[54.407249,24.481963],[54.407183,24.482071],[54.407041,24.482137],[54.407123,24.482248],[54.406485,24.482446],[54.40631,24.482553],[54.406317,24.482563],[54.406107,24.48267],[54.406143,24.482727],[54.406407,24.482645],[54.406512,24.482804],[54.405455,24.483133],[54.405126,24.483265],[54.405314,24.4839],[54.404939,24.484017],[54.404949,24.484079],[54.403751,24.484451],[54.40362,24.484898],[54.403526,24.485074],[54.40334,24.485265],[54.403383,24.485303],[54.402885,24.485458],[54.402722,24.485336],[54.398968,24.486502],[54.39878,24.486707],[54.398611,24.486465],[54.400589,24.48585],[54.400973,24.485509],[54.40094,24.485479],[54.400859,24.485446],[54.400747,24.485434],[54.400622,24.485451],[54.395019,24.487192],[54.394971,24.487234],[54.394555,24.487364],[54.394369,24.487515],[54.394411,24.487558],[54.394275,24.4876],[54.394208,24.487659],[54.393811,24.487693],[54.392872,24.487985],[54.392909,24.488341],[54.392314,24.488534],[54.392305,24.488577],[54.392215,24.488605],[54.392125,24.48894],[54.392304,24.488949],[54.392538,24.489018],[54.392714,24.489126],[54.392886,24.489319],[54.39326,24.489202],[54.393272,24.489275],[54.393803,24.489206],[54.394212,24.489079],[54.394231,24.489235],[54.394384,24.48922],[54.394398,24.489338],[54.394585,24.489319],[54.398196,24.488198],[54.398316,24.488288],[54.39441,24.489501],[54.394413,24.489532],[54.394176,24.489399],[54.393933,24.489406],[54.392995,24.489698],[54.392899,24.490086],[54.392832,24.49021],[54.392674,24.490173],[54.391736,24.490465],[54.391721,24.490502],[54.391735,24.490577],[54.3917,24.4906],[54.391651,24.49071],[54.391724,24.490779],[54.391942,24.490822],[54.392303,24.490933],[54.392504,24.490871],[54.39257,24.490997],[54.392805,24.490966],[54.392169,24.491164],[54.39221,24.49149],[54.392502,24.49146],[54.393521,24.491143],[54.393566,24.49117],[54.393672,24.491195],[54.393756,24.491191],[54.39246,24.491593],[54.392547,24.492146],[54.392963,24.492093],[54.393702,24.491863],[54.39383,24.491951],[54.394331,24.491796],[54.394475,24.491623],[54.394924,24.491483],[54.394754,24.49168],[54.394767,24.491689],[54.392226,24.492479],[54.392238,24.492552],[54.387829,24.493921],[54.38786,24.493884],[54.38754,24.493498],[54.387935,24.493375],[54.387805,24.493598],[54.387987,24.493667],[54.390438,24.492907],[54.390399,24.492942],[54.390505,24.493039],[54.391256,24.492805],[54.391444,24.492634],[54.391411,24.492605],[54.391742,24.492502],[54.392163,24.491791],[54.392098,24.491679],[54.392045,24.491671],[54.390833,24.492048],[54.39033,24.491703],[54.389904,24.491835],[54.390067,24.491409],[54.389308,24.490872],[54.387687,24.491375],[54.387687,24.491338],[54.387841,24.49129],[54.387912,24.491206],[54.387802,24.49113],[54.388021,24.491012],[54.388188,24.490815],[54.387474,24.490286],[54.387808,24.490182],[54.387929,24.490044],[54.387706,24.489883],[54.387159,24.490053],[54.387128,24.49003],[54.387713,24.489848],[54.387715,24.489805],[54.387651,24.489803],[54.3869,24.490036],[54.386898,24.490061],[54.386816,24.490087],[54.386877,24.490019],[54.386867,24.490012],[54.38689,24.490005],[54.387041,24.489828],[54.387077,24.489817],[54.387232,24.489638],[54.387205,24.489618],[54.387424,24.48955],[54.387589,24.489365],[54.387457,24.489268],[54.386786,24.489475],[54.388694,24.488883],[54.388823,24.488707],[54.388544,24.488532],[54.386864,24.489053],[54.386751,24.488977],[54.388169,24.488537],[54.388269,24.488424],[54.388085,24.488283],[54.388619,24.488117],[54.388709,24.487894],[54.388747,24.487852],[54.388965,24.487724],[54.388888,24.48761],[54.388732,24.487659],[54.388837,24.487551],[54.388785,24.487513],[54.389134,24.487404],[54.389296,24.487226],[54.389144,24.487115],[54.389195,24.487057],[54.390725,24.486581],[54.390702,24.486426],[54.390808,24.486311],[54.391018,24.486245],[54.391008,24.486116],[54.390824,24.486132],[54.390658,24.485999],[54.390697,24.48596],[54.390608,24.485889],[54.388252,24.486621],[54.3882,24.486583],[54.387449,24.486816],[54.387381,24.486891],[54.38726,24.486929],[54.387283,24.486901],[54.387244,24.486873],[54.387283,24.486833],[54.387313,24.486855],[54.388063,24.486622],[54.388161,24.486511],[54.388115,24.486477],[54.387364,24.48671],[54.387276,24.486807],[54.387204,24.486751],[54.387142,24.48677],[54.3871,24.486742],[54.386378,24.486966],[54.386401,24.486942],[54.386745,24.486836],[54.386884,24.486677],[54.386752,24.486586],[54.387956,24.486212],[54.388019,24.485928],[54.387752,24.485889],[54.388046,24.485798],[54.388225,24.485626],[54.388042,24.485468],[54.387947,24.485498],[54.388004,24.48544],[54.387954,24.4854],[54.387843,24.485435],[54.387876,24.485402],[54.387834,24.485361],[54.38776,24.485384],[54.387743,24.48537],[54.387461,24.485457],[54.387642,24.485274],[54.387285,24.484984],[54.387087,24.485045],[54.387209,24.484918],[54.38686,24.484627],[54.386667,24.484687],[54.386718,24.484634],[54.386663,24.484589],[54.386737,24.484553],[54.386862,24.484426],[54.386946,24.484399],[54.387052,24.484295],[54.386913,24.48418],[54.38441,24.484958],[54.384305,24.485063],[54.384321,24.485075],[54.384287,24.485109],[54.384254,24.485119],[54.38413,24.485244],[54.384142,24.485253],[54.384113,24.485285],[54.38408,24.485295],[54.383967,24.485404],[54.384056,24.485478],[54.383833,24.485548],[54.38357,24.48582],[54.383791,24.486001],[54.383102,24.486215],[54.383028,24.486314],[54.383092,24.486354],[54.383115,24.486347],[54.383209,24.486405],[54.383253,24.486401],[54.384004,24.486168],[54.384051,24.486104],[54.384017,24.486083],[54.384207,24.486025],[54.384032,24.486202],[54.384154,24.486301],[54.38272,24.486746],[54.38245,24.48702],[54.382555,24.487108],[54.381589,24.487408],[54.381686,24.487286],[54.381465,24.48714],[54.38004,24.487582],[54.380029,24.487574],[54.380809,24.487332],[54.380932,24.487192],[54.380902,24.48717],[54.381074,24.486973],[54.380777,24.486757],[54.380805,24.486748],[54.380833,24.486704],[54.380698,24.486633],[54.380588,24.486667],[54.380489,24.486596],[54.380592,24.486478],[54.380393,24.486334],[54.379527,24.486603],[54.379487,24.486574],[54.379307,24.48663],[54.379262,24.486597],[54.380562,24.486193],[54.380578,24.486192],[54.380761,24.486336],[54.381177,24.486207],[54.381268,24.486273],[54.382069,24.486024],[54.382226,24.485847],[54.382209,24.485835],[54.382236,24.485827],[54.382388,24.485652],[54.382378,24.485645],[54.382404,24.485637],[54.382552,24.485466],[54.382529,24.485449],[54.382563,24.485439],[54.382711,24.485273],[54.382688,24.485256],[54.382727,24.485244],[54.382882,24.485068],[54.382738,24.484964],[54.382553,24.485021],[54.382577,24.484991],[54.383087,24.484833],[54.383239,24.484658],[54.38322,24.484644],[54.383259,24.484631],[54.38336,24.484512],[54.383472,24.484477],[54.383792,24.484093],[54.384573,24.48385],[54.384794,24.483576],[54.384755,24.48355],[54.38569,24.483259],[54.386036,24.482815],[54.385911,24.482735],[54.385736,24.482789],[54.385778,24.482735],[54.385805,24.482648],[54.385639,24.482542],[54.385873,24.482267],[54.385863,24.48226],[54.385909,24.482245],[54.386095,24.482027],[54.385859,24.48186],[54.385795,24.48188],[54.38584,24.481827],[54.385826,24.481817],[54.38585,24.48181],[54.386012,24.481619],[54.386604,24.481436],[54.386757,24.481252],[54.386726,24.48123],[54.386802,24.481206],[54.386956,24.481022],[54.38693,24.481005],[54.387003,24.480982],[54.387157,24.480798],[54.387126,24.480777],[54.3872,24.480753],[54.387354,24.48057],[54.387109,24.4804],[54.387043,24.48042],[54.387111,24.480342],[54.386873,24.480174],[54.3868,24.480197],[54.386826,24.480166],[54.386658,24.480046],[54.387119,24.479903],[54.387239,24.479768],[54.386994,24.479589],[54.386291,24.479807],[54.386306,24.47979],[54.386068,24.479621],[54.385618,24.479761],[54.385654,24.479721],[54.385623,24.479697],[54.385669,24.479683],[54.38585,24.479478],[54.386329,24.47933],[54.386449,24.479194],[54.386204,24.479015],[54.385526,24.479226],[54.385353,24.479096],[54.385312,24.479109],[54.38533,24.47909],[54.385094,24.478914],[54.384304,24.479159],[54.384199,24.479079],[54.384157,24.479092],[54.38418,24.479067],[54.384,24.478933],[54.382877,24.479281],[54.382752,24.479195],[54.381257,24.479659],[54.381145,24.479575],[54.380394,24.479808],[54.380299,24.479913],[54.38034,24.479944],[54.380249,24.479972],[54.380232,24.479993],[54.380026,24.480057],[54.379795,24.480325],[54.379805,24.480331],[54.379726,24.480356],[54.379668,24.480419]],[[54.385216,24.492288],[54.385401,24.49223],[54.385438,24.492266],[54.385342,24.492296],[54.385296,24.492351],[54.385304,24.49234],[54.385216,24.492288]],[[54.384427,24.49256],[54.384472,24.492587],[54.384285,24.492645],[54.384189,24.492585],[54.384897,24.492365],[54.384914,24.492375],[54.384458,24.492517],[54.384427,24.49256]],[[54.382888,24.487472],[54.382793,24.487407],[54.382136,24.487612],[54.382101,24.487588],[54.38296,24.487321],[54.382993,24.487282],[54.383055,24.487263],[54.382919,24.487403],[54.383005,24.487473],[54.382942,24.487492],[54.382904,24.487467],[54.382888,24.487472]],[[54.381838,24.484362],[54.381936,24.484425],[54.381967,24.484415],[54.381952,24.484434],[54.382018,24.484478],[54.381997,24.4845],[54.381819,24.484368],[54.381838,24.484362]],[[54.379842,24.481252],[54.379818,24.481235],[54.380403,24.481053],[54.380281,24.481198],[54.380308,24.481216],[54.380256,24.481232],[54.380222,24.481272],[54.379966,24.481351],[54.380016,24.48129],[54.379934,24.481234],[54.37983,24.481266],[54.379842,24.481252]],[[54.379543,24.481858],[54.379732,24.481804],[54.379301,24.481938],[54.379543,24.481858]],[[54.380209,24.48486],[54.380172,24.4849],[54.38,24.484776],[54.379955,24.484791],[54.379987,24.484754],[54.379804,24.484622],[54.380138,24.484519],[54.380175,24.484545],[54.38043,24.484466],[54.38046,24.484709],[54.380272,24.484767],[54.380226,24.484818],[54.38026,24.484844],[54.380209,24.48486]],[[54.379264,24.484251],[54.379817,24.484079],[54.379704,24.484211],[54.379796,24.484276],[54.379444,24.484385],[54.379364,24.484328],[54.379303,24.484347],[54.379339,24.484305],[54.379264,24.484251]],[[54.380384,24.483832],[54.380061,24.483933],[54.380041,24.483919],[54.380105,24.483899],[54.380147,24.483848],[54.380326,24.483792],[54.380384,24.483832]],[[54.379212,24.484138],[54.379173,24.484186],[54.379155,24.484173],[54.379107,24.484188],[54.379127,24.484164],[54.379212,24.484138]],[[54.384626,24.492706],[54.384285,24.492812],[54.384344,24.492735],[54.384532,24.492677],[54.384559,24.492651],[54.384626,24.492706]],[[54.38488,24.488974],[54.384883,24.488971],[54.384885,24.488973],[54.38488,24.488974]],[[54.384192,24.488596],[54.384546,24.488486],[54.384458,24.48859],[54.384528,24.488639],[54.384488,24.488651],[54.38444,24.48871],[54.384519,24.488765],[54.38446,24.488784],[54.384406,24.488745],[54.38437,24.488756],[54.384389,24.488734],[54.384192,24.488596]],[[54.386585,24.48749],[54.385403,24.487857],[54.385292,24.487779],[54.386559,24.487386],[54.386515,24.487435],[54.386585,24.48749]],[[54.386022,24.488629],[54.386086,24.488574],[54.386071,24.488614],[54.386022,24.488629]],[[54.385886,24.48854],[54.385775,24.488447],[54.385823,24.488432],[54.385943,24.488522],[54.385886,24.48854]],[[54.384537,24.492615],[54.384534,24.492613],[54.384543,24.49261],[54.384537,24.492615]],[[54.394037,24.488614],[54.393982,24.488555],[54.393956,24.488495],[54.393956,24.488394],[54.394462,24.488237],[54.394521,24.488303],[54.394643,24.488265],[54.394793,24.488419],[54.394945,24.488372],[54.394968,24.488395],[54.398137,24.487411],[54.397908,24.487661],[54.394701,24.488657],[54.394689,24.488578],[54.394111,24.488653],[54.394037,24.488614]],[[54.396252,24.490257],[54.39665,24.490134],[54.396624,24.489925],[54.395923,24.489998],[54.395187,24.490227],[54.394998,24.490253],[54.394512,24.490404],[54.394468,24.490379],[54.394389,24.490363],[54.39442,24.490338],[54.394673,24.490259],[54.394779,24.490202],[54.394917,24.490027],[54.394913,24.490003],[54.398953,24.488748],[54.399901,24.489245],[54.395387,24.490647],[54.395342,24.490698],[54.395211,24.490739],[54.395346,24.490577],[54.396257,24.490294],[54.396252,24.490257]],[[54.400837,24.490032],[54.400742,24.489963],[54.400784,24.489914],[54.40065,24.489817],[54.400977,24.489716],[54.401757,24.489883],[54.401903,24.489894],[54.400412,24.490357],[54.400354,24.490319],[54.400409,24.49025],[54.400735,24.490148],[54.400837,24.490032]]]}},{"type":"Feature","properties":{},"geometry":{"type":"Polygon","coordinates":[[[54.379069,24.488773],[54.379117,24.488717],[54.378915,24.488575],[54.378164,24.488808],[54.378117,24.488864],[54.378318,24.489006],[54.379069,24.488773]]]}},{"type":"Feature","properties":{},"geometry":{"type":"Polygon","coordinates":[[[54.379826,24.489457],[54.379075,24.48969],[54.379025,24.489745],[54.379055,24.489768],[54.379806,24.489535],[54.379856,24.489479],[54.379826,24.489457]]]}},{"type":"Feature","properties":{},"geometry":{"type":"Polygon","coordinates":[[[54.378627,24.498872],[54.378686,24.498917],[54.378544,24.498962],[54.378463,24.499043],[54.378526,24.499094],[54.380047,24.49864],[54.380156,24.498503],[54.379941,24.49836],[54.379832,24.498394],[54.37986,24.498357],[54.381992,24.497695],[54.382154,24.497511],[54.381918,24.49734],[54.379415,24.498117],[54.379253,24.498302],[54.3793,24.498336],[54.378948,24.498445],[54.378874,24.498541],[54.37893,24.498577],[54.378678,24.498656],[54.378697,24.498702],[54.378986,24.498613],[54.379051,24.498654],[54.378741,24.498751],[54.378627,24.498872]]]}},{"type":"Feature","properties":{},"geometry":{"type":"Polygon","coordinates":[[[54.381591,24.500908],[54.381791,24.500704],[54.381645,24.500585],[54.37789,24.501751],[54.377689,24.501955],[54.377836,24.502074],[54.381591,24.500908]]]}},{"type":"Feature","properties":{},"geometry":{"type":"Polygon","coordinates":[[[54.37934,24.507452],[54.37934,24.507547],[54.379402,24.507547],[54.37952,24.50751],[54.379521,24.507576],[54.379762,24.507573],[54.382265,24.506796],[54.382261,24.506504],[54.382039,24.506507],[54.380132,24.507099],[54.380049,24.507099],[54.379298,24.507332],[54.379299,24.507452],[54.37934,24.507452]]]}},{"type":"Feature","properties":{},"geometry":{"type":"Polygon","coordinates":[[[54.379354,24.508445],[54.379353,24.50837],[54.379618,24.508288],[54.379615,24.508184],[54.379506,24.508187],[54.378755,24.50842],[54.378757,24.508499],[54.378529,24.50857],[54.37853,24.508679],[54.378603,24.508678],[54.379354,24.508445]]]}},{"type":"Feature","properties":{},"geometry":{"type":"Polygon","coordinates":[[[54.381524,24.509394],[54.381648,24.509355],[54.381895,24.509224],[54.382362,24.509079],[54.382408,24.509026],[54.382361,24.508992],[54.38229,24.509014],[54.382269,24.508969],[54.382446,24.508914],[54.382681,24.508786],[54.38266,24.508754],[54.382757,24.508724],[54.383397,24.508383],[54.38329,24.508217],[54.382479,24.508469],[54.382346,24.508274],[54.378591,24.509439],[54.377802,24.509708],[54.378003,24.51002],[54.378905,24.50974],[54.378916,24.509758],[54.378775,24.509801],[54.378546,24.509927],[54.378553,24.509937],[54.378275,24.510024],[54.378115,24.510113],[54.378367,24.510488],[54.380871,24.509711],[54.381008,24.509635],[54.381309,24.509541],[54.381538,24.509415],[54.381524,24.509394]]]}},{"type":"Feature","properties":{},"geometry":{"type":"Polygon","coordinates":[[[54.383544,24.499816],[54.383744,24.499604],[54.38353,24.499438],[54.377961,24.501167],[54.377761,24.501379],[54.377974,24.501545],[54.383544,24.499816]]]}},{"type":"Feature","properties":{},"geometry":{"type":"Polygon","coordinates":[[[54.382752,24.500972],[54.382943,24.500775],[54.382774,24.50064],[54.378018,24.502117],[54.377828,24.502314],[54.377947,24.50241],[54.377856,24.502438],[54.377752,24.502561],[54.377954,24.502704],[54.382711,24.501227],[54.382815,24.501104],[54.382666,24.500999],[54.382752,24.500972]]]}},{"type":"Feature","properties":{},"geometry":{"type":"Polygon","coordinates":[[[54.38035,24.511778],[54.380028,24.511878],[54.379543,24.512354],[54.379653,24.512439],[54.380053,24.512315],[54.38049,24.511893],[54.381238,24.51251],[54.381639,24.512386],[54.381718,24.512302],[54.380821,24.511553],[54.38146,24.511355],[54.381465,24.511327],[54.381545,24.511302],[54.381571,24.511237],[54.381528,24.511223],[54.381442,24.511249],[54.381484,24.511233],[54.381493,24.51119],[54.381373,24.51117],[54.380622,24.511403],[54.380603,24.511497],[54.380313,24.511587],[54.380238,24.511685],[54.38035,24.511778]]]}},{"type":"Feature","properties":{},"geometry":{"type":"Polygon","coordinates":[[[54.380323,24.499493],[54.380511,24.499435],[54.380487,24.499527],[54.380699,24.499574],[54.380813,24.499539],[54.380845,24.499603],[54.381059,24.499614],[54.381495,24.499479],[54.381556,24.499512],[54.382307,24.499279],[54.382333,24.499219],[54.382624,24.499129],[54.38268,24.499089],[54.382885,24.499025],[54.382928,24.498999],[54.382958,24.498957],[54.382962,24.498885],[54.382928,24.498829],[54.38289,24.498805],[54.382834,24.498794],[54.382784,24.498803],[54.382624,24.498852],[54.382602,24.49881],[54.382684,24.49876],[54.382826,24.498716],[54.382869,24.49866],[54.382859,24.498654],[54.382905,24.498627],[54.383363,24.498484],[54.383492,24.498431],[54.38346,24.498152],[54.383379,24.49804],[54.38285,24.497896],[54.381286,24.498381],[54.381194,24.498433],[54.381068,24.498473],[54.380628,24.498745],[54.380706,24.498858],[54.38019,24.499018],[54.380102,24.499133],[54.380013,24.49916],[54.379954,24.499237],[54.379974,24.49925],[54.380016,24.499237],[54.379985,24.499278],[54.380323,24.499493]]]}},{"type":"Feature","properties":{},"geometry":{"type":"Polygon","coordinates":[[[54.382254,24.509951],[54.382355,24.50991],[54.38232,24.509838],[54.381569,24.510072],[54.381468,24.510112],[54.381503,24.510184],[54.382254,24.509951]]]}},{"type":"Feature","properties":{},"geometry":{"type":"Polygon","coordinates":[[[54.383478,24.504426],[54.382733,24.504657],[54.382743,24.50478],[54.382818,24.504775],[54.383318,24.50462],[54.383321,24.50491],[54.383623,24.504907],[54.387378,24.503741],[54.387378,24.503712],[54.38746,24.503687],[54.387455,24.503234],[54.38767,24.503205],[54.387675,24.503391],[54.388721,24.503066],[54.388742,24.503235],[54.389185,24.503188],[54.388737,24.503327],[54.388742,24.50337],[54.387984,24.503605],[54.387995,24.503646],[54.388811,24.503398],[54.388803,24.503371],[54.388959,24.503353],[54.389134,24.503299],[54.389133,24.50332],[54.38924,24.503322],[54.390389,24.502973],[54.390406,24.5031],[54.391157,24.503036],[54.392534,24.502608],[54.392483,24.502149],[54.392795,24.502053],[54.392766,24.50181],[54.393279,24.501651],[54.393835,24.501454],[54.393675,24.501326],[54.393454,24.501395],[54.393409,24.501281],[54.39318,24.501306],[54.392722,24.501448],[54.392687,24.501155],[54.394668,24.500539],[54.39466,24.500465],[54.39488,24.500397],[54.39489,24.500451],[54.394937,24.500444],[54.395687,24.50021],[54.395667,24.500096],[54.395381,24.500177],[54.395372,24.500083],[54.396047,24.499874],[54.396038,24.499833],[54.396313,24.499747],[54.396285,24.499594],[54.39617,24.499611],[54.395419,24.499844],[54.395438,24.499947],[54.395362,24.499971],[54.39534,24.499731],[54.3952,24.499742],[54.395197,24.499711],[54.395067,24.499721],[54.394308,24.499957],[54.394126,24.499974],[54.392602,24.500447],[54.392599,24.500423],[54.393244,24.500222],[54.39323,24.500094],[54.392752,24.500135],[54.392571,24.500191],[54.392534,24.499885],[54.393187,24.499682],[54.393184,24.499655],[54.3936,24.499526],[54.393621,24.499665],[54.39537,24.499471],[54.399125,24.498305],[54.399015,24.497498],[54.39889,24.497376],[54.39722,24.497494],[54.394333,24.49839],[54.394331,24.49837],[54.393707,24.49842],[54.392406,24.498824],[54.392357,24.498416],[54.392099,24.498445],[54.393308,24.498069],[54.393231,24.498008],[54.393132,24.497885],[54.393058,24.497878],[54.393061,24.497829],[54.391507,24.498309],[54.391506,24.498296],[54.394403,24.497396],[54.394641,24.497508],[54.398396,24.496342],[54.398524,24.496276],[54.39864,24.496182],[54.398629,24.496108],[54.398672,24.496045],[54.398752,24.496006],[54.398785,24.495948],[54.398297,24.495655],[54.395739,24.49645],[54.395499,24.496475],[54.389896,24.498215],[54.389919,24.498399],[54.386775,24.499375],[54.386768,24.499506],[54.386877,24.499783],[54.386944,24.499887],[54.387235,24.500209],[54.387459,24.500387],[54.387532,24.500461],[54.388083,24.500854],[54.387919,24.500905],[54.388012,24.50105],[54.388047,24.501141],[54.388226,24.501085],[54.38827,24.501443],[54.388112,24.501492],[54.38812,24.501571],[54.388053,24.501752],[54.388156,24.501762],[54.388134,24.501871],[54.387975,24.502039],[54.387908,24.50206],[54.387837,24.502137],[54.387877,24.502156],[54.387597,24.502492],[54.387623,24.502518],[54.387477,24.502822],[54.387584,24.502858],[54.387658,24.503021],[54.387454,24.503097],[54.387451,24.502832],[54.387368,24.502833],[54.387365,24.502587],[54.387225,24.502588],[54.38347,24.503754],[54.383476,24.504291],[54.383302,24.504345],[54.383303,24.504399],[54.383477,24.50439],[54.383478,24.504426]],[[54.390264,24.502002],[54.390269,24.502039],[54.390079,24.502059],[54.390264,24.502002]]]}},{"type":"Feature","properties":{},"geometry":{"type":"Polygon","coordinates":[[[54.383651,24.507986],[54.3829,24.508219],[54.382846,24.508246],[54.382867,24.50828],[54.383618,24.508047],[54.383671,24.50802],[54.383651,24.507986]]]}},{"type":"Feature","properties":{},"geometry":{"type":"Polygon","coordinates":[[[54.385221,24.483869],[54.384471,24.484102],[54.384385,24.484192],[54.384434,24.484231],[54.385184,24.483998],[54.385246,24.483934],[54.385229,24.483921],[54.385254,24.483895],[54.385221,24.483869]]]}},{"type":"Feature","properties":{},"geometry":{"type":"Polygon","coordinates":[[[54.38713,24.509514],[54.386436,24.508975],[54.382681,24.51014],[54.382302,24.510553],[54.381894,24.510679],[54.381509,24.511102],[54.382367,24.511768],[54.386122,24.510602],[54.386506,24.510178],[54.386341,24.51005],[54.386739,24.509926],[54.38713,24.509514]]]}},{"type":"Feature","properties":{},"geometry":{"type":"Polygon","coordinates":[[[54.387441,24.481818],[54.38669,24.482051],[54.386699,24.482115],[54.386898,24.482089],[54.387649,24.481856],[54.387644,24.481795],[54.387441,24.481818]]]}},{"type":"Feature","properties":{},"geometry":{"type":"Polygon","coordinates":[[[54.390842,24.482044],[54.391353,24.481443],[54.390957,24.481161],[54.387203,24.482327],[54.386697,24.482936],[54.387087,24.483209],[54.390842,24.482044]]]}},{"type":"Feature","properties":{},"geometry":{"type":"Polygon","coordinates":[[[54.390654,24.482281],[54.39069,24.482215],[54.390559,24.482155],[54.389809,24.482389],[54.389772,24.482455],[54.389903,24.482514],[54.390654,24.482281]]]}},{"type":"Feature","properties":{},"geometry":{"type":"Polygon","coordinates":[[[54.389972,24.482894],[54.390469,24.48274],[54.39071,24.482873],[54.390962,24.4828],[54.390947,24.482828],[54.391028,24.482867],[54.391256,24.482798],[54.391253,24.482819],[54.391191,24.482839],[54.39115,24.482902],[54.391164,24.482909],[54.391056,24.482942],[54.390997,24.483025],[54.391238,24.483168],[54.391285,24.483153],[54.391275,24.48317],[54.391489,24.483276],[54.391224,24.483358],[54.391015,24.483564],[54.39122,24.483711],[54.391257,24.483699],[54.391186,24.48376],[54.391324,24.483896],[54.392075,24.483663],[54.392162,24.483587],[54.392032,24.483459],[54.393723,24.482934],[54.393803,24.482842],[54.393787,24.482829],[54.393827,24.482816],[54.393911,24.482721],[54.393737,24.482589],[54.394006,24.482505],[54.394082,24.482382],[54.393993,24.482319],[54.394021,24.482272],[54.39417,24.482226],[54.394245,24.482106],[54.394012,24.481992],[54.39219,24.482558],[54.391946,24.482447],[54.391875,24.482469],[54.3919,24.482427],[54.391813,24.482387],[54.39177,24.482401],[54.391786,24.482374],[54.391693,24.482332],[54.391318,24.482448],[54.391269,24.482421],[54.39079,24.482566],[54.391448,24.482361],[54.391468,24.482239],[54.391331,24.482225],[54.39058,24.482459],[54.390564,24.482579],[54.389997,24.482755],[54.389907,24.482825],[54.389972,24.482894]]]}},{"type":"Feature","properties":{},"geometry":{"type":"Polygon","coordinates":[[[54.388645,24.484996],[54.388721,24.484926],[54.38867,24.48488],[54.387919,24.485113],[54.387843,24.485182],[54.387894,24.485229],[54.388645,24.484996]]]}},{"type":"Feature","properties":{},"geometry":{"type":"Polygon","coordinates":[[[54.389584,24.485525],[54.389443,24.485639],[54.389596,24.485795],[54.390346,24.485562],[54.390409,24.485511],[54.390365,24.485466],[54.390444,24.485403],[54.390335,24.485292],[54.389584,24.485525]]]}},{"type":"Feature","properties":{},"geometry":{"type":"Polygon","coordinates":[[[54.38654,24.497392],[54.386584,24.497755],[54.386624,24.49775],[54.386642,24.497906],[54.386615,24.497915],[54.386626,24.498009],[54.386667,24.498005],[54.386709,24.498352],[54.386674,24.498363],[54.386683,24.498432],[54.386731,24.498427],[54.386772,24.498766],[54.387145,24.498729],[54.38777,24.498534],[54.387753,24.49839],[54.388811,24.498061],[54.388807,24.498025],[54.389548,24.497795],[54.389549,24.497806],[54.38975,24.497793],[54.390501,24.49756],[54.390499,24.4975],[54.393916,24.496438],[54.39386,24.495994],[54.397618,24.494828],[54.397751,24.49471],[54.39804,24.49462],[54.397955,24.49401],[54.397387,24.494076],[54.397001,24.494196],[54.39643,24.494277],[54.39438,24.494914],[54.39433,24.494511],[54.394162,24.494528],[54.396117,24.493921],[54.396085,24.493705],[54.396025,24.493712],[54.396018,24.493664],[54.39587,24.493682],[54.393367,24.494459],[54.393369,24.494472],[54.39331,24.49449],[54.393345,24.49473],[54.393415,24.494722],[54.39212,24.495124],[54.392079,24.494819],[54.391328,24.494902],[54.38924,24.49555],[54.389236,24.495514],[54.389155,24.495522],[54.389149,24.495476],[54.38905,24.495486],[54.389047,24.495457],[54.388897,24.495472],[54.388146,24.495705],[54.388153,24.495764],[54.386709,24.496212],[54.386715,24.496257],[54.383596,24.497226],[54.383377,24.497502],[54.383929,24.497866],[54.386809,24.496972],[54.386843,24.497224],[54.38657,24.497309],[54.386578,24.497381],[54.38654,24.497392]],[[54.390176,24.496131],[54.3902,24.496327],[54.389565,24.496524],[54.389224,24.496561],[54.38864,24.496742],[54.388623,24.496614],[54.390176,24.496131]]]}},{"type":"Feature","properties":{},"geometry":{"type":"Polygon","coordinates":[[[54.386653,24.498939],[54.386821,24.498921],[54.387572,24.498688],[54.387567,24.498633],[54.387398,24.498652],[54.386647,24.498885],[54.386653,24.498939]]]}},{"type":"Feature","properties":{},"geometry":{"type":"Polygon","coordinates":[[[54.387491,24.504056],[54.387493,24.504101],[54.387557,24.504098],[54.388308,24.503865],[54.388305,24.503784],[54.388249,24.503787],[54.388276,24.503778],[54.38827,24.503736],[54.388151,24.503751],[54.3874,24.503984],[54.387407,24.504026],[54.387362,24.50404],[54.38737,24.504086],[54.387491,24.504056]]]}},{"type":"Feature","properties":{},"geometry":{"type":"Polygon","coordinates":[[[54.392211,24.505213],[54.392434,24.505191],[54.392523,24.505163],[54.392558,24.505648],[54.392773,24.505636],[54.395276,24.504858],[54.39524,24.504359],[54.395025,24.504371],[54.393185,24.504943],[54.393183,24.504879],[54.393343,24.50483],[54.393314,24.504581],[54.393203,24.504592],[54.392982,24.504661],[54.392979,24.504626],[54.395156,24.50395],[54.395123,24.503675],[54.394681,24.503719],[54.393254,24.504162],[54.393253,24.504135],[54.394833,24.503644],[54.394775,24.503139],[54.394668,24.50315],[54.393305,24.503573],[54.393305,24.503529],[54.393213,24.50353],[54.393025,24.503589],[54.393019,24.503496],[54.392856,24.503504],[54.392105,24.503737],[54.392111,24.503839],[54.392274,24.503831],[54.392463,24.503772],[54.392467,24.503812],[54.392054,24.50394],[54.392065,24.504132],[54.392185,24.504108],[54.392195,24.504195],[54.39209,24.504227],[54.392098,24.504395],[54.392215,24.504372],[54.392222,24.504432],[54.392397,24.5044],[54.39248,24.504402],[54.392372,24.504436],[54.392298,24.50444],[54.389795,24.505218],[54.389802,24.505309],[54.389699,24.505341],[54.389701,24.505365],[54.38964,24.505384],[54.389658,24.505614],[54.389824,24.505593],[54.389842,24.505811],[54.390056,24.505797],[54.392209,24.505129],[54.392211,24.505213]],[[54.392538,24.50475],[54.392537,24.504739],[54.39259,24.504733],[54.392538,24.50475]]]}},{"type":"Feature","properties":{},"geometry":{"type":"Polygon","coordinates":[[[54.389903,24.506795],[54.389152,24.507028],[54.389156,24.507062],[54.389251,24.507055],[54.390002,24.506821],[54.389999,24.506787],[54.389903,24.506795]]]}},{"type":"Feature","properties":{},"geometry":{"type":"Polygon","coordinates":[[[54.39155,24.48433],[54.391641,24.484252],[54.391522,24.484136],[54.390771,24.484369],[54.39068,24.484447],[54.390799,24.484563],[54.39155,24.48433]]]}},{"type":"Feature","properties":{},"geometry":{"type":"Polygon","coordinates":[[[54.3985,24.491854],[54.398565,24.491555],[54.398156,24.49148],[54.395653,24.492258],[54.395588,24.492557],[54.395997,24.492631],[54.3985,24.491854]]]}},{"type":"Feature","properties":{},"geometry":{"type":"Polygon","coordinates":[[[54.394106,24.497884],[54.394064,24.497883],[54.393313,24.498116],[54.39331,24.498197],[54.393352,24.498198],[54.394103,24.497965],[54.394106,24.497884]]]}},{"type":"Feature","properties":{},"geometry":{"type":"Polygon","coordinates":[[[54.396495,24.501766],[54.396498,24.501664],[54.396412,24.501662],[54.395661,24.501895],[54.395658,24.501997],[54.395744,24.502],[54.396495,24.501766]]]}},{"type":"Feature","properties":{},"geometry":{"type":"Polygon","coordinates":[[[54.392842,24.5034],[54.392091,24.503633],[54.392099,24.503682],[54.392191,24.50367],[54.392942,24.503437],[54.392934,24.503387],[54.392842,24.5034]]]}},{"type":"Feature","properties":{},"geometry":{"type":"Polygon","coordinates":[[[54.39188,24.506896],[54.391888,24.506957],[54.391994,24.506932],[54.392001,24.506959],[54.39253,24.506801],[54.392533,24.506832],[54.391814,24.507055],[54.391816,24.507144],[54.391942,24.507142],[54.392542,24.506955],[54.392549,24.507036],[54.391931,24.507227],[54.391931,24.507197],[54.391798,24.507196],[54.391047,24.507429],[54.391046,24.50751],[54.391179,24.507511],[54.391534,24.507401],[54.391541,24.50749],[54.391944,24.507466],[54.392905,24.507167],[54.392911,24.507214],[54.392992,24.507205],[54.393743,24.506972],[54.393736,24.506919],[54.393691,24.506923],[54.394448,24.506688],[54.394441,24.506597],[54.395245,24.506348],[54.395218,24.506005],[54.395033,24.506017],[54.392816,24.506705],[54.392807,24.506668],[54.392849,24.506654],[54.392839,24.506613],[54.392729,24.506635],[54.39188,24.506896]]]}},{"type":"Feature","properties":{},"geometry":{"type":"Polygon","coordinates":[[[54.392521,24.506577],[54.39177,24.50681],[54.391776,24.506856],[54.391865,24.506847],[54.392616,24.506613],[54.39261,24.506568],[54.392521,24.506577]]]}},{"type":"Feature","properties":{},"geometry":{"type":"Polygon","coordinates":[[[54.393216,24.508734],[54.393967,24.508501],[54.393968,24.508467],[54.393721,24.508476],[54.39297,24.508709],[54.39297,24.508739],[54.393216,24.508734]]]}},{"type":"Feature","properties":{},"geometry":{"type":"Polygon","coordinates":[[[54.393379,24.509241],[54.393317,24.509272],[54.393396,24.509386],[54.393287,24.509433],[54.393321,24.509479],[54.393096,24.509587],[54.393138,24.50966],[54.393021,24.509696],[54.392992,24.509738],[54.393063,24.509778],[54.393246,24.509721],[54.393287,24.509787],[54.397042,24.508621],[54.39738,24.50845],[54.397368,24.50843],[54.39755,24.508338],[54.397318,24.507959],[54.394406,24.508863],[54.394355,24.508863],[54.393604,24.509096],[54.393605,24.509112],[54.393369,24.509224],[54.393379,24.509241]]]}},{"type":"Feature","properties":{},"geometry":{"type":"Polygon","coordinates":[[[54.394773,24.509439],[54.394803,24.509421],[54.394769,24.509372],[54.394018,24.509606],[54.393978,24.509629],[54.394012,24.509678],[54.394048,24.509666],[54.394017,24.509683],[54.394078,24.509774],[54.394829,24.509541],[54.39487,24.509518],[54.394809,24.509427],[54.394773,24.509439]]]}},{"type":"Feature","properties":{},"geometry":{"type":"Polygon","coordinates":[[[54.394924,24.509619],[54.394879,24.509532],[54.394128,24.509765],[54.394031,24.509807],[54.394075,24.509891],[54.393869,24.509955],[54.393874,24.509991],[54.394667,24.509752],[54.394662,24.509716],[54.394639,24.509719],[54.394924,24.509619]]]}},{"type":"Feature","properties":{},"geometry":{"type":"Polygon","coordinates":[[[54.393764,24.510129],[54.393786,24.510183],[54.393995,24.510118],[54.394036,24.510193],[54.394163,24.510153],[54.394156,24.51016],[54.394253,24.510242],[54.395004,24.510009],[54.395102,24.509913],[54.395041,24.509862],[54.394994,24.509876],[54.394976,24.509861],[54.394848,24.5099],[54.394818,24.509846],[54.394591,24.509916],[54.394946,24.509765],[54.394914,24.509705],[54.394163,24.509938],[54.393848,24.510074],[54.39386,24.510098],[54.393764,24.510129]]]}},{"type":"Feature","properties":{},"geometry":{"type":"Polygon","coordinates":[[[54.403673,24.48131],[54.403917,24.481584],[54.407671,24.480417],[54.407967,24.480266],[54.408939,24.479964],[54.409085,24.479841],[54.408927,24.479685],[54.409143,24.479618],[54.409262,24.479531],[54.409121,24.479371],[54.408987,24.479412],[54.408943,24.479362],[54.409659,24.479139],[54.409895,24.479025],[54.410078,24.478929],[54.410009,24.478821],[54.410184,24.478729],[54.410127,24.478639],[54.41001,24.478675],[54.410003,24.478663],[54.410035,24.478646],[54.40993,24.478482],[54.406176,24.479648],[54.405927,24.479779],[54.405983,24.479867],[54.405776,24.479976],[54.405813,24.480035],[54.405737,24.480075],[54.4058,24.480173],[54.405818,24.480168],[54.405891,24.480284],[54.404982,24.480566],[54.404751,24.480736],[54.404858,24.480857],[54.404282,24.481036],[54.403673,24.48131]]]}},{"type":"Feature","properties":{},"geometry":{"type":"Polygon","coordinates":[[[54.411678,24.480258],[54.41183,24.480211],[54.412058,24.480064],[54.411846,24.479777],[54.411781,24.479665],[54.411312,24.479811],[54.411344,24.47978],[54.411193,24.479652],[54.410443,24.479885],[54.410374,24.479952],[54.410503,24.480062],[54.406178,24.481406],[54.406001,24.481509],[54.405923,24.481577],[54.405948,24.481607],[54.405846,24.481639],[54.405621,24.481752],[54.40558,24.481799],[54.405593,24.481832],[54.405398,24.481892],[54.40529,24.481997],[54.405261,24.482119],[54.405287,24.48226],[54.405336,24.482344],[54.405364,24.482335],[54.405417,24.48244],[54.411019,24.480699],[54.411254,24.480584],[54.411238,24.480532],[54.411482,24.480456],[54.411723,24.480306],[54.411678,24.480258]]]}},{"type":"Feature","properties":{},"geometry":{"type":"Polygon","coordinates":[[[54.404506,24.482657],[54.40433,24.482318],[54.404005,24.481881],[54.403659,24.481989],[54.403614,24.481966],[54.403628,24.481853],[54.403542,24.481849],[54.402291,24.482238],[54.401421,24.483154],[54.401422,24.483271],[54.401463,24.483334],[54.401638,24.483375],[54.402182,24.483206],[54.40257,24.483215],[54.403095,24.483396],[54.404346,24.483007],[54.404272,24.48279],[54.404506,24.482657]]]}},{"type":"Feature","properties":{},"geometry":{"type":"Polygon","coordinates":[[[54.407555,24.485454],[54.407378,24.485639],[54.407438,24.485686],[54.407462,24.485678],[54.407456,24.485685],[54.407698,24.485879],[54.409648,24.485273],[54.409602,24.485326],[54.409423,24.4854],[54.409358,24.485463],[54.409001,24.485574],[54.408922,24.485635],[54.408963,24.485678],[54.409302,24.485573],[54.409136,24.485626],[54.409022,24.485692],[54.409129,24.485845],[54.409304,24.485791],[54.409317,24.485856],[54.409397,24.485985],[54.409484,24.48606],[54.409624,24.486071],[54.410075,24.485932],[54.410504,24.486668],[54.412131,24.486163],[54.41249,24.485995],[54.412219,24.485518],[54.412183,24.485426],[54.41217,24.485431],[54.412158,24.485411],[54.412219,24.485387],[54.412205,24.485356],[54.412139,24.485376],[54.41199,24.485114],[54.412029,24.485088],[54.41204,24.485015],[54.412031,24.484962],[54.412015,24.48494],[54.411877,24.484951],[54.411989,24.484916],[54.412031,24.484889],[54.412061,24.484817],[54.412604,24.484599],[54.412431,24.48428],[54.411879,24.484452],[54.411894,24.484436],[54.411832,24.484387],[54.411805,24.484396],[54.411571,24.484202],[54.412494,24.483915],[54.412607,24.483832],[54.412521,24.483736],[54.412833,24.483639],[54.413043,24.483498],[54.412798,24.483196],[54.408793,24.48444],[54.408584,24.484581],[54.408661,24.484676],[54.408334,24.484777],[54.408129,24.484931],[54.408142,24.484996],[54.408361,24.485107],[54.408432,24.485085],[54.408488,24.485158],[54.407802,24.485371],[54.408087,24.485094],[54.408012,24.48503],[54.407262,24.485263],[54.407065,24.485455],[54.406754,24.485552],[54.406713,24.485613],[54.406818,24.485672],[54.407555,24.485454]]]}},{"type":"Feature","properties":{},"geometry":{"type":"Polygon","coordinates":[[[54.408356,24.485801],[54.40845,24.485698],[54.408402,24.485661],[54.407651,24.485895],[54.407557,24.485997],[54.407605,24.486034],[54.408356,24.485801]]]}},{"type":"Feature","properties":{},"geometry":{"type":"Polygon","coordinates":[[[54.407805,24.490118],[54.407771,24.490038],[54.406961,24.490292],[54.406989,24.490373],[54.407805,24.490118]]]}},{"type":"Feature","properties":{},"geometry":{"type":"Polygon","coordinates":[[[54.398667,24.492158],[54.399418,24.491925],[54.399375,24.491607],[54.399249,24.491621],[54.398498,24.491854],[54.398541,24.492176],[54.398667,24.492158]]]}},{"type":"Feature","properties":{},"geometry":{"type":"Polygon","coordinates":[[[54.399359,24.492037],[54.399353,24.491991],[54.399276,24.492],[54.398525,24.492233],[54.39857,24.492562],[54.398647,24.492553],[54.399846,24.492187],[54.399833,24.492087],[54.399599,24.492116],[54.399576,24.491982],[54.399359,24.492037]]]}},{"type":"Feature","properties":{},"geometry":{"type":"Polygon","coordinates":[[[54.403673,24.491854],[54.399918,24.49302],[54.399973,24.493406],[54.400704,24.493321],[54.404458,24.492155],[54.404404,24.491769],[54.403673,24.491854]]]}},{"type":"Feature","properties":{},"geometry":{"type":"Polygon","coordinates":[[[54.403366,24.493598],[54.403273,24.493627],[54.403325,24.494051],[54.403286,24.494063],[54.403322,24.494353],[54.403622,24.494322],[54.403653,24.494365],[54.403701,24.49439],[54.403757,24.494393],[54.403814,24.494376],[54.404045,24.494498],[54.4078,24.493331],[54.407939,24.493112],[54.407926,24.493105],[54.409694,24.492556],[54.409977,24.492112],[54.409894,24.492068],[54.409836,24.492086],[54.409803,24.492069],[54.409836,24.492017],[54.40973,24.491961],[54.40921,24.492123],[54.409187,24.49194],[54.409086,24.49195],[54.40889,24.492],[54.407999,24.492273],[54.407802,24.492292],[54.407555,24.492368],[54.407462,24.492378],[54.407458,24.492343],[54.407099,24.492382],[54.406943,24.492273],[54.407155,24.492173],[54.407048,24.492005],[54.406247,24.492254],[54.405376,24.492715],[54.40535,24.492926],[54.403359,24.493544],[54.403366,24.493598]]]}},{"type":"Feature","properties":{},"geometry":{"type":"Polygon","coordinates":[[[54.406371,24.495344],[54.406474,24.495313],[54.4066,24.495316],[54.406814,24.49525],[54.406809,24.495264],[54.406562,24.495341],[54.406486,24.495406],[54.40654,24.495458],[54.406395,24.495503],[54.406312,24.495545],[54.406365,24.495633],[54.406714,24.495529],[54.406414,24.495622],[54.406407,24.495636],[54.406316,24.495664],[54.406049,24.495564],[54.404485,24.49605],[54.404158,24.496949],[54.403928,24.497053],[54.404354,24.497972],[54.403978,24.498096],[54.403354,24.498353],[54.403016,24.498458],[54.402864,24.498563],[54.402757,24.498744],[54.40274,24.498873],[54.402759,24.498984],[54.402809,24.499041],[54.40277,24.499106],[54.402825,24.499141],[54.40285,24.499176],[54.402864,24.49922],[54.402856,24.499279],[54.403021,24.499304],[54.403167,24.499287],[54.403966,24.499039],[54.403959,24.499091],[54.403992,24.499162],[54.40405,24.499189],[54.403484,24.499365],[54.403448,24.499406],[54.403184,24.499574],[54.403093,24.499605],[54.40308,24.499633],[54.403087,24.499668],[54.403154,24.499754],[54.403248,24.499802],[54.403328,24.49978],[54.403385,24.499857],[54.403476,24.499943],[54.403581,24.500013],[54.403698,24.500065],[54.403823,24.500099],[54.403952,24.500113],[54.404111,24.500109],[54.404135,24.500134],[54.404109,24.500161],[54.404113,24.500183],[54.404184,24.500229],[54.4043,24.50023],[54.404484,24.500172],[54.404483,24.500286],[54.404761,24.500267],[54.405188,24.500172],[54.40619,24.499861],[54.406693,24.499617],[54.408998,24.498901],[54.409005,24.499092],[54.408919,24.499457],[54.409276,24.499552],[54.409528,24.499473],[54.409349,24.50004],[54.4093,24.500253],[54.409341,24.500381],[54.409433,24.500448],[54.409613,24.500479],[54.409746,24.500476],[54.4135,24.49931],[54.413626,24.499246],[54.41368,24.49913],[54.413763,24.498337],[54.415697,24.497736],[54.41588,24.497506],[54.415774,24.496887],[54.415796,24.496878],[54.415765,24.496806],[54.415854,24.49668],[54.415761,24.496627],[54.415697,24.496646],[54.415564,24.496334],[54.415251,24.496219],[54.41474,24.496378],[54.41474,24.496349],[54.414553,24.496394],[54.413291,24.496786],[54.413295,24.496741],[54.413045,24.496658],[54.410644,24.497404],[54.410852,24.497225],[54.410869,24.497151],[54.410863,24.497074],[54.410818,24.497008],[54.410746,24.496976],[54.410651,24.496992],[54.409785,24.49726],[54.409731,24.497215],[54.409668,24.497201],[54.40903,24.4974],[54.409087,24.497329],[54.410916,24.496761],[54.410991,24.496718],[54.411015,24.496658],[54.411,24.496597],[54.414312,24.495568],[54.415132,24.495178],[54.41501,24.494983],[54.415185,24.494929],[54.415349,24.494825],[54.415334,24.494806],[54.415558,24.494737],[54.415781,24.494632],[54.41562,24.494442],[54.415465,24.494491],[54.415343,24.494383],[54.414523,24.494637],[54.414535,24.494579],[54.414494,24.494493],[54.414361,24.494372],[54.41423,24.494299],[54.414084,24.494243],[54.413908,24.494218],[54.413807,24.494236],[54.410735,24.49519],[54.410801,24.495032],[54.412393,24.494537],[54.4125,24.49449],[54.412624,24.494403],[54.413093,24.494257],[54.412996,24.494076],[54.412729,24.49416],[54.412617,24.494134],[54.412406,24.494169],[54.412127,24.494145],[54.411977,24.494047],[54.411864,24.493915],[54.411819,24.493785],[54.411838,24.493642],[54.411907,24.493515],[54.41202,24.493378],[54.412192,24.493266],[54.412669,24.493042],[54.412664,24.49286],[54.413139,24.492712],[54.413482,24.492322],[54.413762,24.492077],[54.414212,24.491794],[54.415164,24.491499],[54.415135,24.491289],[54.414666,24.491395],[54.412459,24.49208],[54.412459,24.492062],[54.412332,24.492059],[54.411581,24.492292],[54.411579,24.492354],[54.409064,24.493135],[54.408549,24.493307],[54.407982,24.493622],[54.407631,24.493885],[54.407294,24.494291],[54.407536,24.494453],[54.408442,24.495004],[54.408356,24.49503],[54.407832,24.494739],[54.406894,24.495031],[54.406877,24.495076],[54.40635,24.49524],[54.406305,24.495308],[54.406371,24.495344]],[[54.407492,24.498487],[54.408873,24.498058],[54.408889,24.498027],[54.40899,24.497976],[54.408991,24.498181],[54.407441,24.498662],[54.407492,24.498487]],[[54.407603,24.497097],[54.407976,24.497142],[54.407073,24.497422],[54.406749,24.497362],[54.407603,24.497097]],[[54.404842,24.498304],[54.404793,24.498203],[54.405006,24.498087],[54.405088,24.497999],[54.405111,24.497947],[54.405092,24.497915],[54.405105,24.497901],[54.40502,24.497838],[54.404992,24.497847],[54.404918,24.497805],[54.405744,24.497549],[54.40589,24.497575],[54.405643,24.497652],[54.405772,24.497826],[54.405129,24.498028],[54.405089,24.49808],[54.405099,24.498137],[54.405047,24.498153],[54.404928,24.498278],[54.404842,24.498304]],[[54.405211,24.499195],[54.405804,24.499011],[54.405713,24.499138],[54.405616,24.499229],[54.405389,24.4993],[54.405296,24.499217],[54.405211,24.499195]],[[54.410066,24.496043],[54.410292,24.495973],[54.410171,24.49607],[54.410066,24.496043]]]}},{"type":"Feature","properties":{},"geometry":{"type":"Polygon","coordinates":[[[54.398677,24.499384],[54.394922,24.50055],[54.395064,24.501399],[54.39563,24.50132],[54.399385,24.500154],[54.399243,24.499306],[54.398677,24.499384]]]}},{"type":"Feature","properties":{},"geometry":{"type":"Polygon","coordinates":[[[54.395441,24.502211],[54.395492,24.502519],[54.395924,24.502461],[54.399679,24.501295],[54.399628,24.500987],[54.399196,24.501045],[54.395441,24.502211]]]}},{"type":"Feature","properties":{},"geometry":{"type":"Polygon","coordinates":[[[54.407116,24.503077],[54.407179,24.503113],[54.40793,24.50288],[54.408051,24.502772],[54.408086,24.502761],[54.408154,24.502652],[54.408096,24.502637],[54.407345,24.502871],[54.40732,24.502901],[54.40724,24.502926],[54.407116,24.503077]]]}},{"type":"Feature","properties":{},"geometry":{"type":"Polygon","coordinates":[[[54.40688,24.503364],[54.406917,24.503485],[54.407748,24.503234],[54.407694,24.503111],[54.40688,24.503364]]]}},{"type":"Feature","properties":{},"geometry":{"type":"Polygon","coordinates":[[[54.407825,24.503596],[54.407885,24.503447],[54.407787,24.503415],[54.407036,24.503648],[54.406985,24.503805],[54.407074,24.503829],[54.407825,24.503596]]]}},{"type":"Feature","properties":{},"geometry":{"type":"Polygon","coordinates":[[[54.407274,24.504448],[54.407276,24.504306],[54.407183,24.504304],[54.406946,24.504377],[54.406935,24.504337],[54.406839,24.504359],[54.406088,24.504593],[54.406141,24.504759],[54.406428,24.504678],[54.406523,24.504681],[54.407274,24.504448]]]}},{"type":"Feature","properties":{},"geometry":{"type":"Polygon","coordinates":[[[54.398152,24.504454],[54.397401,24.504687],[54.397407,24.504788],[54.397479,24.504785],[54.39823,24.504552],[54.398224,24.504451],[54.398152,24.504454]]]}},{"type":"Feature","properties":{},"geometry":{"type":"Polygon","coordinates":[[[54.404948,24.50662],[54.404806,24.507019],[54.404957,24.507073],[54.404437,24.507235],[54.404404,24.507263],[54.404497,24.507354],[54.405248,24.507121],[54.405281,24.507093],[54.405243,24.507055],[54.405529,24.506966],[54.404898,24.508066],[54.404993,24.508131],[54.405356,24.508068],[54.410959,24.506328],[54.411372,24.505585],[54.413227,24.505009],[54.413342,24.504948],[54.413427,24.504855],[54.413472,24.504741],[54.413474,24.50462],[54.413435,24.504514],[54.413361,24.504424],[54.413261,24.504359],[54.413143,24.504326],[54.413019,24.504329],[54.409148,24.505532],[54.40905,24.505601],[54.408979,24.5057],[54.407665,24.506109],[54.40774,24.505938],[54.407588,24.505888],[54.407755,24.505836],[54.407848,24.505588],[54.407812,24.505577],[54.412305,24.504181],[54.412396,24.504076],[54.412431,24.503954],[54.412391,24.503813],[54.412336,24.503764],[54.414952,24.502951],[54.415043,24.502847],[54.416276,24.502464],[54.416308,24.502306],[54.416157,24.502281],[54.416273,24.502245],[54.416277,24.502185],[54.416015,24.502257],[54.415836,24.502228],[54.415068,24.502466],[54.415114,24.502355],[54.415512,24.502231],[54.415656,24.502123],[54.415323,24.501756],[54.41525,24.501779],[54.415256,24.501745],[54.41511,24.501656],[54.415108,24.501536],[54.414979,24.501512],[54.41491,24.501461],[54.414904,24.501082],[54.414702,24.501078],[54.414506,24.501139],[54.414452,24.501042],[54.414403,24.500903],[54.413859,24.500889],[54.411982,24.501472],[54.412018,24.501673],[54.412097,24.501888],[54.410947,24.502245],[54.410913,24.502838],[54.411356,24.502864],[54.411573,24.502797],[54.411628,24.502905],[54.40972,24.503497],[54.409576,24.503605],[54.409852,24.503909],[54.409259,24.504094],[54.409054,24.504354],[54.409084,24.504389],[54.408089,24.504698],[54.407888,24.504647],[54.405385,24.505424],[54.405291,24.505739],[54.405389,24.505763],[54.405179,24.505828],[54.405064,24.506126],[54.405307,24.506204],[54.405066,24.506279],[54.404973,24.506527],[54.405109,24.506569],[54.404948,24.50662]],[[54.412454,24.502619],[54.412568,24.502583],[54.412587,24.502606],[54.412467,24.502644],[54.412454,24.502619]]]}},{"type":"Feature","properties":{},"geometry":{"type":"Polygon","coordinates":[[[54.407202,24.509299],[54.40706,24.509435],[54.40711,24.509481],[54.406811,24.509574],[54.406652,24.509706],[54.406948,24.509978],[54.406429,24.510139],[54.406161,24.51036],[54.405565,24.510545],[54.405328,24.510706],[54.405146,24.510891],[54.405193,24.51093],[54.405285,24.510962],[54.40559,24.51097],[54.406246,24.51077],[54.406266,24.510799],[54.407067,24.51055],[54.407348,24.510386],[54.407288,24.510301],[54.407325,24.510275],[54.407366,24.510013],[54.407297,24.50995],[54.412618,24.508297],[54.412783,24.508181],[54.412747,24.508147],[54.41305,24.508053],[54.413184,24.507916],[54.41311,24.507847],[54.413387,24.507761],[54.413503,24.507642],[54.413141,24.50731],[54.411808,24.507724],[54.411776,24.507679],[54.411715,24.507698],[54.411661,24.507622],[54.411138,24.507785],[54.411202,24.507692],[54.411163,24.507671],[54.412613,24.507221],[54.412689,24.507183],[54.412835,24.507078],[54.412816,24.507012],[54.41275,24.507027],[54.412707,24.506942],[54.412625,24.506943],[54.412185,24.507074],[54.412213,24.507055],[54.412205,24.506922],[54.413407,24.506549],[54.413426,24.506507],[54.413513,24.506411],[54.413547,24.506166],[54.413481,24.506134],[54.413374,24.506167],[54.41335,24.50616],[54.412312,24.506483],[54.412182,24.506355],[54.413277,24.506015],[54.4133,24.50595],[54.413236,24.50593],[54.41325,24.505837],[54.413181,24.505798],[54.413049,24.505762],[54.412874,24.505783],[54.410371,24.50656],[54.410298,24.506611],[54.4103,24.506664],[54.406367,24.507886],[54.406249,24.507993],[54.406439,24.508181],[54.406098,24.508287],[54.40598,24.508394],[54.406117,24.508529],[54.405842,24.508615],[54.405724,24.508722],[54.406106,24.509099],[54.405231,24.509371],[54.405105,24.509539],[54.405253,24.509684],[54.405354,24.509652],[54.405418,24.509695],[54.407681,24.508992],[54.407656,24.509013],[54.407538,24.50905],[54.407481,24.509101],[54.40717,24.509197],[54.407129,24.509238],[54.407202,24.509299]],[[54.408481,24.508757],[54.40847,24.508747],[54.409027,24.508574],[54.408481,24.508757]]]}},{"type":"Feature","properties":{},"geometry":{"type":"Polygon","coordinates":[[[54.396883,24.510805],[54.399387,24.510028],[54.399642,24.50974],[54.399438,24.50959],[54.396934,24.510367],[54.396681,24.510653],[54.396883,24.510805]]]}},{"type":"Feature","properties":{},"geometry":{"type":"Polygon","coordinates":[[[54.411214,24.481796],[54.411255,24.481783],[54.411321,24.481841],[54.411222,24.481936],[54.411307,24.482009],[54.413809,24.481231],[54.413987,24.481061],[54.413619,24.480742],[54.411116,24.48152],[54.410943,24.481686],[54.411002,24.481737],[54.410906,24.481767],[54.410876,24.481795],[54.410916,24.481829],[54.411181,24.481747],[54.411169,24.481758],[54.411214,24.481796]]]}},{"type":"Feature","properties":{},"geometry":{"type":"Polygon","coordinates":[[[54.412102,24.481924],[54.412181,24.481844],[54.412149,24.481819],[54.411398,24.482052],[54.41132,24.482132],[54.411351,24.482158],[54.412102,24.481924]]]}},{"type":"Feature","properties":{},"geometry":{"type":"Polygon","coordinates":[[[54.410256,24.489504],[54.410326,24.49009],[54.410885,24.490035],[54.411959,24.489701],[54.411955,24.489719],[54.41212,24.489755],[54.412741,24.489563],[54.412803,24.48968],[54.416557,24.488514],[54.41665,24.488465],[54.416649,24.488477],[54.416694,24.488479],[54.417444,24.488246],[54.417447,24.488202],[54.417402,24.4882],[54.417278,24.488235],[54.417474,24.488174],[54.417475,24.488135],[54.417278,24.488187],[54.417134,24.488185],[54.417499,24.488071],[54.417499,24.488015],[54.417476,24.488015],[54.417501,24.488007],[54.417497,24.487915],[54.417372,24.487915],[54.41742,24.4879],[54.417416,24.487809],[54.417345,24.487809],[54.417417,24.487787],[54.417416,24.48774],[54.418075,24.487535],[54.418075,24.48749],[54.417989,24.487491],[54.417238,24.487724],[54.417238,24.487742],[54.417193,24.487741],[54.416712,24.487891],[54.416673,24.487878],[54.416996,24.487777],[54.416996,24.487758],[54.417243,24.487682],[54.417236,24.487633],[54.417873,24.487435],[54.417872,24.487261],[54.418122,24.487184],[54.418122,24.486993],[54.417625,24.486994],[54.416419,24.487368],[54.416312,24.487231],[54.416373,24.487043],[54.416723,24.486934],[54.416858,24.486787],[54.416499,24.486592],[54.41627,24.486551],[54.415997,24.486539],[54.415915,24.486564],[54.415912,24.486542],[54.415897,24.486545],[54.415891,24.486418],[54.415786,24.486421],[54.415685,24.486453],[54.41561,24.486456],[54.413107,24.487233],[54.413159,24.487381],[54.411868,24.487782],[54.411582,24.487957],[54.411471,24.48807],[54.410138,24.488492],[54.410183,24.488928],[54.41065,24.488887],[54.411356,24.488668],[54.411345,24.488722],[54.410204,24.489076],[54.410216,24.489184],[54.410622,24.489146],[54.410648,24.489383],[54.410256,24.489504]]]}},{"type":"Feature","properties":{},"geometry":{"type":"Polygon","coordinates":[[[54.411961,24.490659],[54.411975,24.490637],[54.413202,24.490256],[54.413209,24.489988],[54.413103,24.489988],[54.412919,24.49004],[54.410416,24.490817],[54.410413,24.49103],[54.410699,24.491033],[54.411147,24.490894],[54.411148,24.490951],[54.411223,24.490949],[54.411974,24.490716],[54.411972,24.490659],[54.411961,24.490659]]]}},{"type":"Feature","properties":{},"geometry":{"type":"Polygon","coordinates":[[[54.410023,24.490922],[54.409788,24.490916],[54.408959,24.49118],[54.408947,24.491294],[54.409008,24.491296],[54.409007,24.491323],[54.409219,24.491329],[54.40997,24.491096],[54.409972,24.491044],[54.410019,24.49103],[54.410023,24.490922]]]}},{"type":"Feature","properties":{},"geometry":{"type":"Polygon","coordinates":[[[54.408836,24.500643],[54.408085,24.500876],[54.408054,24.500908],[54.408053,24.500954],[54.408025,24.501013],[54.408063,24.501044],[54.408814,24.500811],[54.408865,24.500738],[54.408898,24.500654],[54.408836,24.500643]]]}},{"type":"Feature","properties":{},"geometry":{"type":"Polygon","coordinates":[[[54.408025,24.50174],[54.407768,24.502253],[54.407586,24.50231],[54.407515,24.502391],[54.407507,24.502438],[54.407551,24.502448],[54.407696,24.502403],[54.408114,24.502577],[54.416036,24.500113],[54.416036,24.500092],[54.416171,24.500051],[54.416176,24.499825],[54.416145,24.499824],[54.416147,24.499782],[54.41604,24.49978],[54.413322,24.500624],[54.413365,24.500433],[54.41336,24.500264],[54.412478,24.500305],[54.408723,24.501471],[54.408712,24.501527],[54.408025,24.50174]]]}},{"type":"Feature","properties":{},"geometry":{"type":"Polygon","coordinates":[[[54.408617,24.505491],[54.407866,24.505725],[54.407868,24.505818],[54.408033,24.505842],[54.408784,24.505609],[54.408779,24.505508],[54.408617,24.505491]]]}},{"type":"Feature","properties":{},"geometry":{"type":"Polygon","coordinates":[[[54.411123,24.509147],[54.411122,24.509219],[54.41117,24.50922],[54.411239,24.509199],[54.411235,24.509291],[54.410723,24.509449],[54.410727,24.509544],[54.410933,24.509537],[54.410005,24.509826],[54.409675,24.510126],[54.406651,24.511065],[54.406208,24.511313],[54.406171,24.511417],[54.406231,24.51159],[54.405455,24.511831],[54.405488,24.512108],[54.405539,24.512127],[54.405761,24.512061],[54.405807,24.512122],[54.405859,24.512123],[54.409932,24.510858],[54.409455,24.511011],[54.408975,24.511277],[54.408986,24.511294],[54.408731,24.511373],[54.408237,24.51165],[54.408334,24.511792],[54.40791,24.511924],[54.407922,24.511973],[54.408367,24.51184],[54.408457,24.511973],[54.412212,24.510807],[54.412705,24.51053],[54.412694,24.510514],[54.412947,24.510435],[54.413427,24.510169],[54.41321,24.509844],[54.412704,24.510002],[54.41264,24.509908],[54.413733,24.509569],[54.413807,24.509519],[54.413786,24.509493],[54.414114,24.509391],[54.414645,24.509098],[54.414556,24.508964],[54.413597,24.509263],[54.413458,24.509094],[54.413326,24.509135],[54.413297,24.509101],[54.412574,24.509325],[54.412694,24.509216],[54.412508,24.509048],[54.412428,24.509073],[54.412428,24.509045],[54.41398,24.508563],[54.41399,24.508207],[54.413821,24.508202],[54.412049,24.508753],[54.411999,24.508751],[54.411512,24.508902],[54.411511,24.50883],[54.411449,24.508831],[54.410698,24.509064],[54.4107,24.509161],[54.410762,24.50916],[54.411247,24.509009],[54.411242,24.50911],[54.411123,24.509147]]]}},{"type":"Feature","properties":{},"geometry":{"type":"Polygon","coordinates":[[[54.415241,24.481155],[54.414881,24.480964],[54.412378,24.481741],[54.412202,24.482016],[54.412563,24.482207],[54.415065,24.48143],[54.415241,24.481155]]]}},{"type":"Feature","properties":{},"geometry":{"type":"Polygon","coordinates":[[[54.41637,24.488619],[54.41562,24.488852],[54.415624,24.489052],[54.415683,24.489051],[54.416003,24.488951],[54.416005,24.489016],[54.415719,24.489105],[54.415722,24.489146],[54.415876,24.489139],[54.416627,24.488905],[54.416625,24.488874],[54.417008,24.488755],[54.417003,24.488648],[54.416812,24.488699],[54.416809,24.488606],[54.41675,24.488608],[54.416431,24.488707],[54.416429,24.488618],[54.41637,24.488619]]]}},{"type":"Feature","properties":{},"geometry":{"type":"Polygon","coordinates":[[[54.416583,24.489018],[54.416586,24.488937],[54.416535,24.488936],[54.415784,24.489169],[54.415782,24.48925],[54.415833,24.489251],[54.416583,24.489018]]]}},{"type":"Feature","properties":{},"geometry":{"type":"Polygon","coordinates":[[[54.411415,24.491449],[54.411364,24.492099],[54.41186,24.492132],[54.415614,24.490965],[54.415656,24.490436],[54.417149,24.489972],[54.417152,24.489808],[54.416868,24.489805],[54.416869,24.489739],[54.417165,24.489647],[54.417167,24.489479],[54.416871,24.489475],[54.418795,24.488877],[54.418793,24.488808],[54.418772,24.488809],[54.41877,24.488724],[54.417919,24.488746],[54.415416,24.489523],[54.415421,24.489677],[54.416074,24.489661],[54.413272,24.490531],[54.41296,24.490521],[54.410457,24.491298],[54.410444,24.491622],[54.410816,24.491635],[54.411415,24.491449]]]}},{"type":"Feature","properties":{},"geometry":{"type":"Polygon","coordinates":[[[54.413179,24.489715],[54.412428,24.489949],[54.412432,24.490011],[54.412502,24.490007],[54.413253,24.489774],[54.413248,24.489711],[54.413179,24.489715]]]}},{"type":"Feature","properties":{},"geometry":{"type":"Polygon","coordinates":[[[54.416758,24.501965],[54.417218,24.501822],[54.417181,24.501902],[54.417059,24.501949],[54.417254,24.502089],[54.419757,24.501312],[54.419973,24.501108],[54.419743,24.500908],[54.41724,24.501685],[54.417183,24.501738],[54.416572,24.501928],[54.416574,24.501975],[54.416758,24.501965]]]}},{"type":"Feature","properties":{},"geometry":{"type":"Polygon","coordinates":[[[54.415439,24.50285],[54.415447,24.502901],[54.415686,24.502836],[54.415685,24.502856],[54.415811,24.502861],[54.416562,24.502628],[54.416566,24.50255],[54.41644,24.502545],[54.416366,24.502568],[54.416369,24.502552],[54.416316,24.502546],[54.416213,24.502578],[54.416209,24.502545],[54.416147,24.502551],[54.415396,24.502784],[54.415403,24.502838],[54.415575,24.502808],[54.415439,24.50285]]]}},{"type":"Feature","properties":{},"geometry":{"type":"Polygon","coordinates":[[[54.416385,24.503185],[54.415635,24.503418],[54.415632,24.503473],[54.415726,24.503477],[54.416477,24.503243],[54.416479,24.503188],[54.416385,24.503185]]]}},{"type":"Feature","properties":{},"geometry":{"type":"Polygon","coordinates":[[[54.41656,24.503326],[54.415809,24.503559],[54.415813,24.503642],[54.415855,24.50364],[54.416606,24.503407],[54.416603,24.503324],[54.41656,24.503326]]]}},{"type":"Feature","properties":{},"geometry":{"type":"Polygon","coordinates":[[[54.415073,24.504983],[54.415251,24.505136],[54.415287,24.505124],[54.415313,24.505155],[54.415779,24.505011],[54.415794,24.505027],[54.416545,24.504793],[54.416592,24.504757],[54.416564,24.504728],[54.418755,24.504047],[54.418932,24.503898],[54.418787,24.503779],[54.418873,24.503707],[54.418799,24.503647],[54.418873,24.503586],[54.418677,24.503424],[54.418443,24.503497],[54.418444,24.503477],[54.418554,24.503385],[54.418514,24.503352],[54.419335,24.503097],[54.419512,24.502948],[54.419482,24.502923],[54.419934,24.502783],[54.420111,24.502635],[54.419915,24.502473],[54.419312,24.50266],[54.419269,24.502625],[54.418276,24.502934],[54.418277,24.502905],[54.418216,24.502903],[54.417465,24.503137],[54.417463,24.503186],[54.414826,24.504005],[54.414754,24.504076],[54.414312,24.504214],[54.414153,24.504371],[54.414331,24.504524],[54.415221,24.504247],[54.41533,24.504341],[54.415692,24.504229],[54.41579,24.504313],[54.414671,24.504668],[54.414513,24.504826],[54.41469,24.504979],[54.415525,24.504719],[54.415538,24.50473],[54.415232,24.504826],[54.415073,24.504983]]]}},{"type":"Feature","properties":{},"geometry":{"type":"Polygon","coordinates":[[[54.419689,24.479818],[54.419624,24.479809],[54.418873,24.480042],[54.418867,24.480078],[54.418943,24.480084],[54.418942,24.480131],[54.41898,24.480132],[54.41973,24.479899],[54.419732,24.479838],[54.419694,24.479837],[54.419689,24.479818]]]}},{"type":"Feature","properties":{},"geometry":{"type":"Polygon","coordinates":[[[54.421407,24.480069],[54.421411,24.480003],[54.42132,24.479999],[54.420569,24.480232],[54.420562,24.480364],[54.420901,24.480388],[54.421652,24.480155],[54.421654,24.480109],[54.421445,24.4801],[54.421447,24.480069],[54.421407,24.480069]]]}},{"type":"Feature","properties":{},"geometry":{"type":"Polygon","coordinates":[[[54.420738,24.480649],[54.420744,24.480595],[54.42068,24.480589],[54.419929,24.480822],[54.419923,24.480877],[54.419987,24.480883],[54.420738,24.480649]]]}},{"type":"Feature","properties":{},"geometry":{"type":"Polygon","coordinates":[[[54.42082,24.481473],[54.42007,24.481706],[54.420069,24.481717],[54.420045,24.481714],[54.419744,24.481807],[54.419731,24.481806],[54.420479,24.481573],[54.420499,24.481437],[54.420172,24.481398],[54.420068,24.48143],[54.420073,24.481397],[54.419733,24.481355],[54.419641,24.481384],[54.419649,24.481327],[54.419329,24.481291],[54.418579,24.481524],[54.41856,24.481659],[54.418623,24.481666],[54.418544,24.481691],[54.41855,24.481831],[54.418733,24.481824],[54.418821,24.481797],[54.418819,24.481811],[54.418529,24.481901],[54.41853,24.481923],[54.418575,24.48192],[54.418814,24.481846],[54.418855,24.481855],[54.419146,24.481765],[54.4193,24.481784],[54.419404,24.481751],[54.419401,24.481768],[54.419471,24.481776],[54.418494,24.482084],[54.418475,24.482211],[54.418634,24.482231],[54.41846,24.482285],[54.418442,24.482417],[54.418506,24.482424],[54.418434,24.482447],[54.418417,24.482581],[54.418655,24.482605],[54.418396,24.482685],[54.418382,24.482821],[54.418471,24.482828],[54.418366,24.482861],[54.418361,24.482982],[54.418686,24.482995],[54.418863,24.48294],[54.418857,24.482995],[54.419189,24.483025],[54.419433,24.482949],[54.419551,24.482961],[54.419691,24.482918],[54.419682,24.482985],[54.419745,24.482992],[54.419673,24.483014],[54.41966,24.483134],[54.419984,24.483163],[54.420079,24.483133],[54.420075,24.483162],[54.420414,24.483194],[54.420516,24.483162],[54.420507,24.483251],[54.420826,24.483278],[54.421577,24.483044],[54.42159,24.482916],[54.421529,24.482911],[54.421586,24.482893],[54.421595,24.482826],[54.422917,24.482416],[54.422935,24.482254],[54.422596,24.482222],[54.421602,24.482531],[54.421546,24.482525],[54.421645,24.482494],[54.421667,24.482349],[54.421541,24.482335],[54.421677,24.482293],[54.421689,24.482217],[54.422655,24.481917],[54.422679,24.481721],[54.422515,24.481705],[54.422694,24.481649],[54.422718,24.481444],[54.422381,24.481411],[54.42207,24.481508],[54.422072,24.481493],[54.4231,24.481173],[54.423123,24.48101],[54.422786,24.48097],[54.420951,24.481538],[54.420953,24.481487],[54.42082,24.481473]],[[54.419634,24.481796],[54.419575,24.481814],[54.419581,24.481789],[54.419634,24.481796]]]}},{"type":"Feature","properties":{},"geometry":{"type":"Polygon","coordinates":[[[54.420183,24.489044],[54.420182,24.489031],[54.420081,24.489034],[54.41983,24.489112],[54.419828,24.489068],[54.419738,24.489071],[54.418987,24.489305],[54.418994,24.489429],[54.419083,24.489425],[54.419484,24.489301],[54.419591,24.489285],[54.419592,24.48932],[54.419695,24.489319],[54.420446,24.489085],[54.420445,24.489032],[54.420342,24.489033],[54.420292,24.489048],[54.42029,24.489026],[54.420183,24.489044]]]}},{"type":"Feature","properties":{},"geometry":{"type":"Polygon","coordinates":[[[54.420308,24.489145],[54.419557,24.489378],[54.419556,24.489416],[54.419157,24.48954],[54.419166,24.489612],[54.419602,24.489482],[54.419658,24.489483],[54.420409,24.48925],[54.420412,24.489148],[54.420308,24.489145]]]}},{"type":"Feature","properties":{},"geometry":{"type":"Polygon","coordinates":[[[54.420314,24.489543],[54.419563,24.489776],[54.419564,24.489821],[54.419685,24.489819],[54.420435,24.489585],[54.420434,24.48954],[54.420314,24.489543]]]}},{"type":"Feature","properties":{},"geometry":{"type":"Polygon","coordinates":[[[54.419239,24.490277],[54.41924,24.490311],[54.419315,24.490309],[54.419386,24.490287],[54.419387,24.490305],[54.419438,24.490303],[54.419572,24.490261],[54.419579,24.490298],[54.419662,24.490293],[54.420413,24.49006],[54.42041,24.489939],[54.420362,24.48994],[54.420185,24.489995],[54.420183,24.489948],[54.420132,24.48995],[54.419381,24.490183],[54.419384,24.490232],[54.419239,24.490277]]]}},{"type":"Feature","properties":{},"geometry":{"type":"Polygon","coordinates":[[[54.418328,24.502154],[54.41837,24.502126],[54.418341,24.502089],[54.41759,24.502323],[54.417548,24.502351],[54.417577,24.502387],[54.418328,24.502154]]]}},{"type":"Feature","properties":{},"geometry":{"type":"Polygon","coordinates":[[[54.418251,24.502329],[54.418255,24.502208],[54.418172,24.502208],[54.417421,24.502442],[54.417421,24.502465],[54.416892,24.50263],[54.416893,24.502654],[54.416996,24.502652],[54.417421,24.50252],[54.417421,24.502554],[54.416945,24.502702],[54.416942,24.502762],[54.417059,24.502765],[54.41706,24.502794],[54.417408,24.502771],[54.418159,24.502538],[54.418153,24.502477],[54.418051,24.502495],[54.41805,24.502479],[54.418019,24.50248],[54.418196,24.502425],[54.418218,24.502471],[54.418969,24.502238],[54.419171,24.50216],[54.419127,24.502067],[54.417885,24.502453],[54.417861,24.502478],[54.41787,24.502485],[54.417805,24.502489],[54.417805,24.502474],[54.417787,24.502473],[54.418251,24.502329]]]}},{"type":"Feature","properties":{},"geometry":{"type":"Polygon","coordinates":[[[54.418123,24.502869],[54.418125,24.502826],[54.418018,24.502823],[54.417267,24.503056],[54.417265,24.503098],[54.417372,24.503102],[54.418123,24.502869]]]}}]}