{"type":"FeatureCollection","features":[{"type":"Feature","properties":{},"geometry":{"type":"Polygon","coordinates":[[[54.374252,24.480595],[54.374297,24.480635],[54.373536,24.480653],[54.373293,24.48094],[54.373421,24.481029],[54.373598,24.481026],[54.373653,24.481064],[54.373756,24.481062],[54.373639,24.481191],[54.373873,24.481367],[54.375482,24.481334],[54.375661,24.481457],[54.375693,24.481456],[54.375673,24.48148],[54.375831,24.481589],[54.374715,24.481612],[54.374539,24.481815],[54.374651,24.481895],[54.372554,24.481938],[54.372425,24.482096],[54.372686,24.482273],[54.375105,24.482223],[54.375294,24.482358],[54.375312,24.482358],[54.375305,24.482366],[54.375354,24.482402],[54.372065,24.48247],[54.371693,24.482921],[54.371964,24.483106],[54.373932,24.483066],[54.373968,24.48309],[54.374305,24.483083],[54.374139,24.48328],[54.374497,24.483529],[54.372426,24.483572],[54.372412,24.483591],[54.372311,24.483593],[54.372171,24.483764],[54.372194,24.483982],[54.372508,24.484193],[54.372688,24.484189],[54.37272,24.484284],[54.372755,24.484323],[54.372808,24.484347],[54.372919,24.484347],[54.372947,24.484369],[54.373814,24.484351],[54.37426,24.484668],[54.374524,24.484662],[54.374545,24.484836],[54.376437,24.484796],[54.376521,24.484856],[54.375243,24.484883],[54.37493,24.485259],[54.374986,24.485297],[54.374969,24.485318],[54.375054,24.485376],[54.376092,24.485355],[54.376153,24.485399],[54.376211,24.485398],[54.376243,24.485421],[54.37601,24.485426],[54.375904,24.48555],[54.376085,24.485676],[54.376128,24.485675],[54.376102,24.485706],[54.37629,24.485843],[54.377781,24.485812],[54.377735,24.48586],[54.37663,24.485883],[54.376537,24.485988],[54.372623,24.486069],[54.371991,24.486877],[54.372266,24.487055],[54.373437,24.487031],[54.373271,24.487221],[54.373357,24.487283],[54.373529,24.48728],[54.373581,24.487318],[54.373496,24.487415],[54.373551,24.487455],[54.373504,24.487509],[54.373692,24.487645],[54.373768,24.487643],[54.373691,24.487732],[54.373836,24.487837],[54.373671,24.488026],[54.373047,24.488039],[54.372921,24.488197],[54.37305,24.488283],[54.371386,24.488317],[54.371329,24.488385],[54.372128,24.488942],[54.374701,24.488889],[54.374797,24.488959],[54.375864,24.488946],[54.375819,24.488997],[54.374545,24.489024],[54.374482,24.489098],[54.373935,24.48911],[54.373772,24.48929],[54.373922,24.489402],[54.376576,24.489347],[54.376363,24.489356],[54.376261,24.489475],[54.376469,24.489621],[54.376509,24.489629],[54.374729,24.489666],[54.374609,24.489801],[54.37347,24.489824],[54.373265,24.490066],[54.373399,24.490161],[54.37315,24.490166],[54.372989,24.490361],[54.373134,24.490461],[54.375549,24.490411],[54.375535,24.490427],[54.372896,24.490482],[54.372741,24.490664],[54.37285,24.490741],[54.372739,24.490878],[54.372794,24.490915],[54.372501,24.490921],[54.372351,24.491097],[54.372439,24.491158],[54.372285,24.491161],[54.37214,24.491333],[54.372275,24.491427],[54.372864,24.491415],[54.372821,24.491466],[54.372039,24.491482],[54.371855,24.491696],[54.372093,24.491865],[54.372739,24.491852],[54.372949,24.491993],[54.374137,24.491969],[54.37454,24.492036],[54.374633,24.492034],[54.374748,24.492115],[54.374818,24.492113],[54.374755,24.492188],[54.374523,24.492193],[54.374272,24.492492],[54.37441,24.492587],[54.371955,24.492638],[54.371841,24.492767],[54.372091,24.492952],[54.37531,24.492885],[54.375456,24.492986],[54.375499,24.492986],[54.375476,24.493014],[54.372226,24.493081],[54.37204,24.493288],[54.372249,24.493443],[54.3726,24.493436],[54.373331,24.49394],[54.372091,24.493966],[54.371888,24.494206],[54.372101,24.494355],[54.372343,24.49435],[54.372496,24.49446],[54.372581,24.494458],[54.372649,24.494506],[54.37212,24.494517],[54.37201,24.494643],[54.372202,24.494783],[54.372287,24.494781],[54.372254,24.494818],[54.372447,24.494958],[54.373436,24.494944],[54.373416,24.494967],[54.372792,24.49498],[54.372628,24.495171],[54.372675,24.495204],[54.372109,24.495216],[54.372003,24.49534],[54.372194,24.495475],[54.372495,24.495469],[54.372509,24.495479],[54.372387,24.495482],[54.372272,24.495625],[54.37205,24.495629],[54.371792,24.495934],[54.372011,24.496087],[54.372374,24.49608],[54.372274,24.496202],[54.37249,24.496348],[54.373163,24.496334],[54.373248,24.496392],[54.372828,24.496401],[54.372712,24.496543],[54.372979,24.496725],[54.373239,24.49672],[54.37341,24.496839],[54.373682,24.496833],[54.373717,24.496859],[54.37509,24.49683],[54.375158,24.496876],[54.377865,24.49682],[54.377909,24.496951],[54.37224,24.497068],[54.372134,24.497188],[54.372398,24.497383],[54.372656,24.497377],[54.372594,24.497447],[54.372107,24.497457],[54.372001,24.497576],[54.372252,24.497761],[54.372544,24.497755],[54.372606,24.497801],[54.372356,24.497806],[54.372162,24.498024],[54.372279,24.498111],[54.381411,24.497918],[54.381421,24.497993],[54.380958,24.498038],[54.380996,24.49835],[54.381467,24.49834],[54.381479,24.498434],[54.381286,24.498381],[54.379537,24.498417],[54.37965,24.498288],[54.379415,24.498117],[54.378232,24.498142],[54.378263,24.4981],[54.378171,24.498025],[54.372256,24.498147],[54.372061,24.498366],[54.372108,24.498398],[54.372023,24.4984],[54.371848,24.498597],[54.371983,24.498695],[54.376938,24.498592],[54.376811,24.498673],[54.376725,24.498696],[54.376735,24.49872],[54.376559,24.498829],[54.376677,24.499],[54.376591,24.499002],[54.37651,24.499084],[54.376523,24.499094],[54.374275,24.49914],[54.374167,24.499282],[54.374097,24.499283],[54.374039,24.49936],[54.374091,24.499371],[54.374069,24.499401],[54.374408,24.499615],[54.376428,24.499573],[54.376418,24.499611],[54.37663,24.499658],[54.37676,24.499656],[54.376776,24.499688],[54.37699,24.499699],[54.380853,24.499619],[54.380961,24.499905],[54.381029,24.500009],[54.38132,24.500332],[54.381544,24.50051],[54.382177,24.500497],[54.382181,24.500534],[54.382208,24.500533],[54.382219,24.500642],[54.383277,24.50062],[54.383302,24.500824],[54.382833,24.500834],[54.382272,24.500891],[54.382397,24.501915],[54.383456,24.501893],[54.383469,24.502037],[54.383116,24.502044],[54.38248,24.502102],[54.382493,24.502229],[54.382459,24.502232],[54.382471,24.502345],[54.382504,24.502344],[54.382516,24.50246],[54.383645,24.502436],[54.383528,24.502577],[54.383627,24.502677],[54.383721,24.502878],[54.384232,24.502868],[54.384222,24.50289],[54.384329,24.502925],[54.384404,24.503091],[54.38189,24.503144],[54.381661,24.503169],[54.381661,24.503227],[54.381447,24.503248],[54.381423,24.503373],[54.381756,24.503366],[54.38176,24.503514],[54.388744,24.503378],[54.388959,24.503353],[54.388955,24.503328],[54.38924,24.503322],[54.389242,24.503268],[54.387957,24.503291],[54.388078,24.503248],[54.388742,24.503235],[54.389944,24.503109],[54.390406,24.5031],[54.391157,24.503036],[54.39111,24.50261],[54.395492,24.502519],[54.395924,24.502461],[54.395873,24.502153],[54.39139,24.502246],[54.391298,24.501477],[54.395064,24.501399],[54.39563,24.50132],[54.395488,24.500472],[54.391187,24.500562],[54.391086,24.499718],[54.393621,24.499665],[54.39537,24.499471],[54.39526,24.498664],[54.395199,24.498604],[54.396127,24.498585],[54.396129,24.498519],[54.38922,24.498665],[54.38755,24.498783],[54.38757,24.498914],[54.3874,24.498918],[54.386296,24.499042],[54.386315,24.499189],[54.385564,24.499251],[54.385571,24.49932],[54.381812,24.499398],[54.381529,24.499428],[54.381178,24.499433],[54.381157,24.499399],[54.381093,24.4994],[54.381037,24.499295],[54.382084,24.499268],[54.382134,24.499258],[54.382177,24.499232],[54.382207,24.49919],[54.382215,24.499147],[54.3822,24.499091],[54.382139,24.499038],[54.382084,24.499027],[54.381459,24.49904],[54.381416,24.498978],[54.381799,24.49897],[54.381927,24.498916],[54.381895,24.498638],[54.381815,24.498526],[54.381561,24.498456],[54.382911,24.498428],[54.382939,24.498655],[54.384018,24.498633],[54.384025,24.498691],[54.385128,24.498668],[54.385144,24.4988],[54.386772,24.498766],[54.387145,24.498729],[54.387132,24.498627],[54.389941,24.498568],[54.390974,24.498461],[54.39094,24.49819],[54.391359,24.498181],[54.391357,24.498237],[54.391399,24.498238],[54.393352,24.498198],[54.393355,24.498117],[54.391911,24.498145],[54.391881,24.497941],[54.391505,24.497815],[54.388764,24.497872],[54.388758,24.497822],[54.38975,24.497793],[54.389743,24.497623],[54.389684,24.497624],[54.389683,24.497611],[54.394641,24.497508],[54.394769,24.497442],[54.394885,24.497348],[54.394874,24.497274],[54.394918,24.497211],[54.394997,24.497172],[54.39503,24.497114],[54.394542,24.496821],[54.388627,24.496944],[54.388584,24.496996],[54.387324,24.497023],[54.387311,24.496928],[54.387037,24.496934],[54.387016,24.496774],[54.387666,24.49676],[54.388417,24.496678],[54.38838,24.496401],[54.390205,24.496364],[54.390643,24.496328],[54.390631,24.496124],[54.392741,24.49608],[54.392797,24.496038],[54.392924,24.496025],[54.393739,24.496008],[54.393864,24.495994],[54.394069,24.495811],[54.394285,24.495786],[54.3942,24.495176],[54.388285,24.495299],[54.387717,24.495365],[54.387727,24.495437],[54.38676,24.495566],[54.386776,24.495722],[54.386343,24.495731],[54.386193,24.495746],[54.386195,24.495768],[54.38466,24.495799],[54.38431,24.495835],[54.384339,24.496068],[54.384032,24.496074],[54.384198,24.495877],[54.384223,24.495877],[54.384283,24.495807],[54.384266,24.495795],[54.38461,24.495405],[54.384588,24.495391],[54.384573,24.495221],[54.384451,24.495136],[54.384418,24.495136],[54.384253,24.495062],[54.385311,24.49504],[54.385332,24.495013],[54.389231,24.494932],[54.389342,24.494927],[54.389337,24.494814],[54.393345,24.49473],[54.393613,24.494698],[54.393582,24.494482],[54.393521,24.494483],[54.393515,24.494441],[54.389323,24.494529],[54.389307,24.49421],[54.39017,24.494115],[54.390121,24.493761],[54.389233,24.493779],[54.389231,24.49374],[54.389177,24.493698],[54.389216,24.493696],[54.389214,24.493647],[54.389112,24.493649],[54.389108,24.493557],[54.388039,24.49358],[54.388409,24.492957],[54.388402,24.492945],[54.388489,24.492943],[54.388446,24.492983],[54.388552,24.493079],[54.390505,24.493039],[54.390659,24.492898],[54.392288,24.492864],[54.39287,24.492786],[54.392856,24.492696],[54.395997,24.492631],[54.396062,24.492332],[54.395653,24.492258],[54.394216,24.492288],[54.39419,24.492269],[54.394217,24.492239],[54.394583,24.492231],[54.394604,24.492205],[54.394752,24.492202],[54.394827,24.492108],[54.394752,24.492059],[54.394815,24.491978],[54.394693,24.491898],[54.395132,24.491889],[54.395234,24.491772],[54.395139,24.491703],[54.395182,24.491654],[54.394932,24.491475],[54.394215,24.491489],[54.394226,24.491476],[54.395386,24.491452],[54.395487,24.491335],[54.395392,24.491267],[54.395435,24.491218],[54.395209,24.491055],[54.395424,24.49105],[54.39562,24.490825],[54.400098,24.490732],[54.400402,24.490694],[54.400362,24.490428],[54.395006,24.49054],[54.395053,24.490483],[54.394882,24.49037],[54.393921,24.49039],[54.393978,24.490318],[54.393942,24.490107],[54.394481,24.490096],[54.394669,24.490078],[54.394653,24.489933],[54.394745,24.489924],[54.394719,24.489702],[54.395051,24.489837],[54.395842,24.490006],[54.396685,24.490066],[54.4026,24.489943],[54.40288,24.489596],[54.402827,24.489294],[54.404296,24.489263],[54.404301,24.489308],[54.40471,24.489299],[54.404745,24.489608],[54.404341,24.489628],[54.404411,24.490213],[54.410326,24.49009],[54.410766,24.490046],[54.412502,24.490007],[54.412498,24.489945],[54.410878,24.489979],[54.41087,24.489907],[54.410455,24.489916],[54.410441,24.489791],[54.416292,24.489655],[54.41629,24.489586],[54.416269,24.489586],[54.416267,24.489502],[54.412937,24.489572],[54.412923,24.48955],[54.413136,24.489455],[54.413183,24.489349],[54.413261,24.489348],[54.413305,24.489173],[54.412655,24.488956],[54.412656,24.488942],[54.41288,24.488938],[54.413489,24.488848],[54.413445,24.488556],[54.412618,24.488573],[54.412673,24.488545],[54.412558,24.488398],[54.412599,24.488271],[54.413695,24.488248],[54.412886,24.488272],[54.412883,24.488367],[54.413365,24.488364],[54.413365,24.488389],[54.412899,24.488399],[54.412903,24.488519],[54.413459,24.488507],[54.413458,24.488525],[54.413478,24.488525],[54.414279,24.488508],[54.414279,24.48853],[54.414574,24.488534],[54.416527,24.488493],[54.416527,24.488483],[54.416694,24.488479],[54.416696,24.488436],[54.416528,24.488436],[54.416528,24.48842],[54.416348,24.488416],[54.416723,24.488408],[54.416725,24.488369],[54.416274,24.488377],[54.416526,24.488363],[54.416524,24.488333],[54.41665,24.48833],[54.416652,24.488307],[54.416749,24.488305],[54.416748,24.488248],[54.416502,24.488253],[54.41675,24.488241],[54.416746,24.488148],[54.416603,24.488148],[54.416603,24.488135],[54.416669,24.488133],[54.416665,24.488042],[54.416594,24.488044],[54.416595,24.488022],[54.416666,24.48802],[54.416665,24.487971],[54.416244,24.487979],[54.416244,24.487954],[54.415751,24.487965],[54.415751,24.48795],[54.416262,24.487931],[54.416254,24.487801],[54.415746,24.487806],[54.417325,24.487769],[54.417324,24.487723],[54.417238,24.487724],[54.412861,24.487819],[54.412737,24.487757],[54.413014,24.487751],[54.4131,24.487731],[54.413095,24.487713],[54.413524,24.4877],[54.413521,24.487621],[54.413488,24.487622],[54.413484,24.487529],[54.413516,24.487528],[54.413513,24.487454],[54.409311,24.487542],[54.409307,24.487533],[54.4134,24.487443],[54.413388,24.487195],[54.407473,24.487319],[54.407368,24.487323],[54.407369,24.487351],[54.407192,24.487357],[54.40721,24.487407],[54.400635,24.487537],[54.400074,24.48728],[54.40353,24.487207],[54.403767,24.487123],[54.404122,24.486933],[54.40439,24.486736],[54.404417,24.486697],[54.404408,24.486649],[54.40406,24.486285],[54.404023,24.48626],[54.403971,24.486254],[54.401112,24.486314],[54.400743,24.486123],[54.394828,24.486247],[54.394716,24.486425],[54.394548,24.486594],[54.393053,24.486626],[54.392501,24.487229],[54.389229,24.487297],[54.389104,24.487315],[54.389055,24.487358],[54.389097,24.487398],[54.389027,24.48746],[54.388705,24.487466],[54.38868,24.487486],[54.38864,24.487487],[54.388454,24.487638],[54.388534,24.48772],[54.38836,24.487723],[54.38818,24.487879],[54.388198,24.487896],[54.388151,24.487936],[54.388283,24.488062],[54.388606,24.488426],[54.388762,24.488423],[54.388878,24.488542],[54.390372,24.488511],[54.39032,24.488575],[54.389873,24.488584],[54.389859,24.488654],[54.389774,24.488656],[54.38972,24.488855],[54.388593,24.488878],[54.388412,24.488896],[54.388424,24.488996],[54.388275,24.489011],[54.388316,24.489358],[54.388471,24.489355],[54.388483,24.489461],[54.393946,24.489347],[54.394221,24.489491],[54.388676,24.489607],[54.388494,24.489624],[54.388506,24.489724],[54.388356,24.489738],[54.388397,24.49009],[54.388551,24.490086],[54.388566,24.490219],[54.390431,24.49018],[54.390415,24.490228],[54.390331,24.490331],[54.390288,24.490332],[54.390157,24.490411],[54.389959,24.490502],[54.389294,24.490516],[54.38928,24.490552],[54.389294,24.490627],[54.389258,24.490651],[54.38921,24.490761],[54.389283,24.49083],[54.3894,24.490853],[54.38927,24.491002],[54.389486,24.491157],[54.386954,24.491214],[54.386562,24.491255],[54.386123,24.490929],[54.386297,24.490926],[54.386342,24.490856],[54.386304,24.490835],[54.386313,24.490821],[54.386213,24.490767],[54.385912,24.490773],[54.385526,24.490487],[54.384874,24.490501],[54.384986,24.490372],[54.385105,24.490456],[54.387058,24.490415],[54.387178,24.490277],[54.386955,24.490116],[54.385147,24.490154],[54.385179,24.490119],[54.386962,24.490082],[54.386964,24.490038],[54.385134,24.490073],[54.385054,24.490014],[54.384794,24.490019],[54.384863,24.489938],[54.386196,24.489911],[54.386232,24.489871],[54.386143,24.489808],[54.386074,24.489809],[54.386101,24.489776],[54.385944,24.489666],[54.386191,24.48966],[54.38632,24.489485],[54.386041,24.489309],[54.385907,24.489312],[54.385917,24.489299],[54.385846,24.489256],[54.385714,24.489259],[54.385766,24.489201],[54.385658,24.489119],[54.385908,24.489113],[54.385949,24.489071],[54.385906,24.489036],[54.385852,24.489038],[54.385965,24.488909],[54.38595,24.488898],[54.386116,24.488895],[54.386206,24.488671],[54.386244,24.488629],[54.386462,24.488501],[54.386385,24.488388],[54.386274,24.48839],[54.386334,24.488328],[54.386082,24.488145],[54.385554,24.488156],[54.385607,24.488099],[54.385564,24.488067],[54.385602,24.488027],[54.385504,24.487955],[54.385521,24.487933],[54.38542,24.487862],[54.384609,24.487879],[54.384672,24.487805],[54.386827,24.48776],[54.38697,24.487746],[54.386947,24.487591],[54.387096,24.487427],[54.387264,24.487411],[54.387253,24.487282],[54.387055,24.487286],[54.386903,24.487165],[54.386943,24.487126],[54.386854,24.487055],[54.386537,24.487061],[54.386453,24.486984],[54.384505,24.487024],[54.384484,24.487009],[54.385453,24.486989],[54.38546,24.486957],[54.385516,24.486998],[54.387469,24.486958],[54.387539,24.486882],[54.387449,24.486816],[54.387345,24.486818],[54.38741,24.486744],[54.387364,24.48671],[54.385507,24.486749],[54.385516,24.486706],[54.385113,24.486646],[54.379198,24.486769],[54.37919,24.486812],[54.378457,24.486827],[54.378563,24.4867],[54.379577,24.486679],[54.379587,24.486663],[54.379628,24.486698],[54.385543,24.486575],[54.385722,24.486403],[54.385539,24.486245],[54.385472,24.486247],[54.385502,24.486217],[54.385451,24.486177],[54.385373,24.486179],[54.385332,24.486138],[54.385047,24.486144],[54.385139,24.486051],[54.384782,24.485761],[54.38464,24.485764],[54.384706,24.485695],[54.384357,24.485404],[54.38421,24.485407],[54.38416,24.485367],[54.384199,24.485331],[54.384235,24.48533],[54.38436,24.485202],[54.384341,24.485187],[54.384349,24.485179],[54.384443,24.485177],[54.384549,24.485072],[54.38441,24.484958],[54.382357,24.485],[54.382438,24.484906],[54.382403,24.484881],[54.382458,24.48488],[54.382604,24.484706],[54.382586,24.484694],[54.382616,24.484693],[54.382762,24.484523],[54.382736,24.484505],[54.382772,24.484504],[54.382918,24.484328],[54.382908,24.48432],[54.382928,24.48432],[54.38298,24.484261],[54.384434,24.484231],[54.384495,24.484167],[54.384478,24.484154],[54.384503,24.484128],[54.384471,24.484102],[54.383059,24.484132],[54.382936,24.484042],[54.382222,24.484056],[54.382245,24.484028],[54.382561,24.484021],[54.382617,24.483965],[54.382451,24.483829],[54.382372,24.48383],[54.382391,24.483809],[54.38237,24.483793],[54.383376,24.483772],[54.383524,24.483601],[54.383487,24.483575],[54.38355,24.483573],[54.383698,24.483402],[54.383667,24.48338],[54.383719,24.483379],[54.383807,24.483278],[54.385388,24.483245],[54.38536,24.483293],[54.385588,24.483405],[54.390354,24.483306],[54.390329,24.483352],[54.39038,24.483376],[54.385309,24.483481],[54.3851,24.483687],[54.385305,24.483834],[54.389291,24.483751],[54.389233,24.483801],[54.389371,24.483937],[54.391324,24.483896],[54.391411,24.48382],[54.391274,24.483685],[54.391242,24.483685],[54.3913,24.483619],[54.39127,24.483595],[54.391324,24.483594],[54.391408,24.483498],[54.391361,24.483462],[54.391612,24.483457],[54.391627,24.483427],[54.391532,24.483387],[54.391269,24.483392],[54.39125,24.483378],[54.392375,24.483354],[54.392476,24.48318],[54.392379,24.483134],[54.39231,24.483136],[54.392259,24.483114],[54.392281,24.483077],[54.392174,24.483027],[54.392091,24.483029],[54.392042,24.483006],[54.391538,24.483016],[54.391545,24.483005],[54.391667,24.483003],[54.391742,24.482883],[54.391509,24.482769],[54.391397,24.482772],[54.391195,24.48268],[54.391136,24.482682],[54.391149,24.48266],[54.391062,24.48262],[54.391027,24.482621],[54.391035,24.482607],[54.390942,24.482565],[54.390701,24.48257],[54.390718,24.482472],[54.39058,24.482459],[54.389926,24.482472],[54.389939,24.482448],[54.389809,24.482389],[54.387856,24.482429],[54.387819,24.482495],[54.38795,24.482555],[54.388622,24.482541],[54.38861,24.482623],[54.388744,24.482635],[54.388975,24.48263],[54.388943,24.482687],[54.388566,24.482695],[54.388508,24.482775],[54.388526,24.482785],[54.388045,24.482795],[54.387984,24.482843],[54.387389,24.482855],[54.387599,24.482609],[54.387203,24.482327],[54.384576,24.482382],[54.384698,24.48224],[54.384668,24.482218],[54.384715,24.482217],[54.384769,24.482155],[54.386699,24.482115],[54.386898,24.482089],[54.386893,24.482028],[54.38494,24.482068],[54.384833,24.482081],[54.384863,24.482046],[54.384822,24.482017],[54.384876,24.482016],[54.385024,24.481844],[54.384884,24.481744],[54.384506,24.481752],[54.385091,24.481737],[54.385239,24.481566],[54.385217,24.48155],[54.385245,24.481549],[54.385394,24.481378],[54.385254,24.481278],[54.384766,24.481288],[54.384606,24.481177],[54.384557,24.481178],[54.384608,24.48112],[54.384371,24.480951],[54.384316,24.480952],[54.384323,24.480943],[54.384223,24.480872],[54.384879,24.480859],[54.384991,24.480728],[54.384753,24.48056],[54.384722,24.48056],[54.384736,24.480545],[54.384491,24.480366],[54.384455,24.480366],[54.38447,24.48035],[54.384225,24.480171],[54.384202,24.480171],[54.384211,24.480161],[54.383966,24.479982],[54.383936,24.479982],[54.383946,24.479972],[54.383701,24.479792],[54.382753,24.479812],[54.382591,24.479691],[54.375583,24.479832],[54.375546,24.479873],[54.375048,24.479883],[54.374878,24.480038],[54.374905,24.480063],[54.374848,24.480064],[54.374826,24.480084],[54.374335,24.480094],[54.374152,24.480314],[54.374313,24.480426],[54.375375,24.480406],[54.374435,24.480425],[54.374252,24.480595]],[[54.386009,24.49236],[54.386208,24.492355],[54.386267,24.492254],[54.386236,24.492187],[54.386149,24.492098],[54.386123,24.491932],[54.386123,24.491795],[54.38613,24.491778],[54.386277,24.491775],[54.386347,24.491691],[54.386237,24.491616],[54.38629,24.491579],[54.386294,24.491613],[54.389433,24.491548],[54.389471,24.491575],[54.392208,24.491518],[54.392197,24.491531],[54.389017,24.491598],[54.389003,24.491614],[54.387018,24.491655],[54.386545,24.491716],[54.386631,24.492269],[54.388001,24.492241],[54.38789,24.492369],[54.388072,24.492499],[54.386893,24.492524],[54.386311,24.492602],[54.386355,24.492875],[54.386196,24.492878],[54.386313,24.492575],[54.386009,24.49236]],[[54.378476,24.486618],[54.379512,24.486598],[54.378424,24.486621],[54.378446,24.486593],[54.378476,24.486618]],[[54.379393,24.48475],[54.379405,24.484735],[54.379963,24.484723],[54.379932,24.484757],[54.379953,24.484774],[54.378876,24.484796],[54.378826,24.484762],[54.379393,24.48475]],[[54.37842,24.497141],[54.378333,24.497076],[54.378417,24.497075],[54.378782,24.497325],[54.378741,24.497326],[54.3786,24.497223],[54.378342,24.497228],[54.37842,24.497141]],[[54.382707,24.488965],[54.38286,24.488962],[54.382982,24.489049],[54.383176,24.489045],[54.383168,24.489059],[54.382839,24.489065],[54.38279,24.489031],[54.382752,24.489031],[54.38277,24.48901],[54.382707,24.488965]],[[54.402674,24.48797],[54.401806,24.487988],[54.401577,24.487914],[54.402797,24.487889],[54.402674,24.48797]]]}},{"type":"Feature","properties":{},"geometry":{"type":"Polygon","coordinates":[[[54.377974,24.501545],[54.378174,24.501332],[54.377961,24.501167],[54.372045,24.501289],[54.371846,24.501501],[54.372059,24.501667],[54.377974,24.501545]]]}},{"type":"Feature","properties":{},"geometry":{"type":"Polygon","coordinates":[[[54.377836,24.502074],[54.378036,24.50187],[54.37789,24.501751],[54.371974,24.501873],[54.371774,24.502077],[54.37192,24.502196],[54.377836,24.502074]]]}},{"type":"Feature","properties":{},"geometry":{"type":"Polygon","coordinates":[[[54.377996,24.502449],[54.378186,24.502251],[54.378018,24.502117],[54.372103,24.502239],[54.371912,24.502436],[54.372064,24.502558],[54.371941,24.502561],[54.371836,24.502683],[54.372039,24.502826],[54.377954,24.502704],[54.378059,24.502581],[54.377875,24.502451],[54.377996,24.502449]]]}},{"type":"Feature","properties":{},"geometry":{"type":"Polygon","coordinates":[[[54.379762,24.507573],[54.379757,24.507281],[54.37362,24.507407],[54.373621,24.507518],[54.373603,24.507518],[54.373605,24.507699],[54.379762,24.507573]]]}},{"type":"Feature","properties":{},"geometry":{"type":"Polygon","coordinates":[[[54.372359,24.510146],[54.372199,24.510235],[54.372451,24.51061],[54.376523,24.510526],[54.376384,24.510678],[54.376528,24.510791],[54.375978,24.510802],[54.375593,24.511224],[54.376451,24.511891],[54.379346,24.511831],[54.379419,24.511891],[54.378987,24.511899],[54.378501,24.512375],[54.378611,24.512461],[54.379653,24.512439],[54.379852,24.512247],[54.380196,24.512532],[54.381238,24.51251],[54.381318,24.512427],[54.380573,24.511805],[54.382367,24.511768],[54.382751,24.511343],[54.382441,24.511103],[54.382984,24.511092],[54.383375,24.510679],[54.382681,24.51014],[54.381552,24.510164],[54.381604,24.510143],[54.381569,24.510072],[54.379616,24.510112],[54.379515,24.510153],[54.37954,24.510205],[54.37899,24.510217],[54.379035,24.510192],[54.378997,24.510135],[54.379145,24.510132],[54.379792,24.509788],[54.379733,24.509695],[54.379942,24.509691],[54.380178,24.509563],[54.380038,24.509345],[54.381611,24.509312],[54.381657,24.509259],[54.38161,24.509225],[54.379983,24.509258],[54.379918,24.509156],[54.374002,24.509279],[54.37375,24.509403],[54.373816,24.509501],[54.373619,24.509505],[54.373546,24.509544],[54.372675,24.509562],[54.371886,24.50983],[54.372087,24.510143],[54.372689,24.510139],[54.372359,24.510146]]]}},{"type":"Feature","properties":{},"geometry":{"type":"Polygon","coordinates":[[[54.376802,24.50846],[54.376805,24.508564],[54.378867,24.508521],[54.378864,24.508417],[54.376802,24.50846]]]}},{"type":"Feature","properties":{},"geometry":{"type":"Polygon","coordinates":[[[54.376575,24.50861],[54.376577,24.50872],[54.378603,24.508678],[54.378601,24.508569],[54.376575,24.50861]]]}},{"type":"Feature","properties":{},"geometry":{"type":"Polygon","coordinates":[[[54.383864,24.504031],[54.383861,24.503897],[54.383611,24.503901],[54.38361,24.503752],[54.377555,24.503876],[54.377562,24.504566],[54.377521,24.504567],[54.377521,24.504599],[54.377492,24.504599],[54.377492,24.504628],[54.377401,24.504629],[54.377406,24.505032],[54.383623,24.504907],[54.383622,24.504854],[54.383705,24.504852],[54.383696,24.504034],[54.383864,24.504031]]]}},{"type":"Feature","properties":{},"geometry":{"type":"Polygon","coordinates":[[[54.3829,24.508219],[54.380947,24.50826],[54.380893,24.508287],[54.380914,24.50832],[54.382867,24.50828],[54.38292,24.508253],[54.3829,24.508219]]]}},{"type":"Feature","properties":{},"geometry":{"type":"Polygon","coordinates":[[[54.387894,24.485229],[54.38797,24.485159],[54.387919,24.485113],[54.385966,24.485153],[54.38589,24.485223],[54.385941,24.485269],[54.387894,24.485229]]]}},{"type":"Feature","properties":{},"geometry":{"type":"Polygon","coordinates":[[[54.384694,24.498925],[54.3847,24.498979],[54.386653,24.498939],[54.386821,24.498921],[54.386817,24.498866],[54.384694,24.498925]]]}},{"type":"Feature","properties":{},"geometry":{"type":"Polygon","coordinates":[[[54.38806,24.503632],[54.388048,24.50359],[54.386095,24.503631],[54.386031,24.503645],[54.386042,24.503687],[54.387995,24.503646],[54.38806,24.503632]]]}},{"type":"Feature","properties":{},"geometry":{"type":"Polygon","coordinates":[[[54.38554,24.504141],[54.386257,24.504126],[54.386306,24.504555],[54.392222,24.504432],[54.392329,24.504421],[54.392328,24.504408],[54.392504,24.504401],[54.392497,24.504304],[54.392592,24.504285],[54.39258,24.504249],[54.392494,24.504251],[54.392488,24.504165],[54.392301,24.504169],[54.392296,24.504129],[54.39259,24.504102],[54.392558,24.503881],[54.390605,24.503922],[54.390394,24.503947],[54.390395,24.503956],[54.387487,24.504016],[54.387525,24.504011],[54.387519,24.503969],[54.385566,24.50401],[54.385447,24.504025],[54.385454,24.504067],[54.385537,24.504072],[54.385409,24.504081],[54.385417,24.504127],[54.385539,24.504124],[54.38554,24.504141]]]}},{"type":"Feature","properties":{},"geometry":{"type":"Polygon","coordinates":[[[54.392773,24.505636],[54.392737,24.505136],[54.392433,24.505142],[54.392431,24.505081],[54.390366,24.505124],[54.390366,24.505143],[54.390255,24.505145],[54.390256,24.505187],[54.386821,24.505259],[54.386607,24.505275],[54.383879,24.50534],[54.383926,24.505934],[54.389842,24.505811],[54.390056,24.505797],[54.390048,24.5057],[54.392773,24.505636]]]}},{"type":"Feature","properties":{},"geometry":{"type":"Polygon","coordinates":[[[54.388818,24.48441],[54.388727,24.484488],[54.388846,24.484604],[54.390799,24.484563],[54.39089,24.484485],[54.390771,24.484369],[54.388818,24.48441]]]}},{"type":"Feature","properties":{},"geometry":{"type":"Polygon","coordinates":[[[54.389596,24.485795],[54.389659,24.485745],[54.389615,24.485699],[54.389693,24.485636],[54.389584,24.485525],[54.387631,24.485566],[54.38749,24.48568],[54.387643,24.485836],[54.389596,24.485795]]]}},{"type":"Feature","properties":{},"geometry":{"type":"Polygon","coordinates":[[[54.392099,24.503682],[54.392191,24.50367],[54.392183,24.503621],[54.39023,24.503661],[54.390138,24.503674],[54.390146,24.503723],[54.392099,24.503682]]]}},{"type":"Feature","properties":{},"geometry":{"type":"Polygon","coordinates":[[[54.392554,24.503811],[54.392554,24.503762],[54.39227,24.503767],[54.392268,24.503729],[54.390152,24.503778],[54.390158,24.50388],[54.392111,24.503839],[54.392274,24.503831],[54.392273,24.503817],[54.392554,24.503811]]]}},{"type":"Feature","properties":{},"geometry":{"type":"Polygon","coordinates":[[[54.386704,24.504575],[54.386262,24.504619],[54.386294,24.504894],[54.39221,24.504771],[54.392653,24.504727],[54.39262,24.504452],[54.386704,24.504575]]]}},{"type":"Feature","properties":{},"geometry":{"type":"Polygon","coordinates":[[[54.392563,24.504815],[54.39061,24.504855],[54.390499,24.504866],[54.390503,24.504894],[54.39022,24.504904],[54.390228,24.504983],[54.390512,24.504977],[54.390529,24.505114],[54.392592,24.505063],[54.392563,24.504815]]]}},{"type":"Feature","properties":{},"geometry":{"type":"Polygon","coordinates":[[[54.386614,24.506917],[54.38664,24.50726],[54.392741,24.507125],[54.392715,24.506783],[54.386614,24.506917]]]}},{"type":"Feature","properties":{},"geometry":{"type":"Polygon","coordinates":[[[54.392911,24.507214],[54.392992,24.507205],[54.392985,24.507152],[54.391032,24.507192],[54.390951,24.507201],[54.390958,24.507255],[54.392911,24.507214]]]}},{"type":"Feature","properties":{},"geometry":{"type":"Polygon","coordinates":[[[54.391179,24.507511],[54.391179,24.507498],[54.391944,24.507466],[54.391934,24.507327],[54.386018,24.50745],[54.385615,24.507474],[54.385625,24.507613],[54.391179,24.507511]]]}},{"type":"Feature","properties":{},"geometry":{"type":"Polygon","coordinates":[[[54.393216,24.508734],[54.393217,24.5087],[54.39115,24.508737],[54.39115,24.508747],[54.391016,24.50875],[54.391017,24.50878],[54.393216,24.508734]]]}},{"type":"Feature","properties":{},"geometry":{"type":"Polygon","coordinates":[[[54.387589,24.50957],[54.387264,24.509735],[54.387371,24.50991],[54.392156,24.509814],[54.392078,24.509848],[54.392123,24.509935],[54.394077,24.509894],[54.394173,24.509852],[54.394128,24.509765],[54.394092,24.509766],[54.394119,24.509751],[54.394058,24.50966],[54.394041,24.509661],[54.394052,24.509655],[54.394018,24.509606],[54.393623,24.509614],[54.393613,24.509596],[54.393795,24.509504],[54.393762,24.50945],[54.393855,24.509448],[54.393889,24.50943],[54.393853,24.509371],[54.393715,24.509374],[54.393579,24.509151],[54.393658,24.509149],[54.393655,24.509094],[54.391702,24.509134],[54.391651,24.509136],[54.391652,24.509165],[54.387647,24.509248],[54.387453,24.509347],[54.387589,24.50957]]]}},{"type":"Feature","properties":{},"geometry":{"type":"Polygon","coordinates":[[[54.392238,24.51023],[54.392299,24.510283],[54.394253,24.510242],[54.394351,24.510146],[54.39429,24.510095],[54.394077,24.510097],[54.394067,24.510079],[54.394004,24.51008],[54.394195,24.509998],[54.394163,24.509938],[54.39221,24.509979],[54.391915,24.509996],[54.391921,24.510032],[54.392096,24.510028],[54.391895,24.510115],[54.391913,24.510149],[54.391811,24.51017],[54.391833,24.510223],[54.392074,24.510218],[54.392082,24.510234],[54.392238,24.51023]]]}},{"type":"Feature","properties":{},"geometry":{"type":"Polygon","coordinates":[[[54.400376,24.480508],[54.400319,24.480556],[54.400374,24.48061],[54.399258,24.480634],[54.399184,24.480688],[54.399068,24.48069],[54.398836,24.480859],[54.399033,24.481082],[54.404947,24.480958],[54.405105,24.480858],[54.405129,24.480857],[54.405224,24.480788],[54.405389,24.480784],[54.405419,24.480763],[54.406437,24.480741],[54.406583,24.480618],[54.406413,24.480451],[54.406444,24.48045],[54.406479,24.480403],[54.406436,24.480377],[54.406484,24.480376],[54.406523,24.480297],[54.406404,24.480249],[54.405997,24.480257],[54.406324,24.480095],[54.406317,24.480085],[54.406743,24.480076],[54.406836,24.48],[54.406771,24.479935],[54.406336,24.479945],[54.40643,24.479895],[54.406373,24.479805],[54.406277,24.479807],[54.406176,24.479648],[54.400261,24.479771],[54.400012,24.479903],[54.400068,24.479991],[54.399861,24.4801],[54.399898,24.480158],[54.399822,24.480198],[54.399885,24.480297],[54.399906,24.480296],[54.399991,24.480429],[54.404428,24.480337],[54.404352,24.480425],[54.400376,24.480508]]]}},{"type":"Feature","properties":{},"geometry":{"type":"Polygon","coordinates":[[[54.399706,24.481875],[54.399665,24.481923],[54.399687,24.481977],[54.399724,24.482011],[54.399483,24.482016],[54.399375,24.482121],[54.399347,24.482243],[54.399357,24.482299],[54.399036,24.482306],[54.398167,24.483222],[54.398167,24.483339],[54.398209,24.483402],[54.398383,24.483443],[54.399222,24.483425],[54.399403,24.484036],[54.399024,24.48414],[54.399079,24.484482],[54.399788,24.484494],[54.405703,24.48437],[54.405703,24.483852],[54.405455,24.483133],[54.403021,24.48318],[54.406708,24.483103],[54.406884,24.483008],[54.406634,24.482626],[54.407416,24.48261],[54.407605,24.482539],[54.407647,24.482408],[54.407562,24.482312],[54.412563,24.482207],[54.412739,24.481932],[54.412378,24.481741],[54.411395,24.481762],[54.411116,24.48152],[54.406327,24.48162],[54.406178,24.481406],[54.404183,24.481447],[54.404445,24.481313],[54.404359,24.481166],[54.404658,24.48116],[54.404714,24.481136],[54.404697,24.481102],[54.404326,24.48111],[54.404282,24.481036],[54.398368,24.481159],[54.397758,24.481433],[54.398002,24.481707],[54.40005,24.481664],[54.400008,24.481701],[54.400059,24.48176],[54.399931,24.481763],[54.399706,24.481875]]]}},{"type":"Feature","properties":{},"geometry":{"type":"Polygon","coordinates":[[[54.405166,24.486074],[54.405253,24.486149],[54.405393,24.486159],[54.405918,24.486148],[54.406273,24.486757],[54.410504,24.486668],[54.410863,24.4865],[54.410463,24.485796],[54.411414,24.485776],[54.411471,24.485757],[54.411432,24.48566],[54.411365,24.485661],[54.411468,24.48562],[54.411454,24.485589],[54.410374,24.485612],[54.410402,24.485593],[54.410413,24.48552],[54.410404,24.485468],[54.410388,24.485446],[54.41025,24.485449],[54.41025,24.485424],[54.410362,24.485422],[54.410404,24.485395],[54.410418,24.485361],[54.410774,24.485354],[54.410882,24.485296],[54.410832,24.485218],[54.410687,24.485221],[54.410978,24.485104],[54.410804,24.484786],[54.408915,24.484825],[54.409038,24.484742],[54.408793,24.48444],[54.405735,24.484504],[54.405743,24.48448],[54.405017,24.484393],[54.399102,24.484516],[54.399095,24.484548],[54.397836,24.484575],[54.397705,24.485021],[54.397611,24.485197],[54.397425,24.485388],[54.398036,24.485924],[54.401592,24.48585],[54.401783,24.486002],[54.405084,24.485934],[54.405166,24.486074]],[[54.40588,24.485214],[54.405703,24.485296],[54.405309,24.485304],[54.405112,24.485496],[54.404215,24.485515],[54.404377,24.485246],[54.40588,24.485214]]]}},{"type":"Feature","properties":{},"geometry":{"type":"Polygon","coordinates":[[[54.396545,24.491895],[54.396588,24.492217],[54.398541,24.492176],[54.398667,24.492158],[54.398624,24.49184],[54.396671,24.491881],[54.396545,24.491895]]]}},{"type":"Feature","properties":{},"geometry":{"type":"Polygon","coordinates":[[[54.396572,24.492274],[54.396617,24.492603],[54.39857,24.492562],[54.398647,24.492553],[54.398634,24.492463],[54.398781,24.49246],[54.399095,24.49242],[54.399082,24.49232],[54.398844,24.492325],[54.398825,24.492216],[54.396572,24.492274]]]}},{"type":"Feature","properties":{},"geometry":{"type":"Polygon","coordinates":[[[54.397444,24.493667],[54.397453,24.49374],[54.397358,24.49375],[54.397411,24.494182],[54.397371,24.494186],[54.397406,24.494476],[54.397724,24.49447],[54.397786,24.494514],[54.397928,24.494515],[54.39813,24.494621],[54.40158,24.494549],[54.40162,24.494576],[54.402604,24.494556],[54.402557,24.494747],[54.402558,24.494912],[54.402617,24.495081],[54.402767,24.495269],[54.403045,24.495416],[54.403346,24.495465],[54.404321,24.495445],[54.404274,24.495575],[54.404209,24.495933],[54.401099,24.495998],[54.400986,24.496017],[54.400781,24.496127],[54.400416,24.496134],[54.400355,24.496304],[54.398623,24.49634],[54.398425,24.496836],[54.398605,24.496895],[54.398402,24.496899],[54.39823,24.497316],[54.39851,24.497411],[54.398228,24.497521],[54.398427,24.497913],[54.400202,24.497876],[54.400289,24.498064],[54.403206,24.498004],[54.403097,24.498045],[54.399293,24.498125],[54.399214,24.498152],[54.399173,24.498204],[54.399184,24.498266],[54.399248,24.498417],[54.399252,24.498515],[54.399288,24.498591],[54.399218,24.498639],[54.399111,24.49882],[54.399105,24.498866],[54.399012,24.498914],[54.397283,24.49895],[54.397114,24.498991],[54.397,24.499055],[54.396894,24.499164],[54.396855,24.499229],[54.39691,24.499265],[54.396935,24.499299],[54.396948,24.499344],[54.39694,24.499402],[54.397106,24.499427],[54.40076,24.499358],[54.400761,24.499368],[54.401035,24.499375],[54.402955,24.499335],[54.399859,24.499405],[54.399826,24.49941],[54.399782,24.499442],[54.397568,24.499488],[54.397532,24.499529],[54.397238,24.499716],[54.397178,24.499728],[54.397164,24.499756],[54.397199,24.499836],[54.397239,24.499877],[54.397333,24.499926],[54.398153,24.499909],[54.398166,24.50023],[54.398195,24.500232],[54.398219,24.500257],[54.398194,24.500285],[54.398198,24.500307],[54.398268,24.500352],[54.401879,24.500284],[54.401879,24.50034],[54.4034,24.500309],[54.403384,24.500377],[54.403426,24.500505],[54.403517,24.500572],[54.403697,24.500602],[54.409746,24.500476],[54.409871,24.500412],[54.409926,24.500296],[54.409975,24.49974],[54.410012,24.49951],[54.409978,24.499439],[54.4099,24.49938],[54.409787,24.499363],[54.409325,24.499373],[54.409396,24.499062],[54.410993,24.499029],[54.410992,24.498929],[54.411943,24.498902],[54.412125,24.498673],[54.412019,24.498054],[54.412041,24.498045],[54.41181,24.4975],[54.411496,24.497386],[54.406063,24.497499],[54.406089,24.497391],[54.405991,24.497375],[54.405994,24.497365],[54.406069,24.497364],[54.406143,24.497392],[54.408096,24.497352],[54.40815,24.49732],[54.408709,24.497309],[54.40953,24.496918],[54.409385,24.496689],[54.407863,24.49672],[54.407724,24.496686],[54.407491,24.496658],[54.405403,24.496701],[54.405412,24.496583],[54.410179,24.496484],[54.410343,24.49638],[54.410279,24.496298],[54.410552,24.496292],[54.410775,24.496187],[54.410614,24.495998],[54.410409,24.496002],[54.410337,24.495938],[54.408484,24.495976],[54.408504,24.495925],[54.408263,24.495794],[54.408561,24.495356],[54.409621,24.495322],[54.409964,24.495229],[54.409867,24.495048],[54.409653,24.494565],[54.40954,24.494014],[54.409518,24.493451],[54.409564,24.493205],[54.409532,24.493029],[54.406099,24.493101],[54.40609,24.493094],[54.406346,24.493088],[54.406476,24.49296],[54.406379,24.492879],[54.406051,24.492886],[54.406315,24.492642],[54.406142,24.492521],[54.406355,24.492421],[54.406247,24.492254],[54.404164,24.492297],[54.403293,24.492758],[54.403258,24.493043],[54.403436,24.493194],[54.403148,24.493259],[54.402661,24.493422],[54.398503,24.493509],[54.398473,24.493555],[54.398132,24.493581],[54.398106,24.493626],[54.397788,24.493633],[54.397444,24.493667]],[[54.40551,24.497605],[54.40552,24.497629],[54.40507,24.497639],[54.404957,24.497666],[54.404693,24.497671],[54.404735,24.497621],[54.40551,24.497605]]]}},{"type":"Feature","properties":{},"geometry":{"type":"Polygon","coordinates":[[[54.394734,24.493058],[54.394003,24.493144],[54.394057,24.493529],[54.399973,24.493406],[54.400704,24.493321],[54.400649,24.492935],[54.394734,24.493058]]]}},{"type":"Feature","properties":{},"geometry":{"type":"Polygon","coordinates":[[[54.393581,24.499867],[54.393466,24.499885],[54.393494,24.500038],[54.395447,24.499997],[54.395562,24.49998],[54.395534,24.499827],[54.393581,24.499867]]]}},{"type":"Feature","properties":{},"geometry":{"type":"Polygon","coordinates":[[[54.39332,24.500043],[54.393288,24.500049],[54.393311,24.500154],[54.395264,24.500113],[54.395296,24.500107],[54.395273,24.500002],[54.39332,24.500043]]]}},{"type":"Feature","properties":{},"geometry":{"type":"Polygon","coordinates":[[[54.392963,24.50037],[54.392916,24.500377],[54.392936,24.500491],[54.39489,24.500451],[54.394937,24.500444],[54.394916,24.50033],[54.392963,24.50037]]]}},{"type":"Feature","properties":{},"geometry":{"type":"Polygon","coordinates":[[[54.393708,24.501936],[54.393705,24.502038],[54.395744,24.502],[54.395747,24.501897],[54.393708,24.501936]]]}},{"type":"Feature","properties":{},"geometry":{"type":"Polygon","coordinates":[[[54.39552,24.504724],[54.395448,24.504728],[54.395454,24.504829],[54.397407,24.504788],[54.397479,24.504785],[54.397473,24.504684],[54.39552,24.504724]]]}},{"type":"Feature","properties":{},"geometry":{"type":"Polygon","coordinates":[[[54.399263,24.505952],[54.399148,24.506249],[54.399443,24.506344],[54.403217,24.506266],[54.403295,24.506304],[54.40337,24.506314],[54.39915,24.506402],[54.399057,24.506651],[54.399335,24.506737],[54.399032,24.506743],[54.39889,24.507142],[54.399146,24.507235],[54.399535,24.507227],[54.398982,24.508189],[54.399077,24.508254],[54.400443,24.508226],[54.400621,24.508401],[54.400182,24.508411],[54.400064,24.508518],[54.400279,24.508731],[54.399926,24.508738],[54.399808,24.508845],[54.400205,24.509237],[54.401582,24.509209],[54.4015,24.509283],[54.401643,24.509416],[54.401284,24.509423],[54.401252,24.509454],[54.399314,24.509495],[54.399188,24.509663],[54.399337,24.509807],[54.399481,24.509804],[54.399501,24.509818],[54.400781,24.509792],[54.400736,24.50983],[54.401098,24.510161],[54.403921,24.510102],[54.403746,24.510262],[54.403931,24.51043],[54.404042,24.510428],[54.403863,24.510523],[54.403735,24.510564],[54.403481,24.510588],[54.403245,24.51075],[54.40317,24.510826],[54.403037,24.510828],[54.402836,24.510939],[54.401778,24.510965],[54.401687,24.511026],[54.401712,24.511057],[54.401244,24.511067],[54.401028,24.511183],[54.400735,24.511189],[54.400291,24.511436],[54.400255,24.51154],[54.400384,24.511914],[54.399965,24.511923],[54.399539,24.511954],[54.399562,24.512205],[54.399595,24.512247],[54.40583,24.512127],[54.405882,24.512107],[54.405892,24.512026],[54.408457,24.511973],[54.40895,24.511696],[54.40889,24.511608],[54.409192,24.511602],[54.409672,24.511336],[54.409548,24.51115],[54.410136,24.511137],[54.410205,24.511104],[54.410191,24.511079],[54.410255,24.511078],[54.410308,24.511057],[54.410506,24.510935],[54.41043,24.510834],[54.410212,24.510839],[54.410233,24.510827],[54.410212,24.510795],[54.410611,24.510787],[54.410637,24.510739],[54.410584,24.510715],[54.410284,24.510722],[54.410303,24.51071],[54.410208,24.510574],[54.408254,24.510615],[54.408216,24.510637],[54.407202,24.510659],[54.407122,24.510688],[54.406445,24.510702],[54.406547,24.510635],[54.406487,24.51055],[54.406524,24.510524],[54.406548,24.510375],[54.409847,24.510306],[54.41019,24.509994],[54.410048,24.509865],[54.411333,24.509838],[54.411432,24.509798],[54.411355,24.509641],[54.409401,24.509682],[54.409303,24.509722],[54.409361,24.509839],[54.407141,24.509885],[54.407052,24.509802],[54.407446,24.509794],[54.40758,24.509657],[54.407423,24.509509],[54.407784,24.509501],[54.407867,24.509416],[54.409605,24.509379],[54.409603,24.50947],[54.40877,24.50949],[54.408774,24.509584],[54.411448,24.509523],[54.411447,24.509486],[54.411673,24.509482],[54.411678,24.509265],[54.411479,24.509264],[54.411482,24.509171],[54.411694,24.509167],[54.411703,24.508958],[54.409626,24.508995],[54.409626,24.509015],[54.407794,24.509054],[54.407708,24.508969],[54.406232,24.509],[54.406152,24.50892],[54.40755,24.50889],[54.407615,24.508841],[54.407587,24.508811],[54.406074,24.508843],[54.406024,24.508794],[54.406377,24.508786],[54.406397,24.508766],[54.408856,24.508715],[54.408856,24.508737],[54.409144,24.508747],[54.411097,24.508706],[54.4111,24.508608],[54.410964,24.508601],[54.409184,24.508631],[54.409334,24.508542],[54.409273,24.508456],[54.409199,24.508458],[54.409158,24.5084],[54.406274,24.50846],[54.406207,24.508394],[54.406645,24.508385],[54.406757,24.508271],[54.406573,24.508089],[54.409927,24.508019],[54.409973,24.508004],[54.41011,24.507998],[54.410332,24.507855],[54.410313,24.507789],[54.41024,24.507791],[54.410204,24.507719],[54.409703,24.507729],[54.409692,24.507556],[54.409513,24.507376],[54.410823,24.507348],[54.410904,24.507326],[54.410922,24.507285],[54.41101,24.507189],[54.411043,24.506943],[54.410977,24.506911],[54.407059,24.506993],[54.406943,24.506884],[54.410588,24.506808],[54.410773,24.506792],[54.410797,24.506728],[54.410732,24.506708],[54.410747,24.506615],[54.410678,24.506576],[54.410546,24.50654],[54.407426,24.506605],[54.407629,24.506391],[54.407478,24.506237],[54.409342,24.506198],[54.409472,24.506175],[54.409587,24.506114],[54.409672,24.506021],[54.409717,24.505908],[54.409719,24.505787],[54.40968,24.50568],[54.409606,24.50559],[54.409506,24.505526],[54.409388,24.505493],[54.40678,24.505547],[54.406674,24.505453],[54.406596,24.505454],[54.406344,24.50524],[54.400428,24.505363],[54.400256,24.505531],[54.399469,24.505548],[54.399375,24.505863],[54.399576,24.505912],[54.400596,24.505891],[54.400635,24.505923],[54.399263,24.505952]],[[54.40533,24.506918],[54.405281,24.506962],[54.405126,24.506965],[54.405146,24.506922],[54.40533,24.506918]]]}},{"type":"Feature","properties":{},"geometry":{"type":"Polygon","coordinates":[[[54.390967,24.510928],[54.396883,24.510805],[54.397139,24.510517],[54.396934,24.510367],[54.391018,24.51049],[54.390765,24.510776],[54.390967,24.510928]]]}},{"type":"Feature","properties":{},"geometry":{"type":"Polygon","coordinates":[[[54.407354,24.482927],[54.407359,24.483042],[54.409408,24.482998],[54.409403,24.482883],[54.407354,24.482927]]]}},{"type":"Feature","properties":{},"geometry":{"type":"Polygon","coordinates":[[[54.405068,24.490312],[54.405008,24.490333],[54.405036,24.490414],[54.406989,24.490373],[54.407054,24.490352],[54.407021,24.490271],[54.405068,24.490312]]]}},{"type":"Feature","properties":{},"geometry":{"type":"Polygon","coordinates":[[[54.407003,24.49111],[54.406995,24.491283],[54.40552,24.491314],[54.405513,24.491401],[54.404542,24.491422],[54.404529,24.491746],[54.404901,24.491759],[54.405486,24.491747],[54.405448,24.492223],[54.405944,24.492255],[54.41186,24.492132],[54.411891,24.491735],[54.412185,24.491729],[54.412186,24.491699],[54.411893,24.491701],[54.411929,24.491245],[54.412874,24.491226],[54.412875,24.491187],[54.411713,24.491209],[54.411435,24.491191],[54.409269,24.491236],[54.409269,24.491225],[54.413395,24.491138],[54.413397,24.490975],[54.413113,24.490971],[54.413115,24.49082],[54.413411,24.490814],[54.413413,24.490645],[54.412924,24.490639],[54.411148,24.490677],[54.411148,24.490662],[54.411052,24.490661],[54.409099,24.490702],[54.409098,24.490719],[54.407009,24.490763],[54.407007,24.490841],[54.404685,24.490889],[54.404683,24.490936],[54.404501,24.490941],[54.404497,24.491153],[54.407003,24.49111]]]}},{"type":"Feature","properties":{},"geometry":{"type":"Polygon","coordinates":[[[54.4061,24.500995],[54.406072,24.501053],[54.40611,24.501085],[54.408063,24.501044],[54.408114,24.500971],[54.408147,24.500887],[54.408085,24.500876],[54.406132,24.500917],[54.406101,24.500948],[54.4061,24.500995]]]}},{"type":"Feature","properties":{},"geometry":{"type":"Polygon","coordinates":[[[54.402771,24.50185],[54.402109,24.501864],[54.40178,24.502526],[54.402199,24.5027],[54.405016,24.502641],[54.404997,24.502962],[54.405276,24.502978],[54.405163,24.503118],[54.405226,24.503154],[54.407179,24.503113],[54.40731,24.502996],[54.407335,24.502994],[54.407364,24.502948],[54.408003,24.502934],[54.40813,24.503075],[54.408215,24.503221],[54.413098,24.503119],[54.41317,24.503099],[54.41329,24.502809],[54.413379,24.502328],[54.41313,24.502176],[54.417254,24.502089],[54.41747,24.501885],[54.41724,24.501685],[54.412664,24.501781],[54.412574,24.501625],[54.412526,24.501486],[54.411982,24.501472],[54.409608,24.501522],[54.409605,24.501431],[54.403689,24.501554],[54.402807,24.501595],[54.402771,24.50185]]]}},{"type":"Feature","properties":{},"geometry":{"type":"Polygon","coordinates":[[[54.40499,24.503385],[54.404927,24.503404],[54.404964,24.503525],[54.406917,24.503485],[54.406997,24.503468],[54.406943,24.503344],[54.40499,24.503385]]]}},{"type":"Feature","properties":{},"geometry":{"type":"Polygon","coordinates":[[[54.403805,24.503621],[54.40366,24.503729],[54.403993,24.504095],[54.409909,24.503972],[54.410053,24.503863],[54.40972,24.503497],[54.403805,24.503621]]]}},{"type":"Feature","properties":{},"geometry":{"type":"Polygon","coordinates":[[[54.409349,24.504692],[54.409405,24.504627],[54.413485,24.504542],[54.409694,24.504622],[54.409539,24.504776],[54.408756,24.504792],[54.408597,24.504949],[54.408774,24.505102],[54.40917,24.505094],[54.409157,24.505107],[54.409335,24.50526],[54.413343,24.505176],[54.41336,24.505196],[54.415313,24.505155],[54.415377,24.50511],[54.41533,24.505069],[54.41537,24.505035],[54.415794,24.505027],[54.415841,24.50499],[54.415784,24.50493],[54.415369,24.504938],[54.415232,24.504826],[54.414861,24.504825],[54.415629,24.504809],[54.415806,24.50466],[54.41561,24.504498],[54.415453,24.504502],[54.41549,24.504472],[54.415441,24.504421],[54.414427,24.504443],[54.414508,24.504375],[54.414488,24.504359],[54.415811,24.504331],[54.415988,24.504182],[54.415792,24.50402],[54.414858,24.504032],[54.415365,24.504022],[54.415424,24.504009],[54.415415,24.503972],[54.413461,24.504013],[54.413403,24.504025],[54.413405,24.504035],[54.410696,24.504092],[54.410705,24.504046],[54.410233,24.503968],[54.404317,24.504092],[54.404296,24.504197],[54.403343,24.504217],[54.403138,24.504478],[54.403433,24.504815],[54.409349,24.504692]]]}},{"type":"Feature","properties":{},"geometry":{"type":"Polygon","coordinates":[[[54.409278,24.508116],[54.407324,24.508157],[54.407235,24.508231],[54.407278,24.508273],[54.409231,24.508233],[54.40932,24.508159],[54.409278,24.508116]]]}},{"type":"Feature","properties":{},"geometry":{"type":"Polygon","coordinates":[[[54.408421,24.479993],[54.408571,24.480121],[54.410524,24.48008],[54.410593,24.480014],[54.410443,24.479885],[54.40849,24.479926],[54.408421,24.479993]]]}},{"type":"Feature","properties":{},"geometry":{"type":"Polygon","coordinates":[[[54.415615,24.487729],[54.415674,24.487726],[54.415671,24.487682],[54.413719,24.487723],[54.41366,24.487726],[54.413663,24.48777],[54.415615,24.487729]]]}},{"type":"Feature","properties":{},"geometry":{"type":"Polygon","coordinates":[[[54.415545,24.48869],[54.415543,24.488642],[54.41351,24.488685],[54.413512,24.488734],[54.415545,24.48869]]]}},{"type":"Feature","properties":{},"geometry":{"type":"Polygon","coordinates":[[[54.413671,24.489093],[54.416065,24.48904],[54.416063,24.488993],[54.416257,24.488988],[54.416252,24.488881],[54.41606,24.488885],[54.416058,24.48884],[54.413667,24.488893],[54.413671,24.489093]]]}},{"type":"Feature","properties":{},"geometry":{"type":"Polygon","coordinates":[[[54.415876,24.489139],[54.415873,24.489095],[54.413766,24.489146],[54.413769,24.489187],[54.415876,24.489139]]]}},{"type":"Feature","properties":{},"geometry":{"type":"Polygon","coordinates":[[[54.413831,24.48921],[54.413829,24.489291],[54.415833,24.489251],[54.415835,24.489171],[54.413831,24.48921]]]}},{"type":"Feature","properties":{},"geometry":{"type":"Polygon","coordinates":[[[54.409628,24.492333],[54.409625,24.492421],[54.411706,24.492383],[54.411709,24.492296],[54.409628,24.492333]]]}},{"type":"Feature","properties":{},"geometry":{"type":"Polygon","coordinates":[[[54.41002,24.4925],[54.410019,24.492598],[54.412154,24.492558],[54.412155,24.492461],[54.41002,24.4925]]]}},{"type":"Feature","properties":{},"geometry":{"type":"Polygon","coordinates":[[[54.41501,24.49686],[54.413057,24.496901],[54.412946,24.497058],[54.413039,24.497112],[54.414992,24.497071],[54.415103,24.496914],[54.41501,24.49686]]]}},{"type":"Feature","properties":{},"geometry":{"type":"Polygon","coordinates":[[[54.415522,24.502478],[54.415526,24.502419],[54.413548,24.502458],[54.413543,24.502517],[54.415522,24.502478]]]}},{"type":"Feature","properties":{},"geometry":{"type":"Polygon","coordinates":[[[54.415392,24.50264],[54.415469,24.502637],[54.415468,24.502603],[54.413514,24.502644],[54.413437,24.502648],[54.413439,24.502681],[54.415392,24.50264]]]}},{"type":"Feature","properties":{},"geometry":{"type":"Polygon","coordinates":[[[54.416996,24.502652],[54.416995,24.502628],[54.415466,24.50266],[54.415466,24.502644],[54.415395,24.502643],[54.413442,24.502684],[54.413441,24.502722],[54.416996,24.502652]]]}},{"type":"Feature","properties":{},"geometry":{"type":"Polygon","coordinates":[[[54.413494,24.502942],[54.415447,24.502901],[54.415505,24.502893],[54.415501,24.502868],[54.415811,24.502861],[54.415813,24.50282],[54.41706,24.502794],[54.417408,24.502771],[54.417402,24.50271],[54.417054,24.502717],[54.417054,24.502707],[54.416945,24.502702],[54.414992,24.502743],[54.414989,24.502788],[54.413443,24.502825],[54.413449,24.502879],[54.413733,24.502873],[54.413486,24.502891],[54.413494,24.502942]]]}},{"type":"Feature","properties":{},"geometry":{"type":"Polygon","coordinates":[[[54.413681,24.503459],[54.413679,24.503514],[54.415726,24.503477],[54.415728,24.503421],[54.413681,24.503459]]]}},{"type":"Feature","properties":{},"geometry":{"type":"Polygon","coordinates":[[[54.41769,24.503787],[54.417698,24.50357],[54.415854,24.503607],[54.415852,24.503558],[54.413856,24.5036],[54.413859,24.503683],[54.41571,24.503644],[54.415703,24.503827],[54.41769,24.503787]]]}},{"type":"Feature","properties":{},"geometry":{"type":"Polygon","coordinates":[[[54.418939,24.480052],[54.418873,24.480042],[54.41692,24.480083],[54.416914,24.480119],[54.41699,24.480128],[54.416989,24.480172],[54.417027,24.480173],[54.41898,24.480132],[54.418981,24.480071],[54.418944,24.48007],[54.418939,24.480052]]]}},{"type":"Feature","properties":{},"geometry":{"type":"Polygon","coordinates":[[[54.42066,24.480236],[54.420569,24.480232],[54.418616,24.480274],[54.418609,24.480405],[54.418948,24.480429],[54.420901,24.480388],[54.420903,24.480342],[54.420695,24.480334],[54.420696,24.480302],[54.420657,24.480301],[54.42066,24.480236]]]}},{"type":"Feature","properties":{},"geometry":{"type":"Polygon","coordinates":[[[54.419987,24.480883],[54.419993,24.480828],[54.417977,24.480863],[54.41797,24.480918],[54.419987,24.480883]]]}},{"type":"Feature","properties":{},"geometry":{"type":"Polygon","coordinates":[[[54.418982,24.481589],[54.418894,24.481591],[54.418898,24.481561],[54.418579,24.481524],[54.416626,24.481565],[54.416607,24.4817],[54.416826,24.481725],[54.416591,24.481732],[54.416595,24.481825],[54.414368,24.481872],[54.414345,24.482035],[54.414682,24.482075],[54.416847,24.48203],[54.416832,24.482096],[54.416927,24.482101],[54.416925,24.482117],[54.416541,24.482125],[54.416535,24.482171],[54.413341,24.482238],[54.413313,24.482432],[54.413644,24.482471],[54.413946,24.482465],[54.413941,24.482505],[54.413297,24.482518],[54.413277,24.482703],[54.41361,24.482733],[54.413908,24.482727],[54.413901,24.482785],[54.414237,24.482818],[54.416438,24.482772],[54.416429,24.482862],[54.416808,24.482893],[54.416413,24.482902],[54.416408,24.483023],[54.416905,24.483033],[54.417187,24.483061],[54.414179,24.483124],[54.414161,24.483286],[54.414499,24.483318],[54.41856,24.483232],[54.418554,24.483292],[54.418873,24.483319],[54.420826,24.483278],[54.420839,24.483149],[54.42062,24.483131],[54.420835,24.483127],[54.420852,24.483007],[54.420544,24.48297],[54.420008,24.482981],[54.420011,24.482956],[54.420354,24.482948],[54.420372,24.482901],[54.420871,24.48289],[54.420888,24.482769],[54.420586,24.482734],[54.420895,24.482727],[54.420916,24.482582],[54.420446,24.482536],[54.420926,24.482526],[54.420945,24.482404],[54.420658,24.482367],[54.420954,24.482361],[54.420967,24.48224],[54.420657,24.482212],[54.420198,24.48222],[54.419985,24.482199],[54.420207,24.482195],[54.420214,24.482151],[54.420987,24.482135],[54.421007,24.482012],[54.420697,24.48197],[54.42016,24.481981],[54.421032,24.481962],[54.42104,24.48183],[54.420617,24.481815],[54.420621,24.481788],[54.420283,24.481748],[54.420201,24.481749],[54.420202,24.48172],[54.420131,24.481711],[54.419742,24.481713],[54.419748,24.48167],[54.418982,24.481589]]]}},{"type":"Feature","properties":{},"geometry":{"type":"Polygon","coordinates":[[[54.417603,24.489458],[54.417601,24.489522],[54.417705,24.489524],[54.419658,24.489483],[54.419661,24.489381],[54.419081,24.489388],[54.419078,24.489332],[54.419695,24.489319],[54.419694,24.489265],[54.417377,24.489309],[54.417378,24.489337],[54.417034,24.489346],[54.417041,24.48947],[54.417603,24.489458]]]}},{"type":"Feature","properties":{},"geometry":{"type":"Polygon","coordinates":[[[54.419183,24.489537],[54.417204,24.489581],[54.417213,24.489653],[54.419193,24.489609],[54.419183,24.489537]]]}},{"type":"Feature","properties":{},"geometry":{"type":"Polygon","coordinates":[[[54.41761,24.489817],[54.417611,24.489862],[54.419685,24.489819],[54.419684,24.489774],[54.41761,24.489817]]]}},{"type":"Feature","properties":{},"geometry":{"type":"Polygon","coordinates":[[[54.417286,24.490318],[54.417287,24.490352],[54.419662,24.490293],[54.419659,24.490172],[54.417428,24.490224],[54.417432,24.490314],[54.417286,24.490318]]]}},{"type":"Feature","properties":{},"geometry":{"type":"Polygon","coordinates":[[[54.417501,24.502523],[54.417908,24.502514],[54.417932,24.502489],[54.417917,24.502478],[54.418218,24.502471],[54.41842,24.502393],[54.418376,24.5023],[54.415637,24.502364],[54.415595,24.502392],[54.415624,24.502428],[54.416231,24.502416],[54.416221,24.502419],[54.416243,24.502466],[54.415468,24.502483],[54.415468,24.502597],[54.415547,24.502603],[54.4175,24.502562],[54.417501,24.502523]]]}},{"type":"Feature","properties":{},"geometry":{"type":"Polygon","coordinates":[[[54.417372,24.503102],[54.417374,24.50306],[54.415314,24.503097],[54.415312,24.503139],[54.417372,24.503102]]]}},{"type":"Feature","properties":{},"geometry":{"type":"Polygon","coordinates":[[[54.415512,24.503178],[54.415508,24.503268],[54.417605,24.503229],[54.417604,24.503168],[54.417525,24.503169],[54.417526,24.503139],[54.415512,24.503178]]]}}]}