{"type":"FeatureCollection","features":[{"type":"Feature","properties":{},"geometry":{"type":"Polygon","coordinates":[[[54.390697,24.482594],[54.390718,24.482472],[54.390536,24.482461],[54.390519,24.482584],[54.390697,24.482594]]]}},{"type":"Feature","properties":{},"geometry":{"type":"Polygon","coordinates":[[[54.391035,24.482607],[54.390942,24.482565],[54.390897,24.482567],[54.390781,24.482774],[54.390867,24.482818],[54.39091,24.482816],[54.390902,24.48283],[54.390984,24.482869],[54.391028,24.482867],[54.391149,24.48266],[54.391062,24.48262],[54.391026,24.482622],[54.391035,24.482607]]]}},{"type":"Feature","properties":{},"geometry":{"type":"Polygon","coordinates":[[[54.390666,24.482875],[54.39071,24.482873],[54.390765,24.482792],[54.390518,24.482654],[54.390474,24.482656],[54.390417,24.482737],[54.390666,24.482875]]]}},{"type":"Feature","properties":{},"geometry":{"type":"Polygon","coordinates":[[[54.391195,24.482925],[54.391215,24.482892],[54.391338,24.482948],[54.391363,24.482947],[54.391287,24.483077],[54.391056,24.482942],[54.391012,24.482944],[54.390953,24.483027],[54.391194,24.48317],[54.391233,24.483168],[54.391459,24.483284],[54.391503,24.483283],[54.39158,24.48316],[54.39149,24.483096],[54.391553,24.482992],[54.391667,24.483003],[54.391742,24.482883],[54.391509,24.482769],[54.391465,24.482771],[54.391451,24.482796],[54.391195,24.48268],[54.39115,24.482682],[54.391111,24.482752],[54.391212,24.4828],[54.391203,24.482818],[54.39122,24.482827],[54.391208,24.482848],[54.391146,24.482841],[54.391106,24.482904],[54.391151,24.482927],[54.391195,24.482925]]]}},{"type":"Feature","properties":{},"geometry":{"type":"Polygon","coordinates":[[[54.390062,24.482824],[54.389997,24.482755],[54.389953,24.482757],[54.389863,24.482827],[54.389928,24.482896],[54.389972,24.482894],[54.390062,24.482824]]]}},{"type":"Feature","properties":{},"geometry":{"type":"Polygon","coordinates":[[[54.392259,24.483115],[54.392281,24.483077],[54.392174,24.483027],[54.39213,24.483029],[54.392122,24.483043],[54.392042,24.483006],[54.391998,24.483008],[54.391977,24.483045],[54.392073,24.483091],[54.392118,24.483088],[54.392215,24.483129],[54.392162,24.48322],[54.392217,24.483245],[54.392261,24.483243],[54.392319,24.48314],[54.392259,24.483115]]]}},{"type":"Feature","properties":{},"geometry":{"type":"Polygon","coordinates":[[[54.392476,24.48318],[54.392379,24.483134],[54.392335,24.483136],[54.392237,24.483314],[54.392331,24.483356],[54.392375,24.483354],[54.392476,24.48318]]]}},{"type":"Feature","properties":{},"geometry":{"type":"Polygon","coordinates":[[[54.391532,24.483387],[54.391487,24.483389],[54.391472,24.483419],[54.391567,24.483459],[54.391612,24.483457],[54.391627,24.483427],[54.391532,24.483387]]]}},{"type":"Feature","properties":{},"geometry":{"type":"Polygon","coordinates":[[[54.391242,24.483686],[54.3913,24.483619],[54.391235,24.483566],[54.39128,24.483596],[54.391324,24.483594],[54.391408,24.483498],[54.391224,24.483358],[54.39118,24.48336],[54.39097,24.483566],[54.391176,24.483713],[54.391201,24.483712],[54.391142,24.483762],[54.39128,24.483898],[54.391324,24.483896],[54.391411,24.48382],[54.391274,24.483685],[54.391242,24.483686]]]}},{"type":"Feature","properties":{},"geometry":{"type":"Polygon","coordinates":[[[54.390754,24.484565],[54.390799,24.484563],[54.39089,24.484485],[54.390771,24.484369],[54.390727,24.484371],[54.390635,24.484449],[54.390754,24.484565]]]}},{"type":"Feature","properties":{},"geometry":{"type":"Polygon","coordinates":[[[54.392332,24.488968],[54.392552,24.489056],[54.392659,24.489129],[54.392831,24.489321],[54.392886,24.489319],[54.393203,24.489192],[54.393216,24.489278],[54.393619,24.48923],[54.393623,24.489262],[54.393777,24.489256],[54.39379,24.489365],[54.394398,24.489338],[54.394585,24.489319],[54.394572,24.489206],[54.394664,24.489197],[54.394622,24.488843],[54.394519,24.488848],[54.394508,24.488755],[54.393719,24.4888],[54.393727,24.48887],[54.393165,24.488941],[54.393098,24.488906],[54.393043,24.488846],[54.393017,24.488786],[54.39301,24.488722],[54.393024,24.488658],[54.393057,24.488601],[54.393106,24.488554],[54.393182,24.488518],[54.393708,24.488472],[54.393649,24.487917],[54.392817,24.487987],[54.392854,24.488343],[54.392616,24.488638],[54.392483,24.488575],[54.392314,24.488534],[54.392258,24.488536],[54.392243,24.488613],[54.392159,24.488608],[54.392069,24.488943],[54.392332,24.488968]]]}},{"type":"Feature","properties":{},"geometry":{"type":"Polygon","coordinates":[[[54.392303,24.490933],[54.392373,24.490872],[54.392448,24.490872],[54.392514,24.491],[54.392936,24.490949],[54.393245,24.491132],[54.393301,24.49113],[54.393367,24.491042],[54.393437,24.491118],[54.393529,24.491171],[54.393635,24.491197],[54.393728,24.491192],[54.393412,24.491576],[54.393464,24.491721],[54.393801,24.491953],[54.39383,24.491951],[54.394698,24.490909],[54.394896,24.491051],[54.39461,24.491064],[54.394432,24.491269],[54.394673,24.491443],[54.394756,24.491439],[54.39481,24.491478],[54.395386,24.491452],[54.395487,24.491335],[54.395392,24.491267],[54.395435,24.491218],[54.395216,24.49106],[54.395424,24.49105],[54.395626,24.490818],[54.395387,24.490647],[54.394899,24.490668],[54.395053,24.490483],[54.394882,24.49037],[54.394626,24.490385],[54.394467,24.49041],[54.394322,24.490469],[54.394053,24.490797],[54.394011,24.490704],[54.393938,24.490627],[54.393842,24.490574],[54.393734,24.490551],[54.39384,24.490494],[54.393978,24.490318],[54.393944,24.49012],[54.394669,24.490078],[54.394653,24.489933],[54.394745,24.489924],[54.394704,24.489573],[54.394602,24.489577],[54.394592,24.489484],[54.393801,24.489528],[54.393813,24.489628],[54.393663,24.489643],[54.393684,24.489829],[54.39351,24.489844],[54.393237,24.48969],[54.392939,24.4897],[54.392844,24.490089],[54.392801,24.49018],[54.392717,24.490282],[54.392674,24.490284],[54.392542,24.490363],[54.392294,24.490477],[54.392102,24.490511],[54.391935,24.490511],[54.391736,24.490465],[54.39168,24.490467],[54.391665,24.490504],[54.39168,24.490579],[54.391644,24.490602],[54.391596,24.490712],[54.391668,24.490782],[54.391887,24.490824],[54.392247,24.490936],[54.392303,24.490933]]]}},{"type":"Feature","properties":{},"geometry":{"type":"Polygon","coordinates":[[[54.392124,24.491166],[54.392165,24.491492],[54.392502,24.49146],[54.392488,24.491342],[54.392896,24.4913],[54.392869,24.491091],[54.392124,24.491166]]]}},{"type":"Feature","properties":{},"geometry":{"type":"Polygon","coordinates":[[[54.392963,24.492093],[54.39299,24.491892],[54.392934,24.491532],[54.392416,24.491595],[54.392502,24.492148],[54.392963,24.492093]]]}},{"type":"Feature","properties":{},"geometry":{"type":"Polygon","coordinates":[[[54.39287,24.492786],[54.392808,24.492401],[54.392182,24.492481],[54.392244,24.492866],[54.39287,24.492786]]]}},{"type":"Feature","properties":{},"geometry":{"type":"Polygon","coordinates":[[[54.390693,24.492868],[54.390587,24.492771],[54.390543,24.492773],[54.390355,24.492944],[54.390461,24.49304],[54.390505,24.493039],[54.390693,24.492868]]]}},{"type":"Feature","properties":{},"geometry":{"type":"Polygon","coordinates":[[[54.390121,24.493761],[54.389267,24.493856],[54.389316,24.49421],[54.39017,24.494115],[54.390121,24.493761]]]}},{"type":"Feature","properties":{},"geometry":{"type":"Polygon","coordinates":[[[54.392697,24.496082],[54.392741,24.49608],[54.392797,24.496038],[54.393656,24.495953],[54.393572,24.495316],[54.392631,24.495445],[54.392697,24.496082]]]}},{"type":"Feature","properties":{},"geometry":{"type":"Polygon","coordinates":[[[54.390509,24.496344],[54.390506,24.49627],[54.390381,24.496274],[54.390376,24.496239],[54.390448,24.496231],[54.390434,24.496116],[54.390468,24.496112],[54.39047,24.496148],[54.390513,24.496147],[54.390523,24.496334],[54.390643,24.496328],[54.39063,24.496099],[54.390563,24.496103],[54.390627,24.496096],[54.390576,24.495677],[54.390065,24.495731],[54.390069,24.495839],[54.390196,24.495834],[54.39022,24.496025],[54.390103,24.496034],[54.390112,24.496109],[54.390129,24.496108],[54.390161,24.496365],[54.390509,24.496344]]]}},{"type":"Feature","properties":{},"geometry":{"type":"Polygon","coordinates":[[[54.391661,24.496974],[54.391497,24.49698],[54.391499,24.497019],[54.391663,24.497013],[54.391661,24.496974]]]}},{"type":"Feature","properties":{},"geometry":{"type":"Polygon","coordinates":[[[54.391497,24.496987],[54.391378,24.496987],[54.391377,24.497021],[54.391496,24.497021],[54.391497,24.496987]]]}},{"type":"Feature","properties":{},"geometry":{"type":"Polygon","coordinates":[[[54.391662,24.49708],[54.391563,24.497092],[54.391571,24.497129],[54.39167,24.497118],[54.391662,24.49708]]]}},{"type":"Feature","properties":{},"geometry":{"type":"Polygon","coordinates":[[[54.391304,24.497146],[54.391309,24.497052],[54.391141,24.497052],[54.39114,24.497146],[54.391304,24.497146]]]}},{"type":"Feature","properties":{},"geometry":{"type":"Polygon","coordinates":[[[54.391345,24.497181],[54.391188,24.49718],[54.391186,24.497243],[54.391343,24.497244],[54.391345,24.497181]]]}},{"type":"Feature","properties":{},"geometry":{"type":"Polygon","coordinates":[[[54.391913,24.49816],[54.391881,24.497941],[54.391505,24.497815],[54.391062,24.497835],[54.390926,24.497902],[54.390961,24.498142],[54.391054,24.498199],[54.391913,24.49816]]]}},{"type":"Feature","properties":{},"geometry":{"type":"Polygon","coordinates":[[[54.393352,24.498198],[54.393355,24.498117],[54.393269,24.498118],[54.393266,24.498199],[54.393352,24.498198]]]}},{"type":"Feature","properties":{},"geometry":{"type":"Polygon","coordinates":[[[54.390929,24.498107],[54.389852,24.498217],[54.389896,24.49857],[54.390974,24.498461],[54.390929,24.498107]]]}},{"type":"Feature","properties":{},"geometry":{"type":"Polygon","coordinates":[[[54.391579,24.500753],[54.391616,24.501001],[54.391921,24.500969],[54.391889,24.500727],[54.391579,24.500753]]]}},{"type":"Feature","properties":{},"geometry":{"type":"Polygon","coordinates":[[[54.39025,24.502525],[54.390324,24.503103],[54.390406,24.5031],[54.391157,24.503036],[54.3911,24.502522],[54.391418,24.50248],[54.39098,24.498843],[54.389796,24.498971],[54.390231,24.502377],[54.389802,24.50242],[54.389821,24.502569],[54.39025,24.502525]]]}},{"type":"Feature","properties":{},"geometry":{"type":"Polygon","coordinates":[[[54.392183,24.503621],[54.392047,24.503635],[54.392055,24.503684],[54.392191,24.50367],[54.392183,24.503621]]]}},{"type":"Feature","properties":{},"geometry":{"type":"Polygon","coordinates":[[[54.392554,24.503762],[54.392418,24.503765],[54.392419,24.503814],[54.392554,24.503811],[54.392554,24.503762]]]}},{"type":"Feature","properties":{},"geometry":{"type":"Polygon","coordinates":[[[54.392274,24.503831],[54.392268,24.503729],[54.39206,24.503739],[54.392067,24.503841],[54.392274,24.503831]]]}},{"type":"Feature","properties":{},"geometry":{"type":"Polygon","coordinates":[[[54.392558,24.503881],[54.392303,24.503908],[54.392335,24.504129],[54.39259,24.504102],[54.392558,24.503881]]]}},{"type":"Feature","properties":{},"geometry":{"type":"Polygon","coordinates":[[[54.392104,24.503938],[54.392009,24.503942],[54.392021,24.504134],[54.392116,24.50413],[54.392104,24.503938]]]}},{"type":"Feature","properties":{},"geometry":{"type":"Polygon","coordinates":[[[54.392272,24.503917],[54.39212,24.503929],[54.392177,24.504434],[54.392329,24.504421],[54.392272,24.503917]]]}},{"type":"Feature","properties":{},"geometry":{"type":"Polygon","coordinates":[[[54.392353,24.504409],[54.392504,24.504401],[54.392497,24.504305],[54.392592,24.504285],[54.39258,24.504249],[54.392494,24.504263],[54.392488,24.504165],[54.392337,24.504173],[54.392353,24.504409]]]}},{"type":"Feature","properties":{},"geometry":{"type":"Polygon","coordinates":[[[54.392139,24.504225],[54.392045,24.504229],[54.392053,24.504397],[54.392147,24.504393],[54.392139,24.504225]]]}},{"type":"Feature","properties":{},"geometry":{"type":"Polygon","coordinates":[[[54.39262,24.504452],[54.392133,24.504498],[54.392166,24.504773],[54.392653,24.504727],[54.39262,24.504452]]]}},{"type":"Feature","properties":{},"geometry":{"type":"Polygon","coordinates":[[[54.392228,24.504858],[54.392129,24.504865],[54.392137,24.504945],[54.392236,24.504938],[54.392228,24.504858]]]}},{"type":"Feature","properties":{},"geometry":{"type":"Polygon","coordinates":[[[54.392563,24.504815],[54.392408,24.504827],[54.392438,24.505076],[54.392592,24.505063],[54.392563,24.504815]]]}},{"type":"Feature","properties":{},"geometry":{"type":"Polygon","coordinates":[[[54.392431,24.505081],[54.392275,24.505085],[54.392278,24.505195],[54.392434,24.505191],[54.392431,24.505081]]]}},{"type":"Feature","properties":{},"geometry":{"type":"Polygon","coordinates":[[[54.392266,24.505103],[54.392164,24.505106],[54.392167,24.505215],[54.392269,24.505212],[54.392266,24.505103]]]}},{"type":"Feature","properties":{},"geometry":{"type":"Polygon","coordinates":[[[54.392737,24.505136],[54.392478,24.505151],[54.392514,24.50565],[54.392773,24.505636],[54.392737,24.505136]]]}},{"type":"Feature","properties":{},"geometry":{"type":"Polygon","coordinates":[[[54.390013,24.505457],[54.389993,24.505205],[54.38975,24.50522],[54.389797,24.505813],[54.390056,24.505797],[54.390029,24.505456],[54.390013,24.505457]]]}},{"type":"Feature","properties":{},"geometry":{"type":"Polygon","coordinates":[[[54.391859,24.506801],[54.391726,24.506812],[54.391732,24.506858],[54.391865,24.506847],[54.391859,24.506801]]]}},{"type":"Feature","properties":{},"geometry":{"type":"Polygon","coordinates":[[[54.392055,24.506897],[54.392098,24.506888],[54.392088,24.506846],[54.391934,24.506871],[54.391957,24.506961],[54.392067,24.506945],[54.392055,24.506897]]]}},{"type":"Feature","properties":{},"geometry":{"type":"Polygon","coordinates":[[[54.391916,24.506892],[54.391835,24.506898],[54.391843,24.506959],[54.391924,24.506953],[54.391916,24.506892]]]}},{"type":"Feature","properties":{},"geometry":{"type":"Polygon","coordinates":[[[54.392715,24.506783],[54.392486,24.506796],[54.392512,24.507139],[54.392741,24.507125],[54.392715,24.506783]]]}},{"type":"Feature","properties":{},"geometry":{"type":"Polygon","coordinates":[[[54.39194,24.507053],[54.39177,24.507057],[54.391772,24.507146],[54.391942,24.507142],[54.39194,24.507053]]]}},{"type":"Feature","properties":{},"geometry":{"type":"Polygon","coordinates":[[[54.392985,24.507152],[54.39286,24.507162],[54.392867,24.507216],[54.392992,24.507205],[54.392985,24.507152]]]}},{"type":"Feature","properties":{},"geometry":{"type":"Polygon","coordinates":[[[54.391497,24.507492],[54.391944,24.507466],[54.391934,24.507327],[54.391487,24.507354],[54.391497,24.507492]]]}},{"type":"Feature","properties":{},"geometry":{"type":"Polygon","coordinates":[[[54.39118,24.507431],[54.391003,24.507431],[54.391002,24.507512],[54.391179,24.507511],[54.39118,24.507431]]]}},{"type":"Feature","properties":{},"geometry":{"type":"Polygon","coordinates":[[[54.393216,24.508734],[54.393217,24.5087],[54.392925,24.508711],[54.392926,24.508741],[54.393216,24.508734]]]}},{"type":"Feature","properties":{},"geometry":{"type":"Polygon","coordinates":[[[54.393091,24.509737],[54.393021,24.509696],[54.392976,24.509698],[54.392948,24.50974],[54.393019,24.50978],[54.393063,24.509778],[54.393091,24.509737]]]}},{"type":"Feature","properties":{},"geometry":{"type":"Polygon","coordinates":[[[54.403917,24.481584],[54.404445,24.481313],[54.404282,24.481036],[54.404238,24.481038],[54.403628,24.481312],[54.403872,24.481585],[54.403917,24.481584]]]}},{"type":"Feature","properties":{},"geometry":{"type":"Polygon","coordinates":[[[54.403255,24.483046],[54.403079,24.482706],[54.402754,24.48227],[54.40268,24.482273],[54.402415,24.482381],[54.402362,24.482355],[54.402377,24.482242],[54.402217,24.482242],[54.401348,24.483157],[54.401348,24.483274],[54.40139,24.483338],[54.401564,24.483378],[54.401638,24.483375],[54.401836,24.48329],[54.402133,24.48321],[54.402497,24.483219],[54.403021,24.483399],[54.403095,24.483396],[54.403021,24.483179],[54.403255,24.483046]]]}},{"type":"Feature","properties":{},"geometry":{"type":"Polygon","coordinates":[[[54.403907,24.485802],[54.403951,24.4858],[54.404147,24.485609],[54.404367,24.485274],[54.404472,24.48503],[54.404542,24.48481],[54.40454,24.484515],[54.403707,24.484453],[54.403575,24.4849],[54.403482,24.485076],[54.403295,24.485267],[54.403907,24.485802]]]}},{"type":"Feature","properties":{},"geometry":{"type":"Polygon","coordinates":[[[54.400276,24.486618],[54.400125,24.486794],[54.400591,24.487124],[54.400709,24.48716],[54.400754,24.487158],[54.400866,24.487117],[54.401207,24.486363],[54.400743,24.486123],[54.400699,24.486125],[54.400587,24.486304],[54.400276,24.486618]]]}},{"type":"Feature","properties":{},"geometry":{"type":"Polygon","coordinates":[[[54.404417,24.486697],[54.404408,24.486649],[54.40406,24.486285],[54.404023,24.48626],[54.403971,24.486254],[54.40386,24.486259],[54.403123,24.486612],[54.403333,24.487165],[54.403367,24.487198],[54.403419,24.487212],[54.40353,24.487207],[54.403767,24.487123],[54.404122,24.486933],[54.40439,24.486736],[54.404417,24.486697]],[[54.403554,24.486721],[54.403868,24.486565],[54.403962,24.48668],[54.403608,24.486871],[54.403554,24.486721]]]}},{"type":"Feature","properties":{},"geometry":{"type":"Polygon","coordinates":[[[54.394407,24.487726],[54.394275,24.4876],[54.394231,24.487602],[54.394051,24.487758],[54.394069,24.487775],[54.394022,24.487815],[54.39429,24.488095],[54.394091,24.488256],[54.394274,24.488442],[54.394793,24.488419],[54.394814,24.488402],[54.394968,24.488395],[54.395185,24.488219],[54.395111,24.488144],[54.395209,24.488065],[54.395036,24.487889],[54.394833,24.487597],[54.394986,24.48759],[54.39537,24.487249],[54.395338,24.487219],[54.395256,24.487186],[54.395144,24.487174],[54.394602,24.487199],[54.394477,24.487216],[54.394428,24.48726],[54.39447,24.487299],[54.394324,24.487428],[54.394363,24.487465],[54.394322,24.487501],[54.39448,24.487663],[54.394407,24.487726]]]}},{"type":"Feature","properties":{},"geometry":{"type":"Polygon","coordinates":[[[54.401144,24.487765],[54.400111,24.487303],[54.399543,24.486934],[54.398968,24.486502],[54.398923,24.486504],[54.39769,24.487853],[54.39883,24.488708],[54.400151,24.489401],[54.400922,24.489715],[54.401713,24.489885],[54.4026,24.489943],[54.40288,24.489596],[54.402625,24.488136],[54.402288,24.488086],[54.401773,24.487981],[54.401144,24.487765]]]}},{"type":"Feature","properties":{},"geometry":{"type":"Polygon","coordinates":[[[54.400013,24.490469],[54.400054,24.490734],[54.400402,24.490694],[54.400362,24.490428],[54.400013,24.490469]]]}},{"type":"Feature","properties":{},"geometry":{"type":"Polygon","coordinates":[[[54.394357,24.4915],[54.394179,24.491706],[54.394407,24.49187],[54.393961,24.49189],[54.393836,24.492047],[54.393416,24.492066],[54.393238,24.492271],[54.393479,24.492445],[54.393562,24.492441],[54.393616,24.49248],[54.394184,24.492454],[54.394285,24.492338],[54.39419,24.492269],[54.394209,24.492248],[54.394583,24.492231],[54.394601,24.492209],[54.394752,24.492202],[54.394827,24.492108],[54.394752,24.492059],[54.394815,24.491978],[54.394708,24.491908],[54.395132,24.491889],[54.395234,24.491772],[54.395139,24.491703],[54.395182,24.491654],[54.394932,24.491475],[54.394357,24.4915]]]}},{"type":"Feature","properties":{},"geometry":{"type":"Polygon","coordinates":[[[54.398667,24.492158],[54.398624,24.49184],[54.398454,24.491856],[54.398497,24.492178],[54.398667,24.492158]]]}},{"type":"Feature","properties":{},"geometry":{"type":"Polygon","coordinates":[[[54.398825,24.492216],[54.398708,24.492227],[54.398737,24.492462],[54.399095,24.49242],[54.399082,24.49232],[54.398847,24.492346],[54.398825,24.492216]]]}},{"type":"Feature","properties":{},"geometry":{"type":"Polygon","coordinates":[[[54.398526,24.492564],[54.398647,24.492553],[54.398602,24.492224],[54.398481,24.492235],[54.398526,24.492564]]]}},{"type":"Feature","properties":{},"geometry":{"type":"Polygon","coordinates":[[[54.395997,24.492631],[54.396062,24.492332],[54.395609,24.49226],[54.395543,24.492559],[54.395997,24.492631]]]}},{"type":"Feature","properties":{},"geometry":{"type":"Polygon","coordinates":[[[54.400649,24.492935],[54.399874,24.493022],[54.399928,24.493408],[54.400704,24.493321],[54.400649,24.492935]]]}},{"type":"Feature","properties":{},"geometry":{"type":"Polygon","coordinates":[[[54.402732,24.493759],[54.402531,24.493774],[54.402582,24.494194],[54.403254,24.494163],[54.403277,24.494355],[54.40358,24.494327],[54.403608,24.494367],[54.403657,24.494392],[54.403781,24.494384],[54.404001,24.4945],[54.404045,24.494498],[54.404185,24.494278],[54.404124,24.494246],[54.404554,24.493571],[54.404527,24.493557],[54.404581,24.493471],[54.404418,24.493385],[54.404374,24.493387],[54.404332,24.493453],[54.404296,24.493434],[54.404003,24.49346],[54.403944,24.493561],[54.403873,24.493527],[54.403707,24.493542],[54.403703,24.493509],[54.403315,24.493546],[54.403324,24.493619],[54.403229,24.493629],[54.403237,24.493696],[54.402728,24.493724],[54.402732,24.493759]]]}},{"type":"Feature","properties":{},"geometry":{"type":"Polygon","coordinates":[[[54.393582,24.494482],[54.393521,24.494486],[54.393515,24.494441],[54.393323,24.494461],[54.393326,24.494485],[54.393266,24.494492],[54.3933,24.494732],[54.393613,24.494698],[54.393582,24.494482]]]}},{"type":"Feature","properties":{},"geometry":{"type":"Polygon","coordinates":[[[54.393695,24.49601],[54.393864,24.495994],[54.394069,24.495811],[54.394285,24.495786],[54.3942,24.495176],[54.393588,24.495244],[54.393695,24.49601]]]}},{"type":"Feature","properties":{},"geometry":{"type":"Polygon","coordinates":[[[54.403947,24.497295],[54.403954,24.497311],[54.403701,24.497417],[54.4039,24.497809],[54.404179,24.497797],[54.404266,24.497984],[54.404358,24.49798],[54.404599,24.497783],[54.405002,24.4973],[54.405251,24.496952],[54.405413,24.496686],[54.405411,24.496392],[54.404485,24.49605],[54.404393,24.496054],[54.40433,24.496226],[54.404096,24.496236],[54.403898,24.496732],[54.404065,24.496787],[54.403875,24.496796],[54.403703,24.497212],[54.403947,24.497295]]]}},{"type":"Feature","properties":{},"geometry":{"type":"Polygon","coordinates":[[[54.394498,24.496823],[54.394266,24.497108],[54.394346,24.497392],[54.394597,24.49751],[54.394641,24.497508],[54.394769,24.497442],[54.394885,24.497348],[54.394874,24.497274],[54.394918,24.497211],[54.394997,24.497172],[54.39503,24.497114],[54.394542,24.496821],[54.394498,24.496823]]]}},{"type":"Feature","properties":{},"geometry":{"type":"Polygon","coordinates":[[[54.404135,24.498077],[54.404083,24.498057],[54.404038,24.498059],[54.404025,24.498087],[54.404078,24.498107],[54.404122,24.498105],[54.404135,24.498077]]]}},{"type":"Feature","properties":{},"geometry":{"type":"Polygon","coordinates":[[[54.403927,24.498463],[54.404068,24.498379],[54.404149,24.498291],[54.404172,24.498239],[54.404153,24.498207],[54.404167,24.498192],[54.404081,24.49813],[54.404041,24.498132],[54.403978,24.498096],[54.403922,24.498098],[54.403153,24.498415],[54.402933,24.498462],[54.402781,24.498566],[54.402674,24.498748],[54.402661,24.49885],[54.402217,24.49887],[54.402048,24.498912],[54.401935,24.498976],[54.401828,24.499085],[54.401789,24.49915],[54.401844,24.499185],[54.401869,24.49922],[54.401883,24.499265],[54.401875,24.499323],[54.40204,24.499348],[54.403021,24.499304],[54.403167,24.499287],[54.403283,24.499245],[54.403411,24.499157],[54.403468,24.499094],[54.403515,24.499023],[54.403464,24.498982],[54.403434,24.49893],[54.403429,24.498854],[54.403547,24.498701],[54.403653,24.49863],[54.40363,24.498579],[54.403927,24.498463]]]}},{"type":"Feature","properties":{},"geometry":{"type":"Polygon","coordinates":[[[54.396129,24.498519],[54.396028,24.498519],[54.396026,24.498585],[54.396127,24.498585],[54.396129,24.498519]]]}},{"type":"Feature","properties":{},"geometry":{"type":"Polygon","coordinates":[[[54.403615,24.498987],[54.403579,24.499029],[54.403568,24.499109],[54.403602,24.49918],[54.40382,24.49927],[54.403954,24.499301],[54.404323,24.499284],[54.404324,24.499295],[54.40468,24.499299],[54.404893,24.499256],[54.405087,24.49919],[54.405252,24.499057],[54.405358,24.498901],[54.40544,24.498736],[54.405445,24.498549],[54.405429,24.498461],[54.405388,24.498458],[54.405412,24.498398],[54.405332,24.498066],[54.405283,24.498019],[54.405209,24.498001],[54.404818,24.498019],[54.404738,24.498046],[54.404698,24.498098],[54.404709,24.49816],[54.404772,24.498311],[54.404772,24.498476],[54.404748,24.498581],[54.404689,24.498675],[54.404615,24.498739],[54.404432,24.49876],[54.404368,24.498785],[54.404244,24.49878],[54.404151,24.498812],[54.404045,24.498881],[54.404087,24.498923],[54.404065,24.498942],[54.403674,24.498959],[54.403615,24.498987]]]}},{"type":"Feature","properties":{},"geometry":{"type":"Polygon","coordinates":[[[54.393421,24.498662],[54.393577,24.499667],[54.39537,24.499471],[54.39526,24.498664],[54.395136,24.498542],[54.393421,24.498662]]]}},{"type":"Feature","properties":{},"geometry":{"type":"Polygon","coordinates":[[[54.402749,24.499772],[54.402842,24.499821],[54.403258,24.499801],[54.403393,24.499946],[54.403498,24.500016],[54.403675,24.500085],[54.403676,24.500125],[54.403705,24.500127],[54.403729,24.500152],[54.403703,24.500179],[54.403735,24.500225],[54.403778,24.500247],[54.403838,24.500253],[54.404424,24.500228],[54.404424,24.500289],[54.404761,24.500267],[54.405188,24.500172],[54.405667,24.499947],[54.405928,24.49974],[54.406255,24.499347],[54.406373,24.499138],[54.406474,24.49889],[54.406529,24.498602],[54.406545,24.49833],[54.406522,24.498107],[54.406444,24.497802],[54.405643,24.497652],[54.405584,24.497654],[54.405732,24.497854],[54.405812,24.498023],[54.405863,24.498294],[54.405871,24.498511],[54.405861,24.498716],[54.405823,24.49887],[54.405732,24.499037],[54.405654,24.49914],[54.405488,24.499294],[54.405355,24.499304],[54.405321,24.499322],[54.405275,24.499407],[54.405268,24.499459],[54.404994,24.499609],[54.404687,24.499698],[54.404431,24.499727],[54.404429,24.499833],[54.404329,24.499906],[54.404342,24.499763],[54.404286,24.499723],[54.404159,24.499696],[54.403962,24.499705],[54.403894,24.499653],[54.403777,24.499622],[54.403579,24.499649],[54.403549,24.499625],[54.403592,24.4996],[54.403589,24.49958],[54.403649,24.499568],[54.403672,24.499531],[54.403644,24.499465],[54.403558,24.499379],[54.403484,24.499365],[54.403078,24.499383],[54.403042,24.499424],[54.402748,24.499611],[54.402688,24.499623],[54.402674,24.499651],[54.402709,24.499731],[54.402749,24.499772]]]}},{"type":"Feature","properties":{},"geometry":{"type":"Polygon","coordinates":[[[54.395534,24.499827],[54.395375,24.499846],[54.395403,24.499999],[54.395562,24.49998],[54.395534,24.499827]]]}},{"type":"Feature","properties":{},"geometry":{"type":"Polygon","coordinates":[[[54.395273,24.500002],[54.395196,24.50001],[54.39522,24.500115],[54.395296,24.500107],[54.395273,24.500002]]]}},{"type":"Feature","properties":{},"geometry":{"type":"Polygon","coordinates":[[[54.394825,24.500338],[54.394845,24.500453],[54.394937,24.500444],[54.394916,24.50033],[54.394825,24.500338]]]}},{"type":"Feature","properties":{},"geometry":{"type":"Polygon","coordinates":[[[54.39502,24.501401],[54.39563,24.50132],[54.395488,24.500472],[54.394878,24.500552],[54.39502,24.501401]]]}},{"type":"Feature","properties":{},"geometry":{"type":"Polygon","coordinates":[[[54.395747,24.501897],[54.395617,24.501897],[54.395614,24.501999],[54.395744,24.502],[54.395747,24.501897]]]}},{"type":"Feature","properties":{},"geometry":{"type":"Polygon","coordinates":[[[54.395873,24.502153],[54.395397,24.502213],[54.395448,24.502521],[54.395924,24.502461],[54.395873,24.502153]]]}},{"type":"Feature","properties":{},"geometry":{"type":"Polygon","coordinates":[[[54.397473,24.504684],[54.397357,24.504689],[54.397363,24.50479],[54.397479,24.504785],[54.397473,24.504684]]]}},{"type":"Feature","properties":{},"geometry":{"type":"Polygon","coordinates":[[[54.393337,24.509246],[54.393273,24.509274],[54.39339,24.509444],[54.393451,24.509433],[54.393461,24.509449],[54.39333,24.509516],[54.393322,24.5095],[54.393382,24.509472],[54.393334,24.509406],[54.393289,24.509408],[54.393243,24.509435],[54.393278,24.509484],[54.393051,24.509589],[54.393099,24.50967],[54.393163,24.509659],[54.393243,24.509789],[54.393287,24.509787],[54.393625,24.509616],[54.393613,24.509596],[54.393795,24.509504],[54.39358,24.509152],[54.393658,24.509149],[54.393655,24.509094],[54.39356,24.509098],[54.393561,24.509125],[54.393519,24.509127],[54.393324,24.509226],[54.393337,24.509246]]]}},{"type":"Feature","properties":{},"geometry":{"type":"Polygon","coordinates":[[[54.393853,24.509371],[54.393774,24.50939],[54.393811,24.50945],[54.393889,24.50943],[54.393853,24.509371]]]}},{"type":"Feature","properties":{},"geometry":{"type":"Polygon","coordinates":[[[54.394032,24.509896],[54.394077,24.509894],[54.394173,24.509852],[54.394128,24.509765],[54.394091,24.509767],[54.394119,24.509751],[54.394058,24.50966],[54.39404,24.509661],[54.394052,24.509655],[54.394018,24.509606],[54.393974,24.509607],[54.393933,24.509631],[54.393967,24.50968],[54.393985,24.509679],[54.393973,24.509685],[54.394034,24.509776],[54.394067,24.509775],[54.393987,24.509809],[54.394032,24.509896]]]}},{"type":"Feature","properties":{},"geometry":{"type":"Polygon","coordinates":[[[54.393911,24.50995],[54.393824,24.509957],[54.39383,24.509993],[54.393916,24.509985],[54.393911,24.50995]]]}},{"type":"Feature","properties":{},"geometry":{"type":"Polygon","coordinates":[[[54.394195,24.509998],[54.394163,24.509938],[54.394119,24.50994],[54.393804,24.510076],[54.393835,24.510136],[54.393879,24.510134],[54.394195,24.509998]]]}},{"type":"Feature","properties":{},"geometry":{"type":"Polygon","coordinates":[[[54.406324,24.480095],[54.406255,24.479987],[54.40643,24.479895],[54.406373,24.479805],[54.406329,24.479807],[54.406258,24.479845],[54.406249,24.479829],[54.406281,24.479812],[54.406176,24.479648],[54.406132,24.47965],[54.405883,24.479781],[54.405939,24.479869],[54.405732,24.479978],[54.405769,24.480036],[54.405693,24.480077],[54.405755,24.480175],[54.405776,24.480174],[54.405861,24.480308],[54.405905,24.480306],[54.406324,24.480095]]]}},{"type":"Feature","properties":{},"geometry":{"type":"Polygon","coordinates":[[[54.406836,24.48],[54.406771,24.479935],[54.406727,24.479937],[54.406635,24.480014],[54.406699,24.480078],[54.406743,24.480076],[54.406836,24.48]]]}},{"type":"Feature","properties":{},"geometry":{"type":"Polygon","coordinates":[[[54.406404,24.480249],[54.406359,24.480251],[54.406323,24.480325],[54.406305,24.480326],[54.406261,24.480386],[54.406059,24.480531],[54.406091,24.480571],[54.406138,24.480567],[54.40617,24.480598],[54.40623,24.480583],[54.406392,24.480743],[54.406437,24.480741],[54.406583,24.480618],[54.406413,24.480452],[54.406444,24.48045],[54.406479,24.480403],[54.406435,24.480376],[54.406484,24.480376],[54.406523,24.480297],[54.406404,24.480249]],[[54.406224,24.480507],[54.406246,24.480491],[54.406264,24.480509],[54.406244,24.480525],[54.406224,24.480507]]]}},{"type":"Feature","properties":{},"geometry":{"type":"Polygon","coordinates":[[[54.405748,24.480415],[54.405703,24.480417],[54.405628,24.480454],[54.405655,24.480499],[54.405699,24.480497],[54.405775,24.48046],[54.405748,24.480415]]]}},{"type":"Feature","properties":{},"geometry":{"type":"Polygon","coordinates":[[[54.405221,24.480756],[54.405257,24.480729],[54.405301,24.480779],[54.405389,24.480784],[54.405508,24.480697],[54.405367,24.480537],[54.405322,24.480539],[54.405247,24.480594],[54.405173,24.48051],[54.405129,24.480512],[54.405011,24.480598],[54.404982,24.480566],[54.404938,24.480568],[54.404707,24.480738],[54.404903,24.48096],[54.404947,24.480958],[54.405002,24.480933],[54.405239,24.480777],[54.405221,24.480756]]]}},{"type":"Feature","properties":{},"geometry":{"type":"Polygon","coordinates":[[[54.404697,24.481102],[54.404596,24.481127],[54.404613,24.481162],[54.404714,24.481136],[54.404697,24.481102]]]}},{"type":"Feature","properties":{},"geometry":{"type":"Polygon","coordinates":[[[54.40493,24.482134],[54.404956,24.482275],[54.405004,24.482359],[54.405036,24.482357],[54.405085,24.482454],[54.405417,24.48244],[54.405651,24.482324],[54.405622,24.482223],[54.40559,24.482224],[54.405587,24.482209],[54.40588,24.482196],[54.40612,24.482046],[54.40604,24.48196],[54.406228,24.481951],[54.406456,24.481804],[54.406244,24.481517],[54.406178,24.481406],[54.405846,24.481421],[54.405669,24.481524],[54.405591,24.481592],[54.405639,24.481648],[54.405514,24.481654],[54.405289,24.481767],[54.405248,24.481814],[54.40527,24.481869],[54.405301,24.481897],[54.405066,24.481907],[54.404958,24.482012],[54.40493,24.482134]]]}},{"type":"Feature","properties":{},"geometry":{"type":"Polygon","coordinates":[[[54.406815,24.482088],[54.406673,24.482154],[54.406813,24.482344],[54.406933,24.482446],[54.407047,24.482627],[54.407416,24.48261],[54.407605,24.482539],[54.407647,24.482408],[54.407249,24.481963],[54.40688,24.481979],[54.406815,24.482088]]]}},{"type":"Feature","properties":{},"geometry":{"type":"Polygon","coordinates":[[[54.406098,24.482729],[54.406143,24.482727],[54.406347,24.482622],[54.406664,24.483105],[54.406708,24.483103],[54.406884,24.483008],[54.40655,24.482498],[54.406525,24.4825],[54.406485,24.482446],[54.406441,24.482448],[54.406266,24.482555],[54.406274,24.482565],[54.406063,24.482671],[54.406098,24.482729]]]}},{"type":"Feature","properties":{},"geometry":{"type":"Polygon","coordinates":[[[54.405411,24.483135],[54.405082,24.483267],[54.405273,24.483915],[54.404895,24.484019],[54.404949,24.484361],[54.405703,24.48437],[54.405703,24.483852],[54.405455,24.483133],[54.405411,24.483135]]]}},{"type":"Feature","properties":{},"geometry":{"type":"Polygon","coordinates":[[[54.405743,24.48448],[54.404973,24.484395],[54.404895,24.484736],[54.405575,24.484875],[54.405619,24.484873],[54.405743,24.48448]]]}},{"type":"Feature","properties":{},"geometry":{"type":"Polygon","coordinates":[[[54.406818,24.485672],[54.406859,24.48561],[54.406754,24.485552],[54.40671,24.485553],[54.406669,24.485615],[54.406774,24.485673],[54.406818,24.485672]]]}},{"type":"Feature","properties":{},"geometry":{"type":"Polygon","coordinates":[[[54.405832,24.487429],[54.405596,24.48744],[54.40545,24.487613],[54.405747,24.487833],[54.405983,24.487822],[54.406127,24.487642],[54.405832,24.487429]]]}},{"type":"Feature","properties":{},"geometry":{"type":"Polygon","coordinates":[[[54.407318,24.487873],[54.407274,24.487875],[54.406453,24.488339],[54.406732,24.488747],[54.406776,24.488745],[54.407598,24.488281],[54.407318,24.487873]]]}},{"type":"Feature","properties":{},"geometry":{"type":"Polygon","coordinates":[[[54.407021,24.490271],[54.406917,24.490294],[54.406945,24.490375],[54.407054,24.490352],[54.407021,24.490271]]]}},{"type":"Feature","properties":{},"geometry":{"type":"Polygon","coordinates":[[[54.406476,24.49296],[54.406379,24.492879],[54.406335,24.492881],[54.406205,24.493009],[54.406302,24.49309],[54.406346,24.493088],[54.406476,24.49296]]]}},{"type":"Feature","properties":{},"geometry":{"type":"Polygon","coordinates":[[[54.4062,24.492256],[54.405329,24.492717],[54.405294,24.493002],[54.406153,24.49373],[54.4062,24.493728],[54.406527,24.493456],[54.405951,24.492978],[54.406315,24.492642],[54.406142,24.492521],[54.406355,24.492421],[54.406247,24.492254],[54.4062,24.492256]]]}},{"type":"Feature","properties":{},"geometry":{"type":"Polygon","coordinates":[[[54.406417,24.495276],[54.40635,24.49524],[54.406306,24.495242],[54.40626,24.49531],[54.406327,24.495346],[54.406371,24.495344],[54.406417,24.495276]]]}},{"type":"Feature","properties":{},"geometry":{"type":"Polygon","coordinates":[[[54.4066,24.495316],[54.406598,24.495288],[54.406427,24.4953],[54.40643,24.495321],[54.4066,24.495316]]]}},{"type":"Feature","properties":{},"geometry":{"type":"Polygon","coordinates":[[[54.406562,24.495341],[54.406518,24.495343],[54.406442,24.495408],[54.406552,24.495514],[54.406596,24.495512],[54.406672,24.495447],[54.406562,24.495341]]]}},{"type":"Feature","properties":{},"geometry":{"type":"Polygon","coordinates":[[[54.406431,24.49563],[54.406384,24.495624],[54.406448,24.495591],[54.406395,24.495503],[54.40635,24.495505],[54.406267,24.495547],[54.40632,24.495635],[54.406365,24.495633],[54.406317,24.495726],[54.406502,24.495805],[54.406546,24.495803],[54.406617,24.495665],[54.406485,24.495609],[54.406441,24.495611],[54.406431,24.49563]]]}},{"type":"Feature","properties":{},"geometry":{"type":"Polygon","coordinates":[[[54.406297,24.495754],[54.40627,24.495738],[54.406226,24.49574],[54.40618,24.495805],[54.406206,24.495821],[54.406251,24.495819],[54.406297,24.495754]]]}},{"type":"Feature","properties":{},"geometry":{"type":"Polygon","coordinates":[[[54.406737,24.496292],[54.406898,24.496231],[54.407025,24.49614],[54.407255,24.496335],[54.407449,24.496432],[54.407595,24.49647],[54.407714,24.496478],[54.408791,24.496429],[54.4089,24.496399],[54.408918,24.496381],[54.408932,24.49632],[54.408856,24.496195],[54.408693,24.496072],[54.408481,24.495984],[54.408504,24.495925],[54.408263,24.495794],[54.408645,24.495232],[54.408776,24.495301],[54.409077,24.49535],[54.409621,24.495322],[54.409964,24.495229],[54.409867,24.495048],[54.409653,24.494565],[54.40954,24.494014],[54.409518,24.493451],[54.409564,24.493205],[54.409532,24.493029],[54.408559,24.493073],[54.40809,24.493179],[54.407576,24.493351],[54.407008,24.493666],[54.406658,24.493929],[54.406384,24.494252],[54.406408,24.494267],[54.406358,24.494334],[54.406599,24.494495],[54.40748,24.494455],[54.408374,24.494999],[54.408492,24.495146],[54.40811,24.495708],[54.406894,24.495031],[54.406838,24.495033],[54.406659,24.495526],[54.406593,24.495894],[54.406053,24.49592],[54.405875,24.495988],[54.405762,24.496062],[54.405657,24.496199],[54.405656,24.496292],[54.40572,24.496336],[54.406737,24.496292]]]}},{"type":"Feature","properties":{},"geometry":{"type":"Polygon","coordinates":[[[54.405932,24.496995],[54.405977,24.496993],[54.406044,24.496945],[54.405962,24.496854],[54.405918,24.496856],[54.405853,24.496906],[54.405932,24.496995]]]}},{"type":"Feature","properties":{},"geometry":{"type":"Polygon","coordinates":[[[54.406388,24.497225],[54.40674,24.497142],[54.406736,24.497125],[54.406805,24.497122],[54.407012,24.497067],[54.407214,24.497087],[54.407339,24.497081],[54.407977,24.497167],[54.40805,24.497164],[54.40834,24.497325],[54.408709,24.497309],[54.40953,24.496918],[54.409385,24.496689],[54.409016,24.496705],[54.408524,24.496926],[54.40838,24.496868],[54.408227,24.496875],[54.408244,24.496834],[54.408035,24.496764],[54.407724,24.496686],[54.407491,24.496658],[54.407361,24.496663],[54.407356,24.496766],[54.407017,24.496773],[54.407014,24.496758],[54.406903,24.496763],[54.406667,24.496819],[54.406656,24.496773],[54.406612,24.496775],[54.406285,24.496855],[54.406388,24.497225]]]}},{"type":"Feature","properties":{},"geometry":{"type":"Polygon","coordinates":[[[54.405756,24.497289],[54.405696,24.49755],[54.406,24.497594],[54.406012,24.497541],[54.406053,24.497539],[54.406089,24.497391],[54.405991,24.497375],[54.406007,24.497326],[54.405756,24.497289]]]}},{"type":"Feature","properties":{},"geometry":{"type":"Polygon","coordinates":[[[54.406525,24.504539],[54.406388,24.504539],[54.406384,24.504681],[54.406523,24.504681],[54.406525,24.504539]]]}},{"type":"Feature","properties":{},"geometry":{"type":"Polygon","coordinates":[[[54.406097,24.504761],[54.406233,24.504739],[54.406184,24.50457],[54.406044,24.504594],[54.406097,24.504761]]]}},{"type":"Feature","properties":{},"geometry":{"type":"Polygon","coordinates":[[[54.406296,24.50594],[54.406702,24.505922],[54.406793,24.505817],[54.406828,24.505695],[54.406787,24.505553],[54.406674,24.505453],[54.406598,24.505456],[54.406344,24.50524],[54.4063,24.505242],[54.406038,24.505497],[54.406149,24.505591],[54.406022,24.505718],[54.406296,24.50594]]]}},{"type":"Feature","properties":{},"geometry":{"type":"Polygon","coordinates":[[[54.405586,24.505474],[54.405385,24.505424],[54.405341,24.505426],[54.405247,24.505741],[54.405448,24.505791],[54.405492,24.505789],[54.405586,24.505474]]]}},{"type":"Feature","properties":{},"geometry":{"type":"Polygon","coordinates":[[[54.405475,24.505923],[54.405179,24.505828],[54.405135,24.50583],[54.405019,24.506128],[54.405315,24.506223],[54.405359,24.506221],[54.405475,24.505923]]]}},{"type":"Feature","properties":{},"geometry":{"type":"Polygon","coordinates":[[[54.405345,24.506365],[54.405066,24.506279],[54.405022,24.506281],[54.404929,24.506529],[54.405207,24.506615],[54.405252,24.506613],[54.405345,24.506365]]]}},{"type":"Feature","properties":{},"geometry":{"type":"Polygon","coordinates":[[[54.40512,24.506981],[54.405237,24.506716],[54.404948,24.50662],[54.404904,24.506621],[54.404761,24.507021],[54.405014,24.507112],[54.404455,24.508086],[54.40455,24.508151],[54.404993,24.508131],[54.405356,24.508068],[54.405862,24.507159],[54.405855,24.507079],[54.405593,24.506955],[54.40512,24.506981]]]}},{"type":"Feature","properties":{},"geometry":{"type":"Polygon","coordinates":[[[54.404437,24.507235],[54.404393,24.507237],[54.40436,24.507265],[54.404453,24.507356],[54.404497,24.507354],[54.40453,24.507326],[54.404437,24.507235]]]}},{"type":"Feature","properties":{},"geometry":{"type":"Polygon","coordinates":[[[54.406367,24.507886],[54.406012,24.507902],[54.405895,24.508009],[54.406291,24.508401],[54.406645,24.508385],[54.406757,24.508271],[54.406367,24.507886]]]}},{"type":"Feature","properties":{},"geometry":{"type":"Polygon","coordinates":[[[54.406098,24.508287],[54.405744,24.508303],[54.405626,24.50841],[54.405833,24.508615],[54.405488,24.50863],[54.40537,24.508738],[54.405767,24.50913],[54.406121,24.509114],[54.406232,24.508999],[54.406032,24.508802],[54.406377,24.508786],[54.406489,24.508672],[54.406098,24.508287]]]}},{"type":"Feature","properties":{},"geometry":{"type":"Polygon","coordinates":[[[54.406299,24.509147],[54.406344,24.509146],[54.406384,24.509101],[54.406299,24.509036],[54.406254,24.509038],[54.406213,24.509083],[54.406299,24.509147]]]}},{"type":"Feature","properties":{},"geometry":{"type":"Polygon","coordinates":[[[54.40488,24.509387],[54.404754,24.509555],[54.404903,24.509699],[54.405041,24.509693],[54.405067,24.509711],[54.405418,24.509695],[54.405598,24.509432],[54.405477,24.509367],[54.40488,24.509387]]]}},{"type":"Feature","properties":{},"geometry":{"type":"Polygon","coordinates":[[[54.410479,24.480082],[54.410524,24.48008],[54.410593,24.480014],[54.410443,24.479885],[54.410398,24.479887],[54.410329,24.479954],[54.410479,24.480082]]]}},{"type":"Feature","properties":{},"geometry":{"type":"Polygon","coordinates":[[[54.409403,24.482883],[54.409262,24.482889],[54.409267,24.483003],[54.409408,24.482998],[54.409403,24.482883]]]}},{"type":"Feature","properties":{},"geometry":{"type":"Polygon","coordinates":[[[54.408793,24.48444],[54.408557,24.484451],[54.408348,24.484592],[54.408593,24.484894],[54.408829,24.484883],[54.409038,24.484742],[54.408793,24.48444]]]}},{"type":"Feature","properties":{},"geometry":{"type":"Polygon","coordinates":[[[54.408602,24.485076],[54.408334,24.484777],[54.408098,24.484788],[54.407893,24.484942],[54.407906,24.485006],[54.408125,24.485117],[54.40821,24.485114],[54.408253,24.48517],[54.408489,24.48516],[54.408602,24.485076]]]}},{"type":"Feature","properties":{},"geometry":{"type":"Polygon","coordinates":[[[54.407042,24.485614],[54.407336,24.485327],[54.407262,24.485263],[54.407217,24.485265],[54.406923,24.485552],[54.406997,24.485616],[54.407042,24.485614]]]}},{"type":"Feature","properties":{},"geometry":{"type":"Polygon","coordinates":[[[54.409042,24.485617],[54.409001,24.485574],[54.408957,24.485576],[54.408878,24.485637],[54.408918,24.48568],[54.408963,24.485678],[54.409042,24.485617]]]}},{"type":"Feature","properties":{},"geometry":{"type":"Polygon","coordinates":[[[54.407328,24.485455],[54.407142,24.485649],[54.407202,24.485697],[54.40722,24.485696],[54.407462,24.48589],[54.407698,24.485879],[54.407889,24.48568],[54.407828,24.485631],[54.407792,24.485633],[54.407564,24.485445],[54.407328,24.485455]]]}},{"type":"Feature","properties":{},"geometry":{"type":"Polygon","coordinates":[[[54.40979,24.485963],[54.409837,24.485885],[54.409865,24.485741],[54.410408,24.486673],[54.410504,24.486668],[54.410863,24.4865],[54.410363,24.485619],[54.410402,24.485593],[54.410413,24.48552],[54.410404,24.485468],[54.410388,24.485446],[54.41025,24.485455],[54.41025,24.485426],[54.410362,24.485422],[54.410404,24.485395],[54.410434,24.485322],[54.410978,24.485104],[54.410804,24.484786],[54.410708,24.48479],[54.40974,24.485257],[54.40973,24.485276],[54.409673,24.485244],[54.409578,24.485248],[54.409503,24.485334],[54.409327,24.485405],[54.409241,24.485487],[54.409205,24.485581],[54.409202,24.485768],[54.409221,24.485861],[54.409301,24.485989],[54.409388,24.486065],[54.409624,24.486071],[54.409707,24.486047],[54.40979,24.485963]]]}},{"type":"Feature","properties":{},"geometry":{"type":"Polygon","coordinates":[[[54.409085,24.485847],[54.409129,24.485845],[54.409188,24.485811],[54.409107,24.485694],[54.409162,24.485662],[54.409136,24.485626],[54.409092,24.485628],[54.408978,24.485694],[54.409085,24.485847]]]}},{"type":"Feature","properties":{},"geometry":{"type":"Polygon","coordinates":[[[54.4077,24.485931],[54.407651,24.485895],[54.407607,24.485897],[54.407513,24.485999],[54.407561,24.486036],[54.407605,24.486034],[54.4077,24.485931]]]}},{"type":"Feature","properties":{},"geometry":{"type":"Polygon","coordinates":[[[54.409247,24.487364],[54.409203,24.487366],[54.40884,24.487649],[54.40829,24.488012],[54.408592,24.488495],[54.408637,24.488493],[54.409511,24.488057],[54.40936,24.487784],[54.409315,24.487786],[54.408621,24.488174],[54.40859,24.488122],[54.409363,24.48769],[54.409247,24.487364]]]}},{"type":"Feature","properties":{},"geometry":{"type":"Polygon","coordinates":[[[54.410512,24.488407],[54.410377,24.488418],[54.410382,24.488466],[54.410094,24.488494],[54.410139,24.48893],[54.41065,24.488887],[54.410638,24.488768],[54.410905,24.488745],[54.410862,24.48833],[54.410507,24.488358],[54.410512,24.488407]]]}},{"type":"Feature","properties":{},"geometry":{"type":"Polygon","coordinates":[[[54.407768,24.488343],[54.407723,24.488345],[54.407317,24.488564],[54.4076,24.488951],[54.407644,24.488949],[54.40802,24.488719],[54.407768,24.488343]]]}},{"type":"Feature","properties":{},"geometry":{"type":"Polygon","coordinates":[[[54.407139,24.489205],[54.407183,24.489203],[54.407589,24.488973],[54.407309,24.488565],[54.407265,24.488567],[54.406859,24.488797],[54.407139,24.489205]]]}},{"type":"Feature","properties":{},"geometry":{"type":"Polygon","coordinates":[[[54.409221,24.491265],[54.409268,24.491263],[54.409272,24.491156],[54.408993,24.491151],[54.408992,24.491181],[54.408914,24.491182],[54.408902,24.491296],[54.408964,24.491298],[54.408963,24.491325],[54.409219,24.491329],[54.409221,24.491265]]]}},{"type":"Feature","properties":{},"geometry":{"type":"Polygon","coordinates":[[[54.410414,24.496007],[54.410337,24.495938],[54.410042,24.495951],[54.409751,24.496182],[54.409855,24.496302],[54.409774,24.496356],[54.409884,24.496497],[54.410179,24.496484],[54.410343,24.49638],[54.410284,24.496304],[54.410552,24.496292],[54.410775,24.496187],[54.410614,24.495998],[54.410414,24.496007]]]}},{"type":"Feature","properties":{},"geometry":{"type":"Polygon","coordinates":[[[54.407915,24.497278],[54.408007,24.497342],[54.408096,24.497352],[54.408151,24.49732],[54.408105,24.497266],[54.408002,24.497236],[54.407958,24.497237],[54.407915,24.497278]]]}},{"type":"Feature","properties":{},"geometry":{"type":"Polygon","coordinates":[[[54.409165,24.497863],[54.408936,24.497874],[54.408762,24.49794],[54.408764,24.498401],[54.408992,24.498391],[54.409383,24.498324],[54.409415,24.497947],[54.409165,24.497863]]]}},{"type":"Feature","properties":{},"geometry":{"type":"Polygon","coordinates":[[[54.409435,24.498769],[54.408918,24.498742],[54.408924,24.498611],[54.408808,24.498602],[54.408792,24.498662],[54.408829,24.498776],[54.408864,24.49878],[54.408875,24.499098],[54.408789,24.499463],[54.409146,24.499557],[54.409276,24.499552],[54.409382,24.499166],[54.409435,24.498769]]]}},{"type":"Feature","properties":{},"geometry":{"type":"Polygon","coordinates":[[[54.409926,24.500296],[54.409975,24.49974],[54.410012,24.49951],[54.409978,24.499439],[54.4099,24.49938],[54.409787,24.499363],[54.409571,24.499375],[54.409503,24.499421],[54.409453,24.499558],[54.409305,24.500042],[54.409255,24.500255],[54.409297,24.500383],[54.409388,24.50045],[54.409568,24.500481],[54.409746,24.500476],[54.409871,24.500412],[54.409926,24.500296]]]}},{"type":"Feature","properties":{},"geometry":{"type":"Polygon","coordinates":[[[54.40801,24.50091],[54.408008,24.500956],[54.40798,24.501014],[54.408019,24.501046],[54.408063,24.501044],[54.408114,24.500971],[54.408147,24.500887],[54.408041,24.500878],[54.40801,24.50091]]]}},{"type":"Feature","properties":{},"geometry":{"type":"Polygon","coordinates":[[[54.409545,24.501851],[54.409584,24.501746],[54.40961,24.501599],[54.409605,24.501431],[54.408679,24.501473],[54.408635,24.501801],[54.408708,24.501952],[54.408976,24.501964],[54.409295,24.501955],[54.40943,24.501922],[54.409545,24.501851]]]}},{"type":"Feature","properties":{},"geometry":{"type":"Polygon","coordinates":[[[54.407652,24.502405],[54.40807,24.502579],[54.408114,24.502577],[54.408295,24.5021],[54.408422,24.501858],[54.408025,24.50174],[54.407981,24.501742],[54.407652,24.502405]]]}},{"type":"Feature","properties":{},"geometry":{"type":"Polygon","coordinates":[[[54.407471,24.502393],[54.407463,24.50244],[54.407551,24.502448],[54.407608,24.502389],[54.407648,24.502313],[54.407542,24.502312],[54.407471,24.502393]]]}},{"type":"Feature","properties":{},"geometry":{"type":"Polygon","coordinates":[[[54.407249,24.502934],[54.407195,24.502928],[54.407071,24.503079],[54.407135,24.503115],[54.407179,24.503113],[54.40731,24.502996],[54.407335,24.502994],[54.407403,24.502885],[54.4073,24.502873],[54.407249,24.502934]]]}},{"type":"Feature","properties":{},"geometry":{"type":"Polygon","coordinates":[[[54.406943,24.503344],[54.406836,24.503365],[54.406873,24.503487],[54.406997,24.503468],[54.406943,24.503344]]]}},{"type":"Feature","properties":{},"geometry":{"type":"Polygon","coordinates":[[[54.40972,24.503497],[54.40937,24.503513],[54.409226,24.503621],[54.409558,24.503987],[54.409909,24.503972],[54.410053,24.503863],[54.40972,24.503497]]]}},{"type":"Feature","properties":{},"geometry":{"type":"Polygon","coordinates":[[[54.407134,24.50368],[54.407036,24.503648],[54.406992,24.50365],[54.406941,24.503807],[54.407074,24.503829],[54.407134,24.50368]]]}},{"type":"Feature","properties":{},"geometry":{"type":"Polygon","coordinates":[[[54.40961,24.504393],[54.409259,24.504094],[54.408743,24.504117],[54.408537,24.504377],[54.408832,24.504715],[54.409349,24.504692],[54.40961,24.504393]]]}},{"type":"Feature","properties":{},"geometry":{"type":"Polygon","coordinates":[[[54.408028,24.505741],[54.407822,24.505727],[54.407824,24.50582],[54.408033,24.505842],[54.408028,24.505741]]]}},{"type":"Feature","properties":{},"geometry":{"type":"Polygon","coordinates":[[[54.409472,24.506175],[54.409587,24.506114],[54.409672,24.506021],[54.409717,24.505908],[54.409719,24.505787],[54.40968,24.50568],[54.409606,24.50559],[54.409506,24.505526],[54.409388,24.505493],[54.40922,24.505497],[54.409104,24.505534],[54.409006,24.505603],[54.408937,24.505695],[54.408903,24.505803],[54.40891,24.505924],[54.40896,24.506035],[54.40905,24.506125],[54.409166,24.506182],[54.409298,24.5062],[54.409472,24.506175]]]}},{"type":"Feature","properties":{},"geometry":{"type":"Polygon","coordinates":[[[54.407336,24.506699],[54.407629,24.506391],[54.407472,24.506231],[54.406746,24.506262],[54.40653,24.506486],[54.406838,24.506722],[54.407336,24.506699]]]}},{"type":"Feature","properties":{},"geometry":{"type":"Polygon","coordinates":[[[54.407231,24.50734],[54.407333,24.507251],[54.406919,24.506861],[54.406883,24.506863],[54.406787,24.506951],[54.406819,24.506984],[54.406713,24.507076],[54.406747,24.507113],[54.406641,24.507198],[54.406984,24.507516],[54.407019,24.507514],[54.40712,24.507428],[54.407102,24.50741],[54.407189,24.507336],[54.407231,24.50734]]]}},{"type":"Feature","properties":{},"geometry":{"type":"Polygon","coordinates":[[[54.406644,24.507341],[54.4066,24.507343],[54.406557,24.507372],[54.406676,24.507523],[54.406721,24.507521],[54.406764,24.507492],[54.406644,24.507341]]]}},{"type":"Feature","properties":{},"geometry":{"type":"Polygon","coordinates":[[[54.409709,24.507832],[54.409692,24.507556],[54.409481,24.507344],[54.409437,24.507346],[54.409243,24.507515],[54.409604,24.507876],[54.409648,24.507874],[54.409709,24.507832]]]}},{"type":"Feature","properties":{},"geometry":{"type":"Polygon","coordinates":[[[54.407171,24.507807],[54.407201,24.507774],[54.407167,24.507749],[54.407123,24.507751],[54.407093,24.507784],[54.407127,24.507809],[54.407171,24.507807]]]}},{"type":"Feature","properties":{},"geometry":{"type":"Polygon","coordinates":[[[54.410332,24.507855],[54.410313,24.507789],[54.410243,24.507797],[54.410204,24.507719],[54.410078,24.507723],[54.409945,24.507758],[54.409811,24.507861],[54.409781,24.50794],[54.40981,24.507982],[54.409882,24.508021],[54.41011,24.507998],[54.410332,24.507855]]]}},{"type":"Feature","properties":{},"geometry":{"type":"Polygon","coordinates":[[[54.408925,24.507856],[54.408833,24.507859],[54.408836,24.507921],[54.408802,24.507923],[54.408807,24.508029],[54.40889,24.508025],[54.408889,24.507995],[54.408918,24.507994],[54.408914,24.507905],[54.408927,24.507904],[54.408925,24.507856]]]}},{"type":"Feature","properties":{},"geometry":{"type":"Polygon","coordinates":[[[54.40932,24.508159],[54.409278,24.508116],[54.409233,24.508118],[54.409144,24.508192],[54.409187,24.508235],[54.409231,24.508233],[54.40932,24.508159]]]}},{"type":"Feature","properties":{},"geometry":{"type":"Polygon","coordinates":[[[54.409057,24.508711],[54.409117,24.508675],[54.409097,24.508646],[54.409108,24.508639],[54.409158,24.508646],[54.409334,24.508542],[54.409273,24.508456],[54.409208,24.508471],[54.409158,24.5084],[54.409113,24.508402],[54.40897,24.508486],[54.409016,24.508552],[54.408942,24.50861],[54.408961,24.508636],[54.408925,24.508657],[54.408955,24.5087],[54.409002,24.508697],[54.409013,24.508712],[54.409057,24.508711]]]}},{"type":"Feature","properties":{},"geometry":{"type":"Polygon","coordinates":[[[54.407615,24.508841],[54.407587,24.508811],[54.407543,24.508813],[54.407478,24.508863],[54.407505,24.508892],[54.40755,24.50889],[54.407615,24.508841]]]}},{"type":"Feature","properties":{},"geometry":{"type":"Polygon","coordinates":[[[54.407708,24.508969],[54.407664,24.508971],[54.407612,24.509015],[54.407768,24.509168],[54.407812,24.509166],[54.407864,24.509122],[54.407708,24.508969]]]}},{"type":"Feature","properties":{},"geometry":{"type":"Polygon","coordinates":[[[54.407784,24.509501],[54.4079,24.509383],[54.407538,24.50905],[54.407184,24.509066],[54.407062,24.509175],[54.407107,24.509217],[54.407084,24.50924],[54.407158,24.509302],[54.406846,24.509316],[54.406706,24.509451],[54.407092,24.509809],[54.407446,24.509794],[54.40758,24.509657],[54.407432,24.509517],[54.407784,24.509501]]]}},{"type":"Feature","properties":{},"geometry":{"type":"Polygon","coordinates":[[[54.406811,24.509574],[54.406457,24.50959],[54.406298,24.509722],[54.40666,24.510054],[54.407014,24.510038],[54.407179,24.509921],[54.406811,24.509574]]]}},{"type":"Feature","properties":{},"geometry":{"type":"Polygon","coordinates":[[[54.41019,24.509994],[54.410005,24.509826],[54.409961,24.509828],[54.409618,24.51014],[54.409803,24.510308],[54.409847,24.510306],[54.41019,24.509994]]]}},{"type":"Feature","properties":{},"geometry":{"type":"Polygon","coordinates":[[[54.411178,24.481937],[54.411262,24.482011],[54.411307,24.482009],[54.411484,24.481839],[54.411116,24.48152],[54.411072,24.481522],[54.410898,24.481688],[54.410979,24.481758],[54.411024,24.481756],[54.411099,24.481684],[54.411154,24.481732],[54.411125,24.48176],[54.411169,24.481798],[54.411218,24.481792],[54.411277,24.481843],[54.411178,24.481937]]]}},{"type":"Feature","properties":{},"geometry":{"type":"Polygon","coordinates":[[[54.410906,24.481767],[54.410861,24.481769],[54.410832,24.481797],[54.410871,24.481831],[54.410916,24.481829],[54.410945,24.481801],[54.410906,24.481767]]]}},{"type":"Feature","properties":{},"geometry":{"type":"Polygon","coordinates":[[[54.412563,24.482207],[54.412739,24.481932],[54.412378,24.481741],[54.412334,24.481743],[54.412158,24.482018],[54.412518,24.482209],[54.412563,24.482207]]]}},{"type":"Feature","properties":{},"geometry":{"type":"Polygon","coordinates":[[[54.41143,24.482077],[54.411398,24.482052],[54.411354,24.482054],[54.411276,24.482134],[54.411307,24.482159],[54.411351,24.482158],[54.41143,24.482077]]]}},{"type":"Feature","properties":{},"geometry":{"type":"Polygon","coordinates":[[[54.410729,24.485356],[54.410774,24.485354],[54.410882,24.485296],[54.410832,24.485218],[54.410788,24.48522],[54.410679,24.485278],[54.410729,24.485356]]]}},{"type":"Feature","properties":{},"geometry":{"type":"Polygon","coordinates":[[[54.411468,24.48562],[54.411454,24.485589],[54.411409,24.485591],[54.411306,24.485632],[54.41132,24.485663],[54.411365,24.485661],[54.411468,24.48562]]]}},{"type":"Feature","properties":{},"geometry":{"type":"Polygon","coordinates":[[[54.411369,24.485778],[54.411471,24.485757],[54.411432,24.48566],[54.411331,24.48568],[54.411369,24.485778]]]}},{"type":"Feature","properties":{},"geometry":{"type":"Polygon","coordinates":[[[54.41324,24.487228],[54.413063,24.487235],[54.41314,24.487454],[54.4134,24.487443],[54.413388,24.487195],[54.413239,24.487201],[54.41324,24.487228]]]}},{"type":"Feature","properties":{},"geometry":{"type":"Polygon","coordinates":[[[54.413521,24.487621],[54.413488,24.487622],[54.413484,24.48753],[54.413516,24.487528],[54.413513,24.487454],[54.413201,24.487466],[54.413212,24.487712],[54.413524,24.4877],[54.413521,24.487621]]]}},{"type":"Feature","properties":{},"geometry":{"type":"Polygon","coordinates":[[[54.412915,24.487564],[54.412969,24.487753],[54.4131,24.487731],[54.413046,24.487541],[54.412915,24.487564]]]}},{"type":"Feature","properties":{},"geometry":{"type":"Polygon","coordinates":[[[54.413587,24.48789],[54.413475,24.487895],[54.413478,24.487956],[54.41359,24.487952],[54.413587,24.48789]]]}},{"type":"Feature","properties":{},"geometry":{"type":"Polygon","coordinates":[[[54.415658,24.487942],[54.415659,24.487972],[54.415751,24.487968],[54.415745,24.487766],[54.415078,24.487773],[54.415078,24.487817],[54.415143,24.487817],[54.415143,24.488215],[54.41537,24.488213],[54.41537,24.487963],[54.415619,24.487961],[54.415619,24.487943],[54.415658,24.487942]]]}},{"type":"Feature","properties":{},"geometry":{"type":"Polygon","coordinates":[[[54.414972,24.488235],[54.414795,24.488233],[54.414792,24.488328],[54.414968,24.48833],[54.414972,24.488235]]]}},{"type":"Feature","properties":{},"geometry":{"type":"Polygon","coordinates":[[[54.415566,24.488292],[54.415428,24.488298],[54.415429,24.488313],[54.415273,24.488316],[54.415275,24.488399],[54.415436,24.488396],[54.415435,24.488336],[54.415568,24.48833],[54.415566,24.488292]]]}},{"type":"Feature","properties":{},"geometry":{"type":"Polygon","coordinates":[[[54.414976,24.488355],[54.414808,24.48836],[54.414812,24.48848],[54.414979,24.488475],[54.414976,24.488355]]]}},{"type":"Feature","properties":{},"geometry":{"type":"Polygon","coordinates":[[[54.415432,24.488438],[54.415368,24.48844],[54.415367,24.488486],[54.415431,24.488484],[54.415432,24.488438]]]}},{"type":"Feature","properties":{},"geometry":{"type":"Polygon","coordinates":[[[54.415543,24.488642],[54.415419,24.488646],[54.41542,24.488695],[54.415545,24.48869],[54.415543,24.488642]]]}},{"type":"Feature","properties":{},"geometry":{"type":"Polygon","coordinates":[[[54.41113,24.488872],[54.411103,24.488933],[54.411153,24.489001],[54.411264,24.488997],[54.411389,24.489163],[54.411217,24.489255],[54.41127,24.489338],[54.411314,24.489336],[54.411981,24.488966],[54.412019,24.48904],[54.411446,24.489356],[54.411541,24.489509],[54.411612,24.489497],[54.411669,24.489595],[54.411928,24.489644],[54.411911,24.489721],[54.412076,24.489757],[54.41212,24.489755],[54.412285,24.48913],[54.412411,24.48913],[54.412457,24.489108],[54.412758,24.489682],[54.412803,24.48968],[54.412956,24.4896],[54.412923,24.48955],[54.413136,24.489455],[54.413189,24.489336],[54.413217,24.48935],[54.413261,24.489348],[54.413305,24.489173],[54.412655,24.488956],[54.412659,24.488906],[54.41288,24.488938],[54.413489,24.488848],[54.413445,24.488556],[54.412857,24.488623],[54.412817,24.488588],[54.412773,24.48859],[54.412667,24.488645],[54.412595,24.488585],[54.412673,24.488545],[54.412558,24.488398],[54.412691,24.487985],[54.41283,24.488044],[54.412925,24.488103],[54.412969,24.488101],[54.413104,24.487954],[54.412745,24.487759],[54.412516,24.487718],[54.412242,24.487705],[54.412198,24.487707],[54.41222,24.487927],[54.412369,24.487934],[54.412381,24.48791],[54.412433,24.487915],[54.412295,24.488486],[54.412265,24.488491],[54.411981,24.487983],[54.412183,24.487944],[54.412157,24.487708],[54.411824,24.487784],[54.411537,24.487959],[54.411369,24.488132],[54.411527,24.488243],[54.411571,24.488241],[54.411757,24.488089],[54.411983,24.488475],[54.411899,24.488717],[54.411214,24.488505],[54.41117,24.488507],[54.411126,24.488602],[54.411312,24.48867],[54.411275,24.488853],[54.41113,24.488872]],[[54.412019,24.489325],[54.411984,24.489495],[54.411834,24.489464],[54.41175,24.489351],[54.41192,24.489254],[54.411918,24.489304],[54.412019,24.489325]],[[54.412972,24.489335],[54.412881,24.489378],[54.412827,24.489256],[54.412863,24.48916],[54.413019,24.489209],[54.412972,24.489335]]]}},{"type":"Feature","properties":{},"geometry":{"type":"Polygon","coordinates":[[[54.410172,24.489186],[54.410578,24.48915],[54.41063,24.489617],[54.410826,24.489601],[54.410762,24.489025],[54.41016,24.489078],[54.410172,24.489186]]]}},{"type":"Feature","properties":{},"geometry":{"type":"Polygon","coordinates":[[[54.410884,24.489736],[54.410791,24.489741],[54.410794,24.489784],[54.410888,24.489778],[54.410884,24.489736]]]}},{"type":"Feature","properties":{},"geometry":{"type":"Polygon","coordinates":[[[54.410405,24.48949],[54.410212,24.489506],[54.410282,24.490092],[54.410885,24.490035],[54.41087,24.489907],[54.41051,24.48994],[54.410508,24.489927],[54.410464,24.489929],[54.410405,24.48949]]]}},{"type":"Feature","properties":{},"geometry":{"type":"Polygon","coordinates":[[[54.412498,24.489945],[54.412384,24.489951],[54.412388,24.490013],[54.412502,24.490007],[54.412498,24.489945]]]}},{"type":"Feature","properties":{},"geometry":{"type":"Polygon","coordinates":[[[54.411147,24.490714],[54.411148,24.490662],[54.411007,24.490663],[54.411007,24.490715],[54.411147,24.490714]]]}},{"type":"Feature","properties":{},"geometry":{"type":"Polygon","coordinates":[[[54.411224,24.490795],[54.41111,24.490797],[54.41111,24.49089],[54.411224,24.490888],[54.411224,24.490795]]]}},{"type":"Feature","properties":{},"geometry":{"type":"Polygon","coordinates":[[[54.412879,24.490641],[54.412872,24.491134],[54.413395,24.491138],[54.413397,24.490975],[54.413113,24.490971],[54.413115,24.490813],[54.413411,24.490814],[54.413413,24.490645],[54.412879,24.490641]]]}},{"type":"Feature","properties":{},"geometry":{"type":"Polygon","coordinates":[[[54.410554,24.490814],[54.410372,24.490819],[54.410368,24.491032],[54.410699,24.491033],[54.410706,24.490766],[54.410556,24.490768],[54.410554,24.490814]]]}},{"type":"Feature","properties":{},"geometry":{"type":"Polygon","coordinates":[[[54.411221,24.490892],[54.411102,24.490896],[54.411104,24.490953],[54.411223,24.490949],[54.411221,24.490892]]]}},{"type":"Feature","properties":{},"geometry":{"type":"Polygon","coordinates":[[[54.412875,24.491187],[54.412785,24.491187],[54.412784,24.491226],[54.412874,24.491226],[54.412875,24.491187]]]}},{"type":"Feature","properties":{},"geometry":{"type":"Polygon","coordinates":[[[54.411222,24.491426],[54.41114,24.491426],[54.411137,24.491503],[54.411219,24.491503],[54.411222,24.491426]]]}},{"type":"Feature","properties":{},"geometry":{"type":"Polygon","coordinates":[[[54.410816,24.491635],[54.41083,24.491311],[54.410413,24.4913],[54.410399,24.491624],[54.410816,24.491635]]]}},{"type":"Feature","properties":{},"geometry":{"type":"Polygon","coordinates":[[[54.411931,24.491223],[54.411391,24.491192],[54.411319,24.492101],[54.41186,24.492132],[54.411931,24.491223]]]}},{"type":"Feature","properties":{},"geometry":{"type":"Polygon","coordinates":[[[54.412186,24.491699],[54.412064,24.491699],[54.412063,24.491728],[54.412185,24.491729],[54.412186,24.491699]]]}},{"type":"Feature","properties":{},"geometry":{"type":"Polygon","coordinates":[[[54.411709,24.492296],[54.411537,24.492294],[54.411534,24.492382],[54.411706,24.492383],[54.411709,24.492296]]]}},{"type":"Feature","properties":{},"geometry":{"type":"Polygon","coordinates":[[[54.412155,24.492461],[54.411929,24.492461],[54.411928,24.492559],[54.412154,24.492558],[54.412155,24.492461]]]}},{"type":"Feature","properties":{},"geometry":{"type":"Polygon","coordinates":[[[54.415103,24.496914],[54.41501,24.49686],[54.414966,24.496862],[54.414855,24.497019],[54.414947,24.497073],[54.414992,24.497071],[54.415103,24.496914]]]}},{"type":"Feature","properties":{},"geometry":{"type":"Polygon","coordinates":[[[54.411654,24.498184],[54.41178,24.498914],[54.411943,24.498902],[54.412125,24.498673],[54.412019,24.498054],[54.412041,24.498045],[54.41181,24.4975],[54.411496,24.497386],[54.411452,24.497388],[54.411358,24.497424],[54.411654,24.498184]]]}},{"type":"Feature","properties":{},"geometry":{"type":"Polygon","coordinates":[[[54.410754,24.497562],[54.41058,24.49771],[54.410566,24.498873],[54.410704,24.499019],[54.410993,24.499029],[54.410985,24.497515],[54.410754,24.497562]]]}},{"type":"Feature","properties":{},"geometry":{"type":"Polygon","coordinates":[[[54.410106,24.501535],[54.410105,24.501613],[54.410003,24.501618],[54.410001,24.501867],[54.410433,24.501853],[54.410432,24.501797],[54.410568,24.501791],[54.410573,24.501566],[54.410542,24.501564],[54.410544,24.501523],[54.410106,24.501535]]]}},{"type":"Feature","properties":{},"geometry":{"type":"Polygon","coordinates":[[[54.41317,24.503099],[54.41329,24.502809],[54.413379,24.502328],[54.412899,24.502033],[54.412741,24.501881],[54.412655,24.501769],[54.412574,24.501625],[54.412526,24.501486],[54.411871,24.501477],[54.411907,24.501678],[54.412027,24.501995],[54.412111,24.502152],[54.412263,24.502359],[54.412518,24.502661],[54.412763,24.502825],[54.412833,24.502897],[54.412902,24.502978],[54.412987,24.503124],[54.413098,24.503119],[54.41317,24.503099]]]}},{"type":"Feature","properties":{},"geometry":{"type":"Polygon","coordinates":[[[54.411529,24.502276],[54.411484,24.502278],[54.411413,24.502351],[54.411626,24.502524],[54.41167,24.502522],[54.411742,24.502449],[54.411529,24.502276]]]}},{"type":"Feature","properties":{},"geometry":{"type":"Polygon","coordinates":[[[54.411356,24.502864],[54.411354,24.502702],[54.411224,24.502679],[54.411155,24.502628],[54.411149,24.502248],[54.410903,24.502246],[54.410869,24.50284],[54.411356,24.502864]]]}},{"type":"Feature","properties":{},"geometry":{"type":"Polygon","coordinates":[[[54.411512,24.502535],[54.411418,24.502536],[54.411416,24.50266],[54.411509,24.502659],[54.411512,24.502535]]]}},{"type":"Feature","properties":{},"geometry":{"type":"Polygon","coordinates":[[[54.411811,24.502807],[54.411855,24.502805],[54.411957,24.502748],[54.411796,24.502509],[54.411752,24.502511],[54.41165,24.502568],[54.411811,24.502807]]]}},{"type":"Feature","properties":{},"geometry":{"type":"Polygon","coordinates":[[[54.411657,24.50276],[54.411613,24.502762],[54.411528,24.502797],[54.411605,24.502949],[54.411649,24.502947],[54.411733,24.502911],[54.411657,24.50276]]]}},{"type":"Feature","properties":{},"geometry":{"type":"Polygon","coordinates":[[[54.415448,24.50408],[54.415408,24.504032],[54.415364,24.504034],[54.415339,24.504051],[54.415346,24.50406],[54.415311,24.504031],[54.415075,24.504042],[54.414982,24.504134],[54.414826,24.504005],[54.414564,24.504017],[54.414405,24.504175],[54.414582,24.504328],[54.414844,24.504316],[54.41495,24.504227],[54.415094,24.504352],[54.41533,24.504341],[54.415499,24.504199],[54.41566,24.504337],[54.415811,24.504331],[54.415988,24.504182],[54.415792,24.50402],[54.415595,24.504034],[54.415524,24.504085],[54.415551,24.504117],[54.415489,24.504178],[54.415393,24.504099],[54.415448,24.50408]]]}},{"type":"Feature","properties":{},"geometry":{"type":"Polygon","coordinates":[[[54.410705,24.504046],[54.410233,24.503968],[54.409882,24.503984],[54.409851,24.504142],[54.410323,24.50422],[54.410673,24.504204],[54.410705,24.504046]]]}},{"type":"Feature","properties":{},"geometry":{"type":"Polygon","coordinates":[[[54.414508,24.504375],[54.414312,24.504214],[54.41398,24.504229],[54.413821,24.504386],[54.413999,24.504539],[54.414331,24.504524],[54.414508,24.504375]]]}},{"type":"Feature","properties":{},"geometry":{"type":"Polygon","coordinates":[[[54.414868,24.50483],[54.414671,24.504668],[54.414435,24.504679],[54.414277,24.504836],[54.414454,24.504989],[54.41469,24.504979],[54.414868,24.50483]]]}},{"type":"Feature","properties":{},"geometry":{"type":"Polygon","coordinates":[[[54.415269,24.505157],[54.415313,24.505155],[54.415377,24.50511],[54.415329,24.50507],[54.415428,24.504987],[54.415232,24.504826],[54.415025,24.504835],[54.414866,24.504992],[54.415044,24.505145],[54.415251,24.505136],[54.415269,24.505157]]]}},{"type":"Feature","properties":{},"geometry":{"type":"Polygon","coordinates":[[[54.410773,24.506792],[54.410797,24.506728],[54.410732,24.506708],[54.410747,24.506615],[54.410678,24.506576],[54.410546,24.50654],[54.410501,24.506541],[54.410327,24.506562],[54.410254,24.506613],[54.410254,24.506663],[54.410291,24.506731],[54.410339,24.506741],[54.410457,24.506804],[54.410588,24.506808],[54.410773,24.506792]]]}},{"type":"Feature","properties":{},"geometry":{"type":"Polygon","coordinates":[[[54.411043,24.506943],[54.410977,24.506911],[54.410933,24.506913],[54.410908,24.506956],[54.410803,24.50694],[54.410749,24.506996],[54.410688,24.507108],[54.410682,24.507268],[54.410725,24.507342],[54.410823,24.507348],[54.410904,24.507326],[54.410922,24.507285],[54.41101,24.507189],[54.411043,24.506943]]]}},{"type":"Feature","properties":{},"geometry":{"type":"Polygon","coordinates":[[[54.410768,24.508598],[54.410765,24.508698],[54.411097,24.508706],[54.4111,24.508608],[54.410768,24.508598]]]}},{"type":"Feature","properties":{},"geometry":{"type":"Polygon","coordinates":[[[54.411703,24.508958],[54.411535,24.508956],[54.411527,24.509164],[54.411694,24.509167],[54.411703,24.508958]]]}},{"type":"Feature","properties":{},"geometry":{"type":"Polygon","coordinates":[[[54.41076,24.509063],[54.410654,24.509066],[54.410656,24.509163],[54.410762,24.50916],[54.41076,24.509063]]]}},{"type":"Feature","properties":{},"geometry":{"type":"Polygon","coordinates":[[[54.411477,24.50934],[54.411487,24.508984],[54.411204,24.508986],[54.41119,24.509311],[54.411263,24.509312],[54.411262,24.509338],[54.411477,24.50934]]]}},{"type":"Feature","properties":{},"geometry":{"type":"Polygon","coordinates":[[[54.411171,24.509148],[54.411079,24.509149],[54.411077,24.509221],[54.41117,24.50922],[54.411171,24.509148]]]}},{"type":"Feature","properties":{},"geometry":{"type":"Polygon","coordinates":[[[54.411678,24.509265],[54.411515,24.509265],[54.411511,24.509482],[54.411673,24.509482],[54.411678,24.509265]]]}},{"type":"Feature","properties":{},"geometry":{"type":"Polygon","coordinates":[[[54.411448,24.509523],[54.411445,24.509433],[54.410679,24.509451],[54.410683,24.509545],[54.411448,24.509523]]]}},{"type":"Feature","properties":{},"geometry":{"type":"Polygon","coordinates":[[[54.411289,24.50984],[54.411333,24.509838],[54.411432,24.509798],[54.411355,24.509641],[54.41131,24.509643],[54.411212,24.509683],[54.411289,24.50984]]]}},{"type":"Feature","properties":{},"geometry":{"type":"Polygon","coordinates":[[[54.418573,24.481898],[54.418485,24.481903],[54.418486,24.481925],[54.418575,24.48192],[54.418573,24.481898]]]}},{"type":"Feature","properties":{},"geometry":{"type":"Polygon","coordinates":[[[54.418765,24.482454],[54.418784,24.482322],[54.418416,24.482287],[54.418398,24.482419],[54.418765,24.482454]]]}},{"type":"Feature","properties":{},"geometry":{"type":"Polygon","coordinates":[[[54.41876,24.48248],[54.418389,24.482449],[54.418373,24.482583],[54.418743,24.482614],[54.41876,24.48248]]]}},{"type":"Feature","properties":{},"geometry":{"type":"Polygon","coordinates":[[[54.418722,24.482713],[54.418352,24.482687],[54.418338,24.482823],[54.418708,24.482848],[54.418722,24.482713]]]}},{"type":"Feature","properties":{},"geometry":{"type":"Polygon","coordinates":[[[54.418692,24.482873],[54.418322,24.482863],[54.418316,24.482984],[54.418686,24.482995],[54.418692,24.482873]]]}},{"type":"Feature","properties":{},"geometry":{"type":"Polygon","coordinates":[[[54.415671,24.487682],[54.415568,24.487687],[54.415571,24.487731],[54.415674,24.487726],[54.415671,24.487682]]]}},{"type":"Feature","properties":{},"geometry":{"type":"Polygon","coordinates":[[[54.417324,24.487723],[54.417194,24.487726],[54.417194,24.487771],[54.417325,24.487769],[54.417324,24.487723]]]}},{"type":"Feature","properties":{},"geometry":{"type":"Polygon","coordinates":[[[54.415887,24.487747],[54.41581,24.487748],[54.415809,24.487792],[54.415885,24.487791],[54.415887,24.487747]]]}},{"type":"Feature","properties":{},"geometry":{"type":"Polygon","coordinates":[[[54.416103,24.487769],[54.415953,24.487767],[54.415952,24.487796],[54.416102,24.487798],[54.416103,24.487769]]]}},{"type":"Feature","properties":{},"geometry":{"type":"Polygon","coordinates":[[[54.416254,24.487801],[54.415953,24.487816],[54.415961,24.487946],[54.416262,24.487931],[54.416254,24.487801]]]}},{"type":"Feature","properties":{},"geometry":{"type":"Polygon","coordinates":[[[54.416244,24.487954],[54.415964,24.487962],[54.415965,24.488019],[54.416245,24.48801],[54.416244,24.487954]]]}},{"type":"Feature","properties":{},"geometry":{"type":"Polygon","coordinates":[[[54.416665,24.488042],[54.416594,24.488045],[54.416594,24.488023],[54.416666,24.48802],[54.416665,24.487971],[54.416398,24.487977],[54.416397,24.488021],[54.416291,24.488026],[54.416307,24.488308],[54.416431,24.488303],[54.416435,24.488367],[54.416526,24.488363],[54.416501,24.488235],[54.41675,24.488241],[54.416746,24.488148],[54.416603,24.488148],[54.416603,24.488136],[54.416669,24.488133],[54.416665,24.488042]],[[54.416571,24.488134],[54.416422,24.48814],[54.416421,24.488124],[54.416571,24.488134]],[[54.416528,24.488181],[54.416498,24.488185],[54.416498,24.48818],[54.416548,24.48818],[54.416528,24.488181]]]}},{"type":"Feature","properties":{},"geometry":{"type":"Polygon","coordinates":[[[54.41571,24.4882],[54.415603,24.488204],[54.415607,24.488315],[54.415714,24.488311],[54.41571,24.4882]]]}},{"type":"Feature","properties":{},"geometry":{"type":"Polygon","coordinates":[[[54.416748,24.488248],[54.416661,24.48825],[54.416661,24.488306],[54.416749,24.488305],[54.416748,24.488248]]]}},{"type":"Feature","properties":{},"geometry":{"type":"Polygon","coordinates":[[[54.416654,24.488266],[54.416555,24.488265],[54.416551,24.488329],[54.41665,24.48833],[54.416654,24.488266]]]}},{"type":"Feature","properties":{},"geometry":{"type":"Polygon","coordinates":[[[54.416187,24.488491],[54.416527,24.488493],[54.416528,24.48842],[54.416348,24.488417],[54.416349,24.488388],[54.416274,24.488387],[54.416276,24.488277],[54.416191,24.488278],[54.41619,24.488377],[54.416187,24.488349],[54.416101,24.488354],[54.416105,24.488391],[54.416189,24.488385],[54.416187,24.488491]]]}},{"type":"Feature","properties":{},"geometry":{"type":"Polygon","coordinates":[[[54.415696,24.488385],[54.415695,24.488336],[54.415557,24.48834],[54.415558,24.488389],[54.415696,24.488385]]]}},{"type":"Feature","properties":{},"geometry":{"type":"Polygon","coordinates":[[[54.416725,24.488369],[54.416651,24.48837],[54.416649,24.488409],[54.416723,24.488408],[54.416725,24.488369]]]}},{"type":"Feature","properties":{},"geometry":{"type":"Polygon","coordinates":[[[54.416696,24.488436],[54.416607,24.488436],[54.416605,24.488479],[54.416694,24.488479],[54.416696,24.488436]]]}},{"type":"Feature","properties":{},"geometry":{"type":"Polygon","coordinates":[[[54.416252,24.488881],[54.416178,24.488884],[54.416183,24.488991],[54.416257,24.488988],[54.416252,24.488881]]]}},{"type":"Feature","properties":{},"geometry":{"type":"Polygon","coordinates":[[[54.416058,24.48884],[54.415955,24.488843],[54.415962,24.489043],[54.416065,24.48904],[54.416058,24.48884]]]}},{"type":"Feature","properties":{},"geometry":{"type":"Polygon","coordinates":[[[54.415679,24.488851],[54.415575,24.488854],[54.415579,24.489054],[54.415683,24.489051],[54.415679,24.488851]]]}},{"type":"Feature","properties":{},"geometry":{"type":"Polygon","coordinates":[[[54.415876,24.489139],[54.415873,24.489095],[54.415675,24.489107],[54.415677,24.489148],[54.415876,24.489139]]]}},{"type":"Feature","properties":{},"geometry":{"type":"Polygon","coordinates":[[[54.415835,24.489171],[54.41574,24.489171],[54.415737,24.489252],[54.415833,24.489251],[54.415835,24.489171]]]}},{"type":"Feature","properties":{},"geometry":{"type":"Polygon","coordinates":[[[54.416267,24.489502],[54.415372,24.489525],[54.415376,24.489679],[54.416292,24.489655],[54.41629,24.489586],[54.416269,24.489586],[54.416267,24.489502]]]}},{"type":"Feature","properties":{},"geometry":{"type":"Polygon","coordinates":[[[54.417196,24.501687],[54.417118,24.501759],[54.417175,24.50182],[54.417137,24.501904],[54.417014,24.501951],[54.417209,24.502091],[54.417254,24.502089],[54.41747,24.501885],[54.41724,24.501685],[54.417196,24.501687]]]}},{"type":"Feature","properties":{},"geometry":{"type":"Polygon","coordinates":[[[54.416776,24.501936],[54.416865,24.501923],[54.41685,24.501875],[54.416761,24.501889],[54.416776,24.501936]]]}},{"type":"Feature","properties":{},"geometry":{"type":"Polygon","coordinates":[[[54.416529,24.501977],[54.416758,24.501965],[54.416757,24.501916],[54.416527,24.50193],[54.416529,24.501977]]]}},{"type":"Feature","properties":{},"geometry":{"type":"Polygon","coordinates":[[[54.417533,24.502389],[54.417577,24.502387],[54.417619,24.50236],[54.41759,24.502323],[54.417546,24.502325],[54.417504,24.502353],[54.417533,24.502389]]]}},{"type":"Feature","properties":{},"geometry":{"type":"Polygon","coordinates":[[[54.417864,24.502516],[54.417908,24.502514],[54.417932,24.502489],[54.417885,24.502453],[54.417841,24.502455],[54.417817,24.50248],[54.417864,24.502516]]]}},{"type":"Feature","properties":{},"geometry":{"type":"Polygon","coordinates":[[[54.415526,24.502419],[54.415456,24.502419],[54.415452,24.502478],[54.415522,24.502478],[54.415526,24.502419]]]}},{"type":"Feature","properties":{},"geometry":{"type":"Polygon","coordinates":[[[54.417504,24.502442],[54.417377,24.502444],[54.417377,24.502558],[54.4175,24.502562],[54.417504,24.502442]]]}},{"type":"Feature","properties":{},"geometry":{"type":"Polygon","coordinates":[[[54.416995,24.502628],[54.416848,24.502632],[54.416848,24.502656],[54.416996,24.502652],[54.416995,24.502628]]]}},{"type":"Feature","properties":{},"geometry":{"type":"Polygon","coordinates":[[[54.415348,24.502642],[54.415469,24.502637],[54.415468,24.502603],[54.415346,24.502609],[54.415348,24.502642]]]}},{"type":"Feature","properties":{},"geometry":{"type":"Polygon","coordinates":[[[54.415466,24.502644],[54.415351,24.502645],[54.41535,24.502683],[54.415466,24.502682],[54.415466,24.502644]]]}},{"type":"Feature","properties":{},"geometry":{"type":"Polygon","coordinates":[[[54.417408,24.502771],[54.417402,24.50271],[54.417054,24.502721],[54.417054,24.502707],[54.4169,24.502704],[54.416897,24.502764],[54.417015,24.502769],[54.417016,24.502796],[54.417302,24.502785],[54.417299,24.502718],[54.417305,24.502777],[54.417408,24.502771]]]}},{"type":"Feature","properties":{},"geometry":{"type":"Polygon","coordinates":[[[54.415618,24.502785],[54.41552,24.502781],[54.415517,24.502809],[54.415614,24.502812],[54.415618,24.502785]]]}},{"type":"Feature","properties":{},"geometry":{"type":"Polygon","coordinates":[[[54.415458,24.502778],[54.415352,24.502786],[54.415358,24.50284],[54.415465,24.502832],[54.415458,24.502778]]]}},{"type":"Feature","properties":{},"geometry":{"type":"Polygon","coordinates":[[[54.415815,24.502783],[54.415645,24.50278],[54.415641,24.502858],[54.415811,24.502861],[54.415815,24.502783]]]}},{"type":"Feature","properties":{},"geometry":{"type":"Polygon","coordinates":[[[54.415497,24.502843],[54.415395,24.502852],[54.415403,24.502903],[54.415505,24.502893],[54.415497,24.502843]]]}},{"type":"Feature","properties":{},"geometry":{"type":"Polygon","coordinates":[[[54.417372,24.503102],[54.417374,24.50306],[54.417223,24.503058],[54.417221,24.5031],[54.417372,24.503102]]]}},{"type":"Feature","properties":{},"geometry":{"type":"Polygon","coordinates":[[[54.417526,24.503139],[54.41742,24.503139],[54.417417,24.503229],[54.417605,24.503229],[54.417604,24.503168],[54.417525,24.50317],[54.417526,24.503139]]]}},{"type":"Feature","properties":{},"geometry":{"type":"Polygon","coordinates":[[[54.415728,24.503421],[54.41559,24.50342],[54.415588,24.503475],[54.415726,24.503477],[54.415728,24.503421]]]}},{"type":"Feature","properties":{},"geometry":{"type":"Polygon","coordinates":[[[54.415852,24.503558],[54.415765,24.503561],[54.415768,24.503644],[54.415855,24.50364],[54.415852,24.503558]]]}},{"type":"Feature","properties":{},"geometry":{"type":"Polygon","coordinates":[[[54.417698,24.50357],[54.41762,24.503571],[54.417612,24.503788],[54.41769,24.503787],[54.417698,24.50357]]]}},{"type":"Feature","properties":{},"geometry":{"type":"Polygon","coordinates":[[[54.415415,24.503972],[54.415312,24.503986],[54.415321,24.504023],[54.415424,24.504009],[54.415415,24.503972]]]}},{"type":"Feature","properties":{},"geometry":{"type":"Polygon","coordinates":[[[54.41561,24.504498],[54.415448,24.504506],[54.41549,24.504472],[54.415441,24.504421],[54.415396,24.504423],[54.415352,24.504459],[54.415401,24.50451],[54.415427,24.504509],[54.415271,24.504664],[54.415448,24.504817],[54.415629,24.504809],[54.415806,24.50466],[54.41561,24.504498]]]}},{"type":"Feature","properties":{},"geometry":{"type":"Polygon","coordinates":[[[54.41575,24.505029],[54.415794,24.505027],[54.415841,24.50499],[54.415784,24.50493],[54.415739,24.504932],[54.415693,24.504968],[54.41575,24.505029]]]}},{"type":"Feature","properties":{},"geometry":{"type":"Polygon","coordinates":[[[54.418939,24.480052],[54.418829,24.480044],[54.418823,24.48008],[54.418899,24.480089],[54.418898,24.480133],[54.41898,24.480132],[54.418981,24.480071],[54.418935,24.48007],[54.418939,24.480052]]]}},{"type":"Feature","properties":{},"geometry":{"type":"Polygon","coordinates":[[[54.420657,24.480301],[54.42066,24.480236],[54.420525,24.480234],[54.420518,24.480366],[54.420614,24.48037],[54.420613,24.480381],[54.420901,24.480388],[54.420903,24.480342],[54.420695,24.480334],[54.420696,24.480302],[54.420657,24.480301]]]}},{"type":"Feature","properties":{},"geometry":{"type":"Polygon","coordinates":[[[54.419993,24.480828],[54.419885,24.480824],[54.419879,24.480879],[54.419987,24.480883],[54.419993,24.480828]]]}},{"type":"Feature","properties":{},"geometry":{"type":"Polygon","coordinates":[[[54.418898,24.481561],[54.418534,24.481526],[54.418516,24.481661],[54.41888,24.481695],[54.418898,24.481561]]]}},{"type":"Feature","properties":{},"geometry":{"type":"Polygon","coordinates":[[[54.419322,24.48163],[54.418938,24.481591],[54.418916,24.481744],[54.4193,24.481784],[54.419322,24.48163]]]}},{"type":"Feature","properties":{},"geometry":{"type":"Polygon","coordinates":[[[54.419748,24.48167],[54.419377,24.481633],[54.419357,24.48177],[54.419728,24.481807],[54.419748,24.48167]]]}},{"type":"Feature","properties":{},"geometry":{"type":"Polygon","coordinates":[[[54.420025,24.481708],[54.420019,24.481771],[54.4202,24.481772],[54.420202,24.48172],[54.420025,24.481708]]]}},{"type":"Feature","properties":{},"geometry":{"type":"Polygon","coordinates":[[[54.418672,24.481686],[54.418499,24.481693],[54.418505,24.481833],[54.418733,24.481824],[54.41873,24.481743],[54.418675,24.481744],[54.418672,24.481686]]]}},{"type":"Feature","properties":{},"geometry":{"type":"Polygon","coordinates":[[[54.418868,24.481775],[54.418782,24.481772],[54.418769,24.481852],[54.418855,24.481855],[54.418868,24.481775]]]}},{"type":"Feature","properties":{},"geometry":{"type":"Polygon","coordinates":[[[54.420621,24.481788],[54.420239,24.48175],[54.420215,24.481913],[54.420597,24.481951],[54.420621,24.481788]]]}},{"type":"Feature","properties":{},"geometry":{"type":"Polygon","coordinates":[[[54.42104,24.48183],[54.420671,24.481815],[54.420663,24.481948],[54.421032,24.481962],[54.42104,24.48183]]]}},{"type":"Feature","properties":{},"geometry":{"type":"Polygon","coordinates":[[[54.420171,24.481889],[54.419807,24.481858],[54.41979,24.481993],[54.420155,24.482024],[54.420171,24.481889]]]}},{"type":"Feature","properties":{},"geometry":{"type":"Polygon","coordinates":[[[54.420987,24.482135],[54.421007,24.482012],[54.420653,24.481972],[54.420633,24.482095],[54.420987,24.482135]]]}},{"type":"Feature","properties":{},"geometry":{"type":"Polygon","coordinates":[[[54.419618,24.481986],[54.41925,24.481949],[54.419231,24.48208],[54.4196,24.482116],[54.419618,24.481986]]]}},{"type":"Feature","properties":{},"geometry":{"type":"Polygon","coordinates":[[[54.418837,24.481991],[54.418756,24.481987],[54.418741,24.482057],[54.418821,24.482062],[54.418837,24.481991]]]}},{"type":"Feature","properties":{},"geometry":{"type":"Polygon","coordinates":[[[54.420468,24.48202],[54.420333,24.482001],[54.420309,24.482091],[54.420444,24.482109],[54.420468,24.48202]]]}},{"type":"Feature","properties":{},"geometry":{"type":"Polygon","coordinates":[[[54.419583,24.482177],[54.419586,24.482153],[54.419211,24.482116],[54.419183,24.48231],[54.419389,24.482334],[54.419328,24.482335],[54.419321,24.482404],[54.419167,24.482396],[54.419148,24.482581],[54.419481,24.482611],[54.419525,24.482609],[54.419529,24.482572],[54.419598,24.482572],[54.419631,24.482241],[54.419826,24.482262],[54.41981,24.482396],[54.420191,24.482427],[54.420215,24.482222],[54.419879,24.482189],[54.419834,24.482191],[54.419831,24.482221],[54.419713,24.4822],[54.419635,24.482203],[54.419636,24.48219],[54.419722,24.482194],[54.419725,24.482181],[54.4198,24.482179],[54.4198,24.48213],[54.419708,24.482119],[54.419837,24.482116],[54.419835,24.482019],[54.41963,24.482024],[54.419632,24.482113],[54.419616,24.482114],[54.419605,24.482179],[54.419583,24.482177]]]}},{"type":"Feature","properties":{},"geometry":{"type":"Polygon","coordinates":[[[54.419207,24.482064],[54.41884,24.482031],[54.418829,24.48211],[54.419196,24.482143],[54.419207,24.482064]]]}},{"type":"Feature","properties":{},"geometry":{"type":"Polygon","coordinates":[[[54.420228,24.482064],[54.419862,24.482025],[54.419842,24.482156],[54.420207,24.482195],[54.420228,24.482064]]]}},{"type":"Feature","properties":{},"geometry":{"type":"Polygon","coordinates":[[[54.418817,24.482124],[54.41845,24.482086],[54.418431,24.482213],[54.418798,24.482252],[54.418817,24.482124]]]}},{"type":"Feature","properties":{},"geometry":{"type":"Polygon","coordinates":[[[54.420588,24.482262],[54.420226,24.482221],[54.420216,24.482283],[54.420578,24.482324],[54.420588,24.482262]]]}},{"type":"Feature","properties":{},"geometry":{"type":"Polygon","coordinates":[[[54.420967,24.48224],[54.420612,24.482213],[54.420599,24.482334],[54.420954,24.482361],[54.420967,24.48224]]]}},{"type":"Feature","properties":{},"geometry":{"type":"Polygon","coordinates":[[[54.42058,24.482347],[54.420214,24.48231],[54.420195,24.482442],[54.420561,24.482479],[54.42058,24.482347]]]}},{"type":"Feature","properties":{},"geometry":{"type":"Polygon","coordinates":[[[54.420945,24.482404],[54.42059,24.482366],[54.420572,24.482488],[54.420926,24.482526],[54.420945,24.482404]]]}},{"type":"Feature","properties":{},"geometry":{"type":"Polygon","coordinates":[[[54.419163,24.482372],[54.418798,24.482333],[54.418777,24.482467],[54.419142,24.482506],[54.419163,24.482372]]]}},{"type":"Feature","properties":{},"geometry":{"type":"Polygon","coordinates":[[[54.419136,24.482537],[54.418769,24.482498],[54.41876,24.482557],[54.419127,24.482596],[54.419136,24.482537]]]}},{"type":"Feature","properties":{},"geometry":{"type":"Polygon","coordinates":[[[54.420155,24.482672],[54.420176,24.482499],[54.419795,24.482467],[54.419771,24.482662],[54.420147,24.482695],[54.420141,24.48274],[54.420514,24.482771],[54.420522,24.482703],[54.420155,24.482672]]]}},{"type":"Feature","properties":{},"geometry":{"type":"Polygon","coordinates":[[[54.420545,24.482545],[54.420179,24.482518],[54.420165,24.482649],[54.420531,24.482676],[54.420545,24.482545]]]}},{"type":"Feature","properties":{},"geometry":{"type":"Polygon","coordinates":[[[54.420562,24.48255],[54.420542,24.482696],[54.420895,24.482727],[54.420916,24.482582],[54.420562,24.48255]]]}},{"type":"Feature","properties":{},"geometry":{"type":"Polygon","coordinates":[[[54.419514,24.482659],[54.419147,24.482621],[54.419127,24.482752],[54.419494,24.482791],[54.419514,24.482659]]]}},{"type":"Feature","properties":{},"geometry":{"type":"Polygon","coordinates":[[[54.419055,24.482687],[54.418957,24.482661],[54.418913,24.482663],[54.418885,24.482749],[54.418982,24.482775],[54.419026,24.482773],[54.419055,24.482687]]]}},{"type":"Feature","properties":{},"geometry":{"type":"Polygon","coordinates":[[[54.420123,24.482738],[54.419757,24.4827],[54.419738,24.482832],[54.420103,24.48287],[54.420123,24.482738]]]}},{"type":"Feature","properties":{},"geometry":{"type":"Polygon","coordinates":[[[54.420871,24.48289],[54.420888,24.482769],[54.420534,24.482735],[54.420517,24.482856],[54.420871,24.48289]]]}},{"type":"Feature","properties":{},"geometry":{"type":"Polygon","coordinates":[[[54.420388,24.482858],[54.4203,24.48283],[54.420255,24.482832],[54.420221,24.482922],[54.420309,24.48295],[54.420354,24.482948],[54.420388,24.482858]]]}},{"type":"Feature","properties":{},"geometry":{"type":"Polygon","coordinates":[[[54.418851,24.482817],[54.418719,24.482815],[54.418712,24.482924],[54.41882,24.482928],[54.418813,24.482997],[54.419145,24.483027],[54.419189,24.483025],[54.419199,24.482931],[54.419551,24.482961],[54.419568,24.482829],[54.419245,24.482795],[54.4192,24.482797],[54.41919,24.482881],[54.418849,24.482853],[54.418851,24.482817]]]}},{"type":"Feature","properties":{},"geometry":{"type":"Polygon","coordinates":[[[54.420021,24.482886],[54.419655,24.482852],[54.419637,24.482987],[54.420003,24.48302],[54.420021,24.482886]]]}},{"type":"Feature","properties":{},"geometry":{"type":"Polygon","coordinates":[[[54.420852,24.483007],[54.4205,24.482972],[54.420482,24.483092],[54.420835,24.483127],[54.420852,24.483007]]]}},{"type":"Feature","properties":{},"geometry":{"type":"Polygon","coordinates":[[[54.419984,24.483163],[54.419997,24.483043],[54.419628,24.483016],[54.419616,24.483136],[54.419984,24.483163]]]}},{"type":"Feature","properties":{},"geometry":{"type":"Polygon","coordinates":[[[54.420432,24.483032],[54.420049,24.483002],[54.420031,24.483164],[54.420414,24.483194],[54.420432,24.483032]]]}},{"type":"Feature","properties":{},"geometry":{"type":"Polygon","coordinates":[[[54.420839,24.483149],[54.420475,24.483125],[54.420463,24.483253],[54.420826,24.483278],[54.420839,24.483149]]]}},{"type":"Feature","properties":{},"geometry":{"type":"Polygon","coordinates":[[[54.41954,24.489259],[54.419438,24.489264],[54.41944,24.489305],[54.419542,24.4893],[54.41954,24.489259]]]}},{"type":"Feature","properties":{},"geometry":{"type":"Polygon","coordinates":[[[54.419432,24.489265],[54.419285,24.48927],[54.419287,24.489309],[54.419433,24.489303],[54.419432,24.489265]]]}},{"type":"Feature","properties":{},"geometry":{"type":"Polygon","coordinates":[[[54.419694,24.489265],[54.419547,24.489268],[54.419547,24.489322],[54.419695,24.489319],[54.419694,24.489265]]]}},{"type":"Feature","properties":{},"geometry":{"type":"Polygon","coordinates":[[[54.419077,24.489301],[54.418943,24.489307],[54.418949,24.489431],[54.419083,24.489425],[54.419077,24.489301]]]}},{"type":"Feature","properties":{},"geometry":{"type":"Polygon","coordinates":[[[54.419661,24.489381],[54.419512,24.48938],[54.419509,24.489483],[54.419658,24.489483],[54.419661,24.489381]]]}},{"type":"Feature","properties":{},"geometry":{"type":"Polygon","coordinates":[[[54.419183,24.489537],[54.419112,24.489542],[54.419122,24.489614],[54.419193,24.489609],[54.419183,24.489537]]]}},{"type":"Feature","properties":{},"geometry":{"type":"Polygon","coordinates":[[[54.419684,24.489774],[54.419519,24.489778],[54.41952,24.489823],[54.419685,24.489819],[54.419684,24.489774]]]}},{"type":"Feature","properties":{},"geometry":{"type":"Polygon","coordinates":[[[54.419534,24.4903],[54.419662,24.490293],[54.419659,24.490172],[54.419567,24.490175],[54.419569,24.490254],[54.419527,24.490259],[54.419534,24.4903]]]}},{"type":"Feature","properties":{},"geometry":{"type":"Polygon","coordinates":[[[54.419432,24.490181],[54.419337,24.490185],[54.419343,24.490307],[54.419438,24.490303],[54.419432,24.490181]]]}},{"type":"Feature","properties":{},"geometry":{"type":"Polygon","coordinates":[[[54.419314,24.490275],[54.419195,24.490279],[54.419196,24.490313],[54.419315,24.490309],[54.419314,24.490275]]]}},{"type":"Feature","properties":{},"geometry":{"type":"Polygon","coordinates":[[[54.418173,24.502473],[54.418218,24.502471],[54.41842,24.502393],[54.418376,24.5023],[54.418332,24.502302],[54.41813,24.50238],[54.418173,24.502473]]]}}]}