{"type":"FeatureCollection","features":[{"type":"Feature","properties":{},"geometry":{"type":"Polygon","coordinates":[[[55.127268,25.065867],[55.127075,25.06582],[55.126725,25.065685],[55.126526,25.065644],[55.126433,25.066016],[55.128368,25.066762],[55.12843,25.066821],[55.129399,25.067194],[55.129165,25.067381],[55.126827,25.066485],[55.126624,25.066459],[55.126143,25.066282],[55.125817,25.066284],[55.125695,25.066301],[55.125749,25.06649],[55.1243,25.065932],[55.124104,25.065986],[55.124171,25.066186],[55.123838,25.066057],[55.123642,25.066111],[55.123738,25.066401],[55.123367,25.066257],[55.123163,25.066314],[55.123272,25.066639],[55.123047,25.066553],[55.122782,25.066613],[55.122912,25.067078],[55.125132,25.067934],[55.125142,25.067963],[55.126225,25.068381],[55.122578,25.066977],[55.122434,25.067012],[55.122454,25.067079],[55.122377,25.067098],[55.122478,25.067432],[55.123978,25.06801],[55.123791,25.068059],[55.123858,25.06827],[55.123411,25.068098],[55.123153,25.068161],[55.123255,25.068423],[55.123341,25.068482],[55.12496,25.069106],[55.124944,25.069166],[55.124573,25.069023],[55.124366,25.069009],[55.124346,25.069255],[55.123575,25.068958],[55.123375,25.069007],[55.12333,25.06899],[55.123242,25.069008],[55.123248,25.069039],[55.122873,25.069062],[55.12287,25.069098],[55.122724,25.069091],[55.122513,25.069263],[55.122732,25.069507],[55.122853,25.069581],[55.124165,25.070087],[55.123927,25.070077],[55.123919,25.070136],[55.123987,25.070162],[55.123942,25.070514],[55.123994,25.070534],[55.124028,25.070608],[55.12418,25.070783],[55.124093,25.070854],[55.124272,25.071036],[55.124479,25.071116],[55.124526,25.071166],[55.125149,25.071406],[55.125051,25.071485],[55.123751,25.070984],[55.123428,25.070974],[55.123039,25.071284],[55.123177,25.071425],[55.126482,25.072699],[55.126202,25.07269],[55.126192,25.072933],[55.126613,25.073095],[55.12653,25.073157],[55.12665,25.07329],[55.126976,25.073415],[55.126936,25.073413],[55.126927,25.073555],[55.126561,25.073414],[55.126489,25.073416],[55.126492,25.073537],[55.127281,25.073841],[55.127279,25.073875],[55.127213,25.073928],[55.126507,25.073656],[55.126443,25.073706],[55.126498,25.073763],[55.127121,25.074003],[55.126916,25.073933],[55.126848,25.073983],[55.126926,25.074071],[55.127001,25.0741],[55.126984,25.074113],[55.127396,25.074534],[55.128655,25.075019],[55.127731,25.074664],[55.127678,25.074665],[55.127678,25.074699],[55.127611,25.074699],[55.127614,25.074886],[55.127808,25.074961],[55.12779,25.074978],[55.127908,25.075075],[55.129359,25.075634],[55.129408,25.075684],[55.129502,25.075721],[55.129492,25.075743],[55.12873,25.075449],[55.128648,25.075441],[55.128641,25.075492],[55.1274,25.075014],[55.127359,25.075065],[55.127471,25.075138],[55.12913,25.075777],[55.129166,25.075731],[55.129373,25.075811],[55.129384,25.076032],[55.129292,25.075997],[55.129153,25.076118],[55.129134,25.07611],[55.129051,25.076178],[55.129202,25.076328],[55.130289,25.076747],[55.13029,25.076811],[55.129036,25.076328],[55.128351,25.076866],[55.128494,25.077015],[55.130475,25.077778],[55.130443,25.077785],[55.130399,25.077849],[55.126672,25.076413],[55.126616,25.076434],[55.126608,25.076464],[55.126623,25.076493],[55.129959,25.077783],[55.129921,25.077769],[55.129898,25.077789],[55.128792,25.077363],[55.128614,25.077503],[55.128985,25.077887],[55.129526,25.078095],[55.1295,25.078116],[55.129586,25.078241],[55.129947,25.078381],[55.129808,25.078603],[55.129924,25.078706],[55.132212,25.079588],[55.131622,25.080074],[55.131761,25.080217],[55.132261,25.08041],[55.132119,25.080518],[55.132263,25.080665],[55.133161,25.081011],[55.133144,25.081039],[55.133051,25.081003],[55.132931,25.081194],[55.133133,25.081293],[55.133109,25.081314],[55.133244,25.081444],[55.133311,25.08147],[55.133258,25.081513],[55.133428,25.081688],[55.134341,25.082042],[55.13436,25.08213],[55.133675,25.081866],[55.133627,25.08189],[55.133651,25.08193],[55.133621,25.081945],[55.13365,25.081994],[55.133788,25.082046],[55.133695,25.082116],[55.133583,25.082073],[55.133517,25.082127],[55.133555,25.082164],[55.13364,25.082197],[55.133631,25.082242],[55.133732,25.082341],[55.134638,25.08269],[55.13459,25.082731],[55.134693,25.08283],[55.134956,25.082931],[55.134945,25.082941],[55.13491,25.082927],[55.134821,25.082996],[55.13484,25.083016],[55.13474,25.083095],[55.134854,25.083215],[55.134843,25.083287],[55.134856,25.083332],[55.134921,25.083402],[55.138511,25.084787],[55.138548,25.084866],[55.139026,25.08505],[55.138861,25.085209],[55.138511,25.085074],[55.138551,25.085016],[55.138515,25.084957],[55.138048,25.084778],[55.137977,25.084804],[55.137966,25.084864],[55.137881,25.084831],[55.137916,25.084809],[55.137859,25.084734],[55.1362,25.084095],[55.136149,25.084126],[55.136207,25.084202],[55.137629,25.08475],[55.137559,25.084776],[55.137515,25.084842],[55.137527,25.084922],[55.137592,25.084976],[55.138419,25.085295],[55.138463,25.085337],[55.140121,25.085976],[55.140182,25.085926],[55.140181,25.08596],[55.140209,25.086018],[55.140278,25.086089],[55.140939,25.086344],[55.140961,25.086366],[55.140639,25.086243],[55.140293,25.086517],[55.139323,25.086144],[55.139323,25.086117],[55.137665,25.085478],[55.137587,25.085479],[55.137588,25.08553],[55.137403,25.085531],[55.137405,25.085811],[55.137837,25.085977],[55.13778,25.086016],[55.13699,25.085711],[55.136959,25.085733],[55.134869,25.084928],[55.134853,25.084939],[55.134813,25.084924],[55.134353,25.085273],[55.134354,25.085327],[55.134399,25.085344],[55.134402,25.085407],[55.136499,25.086216],[55.136591,25.086321],[55.13708,25.086509],[55.136931,25.086577],[55.136978,25.086662],[55.136921,25.08664],[55.136672,25.086779],[55.136686,25.0868],[55.136664,25.086791],[55.136541,25.086861],[55.136594,25.086938],[55.138253,25.087577],[55.138332,25.087532],[55.138418,25.087565],[55.13867,25.087776],[55.138845,25.087846],[55.138798,25.087879],[55.138796,25.087896],[55.138881,25.087993],[55.139048,25.088232],[55.139022,25.088255],[55.13913,25.088353],[55.140342,25.08882],[55.140077,25.089042],[55.140246,25.089208],[55.14111,25.089541],[55.141086,25.089587],[55.141101,25.089617],[55.141127,25.08963],[55.141976,25.089957],[55.139919,25.089171],[55.139601,25.089437],[55.13977,25.089603],[55.141714,25.090352],[55.141923,25.090559],[55.143651,25.091225],[55.143579,25.091293],[55.14364,25.091366],[55.144003,25.091506],[55.144085,25.09159],[55.144246,25.091661],[55.14021,25.090106],[55.139941,25.09033],[55.139118,25.090013],[55.139042,25.090005],[55.139064,25.089958],[55.138801,25.089857],[55.13881,25.089837],[55.137883,25.08948],[55.139351,25.090043],[55.139369,25.090028],[55.139348,25.09001],[55.137915,25.089458],[55.137965,25.089424],[55.139048,25.089842],[55.139105,25.089805],[55.138957,25.089626],[55.138031,25.089269],[55.138001,25.089233],[55.1383,25.089349],[55.138588,25.089163],[55.138526,25.089084],[55.138242,25.088974],[55.138282,25.088946],[55.138253,25.088912],[55.137657,25.088683],[55.137572,25.088582],[55.135914,25.087943],[55.135894,25.087958],[55.135719,25.08789],[55.135686,25.087887],[55.135676,25.087983],[55.136535,25.088314],[55.136468,25.08836],[55.136514,25.088415],[55.136765,25.088511],[55.136718,25.088541],[55.1361,25.088303],[55.136043,25.088342],[55.135768,25.088236],[55.135701,25.088281],[55.135752,25.088344],[55.135936,25.088415],[55.135658,25.088605],[55.135989,25.089002],[55.136458,25.089183],[55.136434,25.089238],[55.138819,25.090165],[55.138875,25.090207],[55.139704,25.090527],[55.139426,25.090758],[55.136819,25.089762],[55.136763,25.08988],[55.138315,25.09048],[55.138266,25.090526],[55.138269,25.090569],[55.138352,25.090633],[55.139189,25.090955],[55.138927,25.091173],[55.138089,25.09085],[55.137975,25.090838],[55.138083,25.090782],[55.138071,25.090747],[55.138191,25.090639],[55.138053,25.090508],[55.136395,25.089869],[55.136278,25.089972],[55.136262,25.089965],[55.136188,25.090004],[55.1362,25.090021],[55.136002,25.09011],[55.135968,25.090097],[55.13588,25.090154],[55.135905,25.090206],[55.135828,25.090246],[55.135885,25.09034],[55.135839,25.090384],[55.135876,25.090417],[55.135856,25.090436],[55.135445,25.090278],[55.135264,25.090376],[55.135274,25.090392],[55.13525,25.090383],[55.135212,25.090401],[55.135268,25.090495],[55.136927,25.091134],[55.136964,25.091116],[55.136956,25.091103],[55.137108,25.091158],[55.137166,25.091131],[55.13714,25.091085],[55.137084,25.091063],[55.13717,25.091017],[55.137138,25.090969],[55.137581,25.091139],[55.137602,25.091131],[55.137637,25.091144],[55.13779,25.091001],[55.137846,25.091044],[55.138691,25.091369],[55.138563,25.091475],[55.138851,25.091759],[55.143274,25.093463],[55.14464,25.092327],[55.144794,25.092395],[55.144702,25.092479],[55.144829,25.092591],[55.145104,25.092698],[55.145202,25.092774],[55.145949,25.093062],[55.145918,25.093087],[55.145603,25.092965],[55.14547,25.093018],[55.145584,25.09321],[55.145641,25.093232],[55.14565,25.093252],[55.146529,25.09359],[55.146552,25.093638],[55.146537,25.093644],[55.145538,25.093266],[55.145533,25.0933],[55.146488,25.093668],[55.146502,25.093697],[55.146404,25.093735],[55.146442,25.093813],[55.146399,25.09383],[55.146496,25.094033],[55.146543,25.094051],[55.146551,25.094068],[55.146773,25.094154],[55.146811,25.094233],[55.146851,25.094248],[55.14697,25.094496],[55.146871,25.094535],[55.146946,25.09469],[55.146993,25.094708],[55.147012,25.094748],[55.147088,25.094777],[55.147095,25.094792],[55.15055,25.096122],[55.150629,25.096091],[55.150504,25.095832],[55.150638,25.09578],[55.150675,25.095794],[55.150844,25.095727],[55.15074,25.09551],[55.150835,25.095472],[55.150808,25.095415],[55.150936,25.095364],[55.150833,25.095151],[55.150862,25.095139],[55.15079,25.09499],[55.150465,25.094865],[55.15052,25.094843],[55.150697,25.094911],[55.150754,25.094889],[55.15068,25.094733],[55.150644,25.094719],[55.150605,25.094639],[55.150573,25.094626],[55.150545,25.09457],[55.15057,25.09456],[55.150432,25.094274],[55.149201,25.0938],[55.149557,25.093505],[55.15033,25.093802],[55.15037,25.09377],[55.150335,25.093733],[55.149616,25.093456],[55.149721,25.093369],[55.149271,25.092957],[55.148631,25.092711],[55.148921,25.092506],[55.148636,25.092217],[55.151884,25.093468],[55.152124,25.093266],[55.151695,25.0928],[55.151346,25.092665],[55.151583,25.092585],[55.151342,25.092],[55.149139,25.091152],[55.149184,25.091129],[55.149226,25.091079],[55.149246,25.091011],[55.149229,25.090932],[55.149179,25.090873],[55.148941,25.090779],[55.149049,25.090697],[55.148794,25.090419],[55.145698,25.089226],[55.1457,25.089204],[55.148262,25.090191],[55.148363,25.090116],[55.14979,25.090666],[55.14989,25.090673],[55.150302,25.090355],[55.150279,25.090331],[55.150328,25.090349],[55.150666,25.090087],[55.150616,25.090034],[55.15069,25.090062],[55.151039,25.089804],[55.151046,25.089646],[55.150759,25.089352],[55.150379,25.089205],[55.150312,25.089085],[55.148654,25.088446],[55.148541,25.088497],[55.148452,25.088463],[55.148256,25.088264],[55.14779,25.088084],[55.147835,25.088051],[55.147818,25.088033],[55.149386,25.088637],[55.149718,25.088374],[55.149711,25.088367],[55.149851,25.088421],[55.149852,25.088477],[55.14968,25.088411],[55.149628,25.088453],[55.149737,25.088566],[55.151395,25.089205],[55.151448,25.089163],[55.151419,25.089133],[55.151512,25.089169],[55.151563,25.089166],[55.151648,25.089152],[55.151741,25.089111],[55.151724,25.089073],[55.151782,25.089059],[55.15177,25.089004],[55.151803,25.089017],[55.151825,25.089006],[55.151908,25.089037],[55.15203,25.088929],[55.152067,25.088877],[55.151833,25.088757],[55.150964,25.088422],[55.151576,25.088652],[55.151675,25.0886],[55.151654,25.088567],[55.152075,25.088729],[55.152218,25.088608],[55.152261,25.088552],[55.152292,25.088357],[55.152269,25.088279],[55.151742,25.087751],[55.151537,25.087672],[55.151657,25.087576],[55.151034,25.086939],[55.149605,25.086389],[55.149612,25.086376],[55.149591,25.086368],[55.149622,25.086308],[55.149642,25.086316],[55.149689,25.086223],[55.149663,25.086212],[55.149678,25.086182],[55.148146,25.085588],[55.148111,25.085545],[55.149447,25.086051],[55.149527,25.086016],[55.149489,25.085945],[55.148824,25.085689],[55.148874,25.085587],[55.149784,25.085937],[55.149809,25.085886],[55.149796,25.085881],[55.149809,25.085856],[55.149796,25.085851],[55.149809,25.085824],[55.149829,25.085832],[55.149853,25.085785],[55.149835,25.085777],[55.149856,25.085736],[55.149837,25.085728],[55.149877,25.085645],[55.14986,25.085639],[55.149871,25.085616],[55.14985,25.085608],[55.149866,25.085573],[55.149882,25.08558],[55.149915,25.08549],[55.149889,25.08548],[55.149919,25.085394],[55.1499,25.085387],[55.149934,25.085314],[55.149909,25.085304],[55.149923,25.085274],[55.149891,25.085262],[55.149906,25.085231],[55.149927,25.085238],[55.149948,25.085192],[55.148338,25.084571],[55.148398,25.084542],[55.148352,25.084464],[55.148314,25.08445],[55.14826,25.084357],[55.148226,25.084343],[55.148246,25.084334],[55.148444,25.0844],[55.149136,25.084667],[55.149325,25.084557],[55.149758,25.084724],[55.149883,25.084665],[55.149855,25.084618],[55.149824,25.084597],[55.149848,25.084586],[55.149829,25.084553],[55.149853,25.084541],[55.149811,25.08447],[55.149828,25.084462],[55.149805,25.084424],[55.149846,25.084404],[55.149791,25.084338],[55.149777,25.084307],[55.149787,25.084302],[55.149742,25.084232],[55.149759,25.084224],[55.149716,25.084152],[55.149732,25.084145],[55.149676,25.084079],[55.149698,25.084068],[55.149648,25.083982],[55.149619,25.083959],[55.149603,25.083929],[55.149619,25.083921],[55.149593,25.083877],[55.149558,25.083858],[55.149572,25.083851],[55.149544,25.083806],[55.14884,25.083534],[55.148857,25.083526],[55.148812,25.083455],[55.149293,25.08364],[55.149413,25.083571],[55.149382,25.083526],[55.149356,25.083516],[55.149302,25.08344],[55.149261,25.083424],[55.149181,25.08331],[55.148876,25.083192],[55.148955,25.083153],[55.148926,25.083105],[55.14887,25.083078],[55.148837,25.083025],[55.148752,25.082974],[55.148298,25.0828],[55.148368,25.082743],[55.148284,25.082659],[55.148326,25.082624],[55.148068,25.082365],[55.14775,25.082243],[55.14751,25.082016],[55.147411,25.081978],[55.14731,25.081882],[55.146989,25.081759],[55.147125,25.081658],[55.146977,25.081493],[55.146683,25.08138],[55.14669,25.081374],[55.146572,25.081251],[55.146439,25.0812],[55.146468,25.081173],[55.146294,25.081],[55.145685,25.080765],[55.145782,25.080685],[55.145822,25.080626],[55.147115,25.081124],[55.147224,25.081023],[55.147182,25.080987],[55.147194,25.080974],[55.146793,25.080628],[55.145134,25.079989],[55.145068,25.079983],[55.144751,25.079684],[55.144362,25.079534],[55.144532,25.079403],[55.144361,25.079222],[55.14432,25.079206],[55.144328,25.079199],[55.14425,25.079117],[55.144081,25.079052],[55.144106,25.07903],[55.143682,25.078638],[55.143522,25.078576],[55.14356,25.078544],[55.143267,25.078256],[55.142749,25.078056],[55.142844,25.077983],[55.14284,25.077826],[55.142791,25.077774],[55.142308,25.077588],[55.142469,25.077466],[55.142314,25.077298],[55.14213,25.077227],[55.142163,25.077196],[55.142177,25.077142],[55.141948,25.076925],[55.141615,25.076797],[55.141493,25.076722],[55.141128,25.076582],[55.141122,25.076236],[55.140941,25.07588],[55.140676,25.075556],[55.140353,25.075432],[55.140443,25.075373],[55.140066,25.074895],[55.13899,25.07448],[55.139333,25.074167],[55.139107,25.073918],[55.138703,25.073762],[55.138884,25.073615],[55.138901,25.073457],[55.138785,25.073326],[55.138533,25.073229],[55.138566,25.073203],[55.138613,25.073211],[55.138614,25.073107],[55.138575,25.073084],[55.138466,25.072974],[55.138263,25.072896],[55.138355,25.072821],[55.138107,25.072523],[55.137913,25.072449],[55.13778,25.072314],[55.137068,25.07204],[55.137081,25.072035],[55.137062,25.071985],[55.137163,25.071961],[55.137852,25.072227],[55.137889,25.072198],[55.13778,25.072082],[55.137641,25.072028],[55.137627,25.071954],[55.137572,25.071854],[55.137497,25.071762],[55.137109,25.071613],[55.137115,25.071523],[55.137064,25.071469],[55.136956,25.071427],[55.137048,25.071354],[55.136928,25.07123],[55.136347,25.071006],[55.136562,25.070837],[55.136442,25.070713],[55.136071,25.07057],[55.13625,25.07043],[55.1359,25.070062],[55.135527,25.069919],[55.13565,25.06982],[55.135529,25.069697],[55.134996,25.069492],[55.135128,25.069387],[55.134973,25.069227],[55.133999,25.068852],[55.134068,25.068792],[55.134968,25.069139],[55.134998,25.069108],[55.134956,25.069073],[55.134117,25.06875],[55.134176,25.068699],[55.134022,25.068553],[55.133741,25.068445],[55.133766,25.068417],[55.133709,25.068335],[55.133666,25.0683],[55.133321,25.068167],[55.133349,25.068113],[55.13316,25.068032],[55.127684,25.065922],[55.127638,25.066009],[55.127268,25.065867]],[[55.140261,25.083786],[55.140578,25.084114],[55.141118,25.084322],[55.140079,25.083931],[55.140261,25.083786]],[[55.142698,25.08409],[55.142647,25.083945],[55.143258,25.08418],[55.143224,25.084255],[55.14308,25.084205],[55.142853,25.084389],[55.142701,25.08433],[55.142731,25.084331],[55.142698,25.08409]],[[55.144916,25.084541],[55.144909,25.084481],[55.14488,25.084426],[55.144834,25.084382],[55.144772,25.084352],[55.142086,25.083318],[55.142162,25.083255],[55.141853,25.082952],[55.142995,25.083392],[55.142922,25.08354],[55.146422,25.084894],[55.146377,25.084879],[55.146349,25.084898],[55.145992,25.08476],[55.145887,25.084768],[55.14589,25.084806],[55.145816,25.084879],[55.145825,25.084975],[55.144892,25.084616],[55.144916,25.084541]],[[55.145092,25.083828],[55.146661,25.084432],[55.146634,25.084432],[55.146611,25.084477],[55.146547,25.084452],[55.146525,25.084495],[55.146546,25.084504],[55.146532,25.084531],[55.146481,25.084512],[55.146466,25.084541],[55.146444,25.084533],[55.146426,25.084571],[55.145015,25.084027],[55.145146,25.083992],[55.145092,25.083828]],[[55.143521,25.083085],[55.143653,25.083135],[55.143635,25.083171],[55.14351,25.083122],[55.143521,25.083085]],[[55.14473,25.083166],[55.144516,25.083084],[55.144674,25.082969],[55.144659,25.082952],[55.146369,25.083611],[55.146394,25.083629],[55.146467,25.083754],[55.146497,25.083765],[55.146476,25.083776],[55.146506,25.083826],[55.146543,25.083866],[55.14658,25.08388],[55.146639,25.083952],[55.148149,25.084533],[55.148126,25.084583],[55.148155,25.084595],[55.148119,25.084674],[55.148143,25.084686],[55.144956,25.083459],[55.144992,25.08343],[55.14473,25.083166]],[[55.140931,25.080886],[55.140996,25.080691],[55.140967,25.080592],[55.140763,25.080513],[55.140811,25.080475],[55.140662,25.080321],[55.139301,25.079796],[55.139446,25.079658],[55.139243,25.079515],[55.138213,25.079119],[55.138279,25.079068],[55.138139,25.078919],[55.1377,25.07875],[55.137711,25.078747],[55.137686,25.078664],[55.13751,25.078597],[55.137551,25.078567],[55.137464,25.078487],[55.138041,25.078701],[55.138293,25.07851],[55.140057,25.07919],[55.140088,25.079219],[55.141315,25.079692],[55.141371,25.079753],[55.141612,25.079846],[55.141625,25.079865],[55.139604,25.079087],[55.139413,25.079193],[55.139271,25.079355],[55.139259,25.079435],[55.139326,25.079501],[55.139993,25.079758],[55.139911,25.079828],[55.140043,25.079956],[55.141031,25.080337],[55.140965,25.080461],[55.141063,25.080499],[55.141076,25.080563],[55.142954,25.081287],[55.142912,25.081308],[55.142034,25.080972],[55.14194,25.081177],[55.141302,25.080931],[55.141194,25.081003],[55.141119,25.081094],[55.140923,25.081018],[55.140931,25.080886]],[[55.145186,25.081297],[55.145082,25.081197],[55.144097,25.080817],[55.144113,25.08081],[55.146299,25.081652],[55.146251,25.081693],[55.146337,25.081774],[55.146458,25.081821],[55.14644,25.081836],[55.146664,25.082052],[55.146213,25.081878],[55.146185,25.081901],[55.146265,25.08198],[55.146761,25.082171],[55.146662,25.082252],[55.145976,25.081988],[55.146106,25.081882],[55.14597,25.081742],[55.14511,25.081411],[55.145186,25.081297]],[[55.136771,25.081303],[55.136742,25.081328],[55.136669,25.0813],[55.136698,25.081275],[55.136771,25.081303]],[[55.136358,25.077404],[55.136144,25.077561],[55.135987,25.077261],[55.136358,25.077404]],[[55.133262,25.074205],[55.133205,25.074183],[55.133236,25.074173],[55.133116,25.07386],[55.132981,25.073808],[55.133047,25.073799],[55.133004,25.073538],[55.131766,25.073061],[55.131701,25.072951],[55.13218,25.073135],[55.132264,25.073232],[55.136092,25.074707],[55.136008,25.074755],[55.135937,25.074933],[55.135147,25.07463],[55.135089,25.074624],[55.135014,25.074643],[55.134949,25.074695],[55.134925,25.074741],[55.134927,25.074842],[55.134995,25.074922],[55.135846,25.075253],[55.135851,25.075285],[55.13545,25.07513],[55.135335,25.075105],[55.135149,25.075097],[55.134962,25.075025],[55.134844,25.075104],[55.133224,25.07448],[55.133397,25.07438],[55.133262,25.074205]],[[55.138176,25.074406],[55.138022,25.074354],[55.138028,25.074349],[55.138176,25.074406]],[[55.133081,25.074446],[55.133078,25.074455],[55.133066,25.07444],[55.133081,25.074446]],[[55.132999,25.072724],[55.133077,25.072673],[55.133615,25.07288],[55.133626,25.072965],[55.132999,25.072724]],[[55.132871,25.071961],[55.13284,25.071987],[55.13298,25.072128],[55.132097,25.07178],[55.132199,25.071702],[55.132871,25.071961]],[[55.129552,25.071524],[55.129613,25.071514],[55.129605,25.071471],[55.130451,25.071797],[55.130302,25.071936],[55.130298,25.071964],[55.129447,25.071635],[55.129509,25.071622],[55.129523,25.071513],[55.129552,25.071524]],[[55.130661,25.070593],[55.130896,25.070874],[55.128704,25.070029],[55.128727,25.070023],[55.12866,25.069814],[55.130661,25.070593]],[[55.128212,25.069169],[55.128203,25.069143],[55.12832,25.069188],[55.12831,25.069207],[55.128212,25.069169]],[[55.132849,25.07554],[55.132723,25.075421],[55.134848,25.07624],[55.134805,25.076249],[55.133315,25.075675],[55.132975,25.075589],[55.132849,25.07554]],[[55.134156,25.075027],[55.134502,25.075165],[55.134153,25.075031],[55.134156,25.075027]],[[55.142257,25.082606],[55.142338,25.082629],[55.142334,25.082636],[55.142257,25.082606]],[[55.14014,25.085858],[55.140199,25.08588],[55.140188,25.085905],[55.14014,25.085858]],[[55.141551,25.082014],[55.141496,25.081959],[55.142508,25.082349],[55.142491,25.082376],[55.141551,25.082014]],[[55.141075,25.077998],[55.141741,25.07825],[55.141737,25.078253],[55.141075,25.077998]],[[55.137788,25.090893],[55.137829,25.090873],[55.137794,25.090905],[55.137788,25.090893]],[[55.137926,25.090825],[55.137958,25.090837],[55.137857,25.090859],[55.137926,25.090825]],[[55.145796,25.090674],[55.145763,25.090701],[55.144791,25.090326],[55.144824,25.0903],[55.145796,25.090674]],[[55.145032,25.090089],[55.145119,25.090025],[55.146551,25.090577],[55.146853,25.090335],[55.147383,25.090539],[55.147114,25.09063],[55.147222,25.090893],[55.146082,25.090454],[55.146049,25.090479],[55.14589,25.090418],[55.145867,25.090437],[55.145889,25.090459],[55.145858,25.090483],[55.145987,25.090614],[55.145908,25.090584],[55.145851,25.09063],[55.144851,25.090245],[55.144497,25.089883],[55.145032,25.090089]],[[55.141325,25.088005],[55.141104,25.087919],[55.141034,25.087977],[55.140249,25.087674],[55.140134,25.087765],[55.139076,25.087357],[55.13902,25.087256],[55.139908,25.087599],[55.140251,25.087352],[55.141718,25.087917],[55.141764,25.087887],[55.141718,25.087829],[55.140331,25.087294],[55.140573,25.08712],[55.140307,25.086989],[55.139566,25.086702],[55.139686,25.08662],[55.14161,25.087346],[55.141583,25.087379],[55.141649,25.087423],[55.141809,25.087484],[55.142042,25.087746],[55.142028,25.087756],[55.142105,25.087843],[55.141418,25.087578],[55.141366,25.087628],[55.141447,25.087697],[55.143105,25.088336],[55.143134,25.088309],[55.143254,25.088355],[55.143176,25.088414],[55.142961,25.088331],[55.142808,25.088428],[55.142819,25.088443],[55.141442,25.087912],[55.141325,25.088005]],[[55.140839,25.088947],[55.14085,25.088937],[55.140943,25.088972],[55.140965,25.088996],[55.140839,25.088947]],[[55.147885,25.083447],[55.147967,25.083592],[55.147594,25.083456],[55.147641,25.083353],[55.147885,25.083447]],[[55.146875,25.082449],[55.147479,25.082696],[55.147413,25.082734],[55.147448,25.082784],[55.146806,25.082537],[55.146875,25.082449]],[[55.149589,25.08824],[55.149456,25.088102],[55.149661,25.088181],[55.149589,25.08824]],[[55.148586,25.087489],[55.148621,25.087458],[55.148682,25.087526],[55.148586,25.087489]],[[55.147184,25.085827],[55.147135,25.085866],[55.147308,25.086043],[55.146264,25.085641],[55.146211,25.085682],[55.145037,25.08523],[55.14496,25.08497],[55.147184,25.085827]],[[55.14698,25.08871],[55.147026,25.088668],[55.147122,25.088765],[55.14698,25.08871]],[[55.147903,25.091853],[55.147907,25.091858],[55.146902,25.091471],[55.147903,25.091853]],[[55.14775,25.091368],[55.147656,25.091337],[55.147661,25.091333],[55.14775,25.091368]]]}},{"type":"Feature","properties":{},"geometry":{"type":"Polygon","coordinates":[[[55.128847,25.092288],[55.127188,25.091649],[55.126879,25.092253],[55.127872,25.09267],[55.129531,25.093309],[55.129639,25.093098],[55.130049,25.093255],[55.129909,25.093528],[55.130903,25.093946],[55.132079,25.094399],[55.132071,25.094415],[55.132657,25.094646],[55.132827,25.094728],[55.134486,25.095367],[55.134642,25.09507],[55.132809,25.094356],[55.132721,25.094524],[55.132613,25.094483],[55.132801,25.094116],[55.133231,25.094272],[55.133245,25.094228],[55.132827,25.094067],[55.13287,25.093982],[55.131877,25.093564],[55.130977,25.093217],[55.130993,25.093188],[55.129827,25.092731],[55.12984,25.092706],[55.128847,25.092288]]]}},{"type":"Feature","properties":{},"geometry":{"type":"Polygon","coordinates":[[[55.132806,25.065967],[55.132482,25.066186],[55.132732,25.066491],[55.133262,25.066695],[55.133317,25.066739],[55.138187,25.068616],[55.138161,25.068635],[55.133995,25.06703],[55.133721,25.067231],[55.133991,25.067532],[55.134667,25.067793],[55.134875,25.068029],[55.139537,25.069825],[55.139517,25.069842],[55.139534,25.069858],[55.138229,25.069355],[55.138144,25.069418],[55.137293,25.06909],[55.137274,25.0691],[55.135486,25.068411],[55.135278,25.068541],[55.135486,25.068814],[55.136271,25.069117],[55.136033,25.069292],[55.135371,25.069037],[55.13517,25.069179],[55.135426,25.069476],[55.136669,25.069954],[55.136716,25.07005],[55.136029,25.069785],[55.135831,25.069922],[55.136042,25.070173],[55.136927,25.070513],[55.136669,25.070707],[55.136888,25.070946],[55.142365,25.073056],[55.142638,25.072851],[55.142419,25.072612],[55.141535,25.072272],[55.141717,25.072146],[55.141612,25.072022],[55.142579,25.072394],[55.142673,25.072366],[55.142666,25.072349],[55.143096,25.072514],[55.143185,25.072447],[55.143646,25.072625],[55.143709,25.072534],[55.143291,25.072368],[55.143369,25.072309],[55.143151,25.07207],[55.141798,25.071549],[55.141949,25.071439],[55.141897,25.07138],[55.143976,25.072181],[55.144432,25.072651],[55.145072,25.072898],[55.144928,25.073009],[55.145062,25.07315],[55.145015,25.073187],[55.145127,25.073304],[55.145389,25.073405],[55.145302,25.073473],[55.145395,25.073572],[55.146452,25.07399],[55.146491,25.074044],[55.146755,25.074154],[55.146702,25.074196],[55.146719,25.074213],[55.146148,25.073993],[55.146062,25.074049],[55.146022,25.074034],[55.145971,25.074067],[55.145894,25.074037],[55.145794,25.074097],[55.145822,25.074135],[55.145849,25.074145],[55.145823,25.074163],[55.144201,25.073538],[55.144154,25.073537],[55.144152,25.073581],[55.145809,25.07422],[55.145902,25.074346],[55.146523,25.074586],[55.146508,25.074598],[55.146533,25.074623],[55.146507,25.074644],[55.146592,25.074713],[55.14658,25.074723],[55.146609,25.074752],[55.146685,25.074781],[55.146775,25.074873],[55.146824,25.074891],[55.146853,25.074921],[55.146834,25.074937],[55.146877,25.07498],[55.146377,25.074788],[55.146351,25.074809],[55.145276,25.074395],[55.145177,25.074466],[55.145244,25.074543],[55.144127,25.074113],[55.144299,25.073969],[55.144099,25.073774],[55.138622,25.071664],[55.138353,25.07189],[55.137773,25.071667],[55.137567,25.071829],[55.137829,25.0721],[55.138379,25.072312],[55.138161,25.072492],[55.13843,25.072759],[55.139718,25.073256],[55.139617,25.073324],[55.139804,25.073551],[55.142504,25.074591],[55.142555,25.074641],[55.143125,25.07486],[55.143118,25.074891],[55.14399,25.075227],[55.144063,25.075307],[55.140746,25.074029],[55.14048,25.074223],[55.140496,25.074241],[55.139832,25.073986],[55.139615,25.074157],[55.139789,25.074346],[55.141245,25.074907],[55.14049,25.074626],[55.140377,25.074741],[55.140347,25.07481],[55.140377,25.07493],[55.140501,25.075072],[55.143097,25.076073],[55.143056,25.076106],[55.143101,25.076152],[55.143054,25.076198],[55.142534,25.075998],[55.142516,25.076013],[55.142393,25.075965],[55.142262,25.076069],[55.142308,25.076115],[55.142256,25.076156],[55.142415,25.076321],[55.143778,25.076846],[55.143707,25.076902],[55.14317,25.076695],[55.143151,25.076709],[55.143028,25.076662],[55.142898,25.076765],[55.142943,25.076812],[55.142892,25.076853],[55.143051,25.077018],[55.144416,25.077543],[55.144211,25.077683],[55.144441,25.077952],[55.148427,25.079487],[55.148352,25.079548],[55.147194,25.079102],[55.147138,25.079086],[55.147118,25.07914],[55.148296,25.079594],[55.14824,25.079639],[55.148488,25.079889],[55.150146,25.080528],[55.150384,25.080335],[55.150211,25.08016],[55.15146,25.080641],[55.151714,25.080435],[55.151665,25.080386],[55.151705,25.080402],[55.151778,25.080345],[55.151652,25.080211],[55.150843,25.079899],[55.150995,25.079746],[55.15153,25.079952],[55.151843,25.079707],[55.151659,25.079508],[55.150235,25.07896],[55.150175,25.078814],[55.148878,25.078315],[55.148929,25.078274],[55.148805,25.078145],[55.1461,25.077103],[55.146123,25.077089],[55.146846,25.077367],[55.146985,25.077275],[55.147062,25.077182],[55.147019,25.077141],[55.147523,25.077335],[55.147644,25.077259],[55.147752,25.077129],[55.151853,25.078711],[55.151921,25.078699],[55.151909,25.078643],[55.151103,25.078332],[55.151267,25.078208],[55.151916,25.078459],[55.152152,25.078276],[55.151907,25.078017],[55.151231,25.077757],[55.151489,25.077551],[55.151404,25.077464],[55.151291,25.07742],[55.151203,25.07733],[55.149907,25.076831],[55.150113,25.076672],[55.150045,25.0766],[55.149937,25.076558],[55.149832,25.076447],[55.145722,25.074864],[55.145692,25.07483],[55.146721,25.075227],[55.14679,25.075177],[55.146718,25.075094],[55.146763,25.075062],[55.148073,25.075567],[55.14813,25.075519],[55.14804,25.075431],[55.14854,25.075624],[55.148606,25.07557],[55.148596,25.075559],[55.148749,25.075437],[55.149045,25.075551],[55.149534,25.075163],[55.149354,25.074977],[55.149201,25.074918],[55.149334,25.074813],[55.149157,25.074631],[55.149074,25.074599],[55.149113,25.074567],[55.148925,25.074373],[55.148743,25.074303],[55.148593,25.074142],[55.147149,25.073586],[55.146945,25.07337],[55.146402,25.073161],[55.146464,25.073127],[55.146435,25.073085],[55.146376,25.073062],[55.146398,25.073045],[55.14626,25.072903],[55.146538,25.07301],[55.146718,25.072861],[55.146649,25.072793],[55.14678,25.072843],[55.146916,25.072736],[55.146664,25.072473],[55.147033,25.072615],[55.147412,25.072313],[55.147476,25.072343],[55.147442,25.072368],[55.14753,25.072469],[55.148099,25.072701],[55.148036,25.072758],[55.148125,25.072839],[55.148572,25.073011],[55.148551,25.07303],[55.148566,25.073043],[55.148144,25.07288],[55.148053,25.072962],[55.148141,25.073043],[55.148229,25.073077],[55.148205,25.073098],[55.148294,25.073179],[55.149135,25.073503],[55.149119,25.073557],[55.149644,25.07376],[55.14964,25.073773],[55.149978,25.073903],[55.149977,25.073921],[55.151636,25.07456],[55.151819,25.074563],[55.15182,25.074509],[55.15176,25.074486],[55.151761,25.074464],[55.15145,25.074345],[55.151454,25.074331],[55.15016,25.073817],[55.150183,25.073797],[55.151803,25.074421],[55.151864,25.074435],[55.151906,25.074416],[55.151865,25.074337],[55.15201,25.074381],[55.152022,25.074333],[55.152069,25.074342],[55.152095,25.074233],[55.151641,25.074058],[55.151665,25.074036],[55.151579,25.073959],[55.151694,25.074003],[55.151784,25.073921],[55.151695,25.07384],[55.151362,25.073712],[55.151837,25.073886],[55.151927,25.073804],[55.151838,25.073723],[55.151524,25.073602],[55.151533,25.073595],[55.151956,25.073758],[55.152046,25.073676],[55.151956,25.073595],[55.151654,25.073479],[55.151676,25.073459],[55.152098,25.073622],[55.152179,25.073532],[55.152081,25.07346],[55.151783,25.073345],[55.151814,25.073318],[55.151747,25.073255],[55.151809,25.07328],[55.151901,25.073199],[55.151813,25.073117],[55.149786,25.072342],[55.149762,25.072319],[55.149597,25.072247],[55.150228,25.072491],[55.150256,25.072516],[55.151914,25.073155],[55.152006,25.073074],[55.151917,25.072992],[55.149305,25.071966],[55.149316,25.071956],[55.149577,25.072056],[55.150371,25.072382],[55.15203,25.073021],[55.152101,25.072925],[55.151997,25.072861],[55.151439,25.072646],[55.151491,25.072557],[55.151093,25.072393],[55.151118,25.07235],[55.151032,25.072309],[55.15156,25.072512],[55.15162,25.072411],[55.151202,25.072239],[55.151212,25.072222],[55.150917,25.072097],[55.15093,25.072075],[55.151662,25.072357],[55.151722,25.072256],[55.151239,25.072044],[55.151753,25.072242],[55.151813,25.072141],[55.1517,25.072087],[55.150042,25.071448],[55.150022,25.071482],[55.149214,25.071171],[55.149228,25.071151],[55.149137,25.071097],[55.150653,25.071681],[55.150675,25.071644],[55.151812,25.072082],[55.151872,25.071981],[55.151759,25.071926],[55.150101,25.071288],[55.150079,25.071325],[55.149149,25.070966],[55.149196,25.070952],[55.149181,25.070913],[55.151512,25.071812],[55.151532,25.071771],[55.151911,25.071917],[55.151971,25.071816],[55.151858,25.071761],[55.15129,25.071542],[55.151298,25.071529],[55.151185,25.071475],[55.149631,25.070876],[55.149658,25.070854],[55.149621,25.070816],[55.149876,25.070917],[55.149863,25.070945],[55.151522,25.071584],[55.151618,25.071619],[55.151628,25.071597],[55.151978,25.071732],[55.152038,25.071631],[55.151714,25.071489],[55.152048,25.071618],[55.152108,25.071517],[55.151755,25.07137],[55.151763,25.07135],[55.151385,25.071204],[55.151741,25.071337],[55.151783,25.071251],[55.151836,25.071272],[55.151861,25.071221],[55.150144,25.070559],[55.150138,25.070572],[55.149691,25.070399],[55.149717,25.070377],[55.149629,25.070293],[55.149596,25.07028],[55.14961,25.070268],[55.149522,25.070184],[55.149403,25.070138],[55.149431,25.070113],[55.149583,25.070172],[55.149577,25.070181],[55.14969,25.070236],[55.150182,25.070426],[55.150057,25.070383],[55.150038,25.070422],[55.15006,25.070431],[55.150049,25.070453],[55.149791,25.070361],[55.149774,25.070405],[55.151791,25.071181],[55.151832,25.071095],[55.151885,25.071115],[55.15191,25.071064],[55.151362,25.070852],[55.15138,25.070821],[55.151866,25.071008],[55.151925,25.070907],[55.151613,25.070776],[55.151639,25.070731],[55.151954,25.070853],[55.152014,25.070752],[55.151724,25.070629],[55.151744,25.070595],[55.152091,25.070729],[55.152151,25.070628],[55.151721,25.070451],[55.151745,25.07041],[55.152037,25.070522],[55.152097,25.070421],[55.150846,25.069915],[55.151785,25.070275],[55.151818,25.070219],[55.152107,25.07033],[55.152167,25.07023],[55.15186,25.0701],[55.151907,25.070021],[55.151794,25.069966],[55.151533,25.069865],[55.151539,25.069855],[55.151427,25.069801],[55.150311,25.069371],[55.15028,25.069341],[55.151922,25.069973],[55.151982,25.069872],[55.151869,25.069818],[55.150859,25.069428],[55.150771,25.069329],[55.150726,25.069312],[55.15074,25.069302],[55.151847,25.069728],[55.151907,25.069627],[55.151765,25.069561],[55.151799,25.069503],[55.151623,25.069424],[55.151644,25.069389],[55.151531,25.069334],[55.150402,25.068899],[55.150353,25.068848],[55.150279,25.06882],[55.150288,25.068813],[55.1502,25.068722],[55.150157,25.068705],[55.150188,25.068681],[55.150173,25.068664],[55.150647,25.068847],[55.150679,25.068822],[55.15088,25.0689],[55.151013,25.068843],[55.15095,25.068723],[55.15112,25.068788],[55.151232,25.068697],[55.15122,25.068686],[55.151244,25.068695],[55.151355,25.068603],[55.151282,25.06853],[55.151371,25.068564],[55.151483,25.068472],[55.151455,25.068444],[55.151519,25.068469],[55.15163,25.068378],[55.151597,25.068344],[55.151646,25.068363],[55.151758,25.068272],[55.151703,25.068218],[55.151788,25.06825],[55.15202,25.068074],[55.151964,25.068017],[55.152036,25.068045],[55.152148,25.067954],[55.152075,25.06788],[55.150416,25.067242],[55.150379,25.067273],[55.150321,25.067251],[55.150267,25.067295],[55.150362,25.06739],[55.150289,25.067362],[55.150251,25.067393],[55.150193,25.067371],[55.150171,25.067389],[55.149782,25.067239],[55.14968,25.067311],[55.149736,25.067376],[55.14963,25.067335],[55.149613,25.067348],[55.149237,25.067203],[55.149136,25.067275],[55.149173,25.067318],[55.149102,25.06729],[55.149,25.067363],[55.149089,25.067465],[55.149013,25.067436],[55.148984,25.067457],[55.148481,25.06727],[55.148379,25.067342],[55.148472,25.067449],[55.148567,25.067485],[55.148443,25.067484],[55.148442,25.067627],[55.148608,25.067691],[55.148538,25.067746],[55.148625,25.067837],[55.148664,25.067852],[55.14865,25.067863],[55.148737,25.067955],[55.148807,25.067982],[55.148792,25.067994],[55.148142,25.067743],[55.148114,25.06775],[55.148064,25.067731],[55.148051,25.067686],[55.146437,25.067065],[55.146466,25.066898],[55.1464,25.066588],[55.146208,25.06647],[55.144549,25.065831],[55.144424,25.065813],[55.144256,25.066038],[55.144268,25.066094],[55.144178,25.06616],[55.143987,25.066132],[55.14393,25.066458],[55.144126,25.067384],[55.144575,25.067893],[55.139523,25.065947],[55.139496,25.065988],[55.139472,25.065978],[55.139415,25.066045],[55.139436,25.066063],[55.139374,25.066147],[55.139406,25.066165],[55.139393,25.066184],[55.139558,25.066359],[55.139595,25.066379],[55.145072,25.068488],[55.145154,25.068453],[55.145193,25.068468],[55.145279,25.068426],[55.145269,25.068407],[55.145315,25.068385],[55.1453,25.06836],[55.146105,25.06867],[55.145833,25.068881],[55.14578,25.068844],[55.140303,25.066734],[55.140277,25.066775],[55.140252,25.066765],[55.140195,25.066832],[55.140216,25.066851],[55.140154,25.066934],[55.140186,25.066952],[55.140173,25.066971],[55.140338,25.067147],[55.140375,25.067166],[55.145852,25.069276],[55.145891,25.069259],[55.146017,25.069308],[55.145979,25.069337],[55.145987,25.069345],[55.145975,25.06934],[55.145877,25.069417],[55.14596,25.069504],[55.145814,25.069447],[55.145717,25.069524],[55.145791,25.069602],[55.145677,25.069558],[55.14558,25.069634],[55.145665,25.069723],[55.145409,25.069625],[55.145374,25.069679],[55.14549,25.069728],[55.14544,25.069767],[55.1455,25.06983],[55.145381,25.069784],[55.14528,25.069872],[55.145389,25.069974],[55.146152,25.07027],[55.146135,25.070283],[55.145425,25.07001],[55.145265,25.070022],[55.145277,25.070154],[55.145448,25.07022],[55.14543,25.070239],[55.145556,25.070337],[55.145901,25.07047],[55.14589,25.070595],[55.146033,25.07065],[55.145893,25.070765],[55.146001,25.070872],[55.146218,25.070956],[55.146148,25.071014],[55.146243,25.071108],[55.146463,25.071193],[55.146394,25.071246],[55.145427,25.070874],[55.145744,25.070628],[55.145363,25.070216],[55.144259,25.069791],[55.144195,25.069719],[55.143434,25.069426],[55.14345,25.069404],[55.143396,25.069288],[55.143202,25.069128],[55.137725,25.067017],[55.137664,25.067052],[55.137693,25.067084],[55.137677,25.067096],[55.137614,25.067091],[55.137064,25.066881],[55.136935,25.06694],[55.136816,25.067047],[55.136753,25.067136],[55.136821,25.06719],[55.136903,25.067307],[55.138013,25.067735],[55.138026,25.067766],[55.138001,25.067805],[55.134204,25.066342],[55.134065,25.066452],[55.132806,25.065967]],[[55.146867,25.071757],[55.146845,25.071748],[55.146853,25.071742],[55.146867,25.071757]],[[55.146677,25.071548],[55.14664,25.071509],[55.146666,25.071519],[55.14668,25.071507],[55.146774,25.071543],[55.146724,25.07158],[55.146666,25.071557],[55.146677,25.071548]],[[55.14395,25.070929],[55.143966,25.070936],[55.14396,25.07094],[55.14395,25.070929]],[[55.141508,25.069253],[55.143469,25.070008],[55.143611,25.070153],[55.143403,25.070073],[55.143056,25.070348],[55.143179,25.070475],[55.141009,25.069639],[55.141048,25.06953],[55.141677,25.069773],[55.141508,25.069253]],[[55.147153,25.067834],[55.147143,25.067843],[55.14677,25.067699],[55.146765,25.067685],[55.147153,25.067834]],[[55.14471,25.075003],[55.144817,25.07492],[55.144965,25.074978],[55.144855,25.075068],[55.144044,25.074756],[55.14471,25.075003]],[[55.148633,25.072386],[55.148677,25.072403],[55.148747,25.072469],[55.148711,25.072439],[55.148614,25.072402],[55.148633,25.072386]],[[55.149139,25.072294],[55.150023,25.072636],[55.150003,25.072654],[55.149291,25.07238],[55.149269,25.0724],[55.149182,25.072329],[55.149125,25.072306],[55.149139,25.072294]],[[55.147264,25.070924],[55.147276,25.070911],[55.147943,25.071174],[55.14792,25.071194],[55.147737,25.071124],[55.147738,25.071107],[55.147264,25.070924]],[[55.149462,25.071406],[55.149455,25.071439],[55.148574,25.0711],[55.148553,25.071056],[55.149462,25.071406]],[[55.148912,25.070938],[55.148882,25.070988],[55.14891,25.071001],[55.14836,25.070789],[55.14836,25.070726],[55.148912,25.070938]],[[55.148854,25.070696],[55.148864,25.070688],[55.149052,25.070761],[55.149033,25.070793],[55.148998,25.070779],[55.148952,25.070734],[55.148854,25.070696]],[[55.149885,25.070687],[55.149912,25.070698],[55.149901,25.070724],[55.149545,25.070587],[55.149497,25.070586],[55.149496,25.070616],[55.149288,25.070528],[55.149323,25.0705],[55.149862,25.070708],[55.149885,25.070687]],[[55.149524,25.069599],[55.149502,25.069636],[55.149424,25.069606],[55.149461,25.069572],[55.149948,25.06976],[55.149524,25.069599]],[[55.150156,25.069272],[55.149948,25.069192],[55.149957,25.069183],[55.150162,25.069262],[55.150156,25.069272]],[[55.147075,25.071976],[55.147287,25.072058],[55.147241,25.07209],[55.147105,25.072037],[55.147103,25.07201],[55.147075,25.071976]]]}},{"type":"Feature","properties":{},"geometry":{"type":"Polygon","coordinates":[[[55.136822,25.089673],[55.13848,25.090312],[55.138843,25.090431],[55.138895,25.090301],[55.137237,25.089662],[55.136821,25.089511],[55.136803,25.089552],[55.135002,25.088854],[55.13496,25.088937],[55.136825,25.089664],[55.136822,25.089673]]]}},{"type":"Feature","properties":{},"geometry":{"type":"Polygon","coordinates":[[[55.13498,25.088997],[55.136742,25.089674],[55.136758,25.089639],[55.134996,25.088962],[55.13498,25.088997]]]}},{"type":"Feature","properties":{},"geometry":{"type":"Polygon","coordinates":[[[55.137874,25.095188],[55.137918,25.095151],[55.13786,25.095093],[55.137903,25.095056],[55.137825,25.094978],[55.13777,25.094957],[55.137792,25.094935],[55.137638,25.094805],[55.136553,25.094376],[55.136572,25.094358],[55.13667,25.094356],[55.13681,25.09441],[55.137189,25.094405],[55.137229,25.094389],[55.137243,25.094357],[55.137143,25.094211],[55.137001,25.09412],[55.136817,25.094043],[55.135159,25.093404],[55.134944,25.093397],[55.134765,25.093443],[55.134615,25.09352],[55.134466,25.09373],[55.134472,25.09376],[55.134508,25.093776],[55.135952,25.094332],[55.136029,25.094398],[55.136084,25.094419],[55.136215,25.094549],[55.137874,25.095188]]]}},{"type":"Feature","properties":{},"geometry":{"type":"Polygon","coordinates":[[[55.142793,25.068669],[55.143083,25.068781],[55.143162,25.068724],[55.143108,25.068664],[55.144319,25.06913],[55.144444,25.069006],[55.1444,25.068969],[55.141172,25.06771],[55.141093,25.067767],[55.1413,25.068001],[55.137145,25.066401],[55.137064,25.066395],[55.136969,25.066465],[55.137016,25.066595],[55.13712,25.066666],[55.142597,25.068776],[55.142706,25.068803],[55.142757,25.06877],[55.142781,25.068779],[55.142834,25.068744],[55.142793,25.068669]]]}},{"type":"Feature","properties":{},"geometry":{"type":"Polygon","coordinates":[[[55.138398,25.087893],[55.138367,25.087843],[55.136708,25.087204],[55.136664,25.087227],[55.136695,25.087277],[55.137039,25.08741],[55.136952,25.087438],[55.13697,25.087484],[55.138629,25.088122],[55.13874,25.088086],[55.138722,25.088041],[55.138373,25.087906],[55.138398,25.087893]]]}},{"type":"Feature","properties":{},"geometry":{"type":"Polygon","coordinates":[[[55.137251,25.087886],[55.137176,25.087856],[55.137037,25.087957],[55.137149,25.088086],[55.138808,25.088725],[55.139011,25.088599],[55.138941,25.088505],[55.137282,25.087866],[55.137251,25.087886]]]}},{"type":"Feature","properties":{},"geometry":{"type":"Polygon","coordinates":[[[55.143046,25.093577],[55.142817,25.093344],[55.141159,25.092705],[55.139332,25.094178],[55.13956,25.094411],[55.141219,25.09505],[55.143046,25.093577]]]}},{"type":"Feature","properties":{},"geometry":{"type":"Polygon","coordinates":[[[55.145098,25.073311],[55.145041,25.073283],[55.143383,25.072644],[55.143363,25.072677],[55.145078,25.073344],[55.145098,25.073311]]]}},{"type":"Feature","properties":{},"geometry":{"type":"Polygon","coordinates":[[[55.143891,25.073182],[55.143813,25.073192],[55.143815,25.073225],[55.143688,25.07324],[55.143698,25.073324],[55.145356,25.073963],[55.145404,25.073957],[55.145475,25.073984],[55.145608,25.073965],[55.145592,25.073935],[55.145631,25.07393],[55.145622,25.073854],[55.143891,25.073182]]]}},{"type":"Feature","properties":{},"geometry":{"type":"Polygon","coordinates":[[[55.144976,25.073516],[55.145014,25.073553],[55.146673,25.074192],[55.146713,25.074157],[55.146674,25.074121],[55.145015,25.073482],[55.144976,25.073516]]]}},{"type":"Feature","properties":{},"geometry":{"type":"Polygon","coordinates":[[[55.147824,25.080247],[55.147909,25.080266],[55.147947,25.080262],[55.147923,25.080162],[55.147778,25.079977],[55.147553,25.079788],[55.147266,25.079623],[55.145505,25.07894],[55.145446,25.078926],[55.145358,25.078938],[55.145368,25.078998],[55.145551,25.079234],[55.14572,25.079377],[55.145942,25.079511],[55.147824,25.080247]]]}},{"type":"Feature","properties":{},"geometry":{"type":"Polygon","coordinates":[[[55.14781,25.075538],[55.147753,25.075583],[55.147783,25.075613],[55.149441,25.076252],[55.149461,25.076237],[55.149892,25.076403],[55.150031,25.076286],[55.149989,25.076244],[55.14833,25.075606],[55.148221,25.075697],[55.14781,25.075538]]]}},{"type":"Feature","properties":{},"geometry":{"type":"Polygon","coordinates":[[[55.152038,25.074985],[55.152077,25.074885],[55.151915,25.074823],[55.151927,25.074804],[55.151771,25.074738],[55.151782,25.074736],[55.151766,25.074631],[55.150107,25.073992],[55.150078,25.073996],[55.149592,25.073809],[55.149571,25.073816],[55.149085,25.073628],[55.148851,25.07363],[55.148852,25.073783],[55.150971,25.074604],[55.150981,25.074584],[55.152038,25.074985]]]}},{"type":"Feature","properties":{},"geometry":{"type":"Polygon","coordinates":[[[55.149834,25.074277],[55.15155,25.074935],[55.15157,25.074885],[55.149854,25.074227],[55.149834,25.074277]]]}},{"type":"Feature","properties":{},"geometry":{"type":"Polygon","coordinates":[[[55.150079,25.075739],[55.151737,25.076378],[55.152191,25.076527],[55.152206,25.076489],[55.15303,25.076807],[55.15349,25.076958],[55.153549,25.076811],[55.153495,25.07679],[55.153557,25.076634],[55.153149,25.076477],[55.153197,25.07636],[55.151538,25.075721],[55.1503,25.075328],[55.150257,25.075436],[55.150642,25.075584],[55.150638,25.075593],[55.150247,25.075464],[55.150182,25.075625],[55.150131,25.075608],[55.150079,25.075739]]]}},{"type":"Feature","properties":{},"geometry":{"type":"Polygon","coordinates":[[[55.152014,25.09224],[55.151461,25.092027],[55.151424,25.092076],[55.151489,25.092117],[55.152042,25.09233],[55.152079,25.09228],[55.152014,25.09224]]]}},{"type":"Feature","properties":{},"geometry":{"type":"Polygon","coordinates":[[[55.15092,25.093166],[55.150889,25.09319],[55.151455,25.093417],[55.151485,25.093393],[55.15092,25.093166]]]}}]}