{"type":"FeatureCollection","features":[{"type":"Feature","properties":{},"geometry":{"type":"Polygon","coordinates":[[[54.390805,24.482525],[54.390718,24.482472],[54.39058,24.482459],[54.390563,24.482582],[54.39065,24.482636],[54.390785,24.482648],[54.390805,24.482525]]]}},{"type":"Feature","properties":{},"geometry":{"type":"Polygon","coordinates":[[[54.391263,24.482826],[54.391242,24.482865],[54.391191,24.482839],[54.39115,24.482902],[54.391282,24.482979],[54.391314,24.482927],[54.391395,24.482965],[54.391318,24.483096],[54.391056,24.482942],[54.390997,24.483025],[54.391325,24.483221],[54.391336,24.483207],[54.39159,24.483336],[54.391667,24.483213],[54.391579,24.483146],[54.391651,24.483027],[54.391698,24.483051],[54.391708,24.483033],[54.391755,24.483056],[54.391829,24.482936],[54.391509,24.482769],[54.391483,24.482814],[54.390942,24.482565],[54.390825,24.482772],[54.391115,24.48292],[54.391199,24.482777],[54.391263,24.482826]]]}},{"type":"Feature","properties":{},"geometry":{"type":"Polygon","coordinates":[[[54.390518,24.482654],[54.390461,24.482735],[54.390797,24.482926],[54.390853,24.482845],[54.390518,24.482654]]]}},{"type":"Feature","properties":{},"geometry":{"type":"Polygon","coordinates":[[[54.39006,24.482947],[54.39015,24.482877],[54.390085,24.482808],[54.389997,24.482755],[54.389907,24.482825],[54.389972,24.482894],[54.39006,24.482947]]]}},{"type":"Feature","properties":{},"geometry":{"type":"Polygon","coordinates":[[[54.392282,24.483312],[54.392462,24.483408],[54.392563,24.483233],[54.392379,24.483134],[54.392362,24.483166],[54.392351,24.48316],[54.392368,24.48313],[54.392174,24.483027],[54.392156,24.48306],[54.392042,24.483006],[54.392022,24.483043],[54.392205,24.483143],[54.392218,24.483122],[54.392252,24.48314],[54.392207,24.483218],[54.392294,24.483272],[54.392282,24.483312]]]}},{"type":"Feature","properties":{},"geometry":{"type":"Polygon","coordinates":[[[54.391699,24.48351],[54.391714,24.48348],[54.391532,24.483387],[54.391516,24.483417],[54.391699,24.48351]]]}},{"type":"Feature","properties":{},"geometry":{"type":"Polygon","coordinates":[[[54.391341,24.483726],[54.391387,24.483672],[54.391322,24.48362],[54.391337,24.483602],[54.391411,24.483647],[54.391495,24.483551],[54.391224,24.483358],[54.391015,24.483564],[54.391234,24.483719],[54.391186,24.48376],[54.391324,24.483896],[54.391411,24.48395],[54.391498,24.483874],[54.391341,24.483726]]]}},{"type":"Feature","properties":{},"geometry":{"type":"Polygon","coordinates":[[[54.390771,24.484369],[54.39068,24.484447],[54.390799,24.484563],[54.390886,24.484616],[54.390978,24.484538],[54.390859,24.484422],[54.390771,24.484369]]]}},{"type":"Feature","properties":{},"geometry":{"type":"Polygon","coordinates":[[[54.392572,24.489055],[54.392686,24.489105],[54.392839,24.489252],[54.392886,24.489319],[54.392995,24.489385],[54.393272,24.489275],[54.393381,24.489342],[54.393912,24.489273],[54.393859,24.488936],[54.39375,24.488869],[54.393181,24.488944],[54.393126,24.488853],[54.393119,24.488789],[54.393133,24.488725],[54.393166,24.488668],[54.393215,24.488621],[54.393291,24.488585],[54.393817,24.488539],[54.393759,24.487984],[54.393649,24.487917],[54.392872,24.487985],[54.392909,24.488341],[54.392655,24.488656],[54.392483,24.488575],[54.392314,24.488534],[54.392295,24.488626],[54.392215,24.488605],[54.392125,24.48894],[54.392234,24.489007],[54.392413,24.489016],[54.392572,24.489055]]]}},{"type":"Feature","properties":{},"geometry":{"type":"Polygon","coordinates":[[[54.392412,24.491],[54.392485,24.490937],[54.392538,24.490937],[54.39257,24.490997],[54.392679,24.491064],[54.393094,24.49101],[54.39341,24.491197],[54.393472,24.491114],[54.393639,24.491214],[54.393722,24.491234],[54.393441,24.491575],[54.393494,24.491719],[54.393888,24.491987],[54.395111,24.490519],[54.394882,24.49037],[54.394497,24.490409],[54.394352,24.490468],[54.394097,24.490778],[54.394011,24.490671],[54.393885,24.490597],[54.393949,24.490561],[54.394087,24.490385],[54.394,24.48988],[54.393891,24.489814],[54.393513,24.489847],[54.393237,24.48969],[54.392995,24.489698],[54.392899,24.490086],[54.392856,24.490178],[54.392767,24.490289],[54.392729,24.490281],[54.392598,24.490361],[54.392349,24.490475],[54.392143,24.490511],[54.391935,24.490511],[54.391736,24.490465],[54.391721,24.490502],[54.391735,24.490577],[54.3917,24.4906],[54.391651,24.49071],[54.391724,24.490779],[54.391833,24.490846],[54.392051,24.490888],[54.392412,24.491]]]}},{"type":"Feature","properties":{},"geometry":{"type":"Polygon","coordinates":[[[54.392869,24.491091],[54.392169,24.491164],[54.39221,24.49149],[54.392297,24.491544],[54.39259,24.491513],[54.392575,24.491396],[54.392983,24.491353],[54.392957,24.491144],[54.392869,24.491091]]]}},{"type":"Feature","properties":{},"geometry":{"type":"Polygon","coordinates":[[[54.393077,24.491946],[54.393021,24.491585],[54.392934,24.491532],[54.39246,24.491593],[54.392547,24.492146],[54.392634,24.4922],[54.39305,24.492146],[54.393077,24.491946]]]}},{"type":"Feature","properties":{},"geometry":{"type":"Polygon","coordinates":[[[54.392895,24.492454],[54.392808,24.492401],[54.392226,24.492479],[54.392288,24.492864],[54.392376,24.492918],[54.392958,24.49284],[54.392895,24.492454]]]}},{"type":"Feature","properties":{},"geometry":{"type":"Polygon","coordinates":[[[54.390592,24.493092],[54.39078,24.492921],[54.390674,24.492825],[54.390587,24.492771],[54.390399,24.492942],[54.390505,24.493039],[54.390592,24.493092]]]}},{"type":"Feature","properties":{},"geometry":{"type":"Polygon","coordinates":[[[54.390121,24.493761],[54.389311,24.493854],[54.389361,24.494209],[54.389448,24.494262],[54.390258,24.494168],[54.390208,24.493814],[54.390121,24.493761]]]}},{"type":"Feature","properties":{},"geometry":{"type":"Polygon","coordinates":[[[54.392741,24.49608],[54.392828,24.496134],[54.392884,24.496091],[54.393739,24.496007],[54.393827,24.496062],[54.393951,24.496047],[54.394156,24.495865],[54.394373,24.49584],[54.394287,24.49523],[54.3942,24.495176],[54.393632,24.495242],[54.393649,24.495363],[54.393572,24.495316],[54.392676,24.495443],[54.392741,24.49608]]]}},{"type":"Feature","properties":{},"geometry":{"type":"Polygon","coordinates":[[[54.390596,24.496398],[54.390594,24.496348],[54.390655,24.496385],[54.39073,24.496382],[54.390717,24.496153],[54.390663,24.49573],[54.390576,24.495677],[54.390226,24.495712],[54.390228,24.495726],[54.390109,24.495729],[54.390113,24.495837],[54.390201,24.49589],[54.390247,24.495889],[54.390267,24.496051],[54.390224,24.496025],[54.390147,24.496033],[54.390156,24.496107],[54.390175,24.496119],[54.390205,24.496364],[54.390292,24.496417],[54.390596,24.496398]],[[54.390566,24.496307],[54.390531,24.496285],[54.390521,24.496169],[54.390559,24.496174],[54.390566,24.496307]]]}},{"type":"Feature","properties":{},"geometry":{"type":"Polygon","coordinates":[[[54.391508,24.497073],[54.391583,24.497074],[54.391584,24.497043],[54.39163,24.497071],[54.391751,24.497066],[54.391749,24.497027],[54.391661,24.496974],[54.391541,24.496979],[54.391543,24.497015],[54.391497,24.496987],[54.391422,24.496985],[54.391421,24.497019],[54.391508,24.497073]]]}},{"type":"Feature","properties":{},"geometry":{"type":"Polygon","coordinates":[[[54.391703,24.497181],[54.391757,24.497171],[54.391749,24.497134],[54.391662,24.49708],[54.391607,24.49709],[54.391615,24.497128],[54.391703,24.497181]]]}},{"type":"Feature","properties":{},"geometry":{"type":"Polygon","coordinates":[[[54.39123,24.497241],[54.391317,24.497295],[54.39143,24.497297],[54.391432,24.497234],[54.391375,24.497199],[54.391391,24.4972],[54.391396,24.497106],[54.391309,24.497052],[54.391186,24.49705],[54.391184,24.497144],[54.391232,24.497178],[54.39123,24.497241]]]}},{"type":"Feature","properties":{},"geometry":{"type":"Polygon","coordinates":[[[54.393355,24.498117],[54.393313,24.498116],[54.39331,24.498197],[54.393397,24.49825],[54.393439,24.498251],[54.393442,24.498171],[54.393355,24.498117]]]}},{"type":"Feature","properties":{},"geometry":{"type":"Polygon","coordinates":[[[54.391404,24.498122],[54.39237,24.498713],[54.392786,24.498694],[54.392754,24.498476],[54.391881,24.497941],[54.391505,24.497815],[54.391368,24.497883],[54.391404,24.498122]]]}},{"type":"Feature","properties":{},"geometry":{"type":"Polygon","coordinates":[[[54.390929,24.498107],[54.389896,24.498215],[54.389941,24.498568],[54.390028,24.498622],[54.391061,24.498515],[54.391017,24.498161],[54.390929,24.498107]]]}},{"type":"Feature","properties":{},"geometry":{"type":"Polygon","coordinates":[[[54.391623,24.500751],[54.39166,24.500999],[54.391748,24.501052],[54.392009,24.501023],[54.391976,24.50078],[54.391889,24.500727],[54.391623,24.500751]]]}},{"type":"Feature","properties":{},"geometry":{"type":"Polygon","coordinates":[[[54.390342,24.50261],[54.390406,24.5031],[54.390566,24.503198],[54.391317,24.503134],[54.39126,24.50262],[54.391579,24.502578],[54.39114,24.498941],[54.39098,24.498843],[54.389877,24.498968],[54.390312,24.502373],[54.389868,24.502417],[54.389887,24.502566],[54.390018,24.502647],[54.390342,24.50261]]]}},{"type":"Feature","properties":{},"geometry":{"type":"Polygon","coordinates":[[[54.392182,24.503733],[54.392105,24.503737],[54.392111,24.503839],[54.392198,24.503893],[54.392361,24.503884],[54.392355,24.503782],[54.392268,24.503729],[54.392222,24.503731],[54.392278,24.503723],[54.39227,24.503674],[54.392183,24.503621],[54.392091,24.503633],[54.392099,24.503682],[54.392182,24.503733]]]}},{"type":"Feature","properties":{},"geometry":{"type":"Polygon","coordinates":[[[54.392551,24.503865],[54.392642,24.503864],[54.392641,24.503815],[54.392554,24.503762],[54.392463,24.503763],[54.392463,24.503812],[54.392551,24.503865]]]}},{"type":"Feature","properties":{},"geometry":{"type":"Polygon","coordinates":[[[54.392104,24.503938],[54.392054,24.50394],[54.392065,24.504132],[54.392152,24.504186],[54.392193,24.504184],[54.392203,24.504264],[54.392139,24.504225],[54.39209,24.504227],[54.392098,24.504395],[54.392185,24.504449],[54.392234,24.504439],[54.392306,24.504483],[54.392177,24.504496],[54.39221,24.504771],[54.392298,24.504825],[54.39274,24.504781],[54.392707,24.504506],[54.39262,24.504452],[54.392416,24.504472],[54.39241,24.504415],[54.392484,24.50446],[54.392591,24.504454],[54.392583,24.504341],[54.392611,24.504357],[54.392679,24.504338],[54.392667,24.504303],[54.392577,24.50425],[54.392575,24.504218],[54.392505,24.504176],[54.392677,24.504155],[54.392646,24.503934],[54.392558,24.503881],[54.392347,24.503906],[54.392356,24.503968],[54.392272,24.503917],[54.392164,24.503927],[54.39217,24.503978],[54.392104,24.503938]],[[54.392369,24.504059],[54.392379,24.504127],[54.392445,24.504167],[54.392382,24.504171],[54.392369,24.504059]]]}},{"type":"Feature","properties":{},"geometry":{"type":"Polygon","coordinates":[[[54.392228,24.504858],[54.392173,24.504863],[54.392181,24.504943],[54.392268,24.504996],[54.392323,24.504992],[54.392315,24.504912],[54.392228,24.504858]]]}},{"type":"Feature","properties":{},"geometry":{"type":"Polygon","coordinates":[[[54.392563,24.504815],[54.392452,24.504825],[54.392482,24.505074],[54.392569,24.505127],[54.392679,24.505116],[54.39265,24.504868],[54.392563,24.504815]]]}},{"type":"Feature","properties":{},"geometry":{"type":"Polygon","coordinates":[[[54.392298,24.505267],[54.392356,24.505266],[54.392355,24.505214],[54.392409,24.505247],[54.392522,24.505244],[54.392519,24.505134],[54.392431,24.505081],[54.392319,24.505083],[54.39232,24.505136],[54.392266,24.505103],[54.392208,24.505104],[54.392211,24.505213],[54.392298,24.505267]]]}},{"type":"Feature","properties":{},"geometry":{"type":"Polygon","coordinates":[[[54.392737,24.505136],[54.392522,24.505149],[54.392558,24.505648],[54.392645,24.505702],[54.39286,24.505689],[54.392824,24.505189],[54.392737,24.505136]]]}},{"type":"Feature","properties":{},"geometry":{"type":"Polygon","coordinates":[[[54.389842,24.505811],[54.389929,24.505865],[54.390143,24.50585],[54.390081,24.505258],[54.389993,24.505205],[54.389795,24.505218],[54.389842,24.505811]]]}},{"type":"Feature","properties":{},"geometry":{"type":"Polygon","coordinates":[[[54.391863,24.506909],[54.391881,24.506907],[54.391888,24.506957],[54.391975,24.507011],[54.392011,24.507007],[54.392005,24.506962],[54.392088,24.507013],[54.392154,24.506999],[54.392142,24.50695],[54.392186,24.506941],[54.392175,24.506899],[54.392088,24.506846],[54.391978,24.506869],[54.391997,24.506942],[54.391931,24.506902],[54.391952,24.5069],[54.391947,24.506854],[54.391859,24.506801],[54.39177,24.50681],[54.391776,24.506856],[54.391863,24.506909]]]}},{"type":"Feature","properties":{},"geometry":{"type":"Polygon","coordinates":[[[54.392715,24.506783],[54.39253,24.506794],[54.392556,24.507137],[54.392644,24.50719],[54.392829,24.507178],[54.392802,24.506836],[54.392715,24.506783]]]}},{"type":"Feature","properties":{},"geometry":{"type":"Polygon","coordinates":[[[54.39194,24.507053],[54.391814,24.507055],[54.391816,24.507144],[54.391903,24.507197],[54.392029,24.507195],[54.392027,24.507106],[54.39194,24.507053]]]}},{"type":"Feature","properties":{},"geometry":{"type":"Polygon","coordinates":[[[54.392985,24.507152],[54.392904,24.50716],[54.392911,24.507214],[54.392998,24.507268],[54.393079,24.507259],[54.393072,24.507205],[54.392985,24.507152]]]}},{"type":"Feature","properties":{},"geometry":{"type":"Polygon","coordinates":[[[54.391934,24.507327],[54.391531,24.507352],[54.391541,24.50749],[54.391628,24.507544],[54.392032,24.507519],[54.392021,24.507381],[54.391934,24.507327]]]}},{"type":"Feature","properties":{},"geometry":{"type":"Polygon","coordinates":[[[54.39118,24.507431],[54.391047,24.507429],[54.391046,24.50751],[54.391133,24.507563],[54.391266,24.507565],[54.391267,24.507484],[54.39118,24.507431]]]}},{"type":"Feature","properties":{},"geometry":{"type":"Polygon","coordinates":[[[54.39297,24.508739],[54.393058,24.508793],[54.393176,24.50879],[54.393175,24.508775],[54.393303,24.508787],[54.393304,24.508753],[54.393217,24.5087],[54.393104,24.508696],[54.393103,24.508716],[54.39297,24.508709],[54.39297,24.508739]]]}},{"type":"Feature","properties":{},"geometry":{"type":"Polygon","coordinates":[[[54.393021,24.509696],[54.392992,24.509738],[54.39315,24.509831],[54.393179,24.50979],[54.393021,24.509696]]]}},{"type":"Feature","properties":{},"geometry":{"type":"Polygon","coordinates":[[[54.404745,24.481213],[54.404801,24.481189],[54.404784,24.481155],[54.404697,24.481102],[54.40464,24.481125],[54.404658,24.48116],[54.404745,24.481213]]]}},{"type":"Feature","properties":{},"geometry":{"type":"Polygon","coordinates":[[[54.403917,24.481584],[54.404004,24.481637],[54.404532,24.481367],[54.40437,24.481089],[54.404282,24.481036],[54.403673,24.48131],[54.403917,24.481584]]]}},{"type":"Feature","properties":{},"geometry":{"type":"Polygon","coordinates":[[[54.403166,24.483268],[54.4034,24.483135],[54.403389,24.483106],[54.403224,24.482795],[54.4029,24.482359],[54.402754,24.48227],[54.402518,24.482366],[54.402522,24.482331],[54.402377,24.482242],[54.402291,24.482238],[54.401421,24.483154],[54.401422,24.483271],[54.401463,24.483334],[54.401609,24.483423],[54.401783,24.483464],[54.401981,24.483379],[54.402296,24.483294],[54.402716,24.483304],[54.403241,24.483485],[54.403166,24.483268]]]}},{"type":"Feature","properties":{},"geometry":{"type":"Polygon","coordinates":[[[54.404454,24.485327],[54.40456,24.485083],[54.40463,24.484864],[54.404627,24.484568],[54.40454,24.484515],[54.403751,24.484451],[54.40362,24.484898],[54.403526,24.485074],[54.40334,24.485265],[54.403951,24.4858],[54.404039,24.485854],[54.404235,24.485663],[54.404454,24.485327]]]}},{"type":"Feature","properties":{},"geometry":{"type":"Polygon","coordinates":[[[54.400631,24.486302],[54.40032,24.486616],[54.400169,24.486792],[54.400636,24.487122],[54.400723,24.487175],[54.400841,24.487212],[54.400954,24.48717],[54.401294,24.486416],[54.400743,24.486123],[54.400631,24.486302]]]}},{"type":"Feature","properties":{},"geometry":{"type":"Polygon","coordinates":[[[54.404278,24.486419],[54.404023,24.48626],[54.403971,24.486254],[54.403234,24.486607],[54.403444,24.48716],[54.403478,24.487193],[54.403696,24.487327],[54.403748,24.487341],[54.403985,24.487257],[54.40434,24.487066],[54.404608,24.48687],[54.404636,24.486831],[54.404626,24.486783],[54.404278,24.486419]]]}},{"type":"Feature","properties":{},"geometry":{"type":"Polygon","coordinates":[[[54.394198,24.487939],[54.394521,24.488303],[54.394608,24.488356],[54.394679,24.488301],[54.394793,24.488419],[54.39582,24.489047],[54.395911,24.488973],[54.395994,24.489023],[54.396211,24.488847],[54.396138,24.488772],[54.396235,24.488693],[54.396062,24.488517],[54.395123,24.487942],[54.394834,24.487526],[54.394707,24.487397],[54.39462,24.487343],[54.394577,24.487378],[54.394555,24.487364],[54.394369,24.487515],[54.394519,24.487666],[54.394443,24.487731],[54.394363,24.487654],[54.394275,24.4876],[54.394095,24.487756],[54.394113,24.487773],[54.394066,24.487813],[54.394198,24.487939]]]}},{"type":"Feature","properties":{},"geometry":{"type":"Polygon","coordinates":[[[54.39497,24.487235],[54.395012,24.487275],[54.394866,24.487404],[54.394906,24.48744],[54.394864,24.487477],[54.394986,24.48759],[54.396056,24.488245],[54.39644,24.487904],[54.395338,24.487219],[54.395256,24.487186],[54.395144,24.487174],[54.395019,24.487192],[54.39497,24.487235]]]}},{"type":"Feature","properties":{},"geometry":{"type":"Polygon","coordinates":[[[54.402967,24.489649],[54.402712,24.48819],[54.402625,24.488136],[54.402288,24.488086],[54.401773,24.487981],[54.401144,24.487765],[54.400127,24.487311],[54.39963,24.486988],[54.398968,24.486502],[54.397734,24.487851],[54.398874,24.488706],[54.400283,24.489453],[54.401053,24.489767],[54.401844,24.489937],[54.402687,24.489997],[54.402967,24.489649]]]}},{"type":"Feature","properties":{},"geometry":{"type":"Polygon","coordinates":[[[54.394327,24.488773],[54.394339,24.488873],[54.39419,24.488888],[54.394231,24.489235],[54.395599,24.490073],[54.395786,24.490054],[54.395773,24.489941],[54.395865,24.489932],[54.395822,24.489578],[54.395712,24.48951],[54.395709,24.48949],[54.394508,24.488755],[54.394327,24.488773]]]}},{"type":"Feature","properties":{},"geometry":{"type":"Polygon","coordinates":[[[54.39441,24.489501],[54.394421,24.489601],[54.394271,24.489615],[54.394312,24.489967],[54.394478,24.490068],[54.394481,24.490096],[54.395385,24.490649],[54.395185,24.490879],[54.395424,24.49105],[54.396407,24.491652],[54.396608,24.49142],[54.396369,24.491248],[54.395687,24.49083],[54.39587,24.490813],[54.395853,24.490668],[54.395946,24.490659],[54.395905,24.490308],[54.395795,24.49024],[54.395792,24.490219],[54.394592,24.489484],[54.39441,24.489501]]]}},{"type":"Feature","properties":{},"geometry":{"type":"Polygon","coordinates":[[[54.40049,24.490747],[54.400449,24.490482],[54.400362,24.490428],[54.400058,24.490467],[54.400098,24.490732],[54.400186,24.490786],[54.40049,24.490747]]]}},{"type":"Feature","properties":{},"geometry":{"type":"Polygon","coordinates":[[[54.396527,24.491962],[54.39657,24.491913],[54.396321,24.491733],[54.395186,24.491038],[54.395007,24.491243],[54.395249,24.491417],[54.396384,24.492112],[54.396411,24.49208],[54.396521,24.492147],[54.396623,24.49203],[54.396527,24.491962]]]}},{"type":"Feature","properties":{},"geometry":{"type":"Polygon","coordinates":[[[54.398712,24.491894],[54.398624,24.49184],[54.398498,24.491854],[54.398541,24.492176],[54.398628,24.492229],[54.398754,24.492211],[54.398712,24.491894]]]}},{"type":"Feature","properties":{},"geometry":{"type":"Polygon","coordinates":[[[54.394625,24.491923],[54.394529,24.491865],[54.394395,24.492033],[54.394486,24.492093],[54.394448,24.492141],[54.395704,24.492917],[54.395775,24.492828],[54.395873,24.492888],[54.395947,24.492794],[54.395872,24.492745],[54.395936,24.492664],[54.395922,24.492655],[54.396084,24.492685],[54.396116,24.492539],[54.396131,24.492548],[54.396158,24.492516],[54.396268,24.492583],[54.396369,24.492467],[54.396274,24.492398],[54.396317,24.492349],[54.396067,24.492169],[54.394932,24.491475],[54.394754,24.49168],[54.394995,24.491853],[54.395657,24.492258],[54.39561,24.492457],[54.394662,24.491877],[54.394625,24.491923]]]}},{"type":"Feature","properties":{},"geometry":{"type":"Polygon","coordinates":[[[54.399182,24.492474],[54.399169,24.492373],[54.399082,24.49232],[54.398925,24.492339],[54.398912,24.492269],[54.398825,24.492216],[54.398753,24.492225],[54.398781,24.49246],[54.398868,24.492514],[54.399182,24.492474]]]}},{"type":"Feature","properties":{},"geometry":{"type":"Polygon","coordinates":[[[54.398602,24.492224],[54.398525,24.492233],[54.39857,24.492562],[54.398657,24.492615],[54.398734,24.492607],[54.398689,24.492278],[54.398602,24.492224]]]}},{"type":"Feature","properties":{},"geometry":{"type":"Polygon","coordinates":[[[54.395311,24.492955],[54.395354,24.492906],[54.395104,24.492726],[54.393984,24.49204],[54.393805,24.492246],[54.394047,24.492419],[54.395167,24.493105],[54.395195,24.493073],[54.395305,24.49314],[54.395406,24.493024],[54.395311,24.492955]]]}},{"type":"Feature","properties":{},"geometry":{"type":"Polygon","coordinates":[[[54.400649,24.492935],[54.399918,24.49302],[54.399973,24.493406],[54.40006,24.493459],[54.400791,24.493374],[54.400737,24.492989],[54.400649,24.492935]]]}},{"type":"Feature","properties":{},"geometry":{"type":"Polygon","coordinates":[[[54.403804,24.494445],[54.40483,24.495073],[54.404949,24.495061],[54.404942,24.495001],[54.404985,24.494996],[54.405028,24.495022],[54.405127,24.495012],[54.405117,24.49493],[54.405183,24.494965],[54.405466,24.49452],[54.404466,24.493899],[54.404641,24.493624],[54.404615,24.493609],[54.404669,24.493525],[54.404418,24.493385],[54.404364,24.49347],[54.404296,24.493434],[54.404047,24.493458],[54.403978,24.493577],[54.403873,24.493527],[54.403752,24.493539],[54.403703,24.493509],[54.403359,24.493544],[54.403368,24.493617],[54.403273,24.493627],[54.403326,24.494059],[54.403286,24.494063],[54.403322,24.494353],[54.403409,24.494406],[54.403676,24.494379],[54.403804,24.494445]]]}},{"type":"Feature","properties":{},"geometry":{"type":"Polygon","coordinates":[[[54.393515,24.494441],[54.393367,24.494459],[54.393371,24.494483],[54.39331,24.49449],[54.393345,24.49473],[54.393432,24.494784],[54.393701,24.494752],[54.39367,24.494536],[54.393515,24.494441]]]}},{"type":"Feature","properties":{},"geometry":{"type":"Polygon","coordinates":[[[54.39431,24.497106],[54.39439,24.49739],[54.394729,24.497561],[54.394856,24.497496],[54.394973,24.497401],[54.394961,24.497327],[54.395005,24.497264],[54.395084,24.497226],[54.395117,24.497167],[54.394542,24.496821],[54.39431,24.497106]]]}},{"type":"Feature","properties":{},"geometry":{"type":"Polygon","coordinates":[[[54.404083,24.498057],[54.404069,24.498085],[54.404209,24.498159],[54.404223,24.498131],[54.404083,24.498057]]]}},{"type":"Feature","properties":{},"geometry":{"type":"Polygon","coordinates":[[[54.404281,24.498305],[54.404263,24.498274],[54.404276,24.498259],[54.404081,24.49813],[54.404068,24.498147],[54.403978,24.498096],[54.403208,24.498413],[54.403016,24.498458],[54.402864,24.498563],[54.402757,24.498744],[54.40274,24.498873],[54.402759,24.498984],[54.402809,24.499041],[54.40277,24.499106],[54.402825,24.499141],[54.40285,24.499176],[54.402864,24.49922],[54.402856,24.499279],[54.403259,24.499526],[54.403154,24.499593],[54.403093,24.499605],[54.40308,24.499633],[54.403087,24.499668],[54.403154,24.499754],[54.404007,24.500276],[54.40407,24.500288],[54.404088,24.500272],[54.404085,24.500237],[54.404113,24.500249],[54.404164,24.50022],[54.404984,24.500719],[54.4051,24.50072],[54.405136,24.500704],[54.405153,24.500678],[54.405129,24.500627],[54.405129,24.500494],[54.405432,24.50068],[54.40547,24.500683],[54.405556,24.500646],[54.405627,24.500586],[54.405651,24.5006],[54.405732,24.500512],[54.405691,24.500487],[54.405723,24.500389],[54.405708,24.500309],[54.40548,24.500161],[54.405511,24.500146],[54.405999,24.500445],[54.40612,24.500467],[54.406125,24.500442],[54.40624,24.500455],[54.406324,24.500429],[54.406354,24.500378],[54.406351,24.500342],[54.406297,24.50027],[54.406215,24.500217],[54.406226,24.500186],[54.405857,24.49996],[54.405898,24.499928],[54.405968,24.499971],[54.406161,24.499964],[54.406528,24.500188],[54.406589,24.500202],[54.406621,24.500184],[54.406665,24.500107],[54.406685,24.500022],[54.406713,24.50002],[54.406721,24.499905],[54.406661,24.499868],[54.406603,24.499774],[54.406469,24.499692],[54.406482,24.499636],[54.406475,24.499559],[54.406431,24.499492],[54.406351,24.499444],[54.406489,24.499209],[54.40659,24.498961],[54.406645,24.498673],[54.406661,24.498401],[54.406638,24.498178],[54.40656,24.497873],[54.406444,24.497802],[54.405643,24.497652],[54.405791,24.497852],[54.405871,24.49802],[54.405922,24.498291],[54.405927,24.498413],[54.40542,24.498103],[54.405278,24.497823],[54.405251,24.497806],[54.405387,24.497852],[54.40553,24.497505],[54.405699,24.497608],[54.405911,24.497689],[54.40594,24.497622],[54.406087,24.497648],[54.406102,24.497584],[54.406141,24.497593],[54.406176,24.497444],[54.406052,24.497354],[54.406125,24.49718],[54.405744,24.496947],[54.405775,24.49687],[54.405595,24.49676],[54.405593,24.496503],[54.405411,24.496392],[54.404485,24.49605],[54.404158,24.496949],[54.403928,24.497053],[54.404358,24.49798],[54.40454,24.498091],[54.404667,24.497988],[54.405006,24.498195],[54.404875,24.498333],[54.404851,24.498402],[54.404855,24.498473],[54.40483,24.498577],[54.404772,24.498671],[54.404698,24.498736],[54.404569,24.498791],[54.404451,24.498802],[54.404327,24.498776],[54.404234,24.498809],[54.404127,24.498878],[54.40417,24.49892],[54.404128,24.498955],[54.404065,24.498942],[54.404006,24.498969],[54.40397,24.499012],[54.403959,24.499091],[54.403992,24.499162],[54.404839,24.499669],[54.404786,24.499684],[54.403571,24.498941],[54.403601,24.49883],[54.403656,24.498768],[54.403762,24.498697],[54.403739,24.498646],[54.404036,24.49853],[54.404177,24.498446],[54.404259,24.498358],[54.404281,24.498305]],[[54.404986,24.49937],[54.405223,24.499515],[54.405198,24.499529],[54.40495,24.499377],[54.404986,24.49937]],[[54.405757,24.49908],[54.405546,24.498951],[54.405603,24.498836],[54.405606,24.498715],[54.405875,24.498879],[54.405757,24.49908]]]}},{"type":"Feature","properties":{},"geometry":{"type":"Polygon","coordinates":[[[54.396129,24.498519],[54.396073,24.498517],[54.39607,24.498583],[54.396158,24.498636],[54.396214,24.498638],[54.396216,24.498572],[54.396129,24.498519]]]}},{"type":"Feature","properties":{},"geometry":{"type":"Polygon","coordinates":[[[54.395136,24.498542],[54.393466,24.49866],[54.393621,24.499665],[54.393709,24.499718],[54.395457,24.499525],[54.395347,24.498717],[54.395223,24.498596],[54.395136,24.498542]]]}},{"type":"Feature","properties":{},"geometry":{"type":"Polygon","coordinates":[[[54.395534,24.499827],[54.395419,24.499844],[54.395447,24.499997],[54.395535,24.500051],[54.395649,24.500034],[54.395622,24.49988],[54.395534,24.499827]]]}},{"type":"Feature","properties":{},"geometry":{"type":"Polygon","coordinates":[[[54.395273,24.500002],[54.395241,24.500009],[54.395264,24.500113],[54.395351,24.500166],[54.395384,24.500161],[54.39536,24.500056],[54.395273,24.500002]]]}},{"type":"Feature","properties":{},"geometry":{"type":"Polygon","coordinates":[[[54.394916,24.50033],[54.394869,24.500337],[54.39489,24.500451],[54.394977,24.500504],[54.395024,24.500497],[54.395003,24.500383],[54.394916,24.50033]]]}},{"type":"Feature","properties":{},"geometry":{"type":"Polygon","coordinates":[[[54.395575,24.500526],[54.395488,24.500472],[54.394922,24.50055],[54.395064,24.501399],[54.395151,24.501452],[54.395717,24.501374],[54.395575,24.500526]]]}},{"type":"Feature","properties":{},"geometry":{"type":"Polygon","coordinates":[[[54.395747,24.501897],[54.395661,24.501895],[54.395658,24.501997],[54.395745,24.502051],[54.395831,24.502053],[54.395834,24.501951],[54.395747,24.501897]]]}},{"type":"Feature","properties":{},"geometry":{"type":"Polygon","coordinates":[[[54.395873,24.502153],[54.395441,24.502211],[54.395492,24.502519],[54.395579,24.502573],[54.396011,24.502514],[54.39596,24.502206],[54.395873,24.502153]]]}},{"type":"Feature","properties":{},"geometry":{"type":"Polygon","coordinates":[[[54.397473,24.504684],[54.397401,24.504687],[54.397407,24.504788],[54.397494,24.504842],[54.397567,24.504838],[54.397561,24.504737],[54.397473,24.504684]]]}},{"type":"Feature","properties":{},"geometry":{"type":"Polygon","coordinates":[[[54.404437,24.507235],[54.404404,24.507263],[54.404497,24.507354],[54.404584,24.507407],[54.404617,24.507379],[54.404524,24.507288],[54.404437,24.507235]]]}},{"type":"Feature","properties":{},"geometry":{"type":"Polygon","coordinates":[[[54.393655,24.509094],[54.393604,24.509096],[54.393607,24.509151],[54.393694,24.509204],[54.393745,24.509202],[54.393742,24.509147],[54.393655,24.509094]]]}},{"type":"Feature","properties":{},"geometry":{"type":"Polygon","coordinates":[[[54.393287,24.509433],[54.393332,24.509495],[54.393311,24.509483],[54.393096,24.509587],[54.393144,24.509669],[54.393231,24.509722],[54.393244,24.509716],[54.393287,24.509787],[54.393375,24.509841],[54.393712,24.509669],[54.3937,24.50965],[54.393882,24.509557],[54.39365,24.509179],[54.393563,24.509125],[54.393369,24.509224],[54.393391,24.50926],[54.393366,24.509245],[54.393317,24.509272],[54.393434,24.509442],[54.393471,24.509465],[54.393437,24.509482],[54.393334,24.509406],[54.393287,24.509433]]]}},{"type":"Feature","properties":{},"geometry":{"type":"Polygon","coordinates":[[[54.393853,24.509371],[54.393818,24.509388],[54.393855,24.509448],[54.393942,24.509501],[54.393977,24.509483],[54.39394,24.509424],[54.393853,24.509371]]]}},{"type":"Feature","properties":{},"geometry":{"type":"Polygon","coordinates":[[[54.394155,24.509942],[54.393999,24.510009],[54.393911,24.50995],[54.393869,24.509955],[54.393874,24.509991],[54.393943,24.510033],[54.393848,24.510074],[54.393879,24.510134],[54.393967,24.510187],[54.394282,24.510051],[54.394251,24.509992],[54.394172,24.509944],[54.39426,24.509906],[54.394215,24.509819],[54.394105,24.509659],[54.394018,24.509606],[54.393978,24.509629],[54.39409,24.509782],[54.394031,24.509807],[54.394077,24.509894],[54.394155,24.509942]]]}},{"type":"Feature","properties":{},"geometry":{"type":"Polygon","coordinates":[[[54.406411,24.480148],[54.406342,24.480041],[54.406517,24.479948],[54.40646,24.479859],[54.406373,24.479805],[54.40634,24.479822],[54.406263,24.479701],[54.406176,24.479648],[54.405927,24.479779],[54.405983,24.479867],[54.405776,24.479976],[54.405813,24.480035],[54.405737,24.480075],[54.405905,24.480306],[54.405993,24.480359],[54.406411,24.480148]]]}},{"type":"Feature","properties":{},"geometry":{"type":"Polygon","coordinates":[[[54.40683,24.48013],[54.406923,24.480053],[54.406859,24.479989],[54.406771,24.479935],[54.406679,24.480012],[54.406743,24.480076],[54.40683,24.48013]]]}},{"type":"Feature","properties":{},"geometry":{"type":"Polygon","coordinates":[[[54.406523,24.480297],[54.406404,24.480249],[54.406365,24.480328],[54.406452,24.480382],[54.406571,24.48043],[54.40661,24.48035],[54.406523,24.480297]]]}},{"type":"Feature","properties":{},"geometry":{"type":"Polygon","coordinates":[[[54.406226,24.480438],[54.406187,24.480469],[54.406201,24.480484],[54.406185,24.480475],[54.406104,24.480529],[54.406136,24.480569],[54.406223,24.480622],[54.406239,24.480611],[54.406302,24.48065],[54.406324,24.480631],[54.406437,24.480741],[54.406524,24.480795],[54.40667,24.480672],[54.406476,24.480484],[54.406483,24.480474],[54.406532,24.480504],[54.406566,24.480457],[54.406349,24.480324],[54.4063,24.480391],[54.406291,24.480385],[54.406233,24.480433],[54.406258,24.480457],[54.406226,24.480438]]]}},{"type":"Feature","properties":{},"geometry":{"type":"Polygon","coordinates":[[[54.405748,24.480415],[54.405672,24.480452],[54.405699,24.480497],[54.405787,24.480551],[54.405862,24.480513],[54.405835,24.480468],[54.405748,24.480415]]]}},{"type":"Feature","properties":{},"geometry":{"type":"Polygon","coordinates":[[[54.405349,24.480779],[54.405433,24.480831],[54.405447,24.48082],[54.405476,24.480838],[54.405595,24.480751],[54.405454,24.48059],[54.405367,24.480537],[54.405288,24.480595],[54.405173,24.48051],[54.405044,24.480604],[54.404982,24.480566],[54.404751,24.480736],[54.404947,24.480958],[54.405035,24.481012],[54.405204,24.480903],[54.405216,24.480911],[54.405326,24.48083],[54.405308,24.480809],[54.405349,24.480779]]]}},{"type":"Feature","properties":{},"geometry":{"type":"Polygon","coordinates":[[[54.405398,24.481892],[54.40529,24.481997],[54.405261,24.482119],[54.405287,24.48226],[54.405336,24.482344],[54.405383,24.482373],[54.405417,24.48244],[54.406072,24.48284],[54.406214,24.482771],[54.40623,24.48278],[54.406429,24.482678],[54.406708,24.483103],[54.406795,24.483157],[54.406971,24.483061],[54.406622,24.482543],[54.406775,24.482447],[54.406606,24.482264],[54.406552,24.48215],[54.406883,24.482352],[54.407098,24.482214],[54.407181,24.482327],[54.407302,24.482429],[54.407416,24.48261],[54.408144,24.483055],[54.408333,24.482984],[54.408375,24.482853],[54.407977,24.482408],[54.407249,24.481963],[54.407183,24.482071],[54.407053,24.482132],[54.406833,24.481807],[54.406178,24.481406],[54.406001,24.481509],[54.405923,24.481577],[54.406003,24.481671],[54.406057,24.481769],[54.405846,24.481639],[54.405621,24.481752],[54.40558,24.481799],[54.405601,24.481854],[54.405747,24.481985],[54.405815,24.482137],[54.40585,24.482169],[54.405398,24.481892]],[[54.40631,24.482553],[54.406321,24.482568],[54.40624,24.482601],[54.406196,24.482408],[54.406101,24.482331],[54.406387,24.482506],[54.40631,24.482553]]]}},{"type":"Feature","properties":{},"geometry":{"type":"Polygon","coordinates":[[[54.40583,24.484533],[54.405743,24.48448],[54.405194,24.484414],[54.40579,24.484424],[54.40579,24.483905],[54.405542,24.483186],[54.405455,24.483133],[54.405126,24.483265],[54.405318,24.483913],[54.404939,24.484017],[54.404994,24.484359],[54.405057,24.484397],[54.405017,24.484393],[54.404939,24.484734],[54.405027,24.484788],[54.405706,24.484926],[54.40583,24.484533]]]}},{"type":"Feature","properties":{},"geometry":{"type":"Polygon","coordinates":[[[54.407129,24.485667],[54.407423,24.48538],[54.407262,24.485263],[54.406967,24.48555],[54.407129,24.485667]]]}},{"type":"Feature","properties":{},"geometry":{"type":"Polygon","coordinates":[[[54.406754,24.485552],[54.406713,24.485613],[54.406905,24.485725],[54.406947,24.485664],[54.406754,24.485552]]]}},{"type":"Feature","properties":{},"geometry":{"type":"Polygon","coordinates":[[[54.405983,24.487822],[54.406449,24.488107],[54.406593,24.487927],[54.406297,24.487714],[54.405832,24.487429],[54.405686,24.487602],[54.405983,24.487822]]]}},{"type":"Feature","properties":{},"geometry":{"type":"Polygon","coordinates":[[[54.40728,24.488565],[54.407685,24.488335],[54.407406,24.487926],[54.407318,24.487873],[54.406913,24.488103],[54.406925,24.488121],[54.406903,24.488107],[54.406497,24.488337],[54.406776,24.488745],[54.406864,24.488799],[54.407269,24.488569],[54.407257,24.488551],[54.40728,24.488565]]]}},{"type":"Feature","properties":{},"geometry":{"type":"Polygon","coordinates":[[[54.407021,24.490271],[54.406961,24.490292],[54.406989,24.490373],[54.407076,24.490426],[54.407142,24.490405],[54.407108,24.490324],[54.407021,24.490271]]]}},{"type":"Feature","properties":{},"geometry":{"type":"Polygon","coordinates":[[[54.406434,24.493142],[54.406563,24.493014],[54.406379,24.492879],[54.406249,24.493007],[54.406434,24.493142]]]}},{"type":"Feature","properties":{},"geometry":{"type":"Polygon","coordinates":[[[54.406247,24.492254],[54.405376,24.492715],[54.405341,24.492999],[54.4062,24.493728],[54.406294,24.493785],[54.40662,24.493513],[54.406044,24.493035],[54.406408,24.4927],[54.406235,24.492578],[54.406448,24.492479],[54.40634,24.492311],[54.406247,24.492254]]]}},{"type":"Feature","properties":{},"geometry":{"type":"Polygon","coordinates":[[[54.40635,24.49524],[54.406305,24.495308],[54.406459,24.495398],[54.406501,24.495335],[54.406541,24.495359],[54.406486,24.495406],[54.406596,24.495512],[54.406683,24.495566],[54.406712,24.495541],[54.406682,24.495705],[54.406523,24.495625],[54.406482,24.495557],[54.406395,24.495503],[54.406312,24.495545],[54.406365,24.495633],[54.406398,24.495653],[54.406361,24.495724],[54.406449,24.495778],[54.406633,24.495857],[54.406666,24.495793],[54.406613,24.496087],[54.406559,24.496192],[54.406567,24.496251],[54.406604,24.496287],[54.407482,24.496824],[54.407376,24.496766],[54.407136,24.496768],[54.407135,24.496831],[54.407014,24.496758],[54.406739,24.496823],[54.406656,24.496773],[54.406329,24.496853],[54.406432,24.497223],[54.406519,24.497277],[54.406828,24.497196],[54.406812,24.497125],[54.407024,24.497255],[54.407285,24.497186],[54.407279,24.497152],[54.407383,24.497216],[54.407598,24.497237],[54.407605,24.497168],[54.407722,24.497239],[54.407972,24.497264],[54.407959,24.497276],[54.408011,24.497316],[54.408139,24.497394],[54.408183,24.497405],[54.408238,24.497373],[54.408192,24.497319],[54.408132,24.497283],[54.408264,24.497303],[54.408428,24.497395],[54.408535,24.497392],[54.408702,24.497327],[54.409437,24.497754],[54.410165,24.497408],[54.410458,24.497587],[54.410652,24.497685],[54.410624,24.497708],[54.41061,24.498871],[54.410748,24.499018],[54.410836,24.499071],[54.41108,24.499082],[54.411073,24.497569],[54.410883,24.497414],[54.408693,24.496072],[54.408599,24.496028],[54.408613,24.495992],[54.408338,24.495835],[54.408766,24.495206],[54.409384,24.495584],[54.40943,24.495532],[54.409625,24.495564],[54.409985,24.495545],[54.410328,24.495452],[54.410231,24.495271],[54.409977,24.495115],[54.409967,24.495093],[54.410081,24.494993],[54.410577,24.494682],[54.411037,24.494534],[54.411482,24.494415],[54.411454,24.494205],[54.409532,24.493029],[54.409064,24.493135],[54.408549,24.493307],[54.408054,24.493578],[54.407631,24.493885],[54.407294,24.494291],[54.408569,24.495085],[54.408136,24.495723],[54.406894,24.495031],[54.406733,24.495475],[54.406613,24.495371],[54.406687,24.49537],[54.406685,24.495342],[54.406598,24.495288],[54.406472,24.495298],[54.406474,24.495311],[54.40635,24.49524]],[[54.407782,24.496317],[54.407933,24.49633],[54.408316,24.496447],[54.408385,24.496318],[54.409157,24.496791],[54.40881,24.496946],[54.407782,24.496317]]]}},{"type":"Feature","properties":{},"geometry":{"type":"Polygon","coordinates":[[[54.40627,24.495738],[54.406224,24.495803],[54.406338,24.495872],[54.406384,24.495807],[54.40627,24.495738]]]}},{"type":"Feature","properties":{},"geometry":{"type":"Polygon","coordinates":[[[54.406289,24.496089],[54.406328,24.496096],[54.406326,24.496075],[54.406286,24.49605],[54.406277,24.496022],[54.40619,24.495968],[54.406167,24.495971],[54.406173,24.49601],[54.406289,24.496089]]]}},{"type":"Feature","properties":{},"geometry":{"type":"Polygon","coordinates":[[[54.406327,24.496131],[54.406312,24.496158],[54.406472,24.496246],[54.406488,24.496219],[54.406327,24.496131]]]}},{"type":"Feature","properties":{},"geometry":{"type":"Polygon","coordinates":[[[54.405962,24.496854],[54.405897,24.496904],[54.405977,24.496993],[54.406064,24.497047],[54.406131,24.496998],[54.40605,24.496908],[54.405962,24.496854]]]}},{"type":"Feature","properties":{},"geometry":{"type":"Polygon","coordinates":[[[54.406943,24.503344],[54.40688,24.503364],[54.406917,24.503485],[54.407005,24.503538],[54.407084,24.503521],[54.40703,24.503398],[54.406943,24.503344]]]}},{"type":"Feature","properties":{},"geometry":{"type":"Polygon","coordinates":[[[54.406525,24.504539],[54.406432,24.504537],[54.406428,24.504679],[54.406515,24.504733],[54.406611,24.504735],[54.406613,24.504592],[54.406525,24.504539]]]}},{"type":"Feature","properties":{},"geometry":{"type":"Polygon","coordinates":[[[54.406184,24.50457],[54.406088,24.504593],[54.406141,24.504759],[54.406229,24.504812],[54.40632,24.504792],[54.406271,24.504624],[54.406184,24.50457]]]}},{"type":"Feature","properties":{},"geometry":{"type":"Polygon","coordinates":[[[54.406452,24.505788],[54.406491,24.50575],[54.406702,24.505922],[54.407235,24.506248],[54.407028,24.506464],[54.407336,24.506699],[54.408319,24.507301],[54.408611,24.506992],[54.408454,24.506832],[54.407594,24.506306],[54.407628,24.506185],[54.407588,24.506043],[54.407474,24.505943],[54.406674,24.505453],[54.406649,24.505478],[54.406432,24.505293],[54.406344,24.50524],[54.406082,24.505495],[54.406364,24.505735],[54.406452,24.505788]]]}},{"type":"Feature","properties":{},"geometry":{"type":"Polygon","coordinates":[[[54.405673,24.505527],[54.405586,24.505474],[54.405385,24.505424],[54.405291,24.505739],[54.405378,24.505793],[54.405579,24.505842],[54.405673,24.505527]]]}},{"type":"Feature","properties":{},"geometry":{"type":"Polygon","coordinates":[[[54.405475,24.505923],[54.405179,24.505828],[54.405064,24.506126],[54.405151,24.506179],[54.405446,24.506274],[54.405562,24.505977],[54.405475,24.505923]]]}},{"type":"Feature","properties":{},"geometry":{"type":"Polygon","coordinates":[[[54.405345,24.506365],[54.405066,24.506279],[54.404973,24.506527],[54.405061,24.506581],[54.405339,24.506667],[54.405432,24.506419],[54.405345,24.506365]]]}},{"type":"Feature","properties":{},"geometry":{"type":"Polygon","coordinates":[[[54.405237,24.506716],[54.404948,24.50662],[54.404806,24.507019],[54.404893,24.507072],[54.405149,24.507165],[54.405324,24.506769],[54.405237,24.506716]]]}},{"type":"Feature","properties":{},"geometry":{"type":"Polygon","coordinates":[[[54.406644,24.507341],[54.406601,24.50737],[54.406721,24.507521],[54.406808,24.507574],[54.406851,24.507546],[54.406732,24.507395],[54.406644,24.507341]]]}},{"type":"Feature","properties":{},"geometry":{"type":"Polygon","coordinates":[[[54.406931,24.509427],[54.406541,24.509042],[54.405912,24.508657],[54.406197,24.508608],[54.406377,24.508786],[54.407076,24.509214],[54.407187,24.509099],[54.406797,24.508715],[54.406327,24.508427],[54.406455,24.508197],[54.406645,24.508385],[54.407344,24.508813],[54.407456,24.508698],[54.407065,24.508313],[54.406562,24.508005],[54.406735,24.507693],[54.406728,24.507613],[54.405855,24.507079],[54.405593,24.506955],[54.405529,24.506966],[54.404898,24.508066],[54.405818,24.508636],[54.405724,24.508722],[54.406121,24.509114],[54.406819,24.509542],[54.406931,24.509427]]]}},{"type":"Feature","properties":{},"geometry":{"type":"Polygon","coordinates":[[[54.405253,24.509684],[54.405944,24.510107],[54.406003,24.510053],[54.406109,24.510118],[54.40629,24.509855],[54.405477,24.509367],[54.405388,24.509467],[54.405231,24.509371],[54.405105,24.509539],[54.405253,24.509684]]]}},{"type":"Feature","properties":{},"geometry":{"type":"Polygon","coordinates":[[[54.410443,24.479885],[54.410374,24.479952],[54.410524,24.48008],[54.410611,24.480134],[54.41068,24.480067],[54.41053,24.479938],[54.410443,24.479885]]]}},{"type":"Feature","properties":{},"geometry":{"type":"Polygon","coordinates":[[[54.409403,24.482883],[54.409307,24.482887],[54.409312,24.483001],[54.409399,24.483055],[54.409495,24.483051],[54.40949,24.482937],[54.409403,24.482883]]]}},{"type":"Feature","properties":{},"geometry":{"type":"Polygon","coordinates":[[[54.408793,24.48444],[54.408584,24.484581],[54.408829,24.484883],[54.409295,24.485168],[54.409504,24.485027],[54.409259,24.484725],[54.408793,24.48444]]]}},{"type":"Feature","properties":{},"geometry":{"type":"Polygon","coordinates":[[[54.408142,24.484996],[54.408608,24.485281],[54.408826,24.485392],[54.408848,24.48538],[54.408955,24.485445],[54.409068,24.485361],[54.4088,24.485062],[54.408334,24.484777],[54.408129,24.484931],[54.408142,24.484996]]]}},{"type":"Feature","properties":{},"geometry":{"type":"Polygon","coordinates":[[[54.409224,24.485679],[54.409136,24.485626],[54.409105,24.485644],[54.409001,24.485574],[54.408922,24.485635],[54.408963,24.485678],[54.409049,24.485731],[54.409129,24.485845],[54.409216,24.485899],[54.409275,24.485864],[54.409194,24.485748],[54.409249,24.485716],[54.409224,24.485679]]]}},{"type":"Feature","properties":{},"geometry":{"type":"Polygon","coordinates":[[[54.409484,24.48606],[54.409673,24.486176],[54.409814,24.486186],[54.409896,24.486163],[54.409979,24.486079],[54.410026,24.486001],[54.410054,24.485896],[54.410504,24.486668],[54.410694,24.486784],[54.411053,24.486616],[54.410552,24.485735],[54.410591,24.485709],[54.410602,24.485636],[54.410593,24.485583],[54.410538,24.485538],[54.410593,24.48551],[54.410623,24.485438],[54.410797,24.485368],[54.410861,24.485407],[54.41097,24.48535],[54.410944,24.48531],[54.411167,24.48522],[54.410993,24.484902],[54.410804,24.484786],[54.409836,24.485253],[54.409801,24.485318],[54.409673,24.485244],[54.409599,24.48533],[54.409423,24.4854],[54.409337,24.485483],[54.4093,24.485577],[54.409298,24.485763],[54.409317,24.485856],[54.409397,24.485985],[54.409484,24.48606]]]}},{"type":"Feature","properties":{},"geometry":{"type":"Polygon","coordinates":[[[54.407698,24.485879],[54.408164,24.486164],[54.408355,24.485965],[54.408147,24.485827],[54.40803,24.48573],[54.407564,24.485445],[54.407378,24.485639],[54.407698,24.485879]]]}},{"type":"Feature","properties":{},"geometry":{"type":"Polygon","coordinates":[[[54.407693,24.486088],[54.407787,24.485985],[54.407651,24.485895],[54.407557,24.485997],[54.407693,24.486088]]]}},{"type":"Feature","properties":{},"geometry":{"type":"Polygon","coordinates":[[[54.408884,24.487647],[54.408334,24.48801],[54.408637,24.488493],[54.408724,24.488547],[54.409598,24.488111],[54.409447,24.487838],[54.409368,24.48779],[54.409451,24.487743],[54.409334,24.487418],[54.409247,24.487364],[54.408884,24.487647]]]}},{"type":"Feature","properties":{},"geometry":{"type":"Polygon","coordinates":[[[54.410556,24.488405],[54.410422,24.488416],[54.410427,24.488464],[54.410138,24.488492],[54.410183,24.488928],[54.41027,24.488981],[54.410738,24.488941],[54.410725,24.488821],[54.410993,24.488798],[54.410949,24.488383],[54.410862,24.48833],[54.410551,24.488356],[54.410556,24.488405]]]}},{"type":"Feature","properties":{},"geometry":{"type":"Polygon","coordinates":[[[54.407768,24.488343],[54.407361,24.488562],[54.407644,24.488949],[54.407732,24.489002],[54.408108,24.488772],[54.407855,24.488397],[54.407768,24.488343]]]}},{"type":"Feature","properties":{},"geometry":{"type":"Polygon","coordinates":[[[54.407309,24.488565],[54.406903,24.488795],[54.407183,24.489203],[54.40727,24.489256],[54.407676,24.489026],[54.407396,24.488618],[54.407309,24.488565]]]}},{"type":"Feature","properties":{},"geometry":{"type":"Polygon","coordinates":[[[54.410216,24.489184],[54.410303,24.489237],[54.410629,24.489207],[54.410674,24.489615],[54.410762,24.489669],[54.410913,24.489655],[54.410849,24.489078],[54.410762,24.489025],[54.410204,24.489076],[54.410216,24.489184]]]}},{"type":"Feature","properties":{},"geometry":{"type":"Polygon","coordinates":[[[54.409356,24.491316],[54.409359,24.491209],[54.409272,24.491156],[54.409037,24.491149],[54.409036,24.491182],[54.408959,24.49118],[54.408947,24.491294],[54.409095,24.491376],[54.409306,24.491382],[54.409309,24.491315],[54.409356,24.491316]]]}},{"type":"Feature","properties":{},"geometry":{"type":"Polygon","coordinates":[[[54.409866,24.498223],[54.409415,24.497947],[54.409165,24.497863],[54.40899,24.49793],[54.408992,24.498391],[54.409443,24.498667],[54.409834,24.4986],[54.409866,24.498223]]]}},{"type":"Feature","properties":{},"geometry":{"type":"Polygon","coordinates":[[[54.4093,24.500253],[54.409341,24.500381],[54.40952,24.500501],[54.4097,24.500532],[54.409833,24.50053],[54.409958,24.500466],[54.410013,24.500349],[54.410063,24.499794],[54.410099,24.499564],[54.410065,24.499492],[54.4099,24.49938],[54.409787,24.499363],[54.409625,24.499372],[54.409691,24.498925],[54.409435,24.498769],[54.409011,24.498739],[54.409012,24.498664],[54.408924,24.498611],[54.408852,24.4986],[54.408836,24.49866],[54.408874,24.498774],[54.408961,24.498828],[54.408996,24.498831],[54.409005,24.499092],[54.408919,24.499457],[54.409175,24.499614],[54.409457,24.499688],[54.4093,24.500253]]]}},{"type":"Feature","properties":{},"geometry":{"type":"Polygon","coordinates":[[[54.408085,24.500876],[54.408054,24.500908],[54.408053,24.500954],[54.408025,24.501013],[54.408151,24.501098],[54.408202,24.501024],[54.408234,24.50094],[54.408147,24.500887],[54.408085,24.500876]]]}},{"type":"Feature","properties":{},"geometry":{"type":"Polygon","coordinates":[[[54.409692,24.501484],[54.409605,24.501431],[54.408723,24.501471],[54.408679,24.501799],[54.408752,24.50195],[54.408839,24.502004],[54.409108,24.502016],[54.409426,24.502006],[54.409517,24.501976],[54.409632,24.501904],[54.409671,24.5018],[54.409697,24.501653],[54.409692,24.501484]]]}},{"type":"Feature","properties":{},"geometry":{"type":"Polygon","coordinates":[[[54.407638,24.502501],[54.407711,24.502412],[54.407783,24.502456],[54.408202,24.50263],[54.408382,24.502153],[54.408509,24.501911],[54.408422,24.501858],[54.408025,24.50174],[54.407718,24.502357],[54.407648,24.502313],[54.407586,24.50231],[54.407515,24.502391],[54.407507,24.502438],[54.407594,24.502491],[54.407638,24.502501]]]}},{"type":"Feature","properties":{},"geometry":{"type":"Polygon","coordinates":[[[54.407403,24.502885],[54.407345,24.502871],[54.407279,24.50295],[54.40724,24.502926],[54.407116,24.503077],[54.407266,24.503166],[54.407397,24.503049],[54.407423,24.503047],[54.40749,24.502939],[54.407403,24.502885]]]}},{"type":"Feature","properties":{},"geometry":{"type":"Polygon","coordinates":[[[54.407134,24.50368],[54.407036,24.503648],[54.406985,24.503805],[54.407072,24.503859],[54.407161,24.503882],[54.407222,24.503734],[54.407134,24.50368]]]}},{"type":"Feature","properties":{},"geometry":{"type":"Polygon","coordinates":[[[54.4106,24.504395],[54.410618,24.504381],[54.410893,24.50455],[54.411365,24.504628],[54.411396,24.504469],[54.410705,24.504046],[54.410495,24.504011],[54.410412,24.50392],[54.40972,24.503497],[54.409576,24.503605],[54.409909,24.503972],[54.4106,24.504395]]]}},{"type":"Feature","properties":{},"geometry":{"type":"Polygon","coordinates":[[[54.409349,24.504692],[54.410368,24.505315],[54.410629,24.505017],[54.410278,24.504717],[54.409259,24.504094],[54.409054,24.504354],[54.409349,24.504692]]]}},{"type":"Feature","properties":{},"geometry":{"type":"Polygon","coordinates":[[[54.408028,24.505741],[54.407866,24.505725],[54.407868,24.505818],[54.407955,24.505872],[54.40812,24.505896],[54.408115,24.505795],[54.408028,24.505741]]]}},{"type":"Feature","properties":{},"geometry":{"type":"Polygon","coordinates":[[[54.40956,24.506229],[54.409674,24.506167],[54.409759,24.506074],[54.409805,24.505961],[54.409806,24.50584],[54.409767,24.505734],[54.409694,24.505644],[54.409593,24.505579],[54.409506,24.505526],[54.409388,24.505493],[54.409265,24.505495],[54.409148,24.505532],[54.40905,24.505601],[54.408981,24.505693],[54.408947,24.505801],[54.408954,24.505922],[54.409005,24.506033],[54.409094,24.506123],[54.409298,24.506234],[54.409429,24.506252],[54.40956,24.506229]]]}},{"type":"Feature","properties":{},"geometry":{"type":"Polygon","coordinates":[[[54.407301,24.507383],[54.407403,24.507294],[54.406988,24.506904],[54.406919,24.506861],[54.406822,24.506949],[54.406855,24.506983],[54.406749,24.507074],[54.406783,24.507111],[54.406677,24.507196],[54.407019,24.507514],[54.407089,24.507557],[54.407189,24.50747],[54.407172,24.507453],[54.407274,24.507366],[54.407301,24.507383]]]}},{"type":"Feature","properties":{},"geometry":{"type":"Polygon","coordinates":[[[54.40978,24.50761],[54.409569,24.507398],[54.409481,24.507344],[54.409287,24.507513],[54.409648,24.507874],[54.409735,24.507928],[54.409797,24.507886],[54.40978,24.50761]]]}},{"type":"Feature","properties":{},"geometry":{"type":"Polygon","coordinates":[[[54.407167,24.507749],[54.407137,24.507782],[54.407259,24.507861],[54.407288,24.507828],[54.407167,24.507749]]]}},{"type":"Feature","properties":{},"geometry":{"type":"Polygon","coordinates":[[[54.4104,24.507843],[54.410301,24.507792],[54.410291,24.507773],[54.410204,24.507719],[54.410122,24.507721],[54.40999,24.507756],[54.409856,24.507859],[54.409825,24.507938],[54.409854,24.50798],[54.410014,24.508073],[54.41006,24.508057],[54.410197,24.508052],[54.410419,24.507909],[54.4104,24.507843]]]}},{"type":"Feature","properties":{},"geometry":{"type":"Polygon","coordinates":[[[54.40888,24.50792],[54.408846,24.507921],[54.408851,24.508027],[54.408938,24.50808],[54.408978,24.508079],[54.408976,24.508048],[54.409006,24.508047],[54.409012,24.507909],[54.408925,24.507856],[54.408877,24.507857],[54.40888,24.50792]]]}},{"type":"Feature","properties":{},"geometry":{"type":"Polygon","coordinates":[[[54.409319,24.508286],[54.409408,24.508212],[54.409278,24.508116],[54.409189,24.50819],[54.409319,24.508286]]]}},{"type":"Feature","properties":{},"geometry":{"type":"Polygon","coordinates":[[[54.409205,24.508728],[54.409184,24.508699],[54.409215,24.508681],[54.409246,24.508699],[54.409421,24.508596],[54.40936,24.50851],[54.409273,24.508456],[54.409255,24.508467],[54.409158,24.5084],[54.409014,24.508484],[54.409061,24.50855],[54.408987,24.508608],[54.409005,24.508634],[54.408969,24.508655],[54.409,24.508698],[54.409087,24.508751],[54.409106,24.50874],[54.409144,24.508764],[54.409205,24.508728]]]}},{"type":"Feature","properties":{},"geometry":{"type":"Polygon","coordinates":[[[54.407637,24.508944],[54.407702,24.508894],[54.407587,24.508811],[54.407523,24.508861],[54.407637,24.508944]]]}},{"type":"Feature","properties":{},"geometry":{"type":"Polygon","coordinates":[[[54.407708,24.508969],[54.407656,24.509013],[54.407812,24.509166],[54.407899,24.509219],[54.407951,24.509175],[54.407795,24.509023],[54.407708,24.508969]]]}},{"type":"Feature","properties":{},"geometry":{"type":"Polygon","coordinates":[[[54.408145,24.510221],[54.408279,24.510084],[54.407899,24.509727],[54.407324,24.509375],[54.407361,24.509339],[54.40717,24.509197],[54.407129,24.509238],[54.407208,24.509305],[54.40706,24.509435],[54.407446,24.509794],[54.408145,24.510221]]]}},{"type":"Feature","properties":{},"geometry":{"type":"Polygon","coordinates":[[[54.408482,24.509929],[54.408598,24.509811],[54.408237,24.509478],[54.407538,24.50905],[54.407416,24.509159],[54.407784,24.509501],[54.408482,24.509929]]]}},{"type":"Feature","properties":{},"geometry":{"type":"Polygon","coordinates":[[[54.407713,24.510465],[54.407878,24.510349],[54.40751,24.510001],[54.406811,24.509574],[54.406652,24.509706],[54.407014,24.510038],[54.407713,24.510465]]]}},{"type":"Feature","properties":{},"geometry":{"type":"Polygon","coordinates":[[[54.409934,24.51036],[54.410278,24.510047],[54.410092,24.509879],[54.410005,24.509826],[54.409662,24.510138],[54.409847,24.510306],[54.409934,24.51036]]]}},{"type":"Feature","properties":{},"geometry":{"type":"Polygon","coordinates":[[[54.411222,24.481936],[54.411391,24.48206],[54.41132,24.482132],[54.411438,24.482211],[54.411517,24.482131],[54.411402,24.482054],[54.411571,24.481892],[54.411204,24.481574],[54.411116,24.48152],[54.410943,24.481686],[54.411111,24.48181],[54.411196,24.481728],[54.411169,24.481758],[54.411301,24.48185],[54.411316,24.481836],[54.411222,24.481936]]]}},{"type":"Feature","properties":{},"geometry":{"type":"Polygon","coordinates":[[[54.410906,24.481767],[54.410876,24.481795],[54.411003,24.481883],[54.411032,24.481855],[54.410906,24.481767]]]}},{"type":"Feature","properties":{},"geometry":{"type":"Polygon","coordinates":[[[54.412826,24.481986],[54.412378,24.481741],[54.412202,24.482016],[54.41265,24.482261],[54.412826,24.481986]]]}},{"type":"Feature","properties":{},"geometry":{"type":"Polygon","coordinates":[[[54.411494,24.485698],[54.411556,24.485673],[54.411541,24.485642],[54.411454,24.485589],[54.41135,24.48563],[54.411387,24.485674],[54.411375,24.485678],[54.411414,24.485776],[54.411501,24.485829],[54.411558,24.48581],[54.41152,24.485713],[54.411494,24.485698]]]}},{"type":"Feature","properties":{},"geometry":{"type":"Polygon","coordinates":[[[54.413571,24.487583],[54.413604,24.487582],[54.4136,24.487508],[54.413513,24.487454],[54.413485,24.487455],[54.413476,24.487249],[54.413388,24.487195],[54.413283,24.487199],[54.413284,24.487227],[54.413107,24.487233],[54.413184,24.487452],[54.413246,24.48749],[54.413256,24.48771],[54.413343,24.487763],[54.413612,24.487753],[54.413608,24.487675],[54.413575,24.487654],[54.413571,24.487583]]]}},{"type":"Feature","properties":{},"geometry":{"type":"Polygon","coordinates":[[[54.413133,24.487594],[54.413046,24.487541],[54.412959,24.487562],[54.413014,24.487751],[54.413101,24.487805],[54.413188,24.487784],[54.413133,24.487594]]]}},{"type":"Feature","properties":{},"geometry":{"type":"Polygon","coordinates":[[[54.415679,24.487768],[54.41563,24.487778],[54.415123,24.487771],[54.415123,24.487815],[54.415187,24.487855],[54.415187,24.488213],[54.415275,24.488267],[54.415457,24.488266],[54.415457,24.488015],[54.415706,24.488015],[54.415706,24.487986],[54.41579,24.488023],[54.415839,24.488022],[54.415833,24.48782],[54.415761,24.487776],[54.415759,24.487735],[54.415671,24.487682],[54.415613,24.487685],[54.415615,24.487729],[54.415679,24.487768]]]}},{"type":"Feature","properties":{},"geometry":{"type":"Polygon","coordinates":[[[54.413587,24.48789],[54.413519,24.487893],[54.413522,24.487954],[54.413609,24.488008],[54.413677,24.488005],[54.413675,24.487944],[54.413587,24.48789]]]}},{"type":"Feature","properties":{},"geometry":{"type":"Polygon","coordinates":[[[54.414943,24.488531],[54.415066,24.488528],[54.415063,24.488409],[54.41502,24.488382],[54.415056,24.488383],[54.415059,24.488288],[54.414972,24.488235],[54.414839,24.488231],[54.414836,24.488326],[54.414887,24.488357],[54.414852,24.488358],[54.414856,24.488478],[54.414943,24.488531]]]}},{"type":"Feature","properties":{},"geometry":{"type":"Polygon","coordinates":[[[54.415744,24.488366],[54.415802,24.488365],[54.415798,24.488253],[54.41571,24.4882],[54.415648,24.488202],[54.415652,24.488313],[54.415689,24.488336],[54.41564,24.488337],[54.415566,24.488292],[54.415472,24.488296],[54.415474,24.488334],[54.415561,24.488387],[54.415602,24.488386],[54.41569,24.48844],[54.415783,24.488438],[54.415782,24.48839],[54.415744,24.488366]]]}},{"type":"Feature","properties":{},"geometry":{"type":"Polygon","coordinates":[[[54.415435,24.488313],[54.415318,24.488314],[54.415319,24.488397],[54.415412,24.488451],[54.415411,24.488484],[54.415499,24.488537],[54.415519,24.488538],[54.41552,24.488491],[54.415452,24.48845],[54.415523,24.488449],[54.415522,24.488366],[54.415435,24.488313]]]}},{"type":"Feature","properties":{},"geometry":{"type":"Polygon","coordinates":[[[54.415552,24.488746],[54.415632,24.488744],[54.415631,24.488695],[54.415543,24.488642],[54.415463,24.488644],[54.415465,24.488693],[54.415552,24.488746]]]}},{"type":"Feature","properties":{},"geometry":{"type":"Polygon","coordinates":[[[54.411174,24.48887],[54.411147,24.488931],[54.411198,24.488999],[54.411285,24.489052],[54.41135,24.48905],[54.411433,24.489161],[54.411262,24.489253],[54.411314,24.489336],[54.411401,24.489389],[54.412057,24.489026],[54.412063,24.489038],[54.411491,24.489354],[54.411585,24.489507],[54.411672,24.489561],[54.41169,24.489554],[54.411713,24.489593],[54.4118,24.489647],[54.411964,24.489678],[54.411955,24.489719],[54.412043,24.489772],[54.412208,24.489809],[54.412373,24.489181],[54.412499,24.489184],[54.412533,24.489167],[54.412803,24.48968],[54.41289,24.489733],[54.413043,24.489654],[54.41301,24.489603],[54.413223,24.489508],[54.413285,24.48937],[54.413348,24.489401],[54.413392,24.489226],[54.413305,24.489173],[54.412744,24.488986],[54.412747,24.488949],[54.412968,24.488991],[54.413576,24.488901],[54.413532,24.488609],[54.413445,24.488556],[54.412876,24.488624],[54.412817,24.488588],[54.412697,24.488651],[54.412682,24.488638],[54.41276,24.488598],[54.412645,24.488451],[54.412783,24.488022],[54.412959,24.488094],[54.413056,24.488154],[54.413191,24.488007],[54.412745,24.487759],[54.412516,24.487718],[54.412242,24.487705],[54.412258,24.487867],[54.412245,24.487762],[54.412157,24.487708],[54.411868,24.487782],[54.411582,24.487957],[54.411414,24.48813],[54.411658,24.488295],[54.411837,24.488148],[54.412028,24.488474],[54.411938,24.488729],[54.411214,24.488505],[54.411171,24.4886],[54.411258,24.488654],[54.411352,24.488688],[54.411319,24.488851],[54.411174,24.48887]],[[54.412351,24.487978],[54.412456,24.487987],[54.412462,24.487976],[54.412339,24.488484],[54.412321,24.488487],[54.412068,24.488037],[54.41227,24.487997],[54.412264,24.487925],[54.412351,24.487978]],[[54.412026,24.489504],[54.41189,24.489476],[54.411837,24.489404],[54.411989,24.489318],[54.412049,24.489355],[54.412026,24.489504]],[[54.412955,24.489199],[54.413054,24.48923],[54.413016,24.489333],[54.412941,24.489369],[54.412915,24.489309],[54.412955,24.489199]]]}},{"type":"Feature","properties":{},"geometry":{"type":"Polygon","coordinates":[[[54.410926,24.489835],[54.410975,24.489832],[54.410972,24.489789],[54.410884,24.489736],[54.410835,24.489739],[54.410839,24.489782],[54.410926,24.489835]]]}},{"type":"Feature","properties":{},"geometry":{"type":"Polygon","coordinates":[[[54.410256,24.489504],[54.410326,24.49009],[54.410413,24.490143],[54.410972,24.490088],[54.410957,24.48996],[54.41087,24.489907],[54.410539,24.48994],[54.410492,24.489543],[54.410405,24.48949],[54.410256,24.489504]]]}},{"type":"Feature","properties":{},"geometry":{"type":"Polygon","coordinates":[[[54.412585,24.489998],[54.412498,24.489945],[54.412428,24.489949],[54.412432,24.490011],[54.41252,24.490065],[54.412589,24.490061],[54.412585,24.489998]]]}},{"type":"Feature","properties":{},"geometry":{"type":"Polygon","coordinates":[[[54.411148,24.490662],[54.411052,24.490661],[54.411051,24.490713],[54.411138,24.490767],[54.411235,24.490768],[54.411235,24.490715],[54.411148,24.490662]]]}},{"type":"Feature","properties":{},"geometry":{"type":"Polygon","coordinates":[[[54.411235,24.491004],[54.41131,24.491003],[54.411312,24.490849],[54.411224,24.490795],[54.411155,24.490795],[54.411163,24.490893],[54.411147,24.490894],[54.411148,24.490951],[54.411235,24.491004]]]}},{"type":"Feature","properties":{},"geometry":{"type":"Polygon","coordinates":[[[54.4135,24.490699],[54.413413,24.490645],[54.412924,24.490639],[54.412916,24.491132],[54.413004,24.491186],[54.413482,24.491192],[54.413485,24.491028],[54.413397,24.490975],[54.413201,24.490972],[54.413203,24.490864],[54.413498,24.490867],[54.4135,24.490699]]]}},{"type":"Feature","properties":{},"geometry":{"type":"Polygon","coordinates":[[[54.410416,24.490817],[54.410413,24.49103],[54.4105,24.491083],[54.410787,24.491087],[54.410794,24.490819],[54.410706,24.490766],[54.4106,24.490766],[54.410598,24.490812],[54.410416,24.490817]]]}},{"type":"Feature","properties":{},"geometry":{"type":"Polygon","coordinates":[[[54.412875,24.491187],[54.412829,24.491185],[54.412828,24.491224],[54.412915,24.491278],[54.412961,24.491279],[54.412962,24.49124],[54.412875,24.491187]]]}},{"type":"Feature","properties":{},"geometry":{"type":"Polygon","coordinates":[[[54.41131,24.491479],[54.411222,24.491426],[54.411185,24.491424],[54.411181,24.491501],[54.411268,24.491555],[54.411306,24.491556],[54.41131,24.491479]]]}},{"type":"Feature","properties":{},"geometry":{"type":"Polygon","coordinates":[[[54.41083,24.491311],[54.410457,24.491298],[54.410444,24.491622],[54.410531,24.491676],[54.410903,24.491689],[54.410917,24.491364],[54.41083,24.491311]]]}},{"type":"Feature","properties":{},"geometry":{"type":"Polygon","coordinates":[[[54.411931,24.491223],[54.411435,24.491191],[54.411364,24.492099],[54.411451,24.492153],[54.411947,24.492185],[54.412018,24.491276],[54.411931,24.491223]]]}},{"type":"Feature","properties":{},"geometry":{"type":"Polygon","coordinates":[[[54.412108,24.491697],[54.412107,24.491726],[54.412194,24.49178],[54.412272,24.491782],[54.412273,24.491753],[54.412186,24.491699],[54.412108,24.491697]]]}},{"type":"Feature","properties":{},"geometry":{"type":"Polygon","coordinates":[[[54.411709,24.492296],[54.411581,24.492292],[54.411578,24.49238],[54.411666,24.492433],[54.411793,24.492437],[54.411796,24.492349],[54.411709,24.492296]]]}},{"type":"Feature","properties":{},"geometry":{"type":"Polygon","coordinates":[[[54.412155,24.492461],[54.411973,24.492459],[54.411972,24.492557],[54.412059,24.49261],[54.412242,24.492612],[54.412243,24.492514],[54.412155,24.492461]]]}},{"type":"Feature","properties":{},"geometry":{"type":"Polygon","coordinates":[[[54.410337,24.495938],[54.410046,24.496169],[54.41015,24.496288],[54.410069,24.496343],[54.410179,24.496484],[54.410761,24.49684],[54.410925,24.496737],[54.410829,24.496612],[54.410932,24.496525],[54.411134,24.496649],[54.411357,24.496544],[54.411196,24.496354],[54.410614,24.495998],[54.410523,24.496051],[54.410337,24.495938]]]}},{"type":"Feature","properties":{},"geometry":{"type":"Polygon","coordinates":[[[54.41519,24.496967],[54.41501,24.49686],[54.4149,24.497017],[54.415079,24.497125],[54.41519,24.496967]]]}},{"type":"Feature","properties":{},"geometry":{"type":"Polygon","coordinates":[[[54.411912,24.498965],[54.41203,24.498956],[54.412212,24.498726],[54.412106,24.498107],[54.412129,24.498098],[54.411897,24.497554],[54.41181,24.4975],[54.411496,24.497386],[54.411403,24.497422],[54.411699,24.498182],[54.411825,24.498912],[54.411912,24.498965]]]}},{"type":"Feature","properties":{},"geometry":{"type":"Polygon","coordinates":[[[54.411354,24.502702],[54.411242,24.502681],[54.411237,24.502301],[54.411149,24.502248],[54.411088,24.502247],[54.411087,24.502191],[54.411223,24.502192],[54.411228,24.501967],[54.411198,24.501948],[54.411199,24.501924],[54.410544,24.501523],[54.410437,24.50152],[54.410436,24.501607],[54.410335,24.501603],[54.410333,24.501852],[54.410976,24.502245],[54.410947,24.502245],[54.410913,24.502838],[54.411,24.502892],[54.411443,24.502918],[54.411441,24.502756],[54.411354,24.502702]]]}},{"type":"Feature","properties":{},"geometry":{"type":"Polygon","coordinates":[[[54.413013,24.502973],[54.413098,24.503119],[54.413316,24.503252],[54.413388,24.503233],[54.413509,24.502942],[54.413597,24.502462],[54.413117,24.502166],[54.412959,24.502015],[54.412873,24.501903],[54.412793,24.501759],[54.412744,24.50162],[54.412526,24.501486],[54.411982,24.501472],[54.412018,24.501673],[54.412065,24.501807],[54.412137,24.50199],[54.412222,24.502147],[54.412374,24.502354],[54.412629,24.502656],[54.412874,24.50282],[54.413013,24.502973]]]}},{"type":"Feature","properties":{},"geometry":{"type":"Polygon","coordinates":[[[54.411942,24.502858],[54.412045,24.502801],[54.411884,24.502562],[54.411813,24.502519],[54.411829,24.502503],[54.411616,24.502329],[54.411529,24.502276],[54.411457,24.502349],[54.411719,24.502552],[54.411694,24.502566],[54.411855,24.502805],[54.411942,24.502858]]]}},{"type":"Feature","properties":{},"geometry":{"type":"Polygon","coordinates":[[[54.411512,24.502535],[54.411463,24.502535],[54.41146,24.502658],[54.411547,24.502711],[54.411597,24.502712],[54.411599,24.502589],[54.411512,24.502535]]]}},{"type":"Feature","properties":{},"geometry":{"type":"Polygon","coordinates":[[[54.411657,24.50276],[54.411573,24.502795],[54.411649,24.502947],[54.411736,24.503],[54.411821,24.502965],[54.411744,24.502813],[54.411657,24.50276]]]}},{"type":"Feature","properties":{},"geometry":{"type":"Polygon","coordinates":[[[54.415361,24.504632],[54.415482,24.50453],[54.415533,24.504561],[54.415577,24.504526],[54.41547,24.504427],[54.415601,24.504507],[54.415451,24.504656],[54.415629,24.504809],[54.415985,24.505027],[54.416163,24.504878],[54.415967,24.504717],[54.415806,24.504618],[54.415973,24.504478],[54.415777,24.504316],[54.415311,24.504031],[54.415152,24.504188],[54.415222,24.504248],[54.414826,24.504005],[54.414667,24.504163],[54.414844,24.504316],[54.415361,24.504632]]]}},{"type":"Feature","properties":{},"geometry":{"type":"Polygon","coordinates":[[[54.415836,24.505237],[54.415639,24.505075],[54.415232,24.504826],[54.415116,24.50494],[54.41503,24.504888],[54.415163,24.504776],[54.414967,24.504615],[54.414312,24.504214],[54.414153,24.504371],[54.414331,24.504524],[54.414631,24.504708],[54.414513,24.504826],[54.41469,24.504979],[54.415156,24.505264],[54.415284,24.505156],[54.415658,24.505385],[54.415836,24.505237]]]}},{"type":"Feature","properties":{},"geometry":{"type":"Polygon","coordinates":[[[54.410884,24.506781],[54.410823,24.506743],[54.410834,24.506668],[54.410678,24.506576],[54.410546,24.50654],[54.410371,24.50656],[54.410298,24.506611],[54.410298,24.506661],[54.410335,24.50673],[54.410589,24.506856],[54.410861,24.506846],[54.410884,24.506781]]]}},{"type":"Feature","properties":{},"geometry":{"type":"Polygon","coordinates":[[[54.41101,24.507338],[54.411097,24.507242],[54.411131,24.506997],[54.410977,24.506911],[54.410945,24.506966],[54.410847,24.506938],[54.410793,24.506994],[54.410732,24.507106],[54.410726,24.507266],[54.410769,24.50734],[54.410857,24.507393],[54.41091,24.507402],[54.410991,24.50738],[54.41101,24.507338]]]}},{"type":"Feature","properties":{},"geometry":{"type":"Polygon","coordinates":[[[54.410813,24.508596],[54.410809,24.508696],[54.410896,24.50875],[54.411185,24.508759],[54.411188,24.508662],[54.4111,24.508608],[54.410813,24.508596]]]}},{"type":"Feature","properties":{},"geometry":{"type":"Polygon","coordinates":[[[54.411703,24.508958],[54.41158,24.508954],[54.411571,24.509162],[54.411658,24.509216],[54.411782,24.50922],[54.41179,24.509011],[54.411703,24.508958]]]}},{"type":"Feature","properties":{},"geometry":{"type":"Polygon","coordinates":[[[54.41076,24.509063],[54.410698,24.509064],[54.4107,24.509161],[54.410788,24.509214],[54.410849,24.509213],[54.410847,24.509117],[54.41076,24.509063]]]}},{"type":"Feature","properties":{},"geometry":{"type":"Polygon","coordinates":[[[54.411209,24.509273],[54.411235,24.509273],[54.411234,24.509309],[54.411321,24.509363],[54.411352,24.509364],[54.411394,24.509389],[54.411557,24.509393],[54.411555,24.50948],[54.411643,24.509533],[54.411761,24.509535],[54.411765,24.509318],[54.411678,24.509265],[54.411568,24.509263],[54.411574,24.509038],[54.411487,24.508984],[54.411317,24.50898],[54.411317,24.508995],[54.411248,24.508984],[54.411239,24.50919],[54.411171,24.509148],[54.411123,24.509147],[54.411122,24.509219],[54.411209,24.509273]]]}},{"type":"Feature","properties":{},"geometry":{"type":"Polygon","coordinates":[[[54.410814,24.509597],[54.41114,24.509578],[54.411535,24.509577],[54.411532,24.509486],[54.411445,24.509433],[54.410723,24.509449],[54.410727,24.509544],[54.410814,24.509597]]]}},{"type":"Feature","properties":{},"geometry":{"type":"Polygon","coordinates":[[[54.411355,24.509641],[54.411256,24.509681],[54.411333,24.509838],[54.411421,24.509891],[54.411519,24.509851],[54.411442,24.509694],[54.411355,24.509641]]]}},{"type":"Feature","properties":{},"geometry":{"type":"Polygon","coordinates":[[[54.418618,24.481976],[54.418662,24.481974],[54.41866,24.481952],[54.418573,24.481898],[54.418529,24.481901],[54.41853,24.481923],[54.418618,24.481976]]]}},{"type":"Feature","properties":{},"geometry":{"type":"Polygon","coordinates":[[[54.418442,24.482417],[54.418502,24.482454],[54.418434,24.482447],[54.418417,24.482581],[54.418505,24.482634],[54.418831,24.482667],[54.418841,24.482578],[54.418892,24.482608],[54.419187,24.482646],[54.419171,24.48275],[54.419245,24.482795],[54.419231,24.482898],[54.419205,24.482882],[54.418914,24.482856],[54.418851,24.482817],[54.418804,24.482815],[54.418809,24.482766],[54.418722,24.482713],[54.418396,24.482685],[54.418382,24.482821],[54.418453,24.482864],[54.418366,24.482861],[54.418361,24.482982],[54.418448,24.483036],[54.418773,24.483049],[54.418779,24.482936],[54.418859,24.482977],[54.418857,24.482995],[54.418945,24.483048],[54.419277,24.483078],[54.419289,24.482965],[54.419315,24.482981],[54.419638,24.483015],[54.419655,24.482882],[54.419582,24.482838],[54.419601,24.482712],[54.419514,24.482659],[54.419356,24.482639],[54.419612,24.482662],[54.419617,24.482616],[54.419685,24.482625],[54.419721,24.482275],[54.419751,24.482293],[54.419801,24.482288],[54.419865,24.482304],[54.419855,24.482394],[54.419942,24.482448],[54.420279,24.48248],[54.42028,24.482465],[54.420327,24.482493],[54.420648,24.482532],[54.420652,24.482508],[54.420703,24.48254],[54.421013,24.48258],[54.421032,24.482457],[54.420948,24.482406],[54.421041,24.482415],[54.421055,24.482294],[54.420967,24.48224],[54.420657,24.482212],[54.420647,24.482298],[54.420588,24.482262],[54.420299,24.482222],[54.420315,24.482118],[54.420243,24.482074],[54.420259,24.481942],[54.420171,24.481889],[54.419851,24.481856],[54.419834,24.481991],[54.419905,24.482034],[54.419901,24.48206],[54.419835,24.482019],[54.419678,24.482022],[54.419618,24.481986],[54.419294,24.481947],[54.419275,24.482078],[54.419352,24.482125],[54.419294,24.482118],[54.419207,24.482064],[54.418901,24.48203],[54.418801,24.481985],[54.418785,24.482055],[54.418961,24.482161],[54.419244,24.482193],[54.419228,24.482308],[54.419315,24.482362],[54.419369,24.482368],[54.419369,24.482408],[54.419211,24.482402],[54.419163,24.482372],[54.418842,24.482331],[54.418838,24.482356],[54.418784,24.482322],[54.41846,24.482285],[54.418442,24.482417]],[[54.418811,24.482511],[54.418794,24.482501],[54.418813,24.482503],[54.418811,24.482511]],[[54.418854,24.482501],[54.418856,24.482486],[54.418888,24.482506],[54.418854,24.482501]],[[54.418757,24.482913],[54.418729,24.482896],[54.418758,24.482899],[54.418757,24.482913]],[[54.419273,24.482629],[54.419218,24.482622],[54.419222,24.482597],[54.419273,24.482629]],[[54.419633,24.482182],[54.419597,24.482159],[54.419651,24.482166],[54.419648,24.482184],[54.419677,24.482201],[54.419633,24.482182]],[[54.419912,24.482169],[54.419957,24.482197],[54.419887,24.48219],[54.419866,24.48217],[54.419912,24.482169]],[[54.420249,24.482242],[54.420266,24.482245],[54.420265,24.482252],[54.420249,24.482242]],[[54.419859,24.482232],[54.419873,24.482232],[54.419872,24.48224],[54.419859,24.482232]],[[54.420316,24.482315],[54.420298,24.482313],[54.420299,24.482305],[54.420316,24.482315]],[[54.420633,24.482373],[54.420632,24.482379],[54.42062,24.482371],[54.420633,24.482373]],[[54.42067,24.482348],[54.420712,24.482374],[54.420666,24.482368],[54.42067,24.482348]],[[54.419158,24.48255],[54.419194,24.482555],[54.419193,24.482572],[54.419158,24.48255]]]}},{"type":"Feature","properties":{},"geometry":{"type":"Polygon","coordinates":[[[54.417326,24.487823],[54.417412,24.487822],[54.417411,24.487777],[54.417324,24.487723],[54.417238,24.487724],[54.417239,24.487769],[54.417326,24.487823]]]}},{"type":"Feature","properties":{},"geometry":{"type":"Polygon","coordinates":[[[54.415887,24.487747],[54.415855,24.487746],[54.415853,24.48779],[54.41594,24.487844],[54.415973,24.487845],[54.415974,24.487801],[54.415887,24.487747]]]}},{"type":"Feature","properties":{},"geometry":{"type":"Polygon","coordinates":[[[54.416031,24.48796],[54.416008,24.487961],[54.41601,24.488017],[54.416097,24.48807],[54.416333,24.488064],[54.416331,24.488008],[54.416297,24.487987],[54.41635,24.487984],[54.416341,24.487854],[54.416254,24.487801],[54.416163,24.487806],[54.416103,24.487769],[54.415997,24.487765],[54.415996,24.487795],[54.416026,24.487813],[54.415997,24.487814],[54.416006,24.487944],[54.416031,24.48796]]]}},{"type":"Feature","properties":{},"geometry":{"type":"Polygon","coordinates":[[[54.416416,24.48802],[54.416335,24.488024],[54.416351,24.488306],[54.416439,24.48836],[54.416479,24.488358],[54.416566,24.488418],[54.416613,24.488416],[54.416609,24.488348],[54.416591,24.488337],[54.416587,24.488271],[54.416599,24.488278],[54.416596,24.488328],[54.416695,24.488382],[54.416694,24.488407],[54.416781,24.48846],[54.41681,24.488461],[54.416812,24.488422],[54.416738,24.488377],[54.416741,24.488326],[54.416793,24.488358],[54.416836,24.488358],[54.416836,24.488302],[54.416824,24.488294],[54.416837,24.488294],[54.416834,24.488201],[54.416755,24.488153],[54.416752,24.488096],[54.416718,24.488074],[54.416754,24.488073],[54.416752,24.488025],[54.416665,24.487971],[54.416611,24.487972],[54.416612,24.487987],[54.416443,24.487975],[54.416441,24.488036],[54.416416,24.48802]],[[54.416706,24.488298],[54.416704,24.488297],[54.416706,24.488297],[54.416706,24.488298]]]}},{"type":"Feature","properties":{},"geometry":{"type":"Polygon","coordinates":[[[54.416398,24.488418],[54.416362,24.488396],[54.416363,24.488331],[54.416276,24.488277],[54.416236,24.488277],[54.416234,24.488378],[54.416187,24.488349],[54.416146,24.488352],[54.41615,24.488389],[54.416233,24.48844],[54.416232,24.488489],[54.416319,24.488542],[54.416614,24.488547],[54.416615,24.488474],[54.416528,24.48842],[54.416398,24.488418]]]}},{"type":"Feature","properties":{},"geometry":{"type":"Polygon","coordinates":[[[54.416652,24.488434],[54.416649,24.488477],[54.416737,24.488531],[54.416781,24.488533],[54.416783,24.488489],[54.416696,24.488436],[54.416652,24.488434]]]}},{"type":"Feature","properties":{},"geometry":{"type":"Polygon","coordinates":[[[54.416252,24.488881],[54.416223,24.488882],[54.416227,24.488989],[54.416315,24.489043],[54.416344,24.489042],[54.41634,24.488934],[54.416252,24.488881]]]}},{"type":"Feature","properties":{},"geometry":{"type":"Polygon","coordinates":[[[54.416058,24.48884],[54.415999,24.488841],[54.416006,24.489041],[54.416093,24.489095],[54.416152,24.489093],[54.416145,24.488893],[54.416058,24.48884]]]}},{"type":"Feature","properties":{},"geometry":{"type":"Polygon","coordinates":[[[54.41577,24.489103],[54.415766,24.488904],[54.415679,24.488851],[54.41562,24.488852],[54.415624,24.489052],[54.415719,24.489105],[54.415722,24.489146],[54.415784,24.489184],[54.415782,24.48925],[54.415869,24.489303],[54.41592,24.489304],[54.415922,24.489224],[54.415878,24.489197],[54.415963,24.489192],[54.41596,24.489148],[54.415873,24.489095],[54.41577,24.489103]]]}},{"type":"Feature","properties":{},"geometry":{"type":"Polygon","coordinates":[[[54.415421,24.489677],[54.415508,24.48973],[54.416379,24.489709],[54.416354,24.489555],[54.416267,24.489502],[54.415416,24.489523],[54.415421,24.489677]]]}},{"type":"Feature","properties":{},"geometry":{"type":"Polygon","coordinates":[[[54.41724,24.501685],[54.417163,24.501757],[54.41722,24.501818],[54.417181,24.501902],[54.417059,24.501949],[54.417341,24.502143],[54.417558,24.501939],[54.417327,24.501739],[54.41724,24.501685]]]}},{"type":"Feature","properties":{},"geometry":{"type":"Polygon","coordinates":[[[54.416908,24.501988],[54.416952,24.501976],[54.416937,24.501929],[54.41685,24.501875],[54.416805,24.501887],[54.41682,24.501934],[54.416908,24.501988]]]}},{"type":"Feature","properties":{},"geometry":{"type":"Polygon","coordinates":[[[54.416845,24.502018],[54.416845,24.501969],[54.416757,24.501916],[54.416682,24.501917],[54.416682,24.501934],[54.416572,24.501928],[54.416574,24.501975],[54.416661,24.502028],[54.416757,24.502025],[54.416757,24.502011],[54.416845,24.502018]]]}},{"type":"Feature","properties":{},"geometry":{"type":"Polygon","coordinates":[[[54.417665,24.502441],[54.417707,24.502413],[54.417677,24.502376],[54.41759,24.502323],[54.417548,24.502351],[54.417577,24.502387],[54.417665,24.502441]]]}},{"type":"Feature","properties":{},"geometry":{"type":"Polygon","coordinates":[[[54.417885,24.502453],[54.417861,24.502478],[54.417995,24.502568],[54.418019,24.502542],[54.417885,24.502453]]]}},{"type":"Feature","properties":{},"geometry":{"type":"Polygon","coordinates":[[[54.415526,24.502419],[54.415501,24.502417],[54.415496,24.502476],[54.415584,24.50253],[54.415609,24.502531],[54.415613,24.502472],[54.415526,24.502419]]]}},{"type":"Feature","properties":{},"geometry":{"type":"Polygon","coordinates":[[[54.417504,24.502442],[54.417421,24.502442],[54.417421,24.502556],[54.417508,24.50261],[54.417587,24.502615],[54.417591,24.502495],[54.417504,24.502442]]]}},{"type":"Feature","properties":{},"geometry":{"type":"Polygon","coordinates":[[[54.41739,24.502839],[54.417388,24.502799],[54.417437,24.502829],[54.417495,24.502824],[54.41749,24.502764],[54.417402,24.50271],[54.417344,24.502715],[54.417346,24.502741],[54.417299,24.502712],[54.417076,24.50272],[54.417039,24.502706],[54.417083,24.502705],[54.417083,24.502681],[54.416995,24.502628],[54.416892,24.50263],[54.416893,24.502654],[54.416974,24.502704],[54.416945,24.502702],[54.416942,24.502762],[54.417029,24.502816],[54.417101,24.502819],[54.417147,24.502847],[54.41739,24.502839]]]}},{"type":"Feature","properties":{},"geometry":{"type":"Polygon","coordinates":[[[54.415543,24.502691],[54.415557,24.50269],[54.415555,24.502657],[54.415468,24.502603],[54.41539,24.502607],[54.415395,24.502682],[54.415482,24.502735],[54.415553,24.502735],[54.415543,24.502691]]]}},{"type":"Feature","properties":{},"geometry":{"type":"Polygon","coordinates":[[[54.415902,24.502837],[54.415815,24.502783],[54.415689,24.502779],[54.415687,24.502827],[54.415618,24.502785],[54.415565,24.502779],[54.415561,24.502807],[54.415649,24.50286],[54.415701,24.502866],[54.415773,24.50291],[54.415898,24.502915],[54.415902,24.502837]]]}},{"type":"Feature","properties":{},"geometry":{"type":"Polygon","coordinates":[[[54.415592,24.502946],[54.415584,24.502896],[54.415551,24.502876],[54.415546,24.502832],[54.415458,24.502778],[54.415396,24.502784],[54.415403,24.502838],[54.415441,24.502862],[54.415447,24.502901],[54.415534,24.502954],[54.415592,24.502946]]]}},{"type":"Feature","properties":{},"geometry":{"type":"Polygon","coordinates":[[[54.417267,24.503056],[54.417265,24.503098],[54.417352,24.503152],[54.417459,24.503156],[54.417461,24.503113],[54.417374,24.50306],[54.417267,24.503056]]]}},{"type":"Feature","properties":{},"geometry":{"type":"Polygon","coordinates":[[[54.417644,24.503283],[54.417692,24.503282],[54.417691,24.503221],[54.417526,24.503139],[54.417465,24.503137],[54.417461,24.503227],[54.417549,24.50328],[54.41761,24.503282],[54.417611,24.503263],[54.417644,24.503283]]]}},{"type":"Feature","properties":{},"geometry":{"type":"Polygon","coordinates":[[[54.415728,24.503421],[54.415635,24.503418],[54.415632,24.503473],[54.41572,24.503527],[54.415813,24.50353],[54.415816,24.503475],[54.415728,24.503421]]]}},{"type":"Feature","properties":{},"geometry":{"type":"Polygon","coordinates":[[[54.415852,24.503558],[54.415809,24.503559],[54.415813,24.503642],[54.4159,24.503695],[54.415943,24.503694],[54.41594,24.503611],[54.415852,24.503558]]]}},{"type":"Feature","properties":{},"geometry":{"type":"Polygon","coordinates":[[[54.417698,24.50357],[54.417664,24.503569],[54.417657,24.503786],[54.417744,24.503839],[54.417778,24.50384],[54.417785,24.503623],[54.417698,24.50357]]]}},{"type":"Feature","properties":{},"geometry":{"type":"Polygon","coordinates":[[[54.415472,24.504071],[54.415511,24.504063],[54.415502,24.504026],[54.415415,24.503972],[54.415356,24.503984],[54.415365,24.504022],[54.415396,24.50404],[54.415383,24.504049],[54.415422,24.504097],[54.41551,24.504151],[54.415535,24.504134],[54.415472,24.504071]]]}},{"type":"Feature","properties":{},"geometry":{"type":"Polygon","coordinates":[[[54.415811,24.504331],[54.416109,24.504513],[54.416287,24.504365],[54.416091,24.504203],[54.415792,24.50402],[54.415726,24.504086],[54.41564,24.504033],[54.415568,24.504083],[54.415652,24.504159],[54.415633,24.504178],[54.415811,24.504331]]]}},{"type":"Feature","properties":{},"geometry":{"type":"Polygon","coordinates":[[[54.415784,24.50493],[54.415737,24.504966],[54.415794,24.505027],[54.415881,24.50508],[54.415928,24.505044],[54.415871,24.504983],[54.415784,24.50493]]]}},{"type":"Feature","properties":{},"geometry":{"type":"Polygon","coordinates":[[[54.418873,24.480042],[54.418867,24.480078],[54.419029,24.480185],[54.419067,24.480185],[54.419068,24.480124],[54.418981,24.480071],[54.418873,24.480042]]]}},{"type":"Feature","properties":{},"geometry":{"type":"Polygon","coordinates":[[[54.42066,24.480236],[54.420569,24.480232],[54.420562,24.480364],[54.420649,24.480417],[54.420989,24.480442],[54.420991,24.480395],[54.420903,24.480342],[54.420752,24.480336],[54.420747,24.48029],[54.42066,24.480236]]]}},{"type":"Feature","properties":{},"geometry":{"type":"Polygon","coordinates":[[[54.419993,24.480828],[54.419929,24.480822],[54.419923,24.480877],[54.420011,24.48093],[54.420074,24.480936],[54.42008,24.480882],[54.419993,24.480828]]]}},{"type":"Feature","properties":{},"geometry":{"type":"Polygon","coordinates":[[[54.418898,24.481561],[54.418579,24.481524],[54.41856,24.481659],[54.418608,24.481688],[54.418544,24.481691],[54.41855,24.481831],[54.418637,24.481884],[54.41882,24.481878],[54.418819,24.481854],[54.4189,24.481903],[54.418942,24.481909],[54.418955,24.481829],[54.418868,24.481775],[54.418826,24.48177],[54.418818,24.481819],[54.418817,24.481796],[54.41876,24.481761],[54.418759,24.481739],[54.41873,24.481722],[54.418967,24.481747],[54.419047,24.481796],[54.419387,24.481837],[54.41941,24.481683],[54.419322,24.48163],[54.418982,24.481589],[54.418979,24.48161],[54.418898,24.481561]]]}},{"type":"Feature","properties":{},"geometry":{"type":"Polygon","coordinates":[[[54.419748,24.48167],[54.419421,24.481631],[54.419401,24.481768],[54.419489,24.481821],[54.419816,24.48186],[54.419835,24.481723],[54.419748,24.48167]]]}},{"type":"Feature","properties":{},"geometry":{"type":"Polygon","coordinates":[[[54.420708,24.481841],[54.420621,24.481788],[54.420283,24.481748],[54.42028,24.481768],[54.420202,24.48172],[54.42007,24.481706],[54.420064,24.481769],[54.420151,24.481822],[54.420272,24.481824],[54.42026,24.481911],[54.420347,24.481964],[54.420684,24.482004],[54.420708,24.481841]]]}},{"type":"Feature","properties":{},"geometry":{"type":"Polygon","coordinates":[[[54.420764,24.482147],[54.421074,24.482188],[54.421094,24.482065],[54.420984,24.482009],[54.421119,24.482016],[54.421128,24.481883],[54.42104,24.48183],[54.420715,24.481813],[54.420707,24.481946],[54.420761,24.481979],[54.420697,24.48197],[54.420677,24.482093],[54.420764,24.482147]]]}},{"type":"Feature","properties":{},"geometry":{"type":"Polygon","coordinates":[[[54.420468,24.48202],[54.420378,24.481999],[54.420353,24.482089],[54.42044,24.482142],[54.420531,24.482163],[54.420556,24.482073],[54.420468,24.48202]]]}},{"type":"Feature","properties":{},"geometry":{"type":"Polygon","coordinates":[[[54.418817,24.482124],[54.418494,24.482084],[54.418475,24.482211],[54.418562,24.482265],[54.418885,24.482305],[54.418904,24.482178],[54.418817,24.482124]]]}},{"type":"Feature","properties":{},"geometry":{"type":"Polygon","coordinates":[[[54.420891,24.482771],[54.420982,24.482781],[54.421004,24.482636],[54.420916,24.482582],[54.420606,24.482548],[54.420603,24.48258],[54.420545,24.482545],[54.420223,24.482516],[54.420222,24.482527],[54.420176,24.482499],[54.41984,24.482465],[54.419816,24.482661],[54.419896,24.48271],[54.419802,24.482698],[54.419782,24.48283],[54.419841,24.482866],[54.4197,24.48285],[54.419682,24.482985],[54.41974,24.48302],[54.419673,24.483014],[54.41966,24.483134],[54.419747,24.483188],[54.420071,24.483216],[54.420077,24.483163],[54.420163,24.483216],[54.420501,24.483247],[54.420519,24.483085],[54.420432,24.483032],[54.4201,24.483001],[54.420108,24.482939],[54.420054,24.482906],[54.420191,24.482923],[54.42021,24.482791],[54.420123,24.482738],[54.420051,24.482729],[54.420195,24.482743],[54.420273,24.482791],[54.420566,24.482821],[54.420561,24.482854],[54.420648,24.482908],[54.420958,24.482944],[54.420975,24.482822],[54.420891,24.482771]],[[54.420038,24.483068],[54.420085,24.483073],[54.420083,24.483096],[54.420038,24.483068]],[[54.420555,24.482723],[54.420618,24.482729],[54.42062,24.482714],[54.420668,24.482743],[54.420577,24.482737],[54.420555,24.482723]],[[54.420258,24.482677],[54.420248,24.482676],[54.420249,24.482671],[54.420258,24.482677]]]}},{"type":"Feature","properties":{},"geometry":{"type":"Polygon","coordinates":[[[54.419055,24.482687],[54.418957,24.482661],[54.418929,24.482747],[54.419016,24.4828],[54.419113,24.482827],[54.419142,24.482741],[54.419055,24.482687]]]}},{"type":"Feature","properties":{},"geometry":{"type":"Polygon","coordinates":[[[54.420388,24.482858],[54.4203,24.48283],[54.420265,24.48292],[54.420352,24.482974],[54.420441,24.483002],[54.420476,24.482911],[54.420388,24.482858]]]}},{"type":"Feature","properties":{},"geometry":{"type":"Polygon","coordinates":[[[54.420594,24.483305],[54.420913,24.483331],[54.420926,24.483203],[54.420881,24.483175],[54.420922,24.48318],[54.42094,24.48306],[54.420852,24.483007],[54.420544,24.48297],[54.420527,24.48309],[54.42059,24.483129],[54.42052,24.483123],[54.420507,24.483251],[54.420594,24.483305]]]}},{"type":"Feature","properties":{},"geometry":{"type":"Polygon","coordinates":[[[54.419572,24.489357],[54.419629,24.489354],[54.419628,24.489342],[54.419679,24.489373],[54.419782,24.489372],[54.419782,24.489319],[54.419694,24.489265],[54.419591,24.489266],[54.419591,24.489291],[54.41954,24.489259],[54.419482,24.489262],[54.419484,24.489297],[54.419432,24.489265],[54.41933,24.489268],[54.419331,24.489307],[54.419418,24.48936],[54.41952,24.489357],[54.419519,24.489324],[54.419572,24.489357]]]}},{"type":"Feature","properties":{},"geometry":{"type":"Polygon","coordinates":[[[54.419077,24.489301],[54.418987,24.489305],[54.418994,24.489429],[54.419081,24.489482],[54.41917,24.489479],[54.419164,24.489354],[54.419077,24.489301]]]}},{"type":"Feature","properties":{},"geometry":{"type":"Polygon","coordinates":[[[54.419661,24.489381],[54.419557,24.489378],[54.419554,24.489481],[54.419641,24.489534],[54.419746,24.489537],[54.419749,24.489434],[54.419661,24.489381]]]}},{"type":"Feature","properties":{},"geometry":{"type":"Polygon","coordinates":[[[54.419183,24.489537],[54.419157,24.48954],[54.419166,24.489612],[54.419253,24.489665],[54.41928,24.489663],[54.41927,24.48959],[54.419183,24.489537]]]}},{"type":"Feature","properties":{},"geometry":{"type":"Polygon","coordinates":[[[54.419651,24.489875],[54.419772,24.489872],[54.419771,24.489827],[54.419684,24.489774],[54.419563,24.489776],[54.419564,24.489821],[54.419651,24.489875]]]}},{"type":"Feature","properties":{},"geometry":{"type":"Polygon","coordinates":[[[54.419666,24.490351],[54.41975,24.490346],[54.419747,24.490226],[54.419659,24.490172],[54.419611,24.490173],[54.419613,24.490257],[54.419571,24.490258],[54.419579,24.490298],[54.419666,24.490351]]]}},{"type":"Feature","properties":{},"geometry":{"type":"Polygon","coordinates":[[[54.419432,24.490181],[54.419381,24.490183],[54.419387,24.490305],[54.419474,24.490358],[54.419525,24.490357],[54.41952,24.490235],[54.419432,24.490181]]]}},{"type":"Feature","properties":{},"geometry":{"type":"Polygon","coordinates":[[[54.419327,24.490364],[54.419402,24.490362],[54.419401,24.490328],[54.419314,24.490275],[54.419239,24.490277],[54.41924,24.490311],[54.419327,24.490364]]]}},{"type":"Feature","properties":{},"geometry":{"type":"Polygon","coordinates":[[[54.418376,24.5023],[54.418174,24.502378],[54.418218,24.502471],[54.418305,24.502525],[54.418507,24.502446],[54.418463,24.502353],[54.418376,24.5023]]]}}]}