{"type":"FeatureCollection","features":[{"type":"Feature","properties":{},"geometry":{"type":"Polygon","coordinates":[[[54.390697,24.482594],[54.390718,24.482472],[54.390478,24.482448],[54.390461,24.482572],[54.390697,24.482594]]]}},{"type":"Feature","properties":{},"geometry":{"type":"Polygon","coordinates":[[[54.391151,24.482835],[54.391088,24.482829],[54.391048,24.482892],[54.391093,24.482915],[54.391195,24.482925],[54.391209,24.482903],[54.391303,24.482938],[54.391238,24.483048],[54.391056,24.482942],[54.390954,24.482932],[54.390895,24.483014],[54.391136,24.483157],[54.391177,24.483162],[54.391401,24.483272],[54.391503,24.483283],[54.39158,24.48316],[54.39149,24.483096],[54.391553,24.482992],[54.391667,24.483003],[54.391742,24.482883],[54.391509,24.482769],[54.391407,24.482759],[54.391399,24.482773],[54.391195,24.48268],[54.39114,24.482675],[54.391149,24.48266],[54.391029,24.482617],[54.391035,24.482607],[54.390942,24.482565],[54.39084,24.482555],[54.390723,24.482762],[54.390809,24.482806],[54.390849,24.48281],[54.390926,24.482856],[54.391028,24.482867],[54.391092,24.482758],[54.391154,24.482787],[54.391151,24.482835]]]}},{"type":"Feature","properties":{},"geometry":{"type":"Polygon","coordinates":[[[54.390518,24.482654],[54.390416,24.482644],[54.390359,24.482725],[54.390608,24.482863],[54.39071,24.482873],[54.390765,24.482792],[54.390518,24.482654]]]}},{"type":"Feature","properties":{},"geometry":{"type":"Polygon","coordinates":[[[54.389972,24.482894],[54.390062,24.482824],[54.389997,24.482755],[54.389895,24.482745],[54.389805,24.482814],[54.38987,24.482884],[54.389972,24.482894]]]}},{"type":"Feature","properties":{},"geometry":{"type":"Polygon","coordinates":[[[54.392104,24.483208],[54.392159,24.483232],[54.392214,24.483238],[54.39218,24.483301],[54.392273,24.483344],[54.392375,24.483354],[54.392476,24.48318],[54.392379,24.483134],[54.392259,24.483114],[54.392281,24.483077],[54.392174,24.483027],[54.39194,24.482996],[54.391919,24.483033],[54.392015,24.483079],[54.392083,24.483086],[54.392157,24.483117],[54.392104,24.483208]]]}},{"type":"Feature","properties":{},"geometry":{"type":"Polygon","coordinates":[[[54.391532,24.483387],[54.39143,24.483377],[54.391414,24.483407],[54.391509,24.483447],[54.391612,24.483457],[54.391627,24.483427],[54.391532,24.483387]]]}},{"type":"Feature","properties":{},"geometry":{"type":"Polygon","coordinates":[[[54.391245,24.483682],[54.3913,24.483619],[54.391261,24.483587],[54.391324,24.483594],[54.391408,24.483498],[54.391224,24.483358],[54.391122,24.483348],[54.390912,24.483554],[54.391118,24.483701],[54.391139,24.483703],[54.391084,24.48375],[54.391222,24.483886],[54.391324,24.483896],[54.391411,24.48382],[54.391274,24.483685],[54.391245,24.483682]]]}},{"type":"Feature","properties":{},"geometry":{"type":"Polygon","coordinates":[[[54.390771,24.484369],[54.390669,24.484359],[54.390577,24.484437],[54.390697,24.484553],[54.390799,24.484563],[54.39089,24.484485],[54.390771,24.484369]]]}},{"type":"Feature","properties":{},"geometry":{"type":"Polygon","coordinates":[[[54.392336,24.488975],[54.392529,24.489071],[54.392711,24.489239],[54.392758,24.489306],[54.392886,24.489319],[54.393137,24.489218],[54.393144,24.489263],[54.393272,24.489275],[54.393491,24.489247],[54.394398,24.489338],[54.394585,24.489319],[54.394572,24.489206],[54.394664,24.489197],[54.394622,24.488843],[54.394518,24.488833],[54.394508,24.488755],[54.393104,24.488614],[54.393046,24.48862],[54.393106,24.488554],[54.393182,24.488518],[54.393708,24.488472],[54.39369,24.488308],[54.394793,24.488419],[54.394839,24.488382],[54.394968,24.488395],[54.395185,24.488219],[54.395111,24.488144],[54.395209,24.488065],[54.395036,24.487889],[54.394817,24.487574],[54.394986,24.48759],[54.39537,24.487249],[54.395338,24.487219],[54.395256,24.487186],[54.393893,24.487049],[54.393768,24.487066],[54.393719,24.48711],[54.393761,24.487149],[54.393615,24.487279],[54.393654,24.487315],[54.393613,24.487352],[54.393735,24.487465],[54.394282,24.48752],[54.394421,24.487653],[54.394373,24.487693],[54.394275,24.4876],[54.394173,24.48759],[54.393993,24.487746],[54.394011,24.487763],[54.393987,24.487784],[54.393836,24.487768],[54.39365,24.487919],[54.393522,24.487904],[54.392744,24.487972],[54.392782,24.488328],[54.392554,24.488609],[54.392389,24.488546],[54.392186,24.488521],[54.39217,24.488601],[54.392087,24.488592],[54.391997,24.488927],[54.392193,24.48894],[54.392336,24.488975]]]}},{"type":"Feature","properties":{},"geometry":{"type":"Polygon","coordinates":[[[54.392303,24.490933],[54.392382,24.49087],[54.392442,24.490984],[54.39257,24.490997],[54.392898,24.490954],[54.393173,24.491117],[54.393301,24.49113],[54.39335,24.491065],[54.393388,24.491107],[54.393481,24.491161],[54.39368,24.491195],[54.393373,24.491568],[54.393426,24.491712],[54.393495,24.49176],[54.393218,24.491733],[54.393084,24.491901],[54.393172,24.491959],[54.392983,24.49194],[54.39299,24.491892],[54.392934,24.491532],[54.392831,24.491522],[54.392358,24.491583],[54.392444,24.492136],[54.392538,24.492146],[54.392736,24.492288],[54.392838,24.492298],[54.392873,24.492323],[54.394184,24.492454],[54.394285,24.492338],[54.39419,24.492269],[54.394233,24.49222],[54.394194,24.492192],[54.394583,24.492231],[54.394617,24.492189],[54.394752,24.492202],[54.394827,24.492108],[54.394752,24.492059],[54.394815,24.491978],[54.394662,24.491877],[54.393951,24.491806],[54.393979,24.491773],[54.395132,24.491889],[54.395234,24.491772],[54.395139,24.491703],[54.395182,24.491654],[54.394932,24.491475],[54.394282,24.491409],[54.394334,24.491347],[54.395386,24.491452],[54.395487,24.491335],[54.395392,24.491267],[54.395435,24.491218],[54.395186,24.491038],[54.394636,24.490983],[54.394645,24.490972],[54.395424,24.49105],[54.395626,24.490818],[54.395387,24.490647],[54.394953,24.490603],[54.395053,24.490483],[54.394882,24.49037],[54.394814,24.490363],[54.394429,24.490402],[54.394284,24.490461],[54.394037,24.490761],[54.394011,24.490704],[54.393938,24.490627],[54.393842,24.490574],[54.393734,24.490551],[54.39384,24.490494],[54.393978,24.490318],[54.39393,24.490041],[54.394481,24.490096],[54.394669,24.490078],[54.394653,24.489933],[54.394745,24.489924],[54.394704,24.489573],[54.394601,24.489562],[54.394592,24.489484],[54.393187,24.489343],[54.393005,24.48936],[54.393017,24.48946],[54.392867,24.489475],[54.392891,24.489684],[54.392867,24.489685],[54.392772,24.490073],[54.392729,24.490165],[54.392641,24.490272],[54.392602,24.490269],[54.39247,24.490348],[54.392222,24.490462],[54.392016,24.490499],[54.39188,24.490499],[54.391608,24.490452],[54.391593,24.490489],[54.391607,24.490564],[54.391572,24.490587],[54.391524,24.490697],[54.391596,24.490766],[54.391814,24.490809],[54.392175,24.490921],[54.392303,24.490933]]]}},{"type":"Feature","properties":{},"geometry":{"type":"Polygon","coordinates":[[[54.392767,24.491081],[54.392066,24.491154],[54.392107,24.49148],[54.39221,24.49149],[54.392502,24.49146],[54.392488,24.491342],[54.392896,24.4913],[54.392869,24.491091],[54.392767,24.491081]]]}},{"type":"Feature","properties":{},"geometry":{"type":"Polygon","coordinates":[[[54.392808,24.492401],[54.392706,24.49239],[54.392124,24.492468],[54.392186,24.492854],[54.392288,24.492864],[54.39287,24.492786],[54.392808,24.492401]]]}},{"type":"Feature","properties":{},"geometry":{"type":"Polygon","coordinates":[[[54.390505,24.493039],[54.390693,24.492868],[54.390587,24.492771],[54.390485,24.492761],[54.390297,24.492932],[54.390403,24.493028],[54.390505,24.493039]]]}},{"type":"Feature","properties":{},"geometry":{"type":"Polygon","coordinates":[[[54.390121,24.493761],[54.390019,24.49375],[54.389209,24.493844],[54.389258,24.494198],[54.389361,24.494209],[54.39017,24.494115],[54.390121,24.493761]]]}},{"type":"Feature","properties":{},"geometry":{"type":"Polygon","coordinates":[[[54.392639,24.49607],[54.392741,24.49608],[54.392797,24.496038],[54.393631,24.495955],[54.393637,24.495998],[54.393739,24.496008],[54.393864,24.495994],[54.394069,24.495811],[54.394285,24.495786],[54.3942,24.495176],[54.394098,24.495166],[54.39353,24.495232],[54.393542,24.495312],[54.39347,24.495305],[54.392573,24.495433],[54.392639,24.49607]]]}},{"type":"Feature","properties":{},"geometry":{"type":"Polygon","coordinates":[[[54.390205,24.496364],[54.390509,24.496344],[54.390508,24.496326],[54.390643,24.496328],[54.39063,24.496099],[54.390611,24.496098],[54.390627,24.496096],[54.390576,24.495677],[54.390473,24.495666],[54.390124,24.495702],[54.390125,24.495715],[54.390007,24.495719],[54.390011,24.495826],[54.39014,24.495836],[54.390163,24.496019],[54.390045,24.496022],[54.390054,24.496097],[54.390071,24.496099],[54.390103,24.496353],[54.390205,24.496364]],[[54.390462,24.496266],[54.390379,24.49626],[54.390376,24.496239],[54.390448,24.496231],[54.390436,24.496139],[54.390455,24.496141],[54.390462,24.496266]]]}},{"type":"Feature","properties":{},"geometry":{"type":"Polygon","coordinates":[[[54.391319,24.497009],[54.391496,24.497021],[54.391663,24.497013],[54.391661,24.496974],[54.391559,24.496963],[54.391439,24.496968],[54.391439,24.496981],[54.39132,24.496975],[54.391319,24.497009]]]}},{"type":"Feature","properties":{},"geometry":{"type":"Polygon","coordinates":[[[54.391662,24.49708],[54.39156,24.49707],[54.391505,24.49708],[54.391513,24.497117],[54.391615,24.497128],[54.39167,24.497118],[54.391662,24.49708]]]}},{"type":"Feature","properties":{},"geometry":{"type":"Polygon","coordinates":[[[54.391083,24.49704],[54.391082,24.497134],[54.391304,24.497146],[54.391309,24.497052],[54.391083,24.49704]]]}},{"type":"Feature","properties":{},"geometry":{"type":"Polygon","coordinates":[[[54.391343,24.497244],[54.391345,24.497181],[54.39113,24.497167],[54.391128,24.497231],[54.391343,24.497244]]]}},{"type":"Feature","properties":{},"geometry":{"type":"Polygon","coordinates":[[[54.391913,24.49816],[54.391881,24.497941],[54.391505,24.497815],[54.390483,24.497713],[54.390347,24.49778],[54.390382,24.49802],[54.390475,24.498076],[54.390756,24.498104],[54.389794,24.498204],[54.389838,24.498558],[54.389941,24.498568],[54.390974,24.498461],[54.390931,24.498122],[54.391497,24.498179],[54.391913,24.49816]]]}},{"type":"Feature","properties":{},"geometry":{"type":"Polygon","coordinates":[[[54.391521,24.500741],[54.391558,24.500988],[54.39166,24.500999],[54.391921,24.500969],[54.391889,24.500727],[54.391786,24.500716],[54.391521,24.500741]]]}},{"type":"Feature","properties":{},"geometry":{"type":"Polygon","coordinates":[[[54.389887,24.502566],[54.390148,24.502537],[54.390218,24.503081],[54.390406,24.5031],[54.391157,24.503036],[54.3911,24.502522],[54.391418,24.50248],[54.39098,24.498843],[54.390793,24.498824],[54.38969,24.498949],[54.390126,24.502361],[54.389715,24.502402],[54.389734,24.502551],[54.389887,24.502566]]]}},{"type":"Feature","properties":{},"geometry":{"type":"Polygon","coordinates":[[[54.392183,24.503621],[54.392081,24.50361],[54.391989,24.503623],[54.391997,24.503672],[54.392099,24.503682],[54.392191,24.50367],[54.392183,24.503621]]]}},{"type":"Feature","properties":{},"geometry":{"type":"Polygon","coordinates":[[[54.392554,24.503762],[54.39236,24.503753],[54.392361,24.503802],[54.392554,24.503811],[54.392554,24.503762]]]}},{"type":"Feature","properties":{},"geometry":{"type":"Polygon","coordinates":[[[54.392274,24.503831],[54.392268,24.503729],[54.392166,24.503718],[54.392003,24.503727],[54.392009,24.503829],[54.392111,24.503839],[54.392274,24.503831]]]}},{"type":"Feature","properties":{},"geometry":{"type":"Polygon","coordinates":[[[54.392064,24.503934],[54.391951,24.50393],[54.391963,24.504122],[54.392087,24.504131],[54.392097,24.504221],[54.391988,24.504217],[54.391996,24.504385],[54.392117,24.504395],[54.39212,24.504421],[54.392222,24.504432],[54.392329,24.504421],[54.392327,24.5044],[54.392504,24.504401],[54.392497,24.504301],[54.392592,24.504285],[54.39258,24.504249],[54.392493,24.50424],[54.392488,24.504165],[54.3923,24.50416],[54.392295,24.504118],[54.392379,24.504127],[54.39259,24.504102],[54.392558,24.503881],[54.392456,24.503871],[54.392245,24.503896],[54.392248,24.503914],[54.392062,24.503917],[54.392064,24.503934]]]}},{"type":"Feature","properties":{},"geometry":{"type":"Polygon","coordinates":[[[54.39262,24.504452],[54.392518,24.504442],[54.392075,24.504486],[54.392108,24.504761],[54.39221,24.504771],[54.392653,24.504727],[54.39262,24.504452]]]}},{"type":"Feature","properties":{},"geometry":{"type":"Polygon","coordinates":[[[54.392228,24.504858],[54.392071,24.504853],[54.392079,24.504933],[54.392236,24.504938],[54.392228,24.504858]]]}},{"type":"Feature","properties":{},"geometry":{"type":"Polygon","coordinates":[[[54.392563,24.504815],[54.392461,24.504804],[54.39235,24.504815],[54.39238,24.505064],[54.392482,24.505074],[54.392592,24.505063],[54.392563,24.504815]]]}},{"type":"Feature","properties":{},"geometry":{"type":"Polygon","coordinates":[[[54.392431,24.505081],[54.392217,24.505073],[54.392217,24.505098],[54.392106,24.505094],[54.392109,24.505203],[54.392269,24.505212],[54.392268,24.505188],[54.392424,24.505191],[54.392456,24.505638],[54.392558,24.505648],[54.392773,24.505636],[54.392737,24.505136],[54.392635,24.505126],[54.392433,24.505138],[54.392431,24.505081]]]}},{"type":"Feature","properties":{},"geometry":{"type":"Polygon","coordinates":[[[54.389891,24.505194],[54.389692,24.505207],[54.389739,24.505801],[54.389842,24.505811],[54.390056,24.505797],[54.389993,24.505205],[54.389891,24.505194]]]}},{"type":"Feature","properties":{},"geometry":{"type":"Polygon","coordinates":[[[54.391859,24.506801],[54.391757,24.50679],[54.391668,24.5068],[54.391674,24.506846],[54.391776,24.506856],[54.391865,24.506847],[54.391859,24.506801]]]}},{"type":"Feature","properties":{},"geometry":{"type":"Polygon","coordinates":[[[54.392001,24.506959],[54.392067,24.506945],[54.392055,24.506897],[54.392098,24.506888],[54.392088,24.506846],[54.391986,24.506836],[54.391876,24.506858],[54.391884,24.506889],[54.391777,24.506886],[54.391786,24.506947],[54.392001,24.506959]]]}},{"type":"Feature","properties":{},"geometry":{"type":"Polygon","coordinates":[[[54.392715,24.506783],[54.392613,24.506772],[54.392428,24.506784],[54.392454,24.507127],[54.392556,24.507137],[54.392741,24.507125],[54.392715,24.506783]]]}},{"type":"Feature","properties":{},"geometry":{"type":"Polygon","coordinates":[[[54.39194,24.507053],[54.391712,24.507045],[54.391714,24.507134],[54.391942,24.507142],[54.39194,24.507053]]]}},{"type":"Feature","properties":{},"geometry":{"type":"Polygon","coordinates":[[[54.392985,24.507152],[54.392883,24.507141],[54.392802,24.50715],[54.392809,24.507204],[54.392911,24.507214],[54.392992,24.507205],[54.392985,24.507152]]]}},{"type":"Feature","properties":{},"geometry":{"type":"Polygon","coordinates":[[[54.391934,24.507327],[54.391832,24.507317],[54.391429,24.507341],[54.391439,24.50748],[54.391541,24.50749],[54.391944,24.507466],[54.391934,24.507327]]]}},{"type":"Feature","properties":{},"geometry":{"type":"Polygon","coordinates":[[[54.39118,24.507431],[54.390945,24.507419],[54.390944,24.507499],[54.391179,24.507511],[54.39118,24.507431]]]}},{"type":"Feature","properties":{},"geometry":{"type":"Polygon","coordinates":[[[54.393216,24.508734],[54.393217,24.5087],[54.393001,24.508686],[54.393001,24.508698],[54.392867,24.508699],[54.392868,24.508729],[54.393216,24.508734]]]}},{"type":"Feature","properties":{},"geometry":{"type":"Polygon","coordinates":[[[54.393063,24.509778],[54.393091,24.509737],[54.393021,24.509696],[54.392918,24.509686],[54.39289,24.509727],[54.392961,24.509767],[54.393063,24.509778]]]}},{"type":"Feature","properties":{},"geometry":{"type":"Polygon","coordinates":[[[54.403814,24.481573],[54.403917,24.481584],[54.404445,24.481313],[54.404282,24.481036],[54.40418,24.481026],[54.40357,24.481299],[54.403814,24.481573]]]}},{"type":"Feature","properties":{},"geometry":{"type":"Polygon","coordinates":[[[54.403255,24.483046],[54.403079,24.482706],[54.402754,24.48227],[54.402584,24.482253],[54.402364,24.482342],[54.402377,24.482242],[54.402121,24.482221],[54.401251,24.483137],[54.401251,24.483254],[54.401293,24.483317],[54.401467,24.483358],[54.401638,24.483375],[54.401836,24.48329],[54.402151,24.483205],[54.40244,24.483212],[54.402925,24.483379],[54.403095,24.483396],[54.403021,24.483179],[54.403255,24.483046]]]}},{"type":"Feature","properties":{},"geometry":{"type":"Polygon","coordinates":[[[54.404367,24.485274],[54.404472,24.48503],[54.404542,24.48481],[54.40454,24.484515],[54.403649,24.484441],[54.403517,24.484888],[54.403424,24.485063],[54.403237,24.485255],[54.403849,24.48579],[54.403951,24.4858],[54.404147,24.485609],[54.404367,24.485274]]]}},{"type":"Feature","properties":{},"geometry":{"type":"Polygon","coordinates":[[[54.400218,24.486606],[54.400067,24.486782],[54.400534,24.487111],[54.400652,24.487148],[54.400754,24.487158],[54.400866,24.487117],[54.401207,24.486363],[54.400743,24.486123],[54.400641,24.486113],[54.400529,24.486291],[54.400218,24.486606]]]}},{"type":"Feature","properties":{},"geometry":{"type":"Polygon","coordinates":[[[54.404417,24.486697],[54.404408,24.486649],[54.404023,24.48626],[54.403715,24.486228],[54.402979,24.486582],[54.403188,24.487134],[54.403222,24.487168],[54.403275,24.487182],[54.40353,24.487207],[54.403767,24.487123],[54.404122,24.486933],[54.40439,24.486736],[54.404417,24.486697]],[[54.403554,24.486721],[54.403786,24.486611],[54.403817,24.486649],[54.403578,24.486786],[54.403554,24.486721]]]}},{"type":"Feature","properties":{},"geometry":{"type":"Polygon","coordinates":[[[54.401144,24.487765],[54.400111,24.487303],[54.399543,24.486934],[54.398968,24.486502],[54.398866,24.486492],[54.397632,24.487841],[54.398772,24.488696],[54.400093,24.489389],[54.400864,24.489703],[54.401655,24.489873],[54.4026,24.489943],[54.40288,24.489596],[54.402625,24.488136],[54.402288,24.488086],[54.401773,24.487981],[54.401144,24.487765]]]}},{"type":"Feature","properties":{},"geometry":{"type":"Polygon","coordinates":[[[54.400402,24.490694],[54.400362,24.490428],[54.400259,24.490418],[54.399955,24.490457],[54.399996,24.490722],[54.400098,24.490732],[54.400402,24.490694]]]}},{"type":"Feature","properties":{},"geometry":{"type":"Polygon","coordinates":[[[54.398667,24.492158],[54.398624,24.49184],[54.398522,24.49183],[54.398396,24.491844],[54.398439,24.492166],[54.398541,24.492176],[54.398667,24.492158]]]}},{"type":"Feature","properties":{},"geometry":{"type":"Polygon","coordinates":[[[54.398825,24.492216],[54.398723,24.492205],[54.39865,24.492215],[54.398679,24.49245],[54.398781,24.49246],[54.399095,24.49242],[54.399082,24.49232],[54.39898,24.49231],[54.398844,24.492326],[54.398825,24.492216]]]}},{"type":"Feature","properties":{},"geometry":{"type":"Polygon","coordinates":[[[54.398602,24.492224],[54.3985,24.492214],[54.398423,24.492223],[54.398468,24.492552],[54.39857,24.492562],[54.398647,24.492553],[54.398602,24.492224]]]}},{"type":"Feature","properties":{},"geometry":{"type":"Polygon","coordinates":[[[54.395997,24.492631],[54.396062,24.492332],[54.395551,24.492247],[54.395486,24.492546],[54.395997,24.492631]]]}},{"type":"Feature","properties":{},"geometry":{"type":"Polygon","coordinates":[[[54.400704,24.493321],[54.400649,24.492935],[54.400547,24.492925],[54.399816,24.49301],[54.39987,24.493396],[54.399973,24.493406],[54.400704,24.493321]]]}},{"type":"Feature","properties":{},"geometry":{"type":"Polygon","coordinates":[[[54.403322,24.494353],[54.403534,24.494331],[54.403599,24.49438],[54.403761,24.494391],[54.403943,24.494487],[54.404045,24.494498],[54.404185,24.494278],[54.404124,24.494246],[54.404554,24.493571],[54.404527,24.493557],[54.404581,24.493471],[54.404418,24.493385],[54.404316,24.493375],[54.404279,24.493432],[54.404194,24.493424],[54.403945,24.493448],[54.403893,24.493537],[54.403771,24.493517],[54.403705,24.493524],[54.403703,24.493509],[54.403601,24.493499],[54.403257,24.493534],[54.403266,24.493607],[54.403224,24.493611],[54.402851,24.493574],[54.402831,24.493605],[54.401839,24.493505],[54.401739,24.493515],[54.401745,24.493562],[54.40166,24.493554],[54.401542,24.493566],[54.401593,24.493985],[54.402748,24.4941],[54.402732,24.494125],[54.402815,24.494169],[54.403203,24.494208],[54.403219,24.494343],[54.403322,24.494353]]]}},{"type":"Feature","properties":{},"geometry":{"type":"Polygon","coordinates":[[[54.39352,24.494476],[54.393515,24.494441],[54.393413,24.494431],[54.393265,24.494449],[54.393268,24.494473],[54.393208,24.49448],[54.393242,24.49472],[54.393345,24.49473],[54.393613,24.494698],[54.393582,24.494482],[54.39352,24.494476]]]}},{"type":"Feature","properties":{},"geometry":{"type":"Polygon","coordinates":[[[54.403383,24.497186],[54.403123,24.497295],[54.403321,24.497687],[54.404053,24.49776],[54.404145,24.497958],[54.404207,24.497964],[54.404187,24.49799],[54.404197,24.498052],[54.404261,24.498203],[54.404266,24.498301],[54.404293,24.498372],[54.40435,24.498408],[54.404663,24.498439],[54.40464,24.498558],[54.404573,24.498659],[54.403722,24.498574],[54.403634,24.498588],[54.40363,24.498579],[54.403927,24.498463],[54.404068,24.498379],[54.404149,24.498291],[54.404172,24.498239],[54.404153,24.498207],[54.404167,24.498192],[54.404081,24.49813],[54.404028,24.498125],[54.403978,24.498096],[54.40385,24.498083],[54.40308,24.4984],[54.403017,24.498394],[54.402825,24.498439],[54.402673,24.498544],[54.402566,24.498725],[54.402563,24.498753],[54.401046,24.498601],[54.400934,24.4986],[54.400765,24.498641],[54.400652,24.498705],[54.400545,24.498814],[54.400506,24.498879],[54.400561,24.498915],[54.400586,24.498949],[54.4006,24.498994],[54.400592,24.499052],[54.403021,24.499304],[54.403167,24.499287],[54.403283,24.499245],[54.40338,24.499179],[54.404407,24.499292],[54.40468,24.499299],[54.404778,24.499279],[54.404759,24.499339],[54.404768,24.499381],[54.404719,24.499388],[54.404728,24.499476],[54.404781,24.499481],[54.404798,24.499551],[54.404847,24.499613],[54.404795,24.499628],[54.404478,24.499596],[54.404464,24.499627],[54.404331,24.499621],[54.404262,24.49964],[54.404233,24.49966],[54.404222,24.499704],[54.40392,24.499672],[54.403894,24.499653],[54.403777,24.499622],[54.403587,24.499603],[54.403588,24.499577],[54.403634,24.499578],[54.403666,24.499552],[54.403667,24.499509],[54.403644,24.499465],[54.403558,24.499379],[54.40351,24.499365],[54.402573,24.499271],[54.402528,24.499281],[54.402512,24.499312],[54.402217,24.499499],[54.402157,24.499511],[54.402143,24.499539],[54.402179,24.499619],[54.402218,24.49966],[54.402312,24.499709],[54.403137,24.499791],[54.403146,24.500013],[54.403175,24.500016],[54.403198,24.50004],[54.403173,24.500067],[54.403177,24.500089],[54.403247,24.500135],[54.404243,24.500234],[54.4043,24.50023],[54.404347,24.500196],[54.404347,24.500272],[54.404483,24.500286],[54.404761,24.500267],[54.405188,24.500172],[54.405667,24.499947],[54.405928,24.49974],[54.406255,24.499347],[54.406373,24.499138],[54.406474,24.49889],[54.406529,24.498602],[54.406545,24.49833],[54.406522,24.498107],[54.406444,24.497802],[54.405643,24.497652],[54.405507,24.497638],[54.405655,24.497838],[54.405735,24.498006],[54.405786,24.498277],[54.405794,24.498495],[54.405783,24.4987],[54.405746,24.498853],[54.405655,24.499021],[54.405577,24.499124],[54.405444,24.499248],[54.405037,24.499207],[54.405087,24.49919],[54.405252,24.499057],[54.405358,24.498901],[54.40544,24.498736],[54.405445,24.498549],[54.405429,24.498461],[54.405389,24.498457],[54.405412,24.498398],[54.405332,24.498066],[54.405283,24.498019],[54.405209,24.498001],[54.404427,24.497923],[54.404599,24.497783],[54.405002,24.4973],[54.405251,24.496952],[54.405413,24.496686],[54.405411,24.496392],[54.404597,24.496092],[54.406631,24.496295],[54.406737,24.496292],[54.406875,24.496242],[54.408742,24.496429],[54.408833,24.496427],[54.4089,24.496399],[54.408918,24.496381],[54.408932,24.49632],[54.408856,24.496195],[54.408693,24.496072],[54.408481,24.495984],[54.408504,24.495925],[54.408263,24.495794],[54.408623,24.495264],[54.409261,24.495341],[54.409621,24.495322],[54.409964,24.495229],[54.409867,24.495048],[54.409653,24.494565],[54.40954,24.494014],[54.409518,24.493451],[54.409564,24.493205],[54.409532,24.493029],[54.407285,24.492804],[54.406817,24.49291],[54.406378,24.493057],[54.406476,24.49296],[54.406379,24.492879],[54.406277,24.492869],[54.406147,24.492996],[54.406244,24.493078],[54.4063,24.493084],[54.406166,24.493157],[54.405951,24.492978],[54.406315,24.492642],[54.406142,24.492521],[54.406355,24.492421],[54.406247,24.492254],[54.406138,24.492243],[54.405267,24.492704],[54.405232,24.492989],[54.405724,24.493406],[54.405384,24.49366],[54.40511,24.493983],[54.405172,24.494022],[54.405133,24.494075],[54.405374,24.494236],[54.407408,24.49444],[54.408084,24.494851],[54.408107,24.494915],[54.408257,24.495102],[54.408411,24.495184],[54.40807,24.495686],[54.406894,24.495031],[54.406766,24.495018],[54.406626,24.495403],[54.406562,24.495341],[54.40646,24.49533],[54.406384,24.495396],[54.406494,24.495502],[54.406587,24.495511],[54.406563,24.495642],[54.406485,24.495609],[54.406425,24.495603],[54.406448,24.495591],[54.406395,24.495503],[54.406293,24.495493],[54.406209,24.495535],[54.406263,24.495623],[54.406304,24.495627],[54.406259,24.495714],[54.406369,24.495761],[54.406168,24.495728],[54.40616,24.49574],[54.40582,24.49571],[54.405719,24.495728],[54.405699,24.495743],[54.404862,24.495668],[54.404741,24.495708],[54.404571,24.495811],[54.404465,24.495947],[54.404457,24.496014],[54.404471,24.496048],[54.404272,24.496028],[54.404215,24.496184],[54.403517,24.496114],[54.40332,24.49661],[54.403606,24.496705],[54.403296,24.496673],[54.403124,24.49709],[54.403414,24.497189],[54.403383,24.497186]]]}},{"type":"Feature","properties":{},"geometry":{"type":"Polygon","coordinates":[[[54.394542,24.496821],[54.39444,24.496811],[54.394208,24.497096],[54.394288,24.49738],[54.394539,24.497498],[54.394641,24.497508],[54.394769,24.497442],[54.394885,24.497348],[54.394874,24.497274],[54.394918,24.497211],[54.394997,24.497172],[54.39503,24.497114],[54.394542,24.496821]]]}},{"type":"Feature","properties":{},"geometry":{"type":"Polygon","coordinates":[[[54.404122,24.498105],[54.404135,24.498077],[54.404083,24.498057],[54.40398,24.498046],[54.403967,24.498074],[54.40402,24.498095],[54.404122,24.498105]]]}},{"type":"Feature","properties":{},"geometry":{"type":"Polygon","coordinates":[[[54.393352,24.498198],[54.393355,24.498117],[54.393211,24.498106],[54.393208,24.498186],[54.393352,24.498198]]]}},{"type":"Feature","properties":{},"geometry":{"type":"Polygon","coordinates":[[[54.396127,24.498585],[54.396129,24.498519],[54.39597,24.498507],[54.395968,24.498573],[54.396127,24.498585]]]}},{"type":"Feature","properties":{},"geometry":{"type":"Polygon","coordinates":[[[54.395034,24.498532],[54.393363,24.49865],[54.393519,24.499655],[54.393621,24.499665],[54.39537,24.499471],[54.39526,24.498664],[54.395136,24.498542],[54.395034,24.498532]]]}},{"type":"Feature","properties":{},"geometry":{"type":"Polygon","coordinates":[[[54.395534,24.499827],[54.395432,24.499817],[54.395317,24.499834],[54.395345,24.499987],[54.395447,24.499997],[54.395562,24.49998],[54.395534,24.499827]]]}},{"type":"Feature","properties":{},"geometry":{"type":"Polygon","coordinates":[[[54.395273,24.500002],[54.395138,24.499998],[54.395162,24.500103],[54.395296,24.500107],[54.395273,24.500002]]]}},{"type":"Feature","properties":{},"geometry":{"type":"Polygon","coordinates":[[[54.394937,24.500444],[54.394916,24.50033],[54.394767,24.500326],[54.394787,24.50044],[54.394937,24.500444]]]}},{"type":"Feature","properties":{},"geometry":{"type":"Polygon","coordinates":[[[54.395488,24.500472],[54.395386,24.500462],[54.39482,24.50054],[54.394962,24.501388],[54.395064,24.501399],[54.39563,24.50132],[54.395488,24.500472]]]}},{"type":"Feature","properties":{},"geometry":{"type":"Polygon","coordinates":[[[54.395744,24.502],[54.395747,24.501897],[54.395559,24.501885],[54.395556,24.501987],[54.395744,24.502]]]}},{"type":"Feature","properties":{},"geometry":{"type":"Polygon","coordinates":[[[54.395873,24.502153],[54.395771,24.502142],[54.395339,24.502201],[54.39539,24.502509],[54.395492,24.502519],[54.395924,24.502461],[54.395873,24.502153]]]}},{"type":"Feature","properties":{},"geometry":{"type":"Polygon","coordinates":[[[54.397473,24.504684],[54.397299,24.504677],[54.397305,24.504778],[54.397479,24.504785],[54.397473,24.504684]]]}},{"type":"Feature","properties":{},"geometry":{"type":"Polygon","coordinates":[[[54.39328,24.509236],[54.393215,24.509262],[54.393313,24.509404],[54.393231,24.509395],[54.393185,24.509423],[54.393222,24.509474],[54.392994,24.509576],[54.393041,24.509658],[54.393117,24.509666],[54.393185,24.509777],[54.393287,24.509787],[54.393625,24.509616],[54.393613,24.509596],[54.393795,24.509504],[54.393754,24.509438],[54.393855,24.509448],[54.393889,24.50943],[54.393853,24.509371],[54.393751,24.50936],[54.393717,24.509377],[54.393577,24.509148],[54.393658,24.509149],[54.393655,24.509094],[54.393502,24.509086],[54.393504,24.509119],[54.393461,24.509115],[54.393266,24.509214],[54.39328,24.509236]],[[54.3934,24.509439],[54.393369,24.509455],[54.393354,24.509434],[54.3934,24.509439]]]}},{"type":"Feature","properties":{},"geometry":{"type":"Polygon","coordinates":[[[54.394128,24.509765],[54.394099,24.509763],[54.394119,24.509751],[54.394018,24.509606],[54.393916,24.509595],[54.393876,24.509618],[54.393923,24.509669],[54.393976,24.509764],[54.394,24.509766],[54.393929,24.509797],[54.393974,24.509884],[54.394077,24.509894],[54.394173,24.509852],[54.394128,24.509765]]]}},{"type":"Feature","properties":{},"geometry":{"type":"Polygon","coordinates":[[[54.393911,24.50995],[54.393766,24.509945],[54.393772,24.509981],[54.393916,24.509985],[54.393911,24.50995]]]}},{"type":"Feature","properties":{},"geometry":{"type":"Polygon","coordinates":[[[54.393879,24.510134],[54.394195,24.509998],[54.394163,24.509938],[54.394061,24.509928],[54.393746,24.510064],[54.393777,24.510124],[54.393879,24.510134]]]}},{"type":"Feature","properties":{},"geometry":{"type":"Polygon","coordinates":[[[54.406324,24.480095],[54.406255,24.479987],[54.40643,24.479895],[54.406373,24.479805],[54.40627,24.479796],[54.406176,24.479648],[54.406074,24.479638],[54.405825,24.479769],[54.405881,24.479857],[54.405674,24.479966],[54.405711,24.480024],[54.405635,24.480064],[54.405697,24.480163],[54.40572,24.480165],[54.405803,24.480295],[54.405905,24.480306],[54.406324,24.480095]]]}},{"type":"Feature","properties":{},"geometry":{"type":"Polygon","coordinates":[[[54.406743,24.480076],[54.406836,24.48],[54.406771,24.479935],[54.406669,24.479925],[54.406577,24.480002],[54.406641,24.480066],[54.406743,24.480076]]]}},{"type":"Feature","properties":{},"geometry":{"type":"Polygon","coordinates":[[[54.406002,24.480518],[54.406033,24.480558],[54.40609,24.480564],[54.406112,24.480586],[54.406196,24.480594],[54.406334,24.480731],[54.406437,24.480741],[54.406583,24.480618],[54.406408,24.480447],[54.406444,24.48045],[54.406479,24.480403],[54.406425,24.48037],[54.406484,24.480376],[54.406523,24.480297],[54.406404,24.480249],[54.406301,24.480239],[54.406264,24.480316],[54.406247,24.480314],[54.406202,24.480376],[54.406002,24.480518]]]}},{"type":"Feature","properties":{},"geometry":{"type":"Polygon","coordinates":[[[54.405699,24.480497],[54.405775,24.48046],[54.405748,24.480415],[54.405645,24.480404],[54.40557,24.480442],[54.405597,24.480487],[54.405699,24.480497]]]}},{"type":"Feature","properties":{},"geometry":{"type":"Polygon","coordinates":[[[54.405389,24.480784],[54.405508,24.480697],[54.405367,24.480537],[54.405264,24.480527],[54.405218,24.480561],[54.405173,24.48051],[54.405071,24.4805],[54.40498,24.480566],[54.40488,24.480556],[54.404649,24.480726],[54.404845,24.480948],[54.404947,24.480958],[54.405108,24.480855],[54.405129,24.480857],[54.405239,24.480777],[54.405221,24.480756],[54.405389,24.480784]]]}},{"type":"Feature","properties":{},"geometry":{"type":"Polygon","coordinates":[[[54.404697,24.481102],[54.404595,24.481092],[54.404538,24.481115],[54.404556,24.481149],[54.404658,24.48116],[54.404714,24.481136],[54.404697,24.481102]]]}},{"type":"Feature","properties":{},"geometry":{"type":"Polygon","coordinates":[[[54.404495,24.482043],[54.404521,24.482183],[54.40457,24.482267],[54.404605,24.482271],[54.404651,24.482363],[54.405417,24.48244],[54.405651,24.482324],[54.405622,24.482223],[54.405589,24.482219],[54.405577,24.482166],[54.40588,24.482196],[54.40612,24.482046],[54.406013,24.48193],[54.406228,24.481951],[54.406456,24.481804],[54.406244,24.481517],[54.406178,24.481406],[54.405412,24.481329],[54.405235,24.481433],[54.405157,24.481501],[54.405222,24.481577],[54.40508,24.481562],[54.404855,24.481675],[54.404814,24.481723],[54.404835,24.481777],[54.404909,24.481843],[54.404632,24.481816],[54.404524,24.481921],[54.404495,24.482043]]]}},{"type":"Feature","properties":{},"geometry":{"type":"Polygon","coordinates":[[[54.406005,24.482659],[54.40604,24.482717],[54.406143,24.482727],[54.406309,24.482642],[54.406606,24.483093],[54.406708,24.483103],[54.406884,24.483008],[54.406567,24.482525],[54.407416,24.48261],[54.407605,24.482539],[54.407647,24.482408],[54.407249,24.481963],[54.406398,24.481878],[54.406332,24.481986],[54.40619,24.482052],[54.40633,24.482242],[54.40645,24.482344],[54.406548,24.482498],[54.406522,24.482496],[54.406485,24.482446],[54.406383,24.482436],[54.406208,24.482543],[54.406216,24.482554],[54.406005,24.482659]]]}},{"type":"Feature","properties":{},"geometry":{"type":"Polygon","coordinates":[[[54.405353,24.483122],[54.405024,24.483255],[54.405216,24.483902],[54.404837,24.484007],[54.404891,24.484348],[54.405703,24.48437],[54.405703,24.483852],[54.405455,24.483133],[54.405353,24.483122]]]}},{"type":"Feature","properties":{},"geometry":{"type":"Polygon","coordinates":[[[54.405619,24.484873],[54.405743,24.48448],[54.404915,24.484382],[54.404837,24.484724],[54.405619,24.484873]]]}},{"type":"Feature","properties":{},"geometry":{"type":"Polygon","coordinates":[[[54.406716,24.485661],[54.406818,24.485672],[54.406859,24.48561],[54.406754,24.485552],[54.406652,24.485541],[54.406611,24.485602],[54.406716,24.485661]]]}},{"type":"Feature","properties":{},"geometry":{"type":"Polygon","coordinates":[[[54.405983,24.487822],[54.406127,24.487642],[54.405832,24.487429],[54.405287,24.487374],[54.405141,24.487548],[54.405438,24.487767],[54.405983,24.487822]]]}},{"type":"Feature","properties":{},"geometry":{"type":"Polygon","coordinates":[[[54.407598,24.488281],[54.407318,24.487873],[54.407216,24.487863],[54.406395,24.488327],[54.406674,24.488735],[54.406776,24.488745],[54.407598,24.488281]]]}},{"type":"Feature","properties":{},"geometry":{"type":"Polygon","coordinates":[[[54.406411,24.495285],[54.406417,24.495276],[54.40635,24.49524],[54.406248,24.495229],[54.406203,24.495297],[54.406269,24.495334],[54.406371,24.495344],[54.406394,24.495311],[54.4066,24.495316],[54.406598,24.495288],[54.406411,24.495285]]]}},{"type":"Feature","properties":{},"geometry":{"type":"Polygon","coordinates":[[[54.406432,24.497223],[54.40674,24.497142],[54.406734,24.497114],[54.406805,24.497122],[54.407063,24.497054],[54.407649,24.497108],[54.407858,24.497223],[54.407897,24.497227],[54.407857,24.497266],[54.407949,24.49733],[54.407993,24.497341],[54.408096,24.497352],[54.408151,24.49732],[54.408105,24.497266],[54.408014,24.497239],[54.408709,24.497309],[54.40953,24.496918],[54.409385,24.496689],[54.408533,24.496603],[54.408115,24.496791],[54.407724,24.496686],[54.407193,24.496628],[54.407186,24.496747],[54.406759,24.496732],[54.406608,24.496768],[54.406554,24.496762],[54.406227,24.496843],[54.40633,24.497213],[54.406432,24.497223]]]}},{"type":"Feature","properties":{},"geometry":{"type":"Polygon","coordinates":[[[54.405962,24.496854],[54.40586,24.496844],[54.405795,24.496894],[54.405874,24.496983],[54.405977,24.496993],[54.406044,24.496945],[54.405962,24.496854]]]}},{"type":"Feature","properties":{},"geometry":{"type":"Polygon","coordinates":[[[54.405638,24.497538],[54.406,24.497594],[54.406013,24.497535],[54.406053,24.497539],[54.406089,24.497391],[54.405991,24.497375],[54.406007,24.497326],[54.405698,24.497277],[54.405638,24.497538]]]}},{"type":"Feature","properties":{},"geometry":{"type":"Polygon","coordinates":[[[54.406523,24.504681],[54.406525,24.504539],[54.40633,24.504527],[54.406326,24.504669],[54.406523,24.504681]]]}},{"type":"Feature","properties":{},"geometry":{"type":"Polygon","coordinates":[[[54.406184,24.50457],[54.406082,24.50456],[54.405986,24.504582],[54.406039,24.504749],[54.406141,24.504759],[54.406233,24.504739],[54.406184,24.50457]]]}},{"type":"Feature","properties":{},"geometry":{"type":"Polygon","coordinates":[[[54.405492,24.505789],[54.405536,24.505642],[54.405765,24.505828],[54.406702,24.505922],[54.406793,24.505817],[54.406828,24.505695],[54.406787,24.505553],[54.406674,24.505453],[54.406584,24.505444],[54.406344,24.50524],[54.406242,24.50523],[54.406075,24.505393],[54.405738,24.505359],[54.40557,24.505527],[54.405586,24.505474],[54.405385,24.505424],[54.405283,24.505414],[54.405189,24.505729],[54.40539,24.505778],[54.405492,24.505789]]]}},{"type":"Feature","properties":{},"geometry":{"type":"Polygon","coordinates":[[[54.405257,24.506211],[54.405359,24.506221],[54.405475,24.505923],[54.405179,24.505828],[54.405077,24.505818],[54.404961,24.506116],[54.405257,24.506211]]]}},{"type":"Feature","properties":{},"geometry":{"type":"Polygon","coordinates":[[[54.405252,24.506613],[54.405345,24.506365],[54.405066,24.506279],[54.404964,24.506269],[54.404871,24.506517],[54.40515,24.506603],[54.405252,24.506613]]]}},{"type":"Feature","properties":{},"geometry":{"type":"Polygon","coordinates":[[[54.403971,24.508028],[54.404993,24.508131],[54.405356,24.508068],[54.405439,24.507919],[54.405779,24.508255],[54.405281,24.508205],[54.405163,24.508313],[54.405426,24.508573],[54.405025,24.508533],[54.404907,24.50864],[54.405303,24.509032],[54.406121,24.509114],[54.40616,24.509074],[54.406241,24.509135],[54.406344,24.509146],[54.406384,24.509101],[54.406299,24.509036],[54.406206,24.509027],[54.406232,24.508999],[54.405976,24.508746],[54.406377,24.508786],[54.406489,24.508672],[54.406147,24.508335],[54.406645,24.508385],[54.406757,24.508271],[54.406367,24.507886],[54.405549,24.507804],[54.405455,24.50789],[54.405862,24.507159],[54.405855,24.507079],[54.405593,24.506955],[54.40515,24.506911],[54.405237,24.506716],[54.404948,24.50662],[54.404846,24.506609],[54.404753,24.506871],[54.404572,24.506853],[54.404508,24.506864],[54.403876,24.507964],[54.403971,24.508028]]]}},{"type":"Feature","properties":{},"geometry":{"type":"Polygon","coordinates":[[[54.404668,24.509286],[54.404645,24.509312],[54.404422,24.50929],[54.404296,24.509458],[54.404444,24.509603],[54.405418,24.509695],[54.405598,24.509432],[54.405477,24.509367],[54.404668,24.509286]]]}},{"type":"Feature","properties":{},"geometry":{"type":"Polygon","coordinates":[[[54.406996,24.509748],[54.407446,24.509794],[54.40758,24.509657],[54.407371,24.50946],[54.407784,24.509501],[54.4079,24.509383],[54.407538,24.50905],[54.406721,24.508968],[54.406599,24.509077],[54.406794,24.509259],[54.406383,24.509218],[54.406243,24.509353],[54.406441,24.509537],[54.405994,24.509492],[54.405834,24.509624],[54.406197,24.509956],[54.407014,24.510038],[54.407179,24.509921],[54.406996,24.509748]]]}},{"type":"Feature","properties":{},"geometry":{"type":"Polygon","coordinates":[[[54.410443,24.479885],[54.41034,24.479875],[54.410271,24.479941],[54.410422,24.48007],[54.410524,24.48008],[54.410593,24.480014],[54.410443,24.479885]]]}},{"type":"Feature","properties":{},"geometry":{"type":"Polygon","coordinates":[[[54.409403,24.482883],[54.409204,24.482876],[54.409209,24.482991],[54.409408,24.482998],[54.409403,24.482883]]]}},{"type":"Feature","properties":{},"geometry":{"type":"Polygon","coordinates":[[[54.408602,24.485076],[54.408389,24.484839],[54.408829,24.484883],[54.409038,24.484742],[54.408793,24.48444],[54.408249,24.484386],[54.408039,24.484527],[54.408235,24.484767],[54.407789,24.484723],[54.407584,24.484876],[54.407597,24.484941],[54.407816,24.485052],[54.407911,24.485062],[54.407944,24.485105],[54.408489,24.48516],[54.408602,24.485076]]]}},{"type":"Feature","properties":{},"geometry":{"type":"Polygon","coordinates":[[[54.407889,24.48568],[54.407828,24.485631],[54.407784,24.485627],[54.407564,24.485445],[54.407248,24.485413],[54.407336,24.485327],[54.407262,24.485263],[54.407159,24.485253],[54.406833,24.485584],[54.407154,24.485824],[54.407698,24.485879],[54.407889,24.48568]]]}},{"type":"Feature","properties":{},"geometry":{"type":"Polygon","coordinates":[[[54.409624,24.486071],[54.409707,24.486047],[54.40979,24.485963],[54.409837,24.485882],[54.410283,24.486646],[54.410504,24.486668],[54.410863,24.4865],[54.410363,24.485619],[54.410402,24.485593],[54.410413,24.48552],[54.410404,24.485468],[54.410388,24.485446],[54.41025,24.485432],[54.410362,24.485422],[54.410404,24.485395],[54.410434,24.485322],[54.410978,24.485104],[54.410804,24.484786],[54.410583,24.484764],[54.409611,24.485238],[54.409452,24.485222],[54.409378,24.485308],[54.409202,24.485378],[54.409115,24.485461],[54.409079,24.485555],[54.409078,24.48562],[54.409042,24.485617],[54.409001,24.485574],[54.408899,24.485563],[54.40882,24.485625],[54.408861,24.485668],[54.408932,24.485675],[54.40892,24.485682],[54.409027,24.485835],[54.409101,24.485842],[54.409176,24.485963],[54.409263,24.486038],[54.409624,24.486071]]]}},{"type":"Feature","properties":{},"geometry":{"type":"Polygon","coordinates":[[[54.407605,24.486034],[54.4077,24.485931],[54.407651,24.485895],[54.407549,24.485884],[54.407455,24.485987],[54.407503,24.486024],[54.407605,24.486034]]]}},{"type":"Feature","properties":{},"geometry":{"type":"Polygon","coordinates":[[[54.409247,24.487364],[54.409145,24.487354],[54.408782,24.487637],[54.408232,24.488],[54.408535,24.488483],[54.408637,24.488493],[54.409511,24.488057],[54.40936,24.487784],[54.409257,24.487774],[54.408601,24.488141],[54.40859,24.488122],[54.409363,24.48769],[54.409247,24.487364]]]}},{"type":"Feature","properties":{},"geometry":{"type":"Polygon","coordinates":[[[54.407768,24.488343],[54.407665,24.488333],[54.407259,24.488552],[54.407265,24.48856],[54.407207,24.488554],[54.406801,24.488784],[54.407081,24.489193],[54.407183,24.489203],[54.407589,24.488973],[54.407567,24.488941],[54.407644,24.488949],[54.40802,24.488719],[54.407768,24.488343]]]}},{"type":"Feature","properties":{},"geometry":{"type":"Polygon","coordinates":[[[54.407021,24.490271],[54.406918,24.490261],[54.406859,24.490282],[54.406887,24.490363],[54.406989,24.490373],[54.407054,24.490352],[54.407021,24.490271]]]}},{"type":"Feature","properties":{},"geometry":{"type":"Polygon","coordinates":[[[54.409268,24.491263],[54.409272,24.491156],[54.408935,24.491139],[54.408934,24.491172],[54.408856,24.49117],[54.408845,24.491284],[54.408906,24.49129],[54.408905,24.491313],[54.409219,24.491329],[54.409221,24.491262],[54.409268,24.491263]]]}},{"type":"Feature","properties":{},"geometry":{"type":"Polygon","coordinates":[[[54.410378,24.495974],[54.410337,24.495938],[54.409656,24.49587],[54.409365,24.496101],[54.409469,24.49622],[54.409388,24.496275],[54.409498,24.496416],[54.410179,24.496484],[54.410343,24.49638],[54.410251,24.496262],[54.410552,24.496292],[54.410775,24.496187],[54.410614,24.495998],[54.410378,24.495974]]]}},{"type":"Feature","properties":{},"geometry":{"type":"Polygon","coordinates":[[[54.408463,24.497877],[54.408465,24.498338],[54.408992,24.498391],[54.409383,24.498324],[54.409415,24.497947],[54.409165,24.497863],[54.408637,24.497811],[54.408463,24.497877]]]}},{"type":"Feature","properties":{},"geometry":{"type":"Polygon","coordinates":[[[54.409435,24.498769],[54.40892,24.498724],[54.408924,24.498611],[54.40875,24.49859],[54.408734,24.498649],[54.408754,24.498712],[54.408694,24.498708],[54.408705,24.499062],[54.408619,24.499427],[54.408976,24.499522],[54.409276,24.499552],[54.409382,24.499166],[54.409435,24.498769]]]}},{"type":"Feature","properties":{},"geometry":{"type":"Polygon","coordinates":[[[54.409926,24.500296],[54.409975,24.49974],[54.410012,24.49951],[54.409978,24.499439],[54.4099,24.49938],[54.409685,24.499353],[54.409513,24.499362],[54.409445,24.499409],[54.409247,24.500029],[54.409197,24.500243],[54.409239,24.500371],[54.409331,24.500438],[54.409613,24.500479],[54.409746,24.500476],[54.409871,24.500412],[54.409926,24.500296]]]}},{"type":"Feature","properties":{},"geometry":{"type":"Polygon","coordinates":[[[54.407952,24.500897],[54.407951,24.500944],[54.407922,24.501002],[54.407961,24.501034],[54.408063,24.501044],[54.408114,24.500971],[54.408147,24.500887],[54.407983,24.500866],[54.407952,24.500897]]]}},{"type":"Feature","properties":{},"geometry":{"type":"Polygon","coordinates":[[[54.40865,24.50194],[54.408752,24.50195],[54.409021,24.501962],[54.409339,24.501953],[54.40943,24.501922],[54.409545,24.501851],[54.409573,24.501776],[54.410433,24.501853],[54.410432,24.501791],[54.410568,24.501791],[54.410573,24.501566],[54.410542,24.501563],[54.410544,24.501523],[54.409778,24.501446],[54.409671,24.501443],[54.40967,24.501531],[54.409608,24.501528],[54.409605,24.501431],[54.409503,24.50142],[54.408621,24.501461],[54.408577,24.501788],[54.40865,24.50194]]]}},{"type":"Feature","properties":{},"geometry":{"type":"Polygon","coordinates":[[[54.407633,24.502312],[54.407484,24.5023],[54.407413,24.502381],[54.407405,24.502428],[54.407551,24.502448],[54.407601,24.502395],[54.408012,24.502566],[54.408114,24.502577],[54.408295,24.5021],[54.408422,24.501858],[54.408025,24.50174],[54.407923,24.50173],[54.407633,24.502312]]]}},{"type":"Feature","properties":{},"geometry":{"type":"Polygon","coordinates":[[[54.407242,24.50286],[54.407192,24.502921],[54.407137,24.502916],[54.407014,24.503066],[54.407077,24.503103],[54.407179,24.503113],[54.40731,24.502996],[54.407335,24.502994],[54.407403,24.502885],[54.407242,24.50286]]]}},{"type":"Feature","properties":{},"geometry":{"type":"Polygon","coordinates":[[[54.406943,24.503344],[54.406841,24.503334],[54.406778,24.503353],[54.406815,24.503474],[54.406917,24.503485],[54.406997,24.503468],[54.406943,24.503344]]]}},{"type":"Feature","properties":{},"geometry":{"type":"Polygon","coordinates":[[[54.409864,24.504124],[54.410673,24.504204],[54.410705,24.504046],[54.410233,24.503968],[54.409951,24.50394],[54.410053,24.503863],[54.40972,24.503497],[54.408912,24.503416],[54.408768,24.503524],[54.4091,24.503891],[54.409417,24.503922],[54.409392,24.504045],[54.409864,24.504124]]]}},{"type":"Feature","properties":{},"geometry":{"type":"Polygon","coordinates":[[[54.407074,24.503829],[54.407134,24.50368],[54.407036,24.503648],[54.406934,24.503638],[54.406883,24.503795],[54.407074,24.503829]]]}},{"type":"Feature","properties":{},"geometry":{"type":"Polygon","coordinates":[[[54.409349,24.504692],[54.40961,24.504393],[54.409259,24.504094],[54.408068,24.503974],[54.407862,24.504235],[54.408157,24.504572],[54.409349,24.504692]]]}},{"type":"Feature","properties":{},"geometry":{"type":"Polygon","coordinates":[[[54.408033,24.505842],[54.408028,24.505741],[54.407764,24.505714],[54.407766,24.505808],[54.408033,24.505842]]]}},{"type":"Feature","properties":{},"geometry":{"type":"Polygon","coordinates":[[[54.409472,24.506175],[54.409587,24.506114],[54.409672,24.506021],[54.409717,24.505908],[54.409719,24.505787],[54.40968,24.50568],[54.409606,24.50559],[54.409506,24.505526],[54.409388,24.505493],[54.409162,24.505485],[54.409046,24.505522],[54.408948,24.50559],[54.408879,24.505683],[54.408845,24.505791],[54.408852,24.505912],[54.408903,24.506023],[54.408992,24.506113],[54.409109,24.50617],[54.409342,24.506198],[54.409472,24.506175]]]}},{"type":"Feature","properties":{},"geometry":{"type":"Polygon","coordinates":[[[54.407336,24.506699],[54.407629,24.506391],[54.407472,24.506231],[54.406323,24.506116],[54.406095,24.506124],[54.405879,24.506349],[54.406187,24.506584],[54.407336,24.506699]]]}},{"type":"Feature","properties":{},"geometry":{"type":"Polygon","coordinates":[[[54.407231,24.50734],[54.407333,24.507251],[54.406919,24.506861],[54.406837,24.506853],[54.40674,24.506941],[54.406773,24.506974],[54.406667,24.507066],[54.406701,24.507103],[54.406595,24.507188],[54.406937,24.507506],[54.407019,24.507514],[54.40712,24.507428],[54.407102,24.50741],[54.40719,24.507336],[54.407231,24.50734]]]}},{"type":"Feature","properties":{},"geometry":{"type":"Polygon","coordinates":[[[54.406764,24.507492],[54.406644,24.507341],[54.406542,24.507331],[54.406499,24.50736],[54.406618,24.507511],[54.406721,24.507521],[54.406764,24.507492]]]}},{"type":"Feature","properties":{},"geometry":{"type":"Polygon","coordinates":[[[54.409709,24.507832],[54.409692,24.507556],[54.409481,24.507344],[54.409379,24.507334],[54.409185,24.507502],[54.409546,24.507864],[54.409648,24.507874],[54.409709,24.507832]]]}},{"type":"Feature","properties":{},"geometry":{"type":"Polygon","coordinates":[[[54.407171,24.507807],[54.407201,24.507774],[54.407167,24.507749],[54.407065,24.507739],[54.407035,24.507771],[54.407069,24.507797],[54.407171,24.507807]]]}},{"type":"Feature","properties":{},"geometry":{"type":"Polygon","coordinates":[[[54.408925,24.507856],[54.408775,24.507847],[54.408778,24.507909],[54.408744,24.507911],[54.408749,24.508017],[54.40889,24.508025],[54.408889,24.507995],[54.408918,24.507994],[54.408914,24.507905],[54.408927,24.507904],[54.408925,24.507856]]]}},{"type":"Feature","properties":{},"geometry":{"type":"Polygon","coordinates":[[[54.409231,24.508233],[54.40932,24.508159],[54.409278,24.508116],[54.409176,24.508106],[54.409086,24.50818],[54.409129,24.508222],[54.409231,24.508233]]]}},{"type":"Feature","properties":{},"geometry":{"type":"Polygon","coordinates":[[[54.409117,24.508675],[54.409097,24.508646],[54.409158,24.508646],[54.409334,24.508542],[54.409273,24.508456],[54.409192,24.508448],[54.409158,24.5084],[54.409055,24.50839],[54.408912,24.508474],[54.408958,24.50854],[54.408884,24.508598],[54.408903,24.508624],[54.408867,24.508645],[54.408898,24.508688],[54.409057,24.508711],[54.409117,24.508675]]]}},{"type":"Feature","properties":{},"geometry":{"type":"Polygon","coordinates":[[[54.40755,24.50889],[54.407615,24.508841],[54.407587,24.508811],[54.407485,24.508801],[54.40742,24.508851],[54.407448,24.50888],[54.40755,24.50889]]]}},{"type":"Feature","properties":{},"geometry":{"type":"Polygon","coordinates":[[[54.407864,24.509122],[54.407708,24.508969],[54.407606,24.508959],[54.407554,24.509003],[54.40771,24.509155],[54.407812,24.509166],[54.407864,24.509122]]]}},{"type":"Feature","properties":{},"geometry":{"type":"Polygon","coordinates":[[[54.409847,24.510306],[54.41019,24.509994],[54.410005,24.509826],[54.409903,24.509815],[54.40956,24.510128],[54.409745,24.510296],[54.409847,24.510306]]]}},{"type":"Feature","properties":{},"geometry":{"type":"Polygon","coordinates":[[[54.411204,24.481998],[54.411307,24.482009],[54.411484,24.481839],[54.411116,24.48152],[54.411014,24.48151],[54.410841,24.481676],[54.410921,24.481746],[54.411024,24.481756],[54.411078,24.481704],[54.411096,24.48172],[54.411067,24.481748],[54.411111,24.481786],[54.411175,24.481792],[54.411219,24.48183],[54.41112,24.481925],[54.411204,24.481998]]]}},{"type":"Feature","properties":{},"geometry":{"type":"Polygon","coordinates":[[[54.410916,24.481829],[54.410945,24.481801],[54.410906,24.481767],[54.410803,24.481757],[54.410774,24.481785],[54.410813,24.481819],[54.410916,24.481829]]]}},{"type":"Feature","properties":{},"geometry":{"type":"Polygon","coordinates":[[[54.41246,24.482197],[54.412563,24.482207],[54.412739,24.481932],[54.412378,24.481741],[54.412276,24.481731],[54.4121,24.482006],[54.41246,24.482197]]]}},{"type":"Feature","properties":{},"geometry":{"type":"Polygon","coordinates":[[[54.411351,24.482158],[54.41143,24.482077],[54.411398,24.482052],[54.411296,24.482042],[54.411218,24.482122],[54.411249,24.482147],[54.411351,24.482158]]]}},{"type":"Feature","properties":{},"geometry":{"type":"Polygon","coordinates":[[[54.410832,24.485218],[54.41073,24.485208],[54.410621,24.485266],[54.410671,24.485344],[54.410774,24.485354],[54.410882,24.485296],[54.410832,24.485218]]]}},{"type":"Feature","properties":{},"geometry":{"type":"Polygon","coordinates":[[[54.411381,24.485654],[54.411468,24.48562],[54.411454,24.485589],[54.411352,24.485579],[54.411248,24.48562],[54.411262,24.485651],[54.411311,24.485655],[54.411273,24.485668],[54.411311,24.485765],[54.411414,24.485776],[54.411471,24.485757],[54.411432,24.48566],[54.411381,24.485654]]]}},{"type":"Feature","properties":{},"geometry":{"type":"Polygon","coordinates":[[[54.413005,24.487223],[54.413082,24.487442],[54.413184,24.487452],[54.4134,24.487443],[54.413388,24.487195],[54.413181,24.487189],[54.413182,24.487216],[54.413005,24.487223]]]}},{"type":"Feature","properties":{},"geometry":{"type":"Polygon","coordinates":[[[54.413411,24.487444],[54.413143,24.487454],[54.413154,24.4877],[54.413256,24.48771],[54.413524,24.4877],[54.413521,24.487621],[54.413488,24.487618],[54.413484,24.487529],[54.413516,24.487528],[54.413513,24.487454],[54.413411,24.487444]]]}},{"type":"Feature","properties":{},"geometry":{"type":"Polygon","coordinates":[[[54.4131,24.487731],[54.413046,24.487541],[54.412944,24.487531],[54.412857,24.487551],[54.412911,24.487741],[54.413014,24.487751],[54.4131,24.487731]]]}},{"type":"Feature","properties":{},"geometry":{"type":"Polygon","coordinates":[[[54.413587,24.48789],[54.413417,24.487883],[54.41342,24.487944],[54.41359,24.487952],[54.413587,24.48789]]]}},{"type":"Feature","properties":{},"geometry":{"type":"Polygon","coordinates":[[[54.415751,24.487968],[54.415745,24.487766],[54.415643,24.487756],[54.41502,24.487761],[54.41502,24.487805],[54.415085,24.487811],[54.415085,24.488203],[54.41537,24.488213],[54.41537,24.487962],[54.415751,24.487968]]]}},{"type":"Feature","properties":{},"geometry":{"type":"Polygon","coordinates":[[[54.414968,24.48833],[54.414972,24.488235],[54.414737,24.488221],[54.414734,24.488316],[54.414968,24.48833]]]}},{"type":"Feature","properties":{},"geometry":{"type":"Polygon","coordinates":[[[54.4155,24.488376],[54.415696,24.488385],[54.415695,24.488336],[54.415568,24.488326],[54.415566,24.488305],[54.415714,24.488311],[54.41571,24.4882],[54.415545,24.488192],[54.415549,24.48829],[54.41537,24.488286],[54.415371,24.488306],[54.415216,24.488304],[54.415217,24.488387],[54.415436,24.488396],[54.415435,24.48833],[54.415499,24.488333],[54.4155,24.488376]]]}},{"type":"Feature","properties":{},"geometry":{"type":"Polygon","coordinates":[[[54.414976,24.488355],[54.41475,24.488348],[54.414754,24.488468],[54.414979,24.488475],[54.414976,24.488355]]]}},{"type":"Feature","properties":{},"geometry":{"type":"Polygon","coordinates":[[[54.415431,24.488484],[54.415432,24.488438],[54.41531,24.488427],[54.415309,24.488474],[54.415431,24.488484]]]}},{"type":"Feature","properties":{},"geometry":{"type":"Polygon","coordinates":[[[54.415543,24.488642],[54.415361,24.488634],[54.415363,24.488683],[54.415545,24.48869],[54.415543,24.488642]]]}},{"type":"Feature","properties":{},"geometry":{"type":"Polygon","coordinates":[[[54.410454,24.488394],[54.410319,24.488406],[54.410325,24.488453],[54.410036,24.488482],[54.410081,24.488917],[54.410183,24.488928],[54.41065,24.488887],[54.410638,24.488768],[54.410905,24.488745],[54.410862,24.48833],[54.41076,24.488319],[54.410449,24.488346],[54.410454,24.488394]]]}},{"type":"Feature","properties":{},"geometry":{"type":"Polygon","coordinates":[[[54.411072,24.48886],[54.411045,24.488921],[54.411095,24.488988],[54.411216,24.488998],[54.411331,24.489151],[54.411159,24.489243],[54.411212,24.489325],[54.411314,24.489336],[54.41194,24.488988],[54.411961,24.489028],[54.411388,24.489344],[54.411483,24.489497],[54.411566,24.489505],[54.411611,24.489583],[54.41187,24.489632],[54.411853,24.489709],[54.41212,24.489755],[54.412285,24.489127],[54.412416,24.489128],[54.4127,24.48967],[54.412803,24.48968],[54.412956,24.4896],[54.412923,24.48955],[54.413136,24.489455],[54.413187,24.48934],[54.413261,24.489348],[54.413305,24.489173],[54.412655,24.488956],[54.412659,24.488905],[54.41288,24.488938],[54.413489,24.488848],[54.413445,24.488556],[54.413343,24.488545],[54.412838,24.488606],[54.412817,24.488588],[54.412715,24.488578],[54.412636,24.488619],[54.412595,24.488585],[54.412673,24.488545],[54.412558,24.488398],[54.412688,24.487993],[54.412867,24.48809],[54.412969,24.488101],[54.413104,24.487954],[54.412745,24.487759],[54.412516,24.487718],[54.41214,24.487695],[54.412141,24.487707],[54.412055,24.487698],[54.411766,24.487772],[54.411479,24.487946],[54.411311,24.48812],[54.411469,24.488231],[54.411571,24.488241],[54.411723,24.488117],[54.411926,24.488463],[54.411843,24.488699],[54.411214,24.488505],[54.411112,24.488495],[54.411068,24.48859],[54.411254,24.488657],[54.411217,24.488841],[54.411072,24.48886]],[[54.412367,24.487933],[54.412243,24.48845],[54.411981,24.487983],[54.412183,24.487944],[54.41218,24.487917],[54.412367,24.487933]],[[54.411961,24.489313],[54.411926,24.489483],[54.411834,24.489464],[54.41175,24.489351],[54.41186,24.489292],[54.411961,24.489313]],[[54.412827,24.489256],[54.412861,24.489165],[54.412961,24.489197],[54.412914,24.489322],[54.412867,24.489345],[54.412827,24.489256]]]}},{"type":"Feature","properties":{},"geometry":{"type":"Polygon","coordinates":[[[54.410114,24.489174],[54.410216,24.489184],[54.410522,24.489156],[54.410572,24.489605],[54.410674,24.489615],[54.410826,24.489601],[54.410762,24.489025],[54.410659,24.489014],[54.410102,24.489066],[54.410114,24.489174]]]}},{"type":"Feature","properties":{},"geometry":{"type":"Polygon","coordinates":[[[54.410884,24.489736],[54.410733,24.489729],[54.410737,24.489771],[54.410888,24.489778],[54.410884,24.489736]]]}},{"type":"Feature","properties":{},"geometry":{"type":"Polygon","coordinates":[[[54.410154,24.489494],[54.410224,24.490079],[54.410326,24.49009],[54.410885,24.490035],[54.41087,24.489907],[54.410768,24.489897],[54.410456,24.489922],[54.410405,24.48949],[54.410303,24.48948],[54.410154,24.489494]]]}},{"type":"Feature","properties":{},"geometry":{"type":"Polygon","coordinates":[[[54.412502,24.490007],[54.412498,24.489945],[54.412326,24.489938],[54.41233,24.490001],[54.412502,24.490007]]]}},{"type":"Feature","properties":{},"geometry":{"type":"Polygon","coordinates":[[[54.411148,24.490662],[54.410949,24.49065],[54.410949,24.490703],[54.411147,24.490714],[54.411148,24.490662]]]}},{"type":"Feature","properties":{},"geometry":{"type":"Polygon","coordinates":[[[54.411046,24.490941],[54.411223,24.490949],[54.411221,24.490892],[54.41118,24.490888],[54.411224,24.490888],[54.411224,24.490795],[54.411052,24.490785],[54.411052,24.490878],[54.411097,24.490882],[54.411044,24.490883],[54.411046,24.490941]]]}},{"type":"Feature","properties":{},"geometry":{"type":"Polygon","coordinates":[[[54.413413,24.490645],[54.412822,24.490629],[54.412814,24.491122],[54.413395,24.491138],[54.413397,24.490975],[54.413113,24.490962],[54.413116,24.49081],[54.413411,24.490814],[54.413413,24.490645]]]}},{"type":"Feature","properties":{},"geometry":{"type":"Polygon","coordinates":[[[54.410314,24.490807],[54.41031,24.49102],[54.410699,24.491033],[54.410706,24.490766],[54.410498,24.490755],[54.410496,24.490802],[54.410314,24.490807]]]}},{"type":"Feature","properties":{},"geometry":{"type":"Polygon","coordinates":[[[54.412874,24.491226],[54.412875,24.491187],[54.412727,24.491175],[54.412726,24.491214],[54.412874,24.491226]]]}},{"type":"Feature","properties":{},"geometry":{"type":"Polygon","coordinates":[[[54.411219,24.491503],[54.411222,24.491426],[54.411083,24.491414],[54.411079,24.491491],[54.411219,24.491503]]]}},{"type":"Feature","properties":{},"geometry":{"type":"Polygon","coordinates":[[[54.410816,24.491635],[54.41083,24.491311],[54.410355,24.491288],[54.410342,24.491612],[54.410816,24.491635]]]}},{"type":"Feature","properties":{},"geometry":{"type":"Polygon","coordinates":[[[54.41186,24.492132],[54.411931,24.491223],[54.411333,24.49118],[54.411261,24.492089],[54.41186,24.492132]]]}},{"type":"Feature","properties":{},"geometry":{"type":"Polygon","coordinates":[[[54.412185,24.491729],[54.412186,24.491699],[54.412006,24.491687],[54.412005,24.491716],[54.412185,24.491729]]]}},{"type":"Feature","properties":{},"geometry":{"type":"Polygon","coordinates":[[[54.411706,24.492383],[54.411709,24.492296],[54.411479,24.492282],[54.411476,24.49237],[54.411706,24.492383]]]}},{"type":"Feature","properties":{},"geometry":{"type":"Polygon","coordinates":[[[54.412155,24.492461],[54.411871,24.492449],[54.41187,24.492546],[54.412154,24.492558],[54.412155,24.492461]]]}},{"type":"Feature","properties":{},"geometry":{"type":"Polygon","coordinates":[[[54.414992,24.497071],[54.415103,24.496914],[54.41501,24.49686],[54.414908,24.49685],[54.414797,24.497007],[54.41489,24.497061],[54.414992,24.497071]]]}},{"type":"Feature","properties":{},"geometry":{"type":"Polygon","coordinates":[[[54.41181,24.4975],[54.411496,24.497386],[54.411394,24.497375],[54.411301,24.497412],[54.411596,24.498172],[54.411722,24.498902],[54.411825,24.498912],[54.411943,24.498902],[54.412125,24.498673],[54.412019,24.498054],[54.412041,24.498045],[54.41181,24.4975]]]}},{"type":"Feature","properties":{},"geometry":{"type":"Polygon","coordinates":[[[54.410522,24.497698],[54.410508,24.498861],[54.410646,24.499007],[54.410993,24.499029],[54.410985,24.497515],[54.410883,24.497505],[54.410696,24.49755],[54.410522,24.497698]]]}},{"type":"Feature","properties":{},"geometry":{"type":"Polygon","coordinates":[[[54.412757,24.502947],[54.412842,24.503093],[54.413098,24.503119],[54.41317,24.503099],[54.41329,24.502809],[54.413379,24.502328],[54.412899,24.502033],[54.412741,24.501881],[54.412655,24.501769],[54.412574,24.501625],[54.412526,24.501486],[54.412271,24.50146],[54.411726,24.501447],[54.411762,24.501647],[54.411809,24.501781],[54.411882,24.501964],[54.411966,24.502121],[54.412119,24.502329],[54.412374,24.50263],[54.412619,24.502795],[54.412757,24.502947]]]}},{"type":"Feature","properties":{},"geometry":{"type":"Polygon","coordinates":[[[54.411753,24.502795],[54.411855,24.502805],[54.411957,24.502748],[54.411796,24.502509],[54.411693,24.502499],[54.411742,24.502449],[54.411529,24.502276],[54.411426,24.502266],[54.411355,24.502338],[54.411568,24.502512],[54.411655,24.50252],[54.411592,24.502555],[54.411753,24.502795]]]}},{"type":"Feature","properties":{},"geometry":{"type":"Polygon","coordinates":[[[54.410845,24.502234],[54.410811,24.502828],[54.411356,24.502864],[54.411354,24.502702],[54.411224,24.502679],[54.411155,24.502628],[54.411149,24.502248],[54.410845,24.502234]]]}},{"type":"Feature","properties":{},"geometry":{"type":"Polygon","coordinates":[[[54.411509,24.502659],[54.411512,24.502535],[54.411361,24.502524],[54.411358,24.502648],[54.411509,24.502659]]]}},{"type":"Feature","properties":{},"geometry":{"type":"Polygon","coordinates":[[[54.411657,24.50276],[54.411555,24.50275],[54.41147,24.502785],[54.411547,24.502936],[54.411649,24.502947],[54.411733,24.502911],[54.411657,24.50276]]]}},{"type":"Feature","properties":{},"geometry":{"type":"Polygon","coordinates":[[[54.414844,24.504316],[54.414869,24.504295],[54.41533,24.504341],[54.415424,24.504263],[54.415462,24.504296],[54.415811,24.504331],[54.415988,24.504182],[54.415792,24.50402],[54.415443,24.503985],[54.415423,24.504006],[54.415415,24.503972],[54.415312,24.503962],[54.415254,24.503974],[54.415263,24.504011],[54.415365,24.504022],[54.415418,24.504011],[54.415397,24.504031],[54.415295,24.504029],[54.414766,24.503977],[54.414745,24.503997],[54.414221,24.503945],[54.414062,24.504102],[54.414176,24.5042],[54.413546,24.504137],[54.413387,24.504294],[54.413564,24.504447],[54.414331,24.504524],[54.414508,24.504375],[54.414379,24.504269],[54.414844,24.504316]]]}},{"type":"Feature","properties":{},"geometry":{"type":"Polygon","coordinates":[[[54.414671,24.504668],[54.414127,24.504614],[54.413968,24.504771],[54.414145,24.504924],[54.414641,24.504974],[54.414774,24.505088],[54.415199,24.505131],[54.415211,24.505145],[54.415313,24.505155],[54.415377,24.50511],[54.415331,24.505068],[54.415428,24.504987],[54.415232,24.504826],[54.414811,24.504784],[54.414671,24.504668]]]}},{"type":"Feature","properties":{},"geometry":{"type":"Polygon","coordinates":[[[54.410797,24.506728],[54.410732,24.506708],[54.410747,24.506615],[54.410678,24.506576],[54.410546,24.50654],[54.410443,24.506529],[54.410269,24.50655],[54.410196,24.506601],[54.410196,24.506651],[54.410233,24.506719],[54.410281,24.506729],[54.4104,24.506792],[54.410588,24.506808],[54.410773,24.506792],[54.410797,24.506728]]]}},{"type":"Feature","properties":{},"geometry":{"type":"Polygon","coordinates":[[[54.410904,24.507326],[54.410922,24.507285],[54.41101,24.507189],[54.411043,24.506943],[54.410977,24.506911],[54.410875,24.506901],[54.410853,24.506939],[54.410745,24.506927],[54.410691,24.506983],[54.41063,24.507096],[54.410624,24.507256],[54.410667,24.50733],[54.410823,24.507348],[54.410904,24.507326]]]}},{"type":"Feature","properties":{},"geometry":{"type":"Polygon","coordinates":[[[54.410332,24.507855],[54.410313,24.507789],[54.410235,24.507782],[54.410204,24.507719],[54.41002,24.50771],[54.409887,24.507745],[54.409753,24.507849],[54.409723,24.507928],[54.409752,24.50797],[54.409824,24.508009],[54.409927,24.508019],[54.409973,24.508004],[54.41011,24.507998],[54.410332,24.507855]]]}},{"type":"Feature","properties":{},"geometry":{"type":"Polygon","coordinates":[[[54.41071,24.508586],[54.410707,24.508686],[54.411097,24.508706],[54.4111,24.508608],[54.41071,24.508586]]]}},{"type":"Feature","properties":{},"geometry":{"type":"Polygon","coordinates":[[[54.411146,24.508974],[54.411138,24.509145],[54.411021,24.509137],[54.411019,24.509209],[54.411135,24.509219],[54.411132,24.509299],[54.411205,24.509307],[54.411204,24.509326],[54.411456,24.50934],[54.411453,24.509469],[54.411673,24.509482],[54.411678,24.509265],[54.411479,24.509253],[54.411482,24.509153],[54.411694,24.509167],[54.411703,24.508958],[54.411478,24.508944],[54.411476,24.508983],[54.411146,24.508974]]]}},{"type":"Feature","properties":{},"geometry":{"type":"Polygon","coordinates":[[[54.41076,24.509063],[54.410596,24.509054],[54.410598,24.509151],[54.410762,24.50916],[54.41076,24.509063]]]}},{"type":"Feature","properties":{},"geometry":{"type":"Polygon","coordinates":[[[54.411448,24.509523],[54.411445,24.509433],[54.411343,24.509423],[54.410621,24.509439],[54.410625,24.509533],[54.410727,24.509544],[54.411448,24.509523]]]}},{"type":"Feature","properties":{},"geometry":{"type":"Polygon","coordinates":[[[54.411355,24.509641],[54.411253,24.509631],[54.411154,24.509671],[54.411231,24.509827],[54.411333,24.509838],[54.411432,24.509798],[54.411355,24.509641]]]}},{"type":"Feature","properties":{},"geometry":{"type":"Polygon","coordinates":[[[54.418573,24.481898],[54.418427,24.481891],[54.418428,24.481913],[54.418575,24.48192],[54.418573,24.481898]]]}},{"type":"Feature","properties":{},"geometry":{"type":"Polygon","coordinates":[[[54.419097,24.482502],[54.419094,24.482532],[54.418758,24.482491],[54.41876,24.48248],[54.418331,24.482437],[54.418315,24.482571],[54.418743,24.482614],[54.418751,24.482551],[54.419127,24.482596],[54.41913,24.482573],[54.419525,24.482609],[54.41953,24.482566],[54.419598,24.482572],[54.419632,24.482236],[54.419768,24.482254],[54.419752,24.482384],[54.420926,24.482526],[54.420945,24.482404],[54.420206,24.482303],[54.420209,24.482277],[54.420954,24.482361],[54.420967,24.48224],[54.420555,24.482201],[54.420548,24.482256],[54.42027,24.482219],[54.419776,24.482179],[54.419773,24.48221],[54.419636,24.482192],[54.419722,24.482194],[54.419725,24.482177],[54.4198,24.482179],[54.4198,24.482145],[54.420207,24.482195],[54.420228,24.482064],[54.419805,24.482013],[54.419615,24.482011],[54.419618,24.481986],[54.419192,24.481937],[54.419174,24.48206],[54.41883,24.482023],[54.418837,24.481991],[54.418698,24.481974],[54.418683,24.482045],[54.418777,24.482057],[54.418771,24.482098],[54.419148,24.482139],[54.419125,24.482298],[54.419459,24.482337],[54.41927,24.482323],[54.419263,24.482395],[54.419449,24.482414],[54.41916,24.482388],[54.419163,24.482372],[54.418358,24.482275],[54.41834,24.482407],[54.419097,24.482502]],[[54.419789,24.482117],[54.419787,24.482129],[54.419701,24.482118],[54.419789,24.482117]],[[54.419201,24.482108],[54.419205,24.482072],[54.419557,24.482112],[54.41955,24.482149],[54.419201,24.482108]]]}},{"type":"Feature","properties":{},"geometry":{"type":"Polygon","coordinates":[[[54.418658,24.482844],[54.418657,24.48287],[54.418264,24.48285],[54.418258,24.482972],[54.418686,24.482995],[54.41869,24.482916],[54.418762,24.482923],[54.418755,24.482984],[54.419189,24.483025],[54.4192,24.482925],[54.419551,24.482961],[54.419568,24.482829],[54.419142,24.482785],[54.419131,24.482875],[54.418849,24.482849],[54.418851,24.482817],[54.418712,24.482805],[54.418722,24.482713],[54.418294,24.482675],[54.41828,24.48281],[54.418658,24.482844]]]}},{"type":"Feature","properties":{},"geometry":{"type":"Polygon","coordinates":[[[54.415671,24.487682],[54.41551,24.487675],[54.415513,24.487719],[54.415674,24.487726],[54.415671,24.487682]]]}},{"type":"Feature","properties":{},"geometry":{"type":"Polygon","coordinates":[[[54.417324,24.487723],[54.417136,24.487714],[54.417137,24.487759],[54.417325,24.487769],[54.417324,24.487723]]]}},{"type":"Feature","properties":{},"geometry":{"type":"Polygon","coordinates":[[[54.415885,24.487791],[54.415887,24.487747],[54.415753,24.487736],[54.415751,24.48778],[54.415885,24.487791]]]}},{"type":"Feature","properties":{},"geometry":{"type":"Polygon","coordinates":[[[54.416102,24.487793],[54.416103,24.487769],[54.415895,24.487755],[54.415894,24.487784],[54.416045,24.487796],[54.415895,24.487804],[54.415903,24.487934],[54.416006,24.487944],[54.416262,24.487931],[54.416254,24.487801],[54.416102,24.487793]]]}},{"type":"Feature","properties":{},"geometry":{"type":"Polygon","coordinates":[[[54.416244,24.487954],[54.415906,24.48795],[54.415907,24.488006],[54.416245,24.48801],[54.416244,24.487954]]]}},{"type":"Feature","properties":{},"geometry":{"type":"Polygon","coordinates":[[[54.416665,24.488042],[54.416594,24.488035],[54.416595,24.488019],[54.416666,24.48802],[54.416665,24.487971],[54.41634,24.487964],[54.41634,24.488013],[54.416233,24.488014],[54.416248,24.488274],[54.416133,24.488266],[54.416132,24.488343],[54.416043,24.488342],[54.416047,24.488378],[54.416131,24.488387],[54.416129,24.488479],[54.416527,24.488493],[54.416528,24.48842],[54.416348,24.488409],[54.416349,24.488388],[54.416274,24.488381],[54.416275,24.488299],[54.416374,24.488305],[54.416377,24.488355],[54.416479,24.488365],[54.416526,24.488363],[54.416524,24.48832],[54.41665,24.48833],[54.416652,24.488299],[54.416749,24.488305],[54.416748,24.488248],[54.416682,24.488242],[54.41675,24.488241],[54.416746,24.488148],[54.416603,24.488139],[54.416669,24.488133],[54.416665,24.488042]],[[54.416421,24.488126],[54.416421,24.488119],[54.41644,24.488121],[54.416497,24.488122],[54.416421,24.488126]],[[54.416503,24.488122],[54.416513,24.488122],[54.416513,24.488123],[54.416503,24.488122]],[[54.416603,24.488243],[54.416603,24.488261],[54.416502,24.488253],[54.416501,24.488234],[54.416603,24.488243]]]}},{"type":"Feature","properties":{},"geometry":{"type":"Polygon","coordinates":[[[54.416723,24.488408],[54.416725,24.488369],[54.416593,24.488358],[54.416591,24.488397],[54.416723,24.488408]]]}},{"type":"Feature","properties":{},"geometry":{"type":"Polygon","coordinates":[[[54.416694,24.488479],[54.416696,24.488436],[54.416549,24.488423],[54.416547,24.488467],[54.416694,24.488479]]]}},{"type":"Feature","properties":{},"geometry":{"type":"Polygon","coordinates":[[[54.416252,24.488881],[54.416121,24.488872],[54.416125,24.488979],[54.416257,24.488988],[54.416252,24.488881]]]}},{"type":"Feature","properties":{},"geometry":{"type":"Polygon","coordinates":[[[54.416058,24.48884],[54.415897,24.488831],[54.415904,24.489031],[54.416065,24.48904],[54.416058,24.48884]]]}},{"type":"Feature","properties":{},"geometry":{"type":"Polygon","coordinates":[[[54.415679,24.488851],[54.415517,24.488842],[54.415521,24.489042],[54.415683,24.489051],[54.415679,24.488851]]]}},{"type":"Feature","properties":{},"geometry":{"type":"Polygon","coordinates":[[[54.415876,24.489139],[54.415873,24.489095],[54.415771,24.489085],[54.415617,24.489095],[54.415619,24.489136],[54.415876,24.489139]]]}},{"type":"Feature","properties":{},"geometry":{"type":"Polygon","coordinates":[[[54.415833,24.489251],[54.415835,24.489171],[54.415682,24.489159],[54.415679,24.489239],[54.415833,24.489251]]]}},{"type":"Feature","properties":{},"geometry":{"type":"Polygon","coordinates":[[[54.415318,24.489667],[54.415421,24.489677],[54.416292,24.489655],[54.41629,24.489586],[54.416269,24.489584],[54.416267,24.489502],[54.416165,24.489492],[54.415314,24.489513],[54.415318,24.489667]]]}},{"type":"Feature","properties":{},"geometry":{"type":"Polygon","coordinates":[[[54.417138,24.501675],[54.41706,24.501747],[54.417117,24.501808],[54.417079,24.501891],[54.416957,24.501939],[54.417152,24.502079],[54.417254,24.502089],[54.41747,24.501885],[54.41724,24.501685],[54.417138,24.501675]]]}},{"type":"Feature","properties":{},"geometry":{"type":"Polygon","coordinates":[[[54.416758,24.501965],[54.416757,24.501928],[54.41682,24.501934],[54.416865,24.501923],[54.41685,24.501875],[54.416748,24.501865],[54.416703,24.501877],[54.416714,24.501911],[54.41647,24.501918],[54.416471,24.501964],[54.416758,24.501965]]]}},{"type":"Feature","properties":{},"geometry":{"type":"Polygon","coordinates":[[[54.41759,24.502323],[54.417488,24.502313],[54.417446,24.50234],[54.417475,24.502377],[54.417577,24.502387],[54.417619,24.50236],[54.41759,24.502323]]]}},{"type":"Feature","properties":{},"geometry":{"type":"Polygon","coordinates":[[[54.417885,24.502453],[54.417783,24.502442],[54.417759,24.502468],[54.417806,24.502504],[54.417908,24.502514],[54.417932,24.502489],[54.417885,24.502453]]]}},{"type":"Feature","properties":{},"geometry":{"type":"Polygon","coordinates":[[[54.415522,24.502478],[54.415526,24.502419],[54.415399,24.502407],[54.415394,24.502466],[54.415522,24.502478]]]}},{"type":"Feature","properties":{},"geometry":{"type":"Polygon","coordinates":[[[54.4175,24.502562],[54.417504,24.502442],[54.417319,24.502431],[54.417319,24.502546],[54.4175,24.502562]]]}},{"type":"Feature","properties":{},"geometry":{"type":"Polygon","coordinates":[[[54.416995,24.502628],[54.41679,24.502619],[54.41679,24.502644],[54.416996,24.502652],[54.416995,24.502628]]]}},{"type":"Feature","properties":{},"geometry":{"type":"Polygon","coordinates":[[[54.415468,24.502603],[54.415288,24.502597],[54.41529,24.50263],[54.415322,24.502633],[54.415293,24.502633],[54.415292,24.502671],[54.415466,24.502682],[54.415466,24.502644],[54.415418,24.502639],[54.415469,24.502637],[54.415468,24.502603]]]}},{"type":"Feature","properties":{},"geometry":{"type":"Polygon","coordinates":[[[54.417408,24.502771],[54.417402,24.50271],[54.416843,24.502692],[54.41684,24.502752],[54.416957,24.502763],[54.416958,24.502784],[54.41706,24.502794],[54.417302,24.502785],[54.417302,24.502771],[54.417408,24.502771]]]}},{"type":"Feature","properties":{},"geometry":{"type":"Polygon","coordinates":[[[54.415505,24.502893],[54.415497,24.502843],[54.415427,24.502836],[54.415465,24.502832],[54.415461,24.502797],[54.415585,24.502809],[54.415583,24.502846],[54.415811,24.502861],[54.415815,24.502783],[54.415463,24.502769],[54.41546,24.502791],[54.415458,24.502778],[54.415356,24.502768],[54.415294,24.502774],[54.4153,24.502828],[54.415373,24.502835],[54.415337,24.50284],[54.415345,24.50289],[54.415505,24.502893]]]}},{"type":"Feature","properties":{},"geometry":{"type":"Polygon","coordinates":[[[54.417372,24.503102],[54.417374,24.50306],[54.417165,24.503046],[54.417163,24.503088],[54.417372,24.503102]]]}},{"type":"Feature","properties":{},"geometry":{"type":"Polygon","coordinates":[[[54.417526,24.503139],[54.417363,24.503126],[54.417359,24.503217],[54.417605,24.503229],[54.417604,24.503168],[54.417525,24.50316],[54.417526,24.503139]]]}},{"type":"Feature","properties":{},"geometry":{"type":"Polygon","coordinates":[[[54.415726,24.503477],[54.415728,24.503421],[54.415532,24.503408],[54.41553,24.503463],[54.415726,24.503477]]]}},{"type":"Feature","properties":{},"geometry":{"type":"Polygon","coordinates":[[[54.415852,24.503558],[54.415707,24.503549],[54.41571,24.503632],[54.415855,24.50364],[54.415852,24.503558]]]}},{"type":"Feature","properties":{},"geometry":{"type":"Polygon","coordinates":[[[54.41769,24.503787],[54.417698,24.50357],[54.417562,24.503559],[54.417554,24.503776],[54.41769,24.503787]]]}},{"type":"Feature","properties":{},"geometry":{"type":"Polygon","coordinates":[[[54.415441,24.504421],[54.415339,24.504411],[54.415294,24.504447],[54.415315,24.504469],[54.415193,24.504457],[54.415034,24.504614],[54.415212,24.504767],[54.415629,24.504809],[54.415806,24.50466],[54.41561,24.504498],[54.415474,24.504485],[54.41549,24.504472],[54.415441,24.504421]]]}},{"type":"Feature","properties":{},"geometry":{"type":"Polygon","coordinates":[[[54.415784,24.50493],[54.415681,24.50492],[54.415635,24.504956],[54.415692,24.505016],[54.415794,24.505027],[54.415841,24.50499],[54.415784,24.50493]]]}},{"type":"Feature","properties":{},"geometry":{"type":"Polygon","coordinates":[[[54.418939,24.480052],[54.418771,24.480032],[54.418765,24.480068],[54.418841,24.480078],[54.41884,24.480121],[54.41898,24.480132],[54.418981,24.480071],[54.418936,24.480066],[54.418939,24.480052]]]}},{"type":"Feature","properties":{},"geometry":{"type":"Polygon","coordinates":[[[54.420696,24.480302],[54.420657,24.480298],[54.42066,24.480236],[54.420467,24.480222],[54.42046,24.480354],[54.420658,24.480379],[54.420901,24.480388],[54.420903,24.480342],[54.420695,24.480328],[54.420696,24.480302]]]}},{"type":"Feature","properties":{},"geometry":{"type":"Polygon","coordinates":[[[54.419987,24.480883],[54.419993,24.480828],[54.419827,24.480812],[54.419821,24.480866],[54.419987,24.480883]]]}},{"type":"Feature","properties":{},"geometry":{"type":"Polygon","coordinates":[[[54.419728,24.481807],[54.419748,24.48167],[54.418895,24.48158],[54.418898,24.481561],[54.418476,24.481514],[54.418458,24.481649],[54.418863,24.481694],[54.418858,24.481732],[54.4193,24.481784],[54.419304,24.481758],[54.419728,24.481807]]]}},{"type":"Feature","properties":{},"geometry":{"type":"Polygon","coordinates":[[[54.419749,24.481846],[54.419732,24.481981],[54.420155,24.482024],[54.42017,24.481902],[54.420597,24.481951],[54.420609,24.481866],[54.420605,24.481935],[54.421032,24.481962],[54.42104,24.48183],[54.420618,24.481803],[54.420621,24.481788],[54.420201,24.481739],[54.420202,24.48172],[54.419967,24.481696],[54.419961,24.481759],[54.420176,24.481771],[54.420159,24.481888],[54.419749,24.481846]]]}},{"type":"Feature","properties":{},"geometry":{"type":"Polygon","coordinates":[[[54.418868,24.481775],[54.41873,24.48176],[54.41873,24.481743],[54.418674,24.481737],[54.418672,24.481686],[54.418441,24.48168],[54.418447,24.481821],[54.418713,24.481825],[54.418711,24.48184],[54.418855,24.481855],[54.418868,24.481775]]]}},{"type":"Feature","properties":{},"geometry":{"type":"Polygon","coordinates":[[[54.420987,24.482135],[54.421007,24.482012],[54.420595,24.48196],[54.420575,24.482083],[54.420987,24.482135]]]}},{"type":"Feature","properties":{},"geometry":{"type":"Polygon","coordinates":[[[54.420444,24.482109],[54.420468,24.48202],[54.420275,24.481989],[54.420251,24.482079],[54.420444,24.482109]]]}},{"type":"Feature","properties":{},"geometry":{"type":"Polygon","coordinates":[[[54.418798,24.482252],[54.418817,24.482124],[54.418392,24.482074],[54.418373,24.482201],[54.418798,24.482252]]]}},{"type":"Feature","properties":{},"geometry":{"type":"Polygon","coordinates":[[[54.420871,24.48289],[54.420888,24.482769],[54.42052,24.482727],[54.420522,24.482703],[54.420156,24.482666],[54.420159,24.482642],[54.420895,24.482727],[54.420916,24.482582],[54.419737,24.482455],[54.419714,24.48265],[54.420088,24.482688],[54.420083,24.482728],[54.42047,24.482767],[54.420459,24.482844],[54.420871,24.48289]]]}},{"type":"Feature","properties":{},"geometry":{"type":"Polygon","coordinates":[[[54.419494,24.482791],[54.419514,24.482659],[54.419089,24.482608],[54.419069,24.48274],[54.419494,24.482791]]]}},{"type":"Feature","properties":{},"geometry":{"type":"Polygon","coordinates":[[[54.419026,24.482773],[54.419055,24.482687],[54.418855,24.48265],[54.418827,24.482737],[54.419026,24.482773]]]}},{"type":"Feature","properties":{},"geometry":{"type":"Polygon","coordinates":[[[54.420103,24.48287],[54.420123,24.482738],[54.419699,24.482688],[54.41968,24.48282],[54.420103,24.48287]]]}},{"type":"Feature","properties":{},"geometry":{"type":"Polygon","coordinates":[[[54.420354,24.482948],[54.420388,24.482858],[54.4203,24.48283],[54.420197,24.48282],[54.420163,24.48291],[54.420252,24.482938],[54.420354,24.482948]]]}},{"type":"Feature","properties":{},"geometry":{"type":"Polygon","coordinates":[[[54.419988,24.483019],[54.419986,24.483042],[54.41957,24.483004],[54.419558,24.483124],[54.42041,24.483193],[54.420405,24.483241],[54.420826,24.483278],[54.420839,24.483149],[54.420423,24.483113],[54.420427,24.48308],[54.420835,24.483127],[54.420852,24.483007],[54.420442,24.48296],[54.420431,24.483032],[54.420007,24.482991],[54.420021,24.482886],[54.419597,24.48284],[54.419579,24.482975],[54.419988,24.483019]]]}},{"type":"Feature","properties":{},"geometry":{"type":"Polygon","coordinates":[[[54.419592,24.48932],[54.419695,24.489319],[54.419694,24.489265],[54.419437,24.489249],[54.419228,24.489257],[54.419229,24.489297],[54.419489,24.489303],[54.419592,24.48932]]]}},{"type":"Feature","properties":{},"geometry":{"type":"Polygon","coordinates":[[[54.419077,24.489301],[54.418885,24.489294],[54.418891,24.489419],[54.419083,24.489425],[54.419077,24.489301]]]}},{"type":"Feature","properties":{},"geometry":{"type":"Polygon","coordinates":[[[54.419658,24.489483],[54.419661,24.489381],[54.419455,24.489368],[54.419451,24.48947],[54.419658,24.489483]]]}},{"type":"Feature","properties":{},"geometry":{"type":"Polygon","coordinates":[[[54.419183,24.489537],[54.419054,24.48953],[54.419064,24.489602],[54.419193,24.489609],[54.419183,24.489537]]]}},{"type":"Feature","properties":{},"geometry":{"type":"Polygon","coordinates":[[[54.419684,24.489774],[54.419461,24.489766],[54.419462,24.489811],[54.419685,24.489819],[54.419684,24.489774]]]}},{"type":"Feature","properties":{},"geometry":{"type":"Polygon","coordinates":[[[54.419476,24.490288],[54.419662,24.490293],[54.419659,24.490172],[54.419509,24.490163],[54.419511,24.490243],[54.419469,24.490247],[54.419476,24.490288]]]}},{"type":"Feature","properties":{},"geometry":{"type":"Polygon","coordinates":[[[54.419138,24.490301],[54.41924,24.490311],[54.419315,24.490309],[54.419315,24.490298],[54.419438,24.490303],[54.419432,24.490181],[54.419279,24.490173],[54.419284,24.490271],[54.419137,24.490266],[54.419138,24.490301]]]}},{"type":"Feature","properties":{},"geometry":{"type":"Polygon","coordinates":[[[54.418376,24.5023],[54.418274,24.50229],[54.418072,24.502368],[54.418115,24.502461],[54.418218,24.502471],[54.41842,24.502393],[54.418376,24.5023]]]}}]}