{"type":"FeatureCollection","features":[{"type":"Feature","properties":{},"geometry":{"type":"Polygon","coordinates":[[[54.379726,24.480356],[54.379668,24.480419],[54.379694,24.480439],[54.37808,24.48035],[54.377897,24.48052],[54.377946,24.480563],[54.37789,24.48056],[54.377721,24.480713],[54.377841,24.480823],[54.379534,24.480918],[54.379567,24.480941],[54.379664,24.480947],[54.379553,24.481068],[54.379579,24.481087],[54.378954,24.481053],[54.378863,24.481163],[54.378933,24.481211],[54.378821,24.481205],[54.378597,24.481479],[54.378647,24.481513],[54.378567,24.481508],[54.378342,24.481782],[54.378425,24.481838],[54.378449,24.48184],[54.37834,24.481973],[54.378427,24.482033],[54.37834,24.482028],[54.378235,24.482156],[54.378457,24.482306],[54.381778,24.482494],[54.380286,24.482414],[54.380234,24.482472],[54.37798,24.482348],[54.377608,24.482798],[54.377879,24.482984],[54.380097,24.483107],[54.380054,24.483157],[54.3801,24.483189],[54.378654,24.483109],[54.378562,24.483217],[54.378838,24.483412],[54.380555,24.483507],[54.380653,24.483576],[54.37834,24.48345],[54.378321,24.483475],[54.378225,24.48347],[54.378086,24.483642],[54.378109,24.483859],[54.378423,24.48407],[54.37861,24.484081],[54.378635,24.484163],[54.377927,24.484123],[54.377814,24.484257],[54.378006,24.484391],[54.378049,24.484393],[54.378034,24.48441],[54.378218,24.48454],[54.37825,24.484542],[54.378239,24.484554],[54.378423,24.484686],[54.378467,24.484689],[54.378453,24.484705],[54.378631,24.484833],[54.378679,24.484835],[54.378662,24.484857],[54.378849,24.484984],[54.378889,24.484986],[54.378877,24.485],[54.379068,24.485138],[54.3791,24.485139],[54.37909,24.485151],[54.379279,24.485286],[54.379329,24.485289],[54.379308,24.485314],[54.379483,24.485436],[54.379577,24.485442],[54.37955,24.485474],[54.37973,24.485601],[54.379771,24.485603],[54.379747,24.485631],[54.379936,24.485767],[54.37997,24.485769],[54.37996,24.485781],[54.380137,24.485913],[54.380181,24.485916],[54.380358,24.486046],[54.378537,24.485947],[54.377906,24.486755],[54.378181,24.486933],[54.378675,24.486963],[54.378665,24.486975],[54.377627,24.486917],[54.377437,24.487134],[54.377523,24.487197],[54.377715,24.487208],[54.377747,24.487231],[54.377662,24.487329],[54.377718,24.487369],[54.37767,24.487423],[54.377858,24.487559],[54.377929,24.487562],[54.377857,24.487645],[54.378003,24.487751],[54.377599,24.488212],[54.377301,24.488195],[54.377244,24.488263],[54.378043,24.488819],[54.37815,24.488825],[54.378117,24.488864],[54.378318,24.489006],[54.379761,24.489086],[54.379687,24.489167],[54.379837,24.489279],[54.380001,24.489288],[54.379907,24.489399],[54.380115,24.489546],[54.380147,24.489548],[54.380322,24.489675],[54.380342,24.489676],[54.380442,24.48976],[54.379075,24.48969],[54.379025,24.489745],[54.379055,24.489768],[54.379317,24.489782],[54.379275,24.489832],[54.378939,24.489813],[54.378899,24.489859],[54.37893,24.489881],[54.37922,24.489897],[54.37918,24.489944],[54.379343,24.490059],[54.379065,24.490043],[54.378904,24.490239],[54.379049,24.490338],[54.379639,24.490371],[54.379612,24.490403],[54.378811,24.490359],[54.378656,24.490542],[54.378689,24.490565],[54.378627,24.490562],[54.378467,24.490759],[54.378535,24.490805],[54.378416,24.490798],[54.378267,24.490974],[54.378372,24.491048],[54.378201,24.491039],[54.378055,24.49121],[54.37819,24.491305],[54.378743,24.491336],[54.378687,24.4914],[54.377954,24.49136],[54.37777,24.491574],[54.378008,24.491743],[54.378524,24.491772],[54.378678,24.491875],[54.378746,24.491878],[54.378729,24.491899],[54.378914,24.492028],[54.379534,24.492063],[54.37952,24.492079],[54.379706,24.492214],[54.379385,24.492196],[54.379293,24.492306],[54.379481,24.492435],[54.379526,24.492438],[54.379515,24.492452],[54.379713,24.492589],[54.379751,24.492592],[54.379739,24.492606],[54.37976,24.49262],[54.377871,24.492515],[54.377756,24.492644],[54.378007,24.492829],[54.380208,24.492951],[54.380361,24.493057],[54.380435,24.493061],[54.380415,24.493085],[54.378141,24.492959],[54.377956,24.493166],[54.378165,24.493321],[54.378555,24.493342],[54.378666,24.493423],[54.378392,24.493408],[54.378285,24.493529],[54.378348,24.493575],[54.378948,24.493612],[54.378254,24.493585],[54.378204,24.493644],[54.378268,24.493689],[54.37836,24.493694],[54.378348,24.493751],[54.378155,24.49374],[54.378141,24.493775],[54.378202,24.493796],[54.378338,24.493804],[54.378333,24.493829],[54.378586,24.493866],[54.379376,24.493909],[54.379391,24.49392],[54.378006,24.493843],[54.377803,24.494084],[54.378016,24.494232],[54.378286,24.494247],[54.378411,24.494337],[54.378506,24.494343],[54.378625,24.494427],[54.378036,24.494394],[54.377925,24.494521],[54.378118,24.49466],[54.378197,24.494665],[54.37817,24.494696],[54.378362,24.494835],[54.379295,24.494887],[54.378708,24.494858],[54.378544,24.495048],[54.378635,24.495113],[54.378501,24.495106],[54.378478,24.495133],[54.377838,24.495097],[54.377732,24.495222],[54.377923,24.495357],[54.378288,24.495377],[54.378174,24.495518],[54.377965,24.495507],[54.377707,24.495812],[54.377926,24.495965],[54.378268,24.495984],[54.37819,24.49608],[54.378405,24.496226],[54.37916,24.496268],[54.379215,24.496305],[54.378744,24.496279],[54.378627,24.496421],[54.378895,24.496603],[54.379185,24.496619],[54.379325,24.496717],[54.380264,24.496771],[54.380072,24.497001],[54.380151,24.497056],[54.378156,24.496946],[54.378049,24.497065],[54.378313,24.49726],[54.378555,24.497274],[54.378478,24.497359],[54.378023,24.497334],[54.377916,24.497454],[54.378168,24.497639],[54.378492,24.497657],[54.378523,24.49768],[54.384429,24.498007],[54.384525,24.497899],[54.386668,24.498017],[54.38671,24.49836],[54.386674,24.498363],[54.386683,24.498432],[54.386732,24.498435],[54.386772,24.498766],[54.388643,24.49887],[54.389016,24.498832],[54.388998,24.498681],[54.391686,24.498829],[54.391925,24.498805],[54.39191,24.498677],[54.393482,24.498764],[54.393516,24.498983],[54.39098,24.498843],[54.389877,24.498968],[54.389895,24.499112],[54.389403,24.499085],[54.388005,24.4992],[54.388015,24.499291],[54.387727,24.499275],[54.386775,24.499375],[54.386768,24.499506],[54.386877,24.499783],[54.386944,24.499887],[54.387235,24.500209],[54.387459,24.500387],[54.387532,24.500461],[54.388096,24.500864],[54.387919,24.500905],[54.388012,24.50105],[54.388047,24.501141],[54.388234,24.501151],[54.388277,24.501501],[54.388112,24.501492],[54.38812,24.501571],[54.388053,24.501752],[54.388156,24.501762],[54.388134,24.501871],[54.387956,24.502062],[54.387908,24.50206],[54.387837,24.502137],[54.387874,24.50216],[54.387597,24.502492],[54.387626,24.502522],[54.387613,24.502521],[54.387477,24.502822],[54.387584,24.502858],[54.387665,24.503036],[54.387577,24.503046],[54.387576,24.503105],[54.387363,24.503126],[54.387339,24.50325],[54.387672,24.503269],[54.387675,24.503391],[54.392091,24.503635],[54.392099,24.503682],[54.394345,24.503806],[54.394437,24.503794],[54.394429,24.503745],[54.393629,24.5037],[54.394138,24.50352],[54.393978,24.503392],[54.393724,24.503378],[54.393712,24.503347],[54.392564,24.503284],[54.392763,24.503263],[54.392758,24.503229],[54.394523,24.503327],[54.395274,24.503263],[54.395217,24.50275],[54.395536,24.502707],[54.395513,24.50252],[54.401398,24.502845],[54.40183,24.502786],[54.40178,24.502478],[54.395873,24.502153],[54.395678,24.502179],[54.395662,24.501998],[54.39799,24.502124],[54.397993,24.502021],[54.395661,24.501895],[54.395659,24.501968],[54.395643,24.501797],[54.395423,24.501773],[54.39538,24.501416],[54.40097,24.501725],[54.401536,24.501646],[54.401394,24.500798],[54.397182,24.500566],[54.397162,24.500453],[54.395251,24.500348],[54.395179,24.499751],[54.399528,24.499991],[54.401276,24.499797],[54.401166,24.498989],[54.401042,24.498868],[54.396861,24.498638],[54.39686,24.498627],[54.398372,24.498709],[54.398375,24.498643],[54.396851,24.498559],[54.396841,24.498474],[54.397403,24.498505],[54.397819,24.498486],[54.397787,24.498267],[54.397411,24.498141],[54.394151,24.497961],[54.394129,24.497786],[54.394877,24.497714],[54.394868,24.497634],[54.394889,24.497632],[54.394876,24.497521],[54.400547,24.497834],[54.400675,24.497768],[54.400792,24.497674],[54.40078,24.4976],[54.400824,24.497537],[54.400903,24.497498],[54.400936,24.497439],[54.400449,24.497147],[54.394542,24.496821],[54.39431,24.497106],[54.394375,24.497337],[54.393331,24.497279],[54.393329,24.497263],[54.393549,24.49727],[54.393554,24.497235],[54.393861,24.497251],[54.393915,24.497242],[54.393907,24.497204],[54.3917,24.497074],[54.391695,24.497034],[54.393666,24.497143],[54.393909,24.497136],[54.393907,24.497097],[54.393618,24.497082],[54.394323,24.497004],[54.394267,24.496588],[54.396111,24.49669],[54.396295,24.496671],[54.396282,24.496565],[54.396354,24.496557],[54.39634,24.496442],[54.396533,24.496422],[54.396517,24.496289],[54.398647,24.496406],[54.398703,24.496364],[54.399232,24.496312],[54.399646,24.496334],[54.39977,24.49632],[54.399975,24.496137],[54.400191,24.496112],[54.400106,24.495502],[54.395247,24.495234],[54.395228,24.494834],[54.399251,24.495056],[54.39952,24.495024],[54.399488,24.494808],[54.399426,24.494805],[54.399421,24.494767],[54.395213,24.494535],[54.396076,24.494441],[54.396027,24.494087],[54.395098,24.494035],[54.395083,24.494024],[54.395122,24.494022],[54.39512,24.493973],[54.395018,24.493968],[54.395014,24.493884],[54.393992,24.493827],[54.394315,24.493283],[54.394249,24.493171],[54.392837,24.493084],[54.392938,24.492992],[54.392832,24.492895],[54.392158,24.492858],[54.39146,24.492364],[54.390823,24.492329],[54.390801,24.49219],[54.390813,24.492026],[54.390955,24.492034],[54.391025,24.49195],[54.390916,24.491874],[54.391135,24.491757],[54.391302,24.491559],[54.390566,24.491014],[54.390593,24.491016],[54.390744,24.490825],[54.39078,24.490827],[54.390935,24.490648],[54.390897,24.490621],[54.390927,24.490623],[54.391091,24.490437],[54.39096,24.49034],[54.390716,24.490327],[54.390802,24.490226],[54.390402,24.489952],[54.390375,24.489951],[54.390386,24.489938],[54.390312,24.489888],[54.392097,24.489987],[54.392225,24.489811],[54.391946,24.489635],[54.391593,24.489616],[54.391672,24.489527],[54.391421,24.489336],[54.389121,24.489209],[54.389195,24.489121],[54.389107,24.48906],[54.392022,24.489221],[54.392112,24.488997],[54.39215,24.488955],[54.392172,24.488943],[54.392311,24.48895],[54.392463,24.488988],[54.392656,24.489084],[54.392839,24.489252],[54.392886,24.489319],[54.395693,24.489474],[54.395834,24.489417],[54.400304,24.489663],[54.400491,24.489645],[54.400478,24.489532],[54.400512,24.489528],[54.400966,24.489714],[54.401757,24.489883],[54.4026,24.489943],[54.408506,24.490269],[54.408786,24.489921],[54.408675,24.489285],[54.410649,24.489394],[54.410662,24.489504],[54.410405,24.48949],[54.410256,24.489504],[54.410326,24.49009],[54.416232,24.490415],[54.416791,24.49036],[54.416776,24.490232],[54.416358,24.490209],[54.416331,24.489987],[54.418026,24.490081],[54.418056,24.489969],[54.418708,24.490005],[54.418862,24.489925],[54.418829,24.489875],[54.41885,24.489866],[54.421327,24.490002],[54.422198,24.48998],[54.422196,24.489911],[54.422175,24.48991],[54.422173,24.489827],[54.41917,24.489662],[54.419182,24.489613],[54.421438,24.489733],[54.421429,24.48966],[54.419201,24.489538],[54.419211,24.489498],[54.419006,24.48943],[54.419554,24.48946],[54.419554,24.489481],[54.421799,24.489604],[54.421904,24.489607],[54.421907,24.489504],[54.421325,24.489472],[54.421322,24.489425],[54.419077,24.489301],[54.418987,24.489305],[54.418993,24.489426],[54.418561,24.489282],[54.418563,24.489251],[54.418786,24.489263],[54.419395,24.489173],[54.419351,24.488881],[54.418552,24.488837],[54.418464,24.488723],[54.418499,24.488613],[54.418772,24.488617],[54.418773,24.488594],[54.418939,24.488603],[54.418942,24.488559],[54.418594,24.488534],[54.418595,24.488512],[54.418533,24.488508],[54.418969,24.488531],[54.41897,24.488492],[54.418771,24.488481],[54.418769,24.488447],[54.418896,24.488454],[54.418897,24.488425],[54.418994,24.488423],[54.421093,24.488538],[54.421276,24.488538],[54.421275,24.488287],[54.421525,24.488286],[54.421525,24.488096],[54.419428,24.487981],[54.419427,24.487946],[54.419394,24.487945],[54.419392,24.487888],[54.41957,24.487892],[54.41957,24.487847],[54.419422,24.487839],[54.419419,24.487779],[54.41925,24.48777],[54.419306,24.487768],[54.419294,24.48752],[54.413388,24.487195],[54.413283,24.487199],[54.413284,24.487227],[54.413107,24.487233],[54.413184,24.487452],[54.413345,24.487461],[54.413245,24.487464],[54.413249,24.487552],[54.413046,24.487541],[54.412961,24.487569],[54.409484,24.487377],[54.409735,24.487242],[54.410003,24.487046],[54.410031,24.487006],[54.410022,24.486959],[54.409637,24.486569],[54.403971,24.486254],[54.403882,24.486296],[54.400743,24.486123],[54.400631,24.486302],[54.400357,24.486579],[54.398968,24.486502],[54.398199,24.487343],[54.395144,24.487174],[54.395019,24.487192],[54.39497,24.487235],[54.395012,24.487275],[54.394916,24.48736],[54.39462,24.487343],[54.394592,24.487366],[54.394555,24.487364],[54.394369,24.487515],[54.394463,24.48761],[54.394275,24.4876],[54.394095,24.487756],[54.394113,24.487773],[54.394066,24.487813],[54.394205,24.487948],[54.393649,24.487917],[54.392872,24.487985],[54.392909,24.488341],[54.392735,24.488557],[54.392314,24.488534],[54.392298,24.48861],[54.392215,24.488605],[54.392208,24.488631],[54.391988,24.488471],[54.391495,24.488444],[54.391513,24.488425],[54.391469,24.488394],[54.391508,24.488353],[54.391409,24.488281],[54.391427,24.488259],[54.391326,24.488189],[54.390565,24.488147],[54.390686,24.488005],[54.39064,24.487971],[54.392732,24.488086],[54.392876,24.488073],[54.392853,24.487917],[54.393004,24.48775],[54.39317,24.487737],[54.393159,24.487608],[54.39294,24.487596],[54.392809,24.487491],[54.392848,24.487452],[54.392759,24.487381],[54.391361,24.487304],[54.391422,24.487032],[54.391019,24.486972],[54.389632,24.486896],[54.389656,24.486868],[54.38961,24.486834],[54.387364,24.48671],[54.387312,24.486768],[54.385113,24.486646],[54.385072,24.486854],[54.384522,24.486824],[54.384726,24.486564],[54.384685,24.486537],[54.384705,24.486513],[54.385522,24.486558],[54.385543,24.486575],[54.391448,24.486901],[54.391628,24.48673],[54.391444,24.486572],[54.391383,24.486568],[54.391407,24.486544],[54.391357,24.486504],[54.391272,24.486499],[54.391237,24.486464],[54.390973,24.48645],[54.391045,24.486377],[54.390688,24.486087],[54.390556,24.48608],[54.390611,24.486022],[54.390394,24.48584],[54.391841,24.485919],[54.391904,24.485869],[54.39186,24.485823],[54.391938,24.48576],[54.39183,24.485649],[54.390233,24.485561],[54.390265,24.485528],[54.390246,24.485513],[54.390261,24.485498],[54.390349,24.485503],[54.390454,24.485398],[54.390316,24.485284],[54.39021,24.485278],[54.390165,24.485237],[54.387919,24.485113],[54.387879,24.485149],[54.387091,24.485106],[54.387063,24.485086],[54.384892,24.484966],[54.386366,24.48504],[54.386687,24.485017],[54.386702,24.484986],[54.386578,24.484902],[54.386595,24.484878],[54.387975,24.484954],[54.388196,24.484679],[54.388074,24.484598],[54.387966,24.484592],[54.388187,24.484307],[54.388062,24.484227],[54.387932,24.48422],[54.387956,24.48414],[54.387623,24.483926],[54.386854,24.483884],[54.386957,24.483762],[54.387742,24.483805],[54.387785,24.483755],[54.388896,24.483816],[54.389082,24.483598],[54.389068,24.483588],[54.389089,24.483589],[54.389275,24.48337],[54.38924,24.483345],[54.389311,24.483349],[54.389325,24.483333],[54.391147,24.483434],[54.391015,24.483564],[54.39122,24.483711],[54.391242,24.483712],[54.391186,24.48376],[54.391324,24.483896],[54.39357,24.48402],[54.393657,24.483944],[54.39355,24.483839],[54.397126,24.484037],[54.397206,24.483945],[54.39717,24.483916],[54.39723,24.48392],[54.397313,24.483824],[54.397129,24.483684],[54.393058,24.483459],[54.393112,24.483395],[54.39462,24.483478],[54.394634,24.483455],[54.397408,24.483608],[54.397485,24.483486],[54.397395,24.483422],[54.397456,24.483322],[54.397573,24.483329],[54.397648,24.483209],[54.397415,24.483095],[54.393621,24.482886],[54.39344,24.482804],[54.393384,24.482801],[54.393394,24.482784],[54.393308,24.482744],[54.393274,24.482742],[54.393281,24.482731],[54.393156,24.482687],[54.393109,24.482653],[54.392955,24.482645],[54.392963,24.482596],[54.392122,24.482544],[54.392054,24.482512],[54.390118,24.482406],[54.39016,24.482355],[54.390084,24.482303],[54.390205,24.48231],[54.390358,24.482126],[54.39029,24.482079],[54.390406,24.482085],[54.390559,24.481901],[54.390486,24.48185],[54.390603,24.481857],[54.390757,24.481673],[54.390511,24.481503],[54.390466,24.481501],[54.390514,24.481446],[54.390276,24.481277],[54.390225,24.481274],[54.389786,24.480966],[54.390522,24.481006],[54.390641,24.480871],[54.390397,24.480692],[54.389216,24.480627],[54.389255,24.480583],[54.38902,24.480407],[54.388966,24.480404],[54.388977,24.480391],[54.389732,24.480433],[54.389851,24.480298],[54.389606,24.480119],[54.388555,24.48006],[54.388497,24.480017],[54.382591,24.479691],[54.382523,24.479766],[54.381497,24.47971],[54.38136,24.479862],[54.380394,24.479808],[54.380313,24.479897],[54.378693,24.479808],[54.378523,24.479963],[54.378555,24.479992],[54.378493,24.479989],[54.378309,24.480157],[54.37845,24.480285],[54.379726,24.480356]],[[54.390259,24.495981],[54.390264,24.496027],[54.390147,24.496033],[54.390154,24.496086],[54.388973,24.496021],[54.389066,24.495915],[54.390259,24.495981]],[[54.389266,24.49565],[54.389252,24.49548],[54.389129,24.495394],[54.389092,24.495392],[54.389053,24.495367],[54.388512,24.495161],[54.38849,24.495136],[54.388595,24.495142],[54.388604,24.495132],[54.390587,24.495241],[54.390637,24.495182],[54.390542,24.495067],[54.393604,24.495236],[54.393649,24.495176],[54.394027,24.495196],[54.393632,24.495242],[54.393643,24.495319],[54.393572,24.495316],[54.392676,24.495443],[54.392712,24.495795],[54.390576,24.495677],[54.390226,24.495712],[54.390227,24.495726],[54.390109,24.495729],[54.390111,24.49579],[54.38922,24.495741],[54.389288,24.495664],[54.389266,24.49565]],[[54.384094,24.486252],[54.384096,24.486254],[54.383811,24.486238],[54.384094,24.486252]],[[54.381708,24.484791],[54.38229,24.484814],[54.382283,24.484822],[54.381708,24.484791]],[[54.382793,24.497202],[54.382517,24.497187],[54.38261,24.497076],[54.382793,24.497202]],[[54.395266,24.500471],[54.395428,24.50048],[54.39527,24.500502],[54.395266,24.500471]],[[54.406986,24.488062],[54.406515,24.487851],[54.407282,24.487894],[54.406986,24.488062]],[[54.406797,24.487387],[54.409049,24.487512],[54.408941,24.4876],[54.406682,24.487476],[54.406772,24.487442],[54.406797,24.487387]],[[54.395913,24.488709],[54.395988,24.488673],[54.396514,24.488627],[54.396503,24.488513],[54.398785,24.488639],[54.398874,24.488706],[54.399491,24.48903],[54.395828,24.488828],[54.395864,24.488756],[54.395913,24.488709]],[[54.405788,24.487481],[54.405713,24.487432],[54.405824,24.487438],[54.405788,24.487481]]]}},{"type":"Feature","properties":{},"geometry":{"type":"Polygon","coordinates":[[[54.384177,24.49801],[54.378271,24.497684],[54.378077,24.497902],[54.378194,24.497989],[54.3841,24.498315],[54.384295,24.498097],[54.384177,24.49801]]]}},{"type":"Feature","properties":{},"geometry":{"type":"Polygon","coordinates":[[[54.378697,24.498702],[54.379085,24.498724],[54.379145,24.498773],[54.378741,24.498751],[54.378627,24.498872],[54.378728,24.498949],[54.380181,24.49903],[54.380165,24.499051],[54.378544,24.498962],[54.378463,24.499043],[54.378526,24.499094],[54.380001,24.499176],[54.379954,24.499237],[54.380005,24.499251],[54.379985,24.499278],[54.380323,24.499493],[54.380493,24.499502],[54.380487,24.499527],[54.380699,24.499574],[54.380834,24.499582],[54.380845,24.499603],[54.385738,24.499873],[54.385844,24.499798],[54.386229,24.499819],[54.386272,24.499764],[54.386181,24.499706],[54.386298,24.499704],[54.386401,24.499569],[54.386159,24.499416],[54.386175,24.499394],[54.386096,24.499344],[54.386065,24.499343],[54.386138,24.499299],[54.386074,24.499206],[54.386477,24.499229],[54.386606,24.499175],[54.386574,24.498897],[54.386493,24.498784],[54.385964,24.49864],[54.385554,24.498617],[54.385321,24.498444],[54.384108,24.498377],[54.384078,24.498352],[54.378171,24.498025],[54.377977,24.498244],[54.378034,24.498283],[54.377939,24.498278],[54.377764,24.498474],[54.377898,24.498573],[54.37902,24.498635],[54.379043,24.498649],[54.378748,24.498633],[54.378678,24.498656],[54.378697,24.498702]]]}},{"type":"Feature","properties":{},"geometry":{"type":"Polygon","coordinates":[[[54.38408,24.501659],[54.383867,24.501493],[54.377961,24.501167],[54.377761,24.501379],[54.377974,24.501545],[54.383881,24.501871],[54.38408,24.501659]]]}},{"type":"Feature","properties":{},"geometry":{"type":"Polygon","coordinates":[[[54.383942,24.502197],[54.383796,24.502077],[54.37789,24.501751],[54.377689,24.501955],[54.377836,24.502074],[54.383742,24.5024],[54.383942,24.502197]]]}},{"type":"Feature","properties":{},"geometry":{"type":"Polygon","coordinates":[[[54.384093,24.502578],[54.383924,24.502443],[54.378018,24.502117],[54.377828,24.502314],[54.377992,24.502446],[54.377856,24.502438],[54.377752,24.502561],[54.377954,24.502704],[54.383861,24.50303],[54.383965,24.502907],[54.383767,24.502768],[54.383902,24.502775],[54.384093,24.502578]]]}},{"type":"Feature","properties":{},"geometry":{"type":"Polygon","coordinates":[[[54.37934,24.507547],[54.379521,24.507557],[54.379521,24.507576],[54.385428,24.507903],[54.385668,24.5079],[54.385664,24.507608],[54.379757,24.507281],[54.379536,24.507284],[54.379536,24.50734],[54.379298,24.507332],[54.379299,24.507452],[54.37934,24.507454],[54.37934,24.507547]]]}},{"type":"Feature","properties":{},"geometry":{"type":"Polygon","coordinates":[[[54.378755,24.50842],[54.378758,24.508523],[54.381112,24.508645],[54.38111,24.508542],[54.378755,24.50842]]]}},{"type":"Feature","properties":{},"geometry":{"type":"Polygon","coordinates":[[[54.378529,24.50857],[54.37853,24.508679],[54.380849,24.508803],[54.380847,24.508693],[54.378529,24.50857]]]}},{"type":"Feature","properties":{},"geometry":{"type":"Polygon","coordinates":[[[54.381027,24.512336],[54.381238,24.51251],[54.382436,24.512576],[54.382516,24.512493],[54.38151,24.511654],[54.380313,24.511587],[54.380238,24.511685],[54.380503,24.511904],[54.380028,24.511878],[54.379543,24.512354],[54.379653,24.512439],[54.380851,24.512505],[54.381027,24.512336]]]}},{"type":"Feature","properties":{},"geometry":{"type":"Polygon","coordinates":[[[54.381994,24.511479],[54.380622,24.511403],[54.380589,24.511568],[54.380709,24.511588],[54.382245,24.511673],[54.382367,24.511768],[54.388274,24.512095],[54.388658,24.51167],[54.388291,24.511385],[54.388891,24.511419],[54.389282,24.511006],[54.388588,24.510467],[54.385371,24.510289],[54.385699,24.510114],[54.385631,24.510009],[54.385328,24.509992],[54.385849,24.510017],[54.386084,24.50989],[54.385825,24.509483],[54.383893,24.509376],[54.383856,24.509349],[54.38161,24.509225],[54.381589,24.509249],[54.379918,24.509156],[54.379666,24.509281],[54.379742,24.509394],[54.379535,24.509383],[54.37935,24.509481],[54.378591,24.509439],[54.377802,24.509708],[54.378003,24.51002],[54.378255,24.510034],[54.378115,24.510113],[54.378367,24.510488],[54.381891,24.510683],[54.381509,24.511102],[54.381994,24.511479]]]}},{"type":"Feature","properties":{},"geometry":{"type":"Polygon","coordinates":[[[54.38332,24.504812],[54.383321,24.50491],[54.389228,24.505236],[54.389529,24.505233],[54.389529,24.505179],[54.389612,24.505179],[54.389602,24.504324],[54.389519,24.50432],[54.389518,24.504212],[54.389803,24.504222],[54.389799,24.504142],[54.389745,24.504139],[54.389771,24.504135],[54.389765,24.504093],[54.38347,24.503754],[54.383477,24.504345],[54.383302,24.504345],[54.383303,24.504399],[54.383478,24.504409],[54.383478,24.504444],[54.383437,24.504445],[54.383437,24.504477],[54.383408,24.504477],[54.383408,24.504506],[54.383317,24.504507],[54.383319,24.504681],[54.382733,24.504657],[54.382743,24.50478],[54.38332,24.504812]]]}},{"type":"Feature","properties":{},"geometry":{"type":"Polygon","coordinates":[[[54.382846,24.508246],[54.382867,24.50828],[54.385113,24.508404],[54.385166,24.508377],[54.385146,24.508344],[54.3829,24.508219],[54.382846,24.508246]]]}},{"type":"Feature","properties":{},"geometry":{"type":"Polygon","coordinates":[[[54.389067,24.499045],[54.389062,24.49899],[54.386817,24.498866],[54.386647,24.498885],[54.386653,24.498939],[54.388899,24.499063],[54.389067,24.499045]]]}},{"type":"Feature","properties":{},"geometry":{"type":"Polygon","coordinates":[[[54.390294,24.503714],[54.388048,24.50359],[54.387984,24.503605],[54.387995,24.503646],[54.390241,24.50377],[54.390305,24.503756],[54.390294,24.503714]]]}},{"type":"Feature","properties":{},"geometry":{"type":"Polygon","coordinates":[[[54.389658,24.505614],[54.389827,24.505624],[54.389842,24.505811],[54.395748,24.506137],[54.395963,24.506123],[54.39594,24.505835],[54.398465,24.505974],[54.398679,24.505962],[54.398643,24.505462],[54.394678,24.505243],[54.394677,24.505205],[54.392319,24.505083],[54.392319,24.505106],[54.392208,24.505104],[54.392211,24.505213],[54.392528,24.505231],[54.392536,24.505345],[54.389993,24.505205],[54.389795,24.505218],[54.389804,24.505339],[54.389699,24.505341],[54.389702,24.50538],[54.38964,24.505384],[54.389658,24.505614]]]}},{"type":"Feature","properties":{},"geometry":{"type":"Polygon","coordinates":[[[54.391497,24.507179],[54.391494,24.507145],[54.389248,24.507021],[54.389152,24.507028],[54.389156,24.507062],[54.391401,24.507186],[54.391497,24.507179]]]}},{"type":"Feature","properties":{},"geometry":{"type":"Polygon","coordinates":[[[54.39068,24.484447],[54.390799,24.484563],[54.393044,24.484687],[54.393136,24.484609],[54.393017,24.484493],[54.390771,24.484369],[54.39068,24.484447]]]}},{"type":"Feature","properties":{},"geometry":{"type":"Polygon","coordinates":[[[54.39277,24.490284],[54.392729,24.490281],[54.392598,24.490361],[54.392349,24.490475],[54.392246,24.490493],[54.391736,24.490465],[54.391721,24.490502],[54.391735,24.490577],[54.3917,24.4906],[54.391651,24.49071],[54.391724,24.490779],[54.391942,24.490822],[54.392303,24.490933],[54.392543,24.490947],[54.39257,24.490997],[54.393128,24.491028],[54.393272,24.491113],[54.392869,24.491091],[54.392169,24.491164],[54.39221,24.49149],[54.393454,24.491559],[54.392934,24.491532],[54.39246,24.491593],[54.392547,24.492146],[54.39383,24.492217],[54.393805,24.492246],[54.394047,24.492419],[54.394142,24.492424],[54.394184,24.492454],[54.395593,24.492532],[54.395588,24.492554],[54.392808,24.492401],[54.392226,24.492479],[54.392288,24.492864],[54.398194,24.49319],[54.398776,24.493112],[54.398723,24.492782],[54.401903,24.492957],[54.401968,24.492658],[54.401559,24.492584],[54.40119,24.492563],[54.401341,24.492544],[54.401327,24.492444],[54.401086,24.492431],[54.401071,24.492339],[54.400709,24.492319],[54.400721,24.492304],[54.400708,24.492296],[54.400787,24.4923],[54.400913,24.492282],[54.400902,24.492207],[54.401038,24.492214],[54.40114,24.492098],[54.401045,24.492029],[54.401088,24.49198],[54.400838,24.4918],[54.39841,24.491666],[54.398707,24.491635],[54.401292,24.491778],[54.401393,24.491661],[54.401298,24.491593],[54.401341,24.491544],[54.401091,24.491364],[54.396168,24.491092],[54.40133,24.491376],[54.401532,24.491144],[54.401293,24.490972],[54.396508,24.490708],[54.396541,24.490706],[54.396647,24.490649],[54.396785,24.490473],[54.396741,24.490221],[54.400387,24.490422],[54.400575,24.490404],[54.400558,24.490259],[54.400651,24.49025],[54.40061,24.489899],[54.400507,24.489893],[54.400497,24.48981],[54.394592,24.489484],[54.39441,24.489501],[54.394421,24.489601],[54.394271,24.489615],[54.394286,24.489748],[54.393237,24.48969],[54.392995,24.489698],[54.392899,24.490086],[54.392856,24.490178],[54.39277,24.490284]]]}},{"type":"Feature","properties":{},"geometry":{"type":"Polygon","coordinates":[[[54.395419,24.499844],[54.395447,24.499997],[54.397693,24.500121],[54.397808,24.500104],[54.39778,24.499951],[54.395534,24.499827],[54.395419,24.499844]]]}},{"type":"Feature","properties":{},"geometry":{"type":"Polygon","coordinates":[[[54.395241,24.500009],[54.395264,24.500113],[54.397542,24.500231],[54.397519,24.500126],[54.395241,24.500009]]]}},{"type":"Feature","properties":{},"geometry":{"type":"Polygon","coordinates":[[[54.39452,24.503955],[54.394518,24.503925],[54.3948,24.503935],[54.3948,24.503886],[54.394515,24.50387],[54.394514,24.503853],[54.392268,24.503729],[54.392105,24.503737],[54.392111,24.503839],[54.394357,24.503963],[54.39452,24.503955]]]}},{"type":"Feature","properties":{},"geometry":{"type":"Polygon","coordinates":[[[54.392065,24.504132],[54.392188,24.504139],[54.392199,24.504229],[54.39209,24.504227],[54.392098,24.504395],[54.392218,24.504402],[54.392222,24.504432],[54.392611,24.504453],[54.392177,24.504496],[54.39221,24.504771],[54.398117,24.505097],[54.398559,24.505053],[54.398535,24.50485],[54.399725,24.504909],[54.399719,24.504808],[54.398233,24.504726],[54.398178,24.504243],[54.394812,24.504057],[54.394804,24.504005],[54.392558,24.503881],[54.392347,24.503906],[54.392349,24.503921],[54.392272,24.503917],[54.392164,24.503927],[54.392166,24.503941],[54.392054,24.50394],[54.392065,24.504132]]]}},{"type":"Feature","properties":{},"geometry":{"type":"Polygon","coordinates":[[[54.392452,24.504825],[54.392458,24.504871],[54.392173,24.504863],[54.392181,24.504943],[54.392468,24.504959],[54.392482,24.505074],[54.394728,24.505198],[54.394838,24.505187],[54.394809,24.504938],[54.392563,24.504815],[54.392452,24.504825]]]}},{"type":"Feature","properties":{},"geometry":{"type":"Polygon","coordinates":[[[54.392552,24.507087],[54.391814,24.507055],[54.391816,24.507144],[54.395157,24.507338],[54.395238,24.507329],[54.395232,24.507285],[54.398463,24.507463],[54.398648,24.507451],[54.398622,24.507109],[54.392715,24.506783],[54.39253,24.506794],[54.392533,24.506838],[54.391859,24.506801],[54.39177,24.50681],[54.391776,24.506856],[54.391984,24.506867],[54.391985,24.506896],[54.39188,24.506896],[54.391888,24.506957],[54.392545,24.506994],[54.392552,24.507087]]]}},{"type":"Feature","properties":{},"geometry":{"type":"Polygon","coordinates":[[[54.397851,24.507792],[54.397841,24.507653],[54.391934,24.507327],[54.391531,24.507352],[54.391538,24.50745],[54.391047,24.507429],[54.391046,24.50751],[54.393292,24.507634],[54.393425,24.507635],[54.393425,24.507594],[54.397448,24.507816],[54.397851,24.507792]]]}},{"type":"Feature","properties":{},"geometry":{"type":"Polygon","coordinates":[[[54.395462,24.508858],[54.395463,24.508824],[54.393217,24.5087],[54.39297,24.508709],[54.39297,24.508739],[54.395216,24.508863],[54.395462,24.508858]]]}},{"type":"Feature","properties":{},"geometry":{"type":"Polygon","coordinates":[[[54.393317,24.509272],[54.393412,24.50941],[54.393334,24.509406],[54.393287,24.509433],[54.393323,24.509483],[54.393096,24.509587],[54.393144,24.509669],[54.393217,24.509673],[54.393239,24.509709],[54.393021,24.509696],[54.392992,24.509738],[54.393063,24.509778],[54.394044,24.509832],[54.394077,24.509894],[54.396323,24.510018],[54.396419,24.509976],[54.39641,24.50996],[54.399194,24.510113],[54.399532,24.509942],[54.39952,24.509922],[54.399702,24.50983],[54.39947,24.509451],[54.395903,24.509254],[54.395901,24.509218],[54.393655,24.509094],[54.393604,24.509096],[54.393606,24.509128],[54.393563,24.509125],[54.393369,24.509224],[54.393382,24.509246],[54.393317,24.509272]]]}},{"type":"Feature","properties":{},"geometry":{"type":"Polygon","coordinates":[[[54.394253,24.510242],[54.396498,24.510366],[54.396597,24.51027],[54.396536,24.510219],[54.39626,24.5102],[54.396441,24.510122],[54.396409,24.510062],[54.394163,24.509938],[54.394111,24.509961],[54.393869,24.509955],[54.393874,24.509991],[54.394022,24.509999],[54.393848,24.510074],[54.393867,24.510111],[54.393823,24.510109],[54.393764,24.510129],[54.393786,24.510183],[54.39421,24.510206],[54.394253,24.510242]]]}},{"type":"Feature","properties":{},"geometry":{"type":"Polygon","coordinates":[[[54.405748,24.480415],[54.405672,24.480452],[54.405699,24.480497],[54.406117,24.48052],[54.406104,24.480529],[54.406131,24.480563],[54.405173,24.48051],[54.405088,24.480572],[54.404982,24.480566],[54.404751,24.480736],[54.404947,24.480958],[54.410853,24.481284],[54.411013,24.481181],[54.411034,24.481183],[54.411144,24.481101],[54.411295,24.48111],[54.411414,24.481023],[54.411407,24.481015],[54.412342,24.481067],[54.412488,24.480944],[54.412303,24.480762],[54.412245,24.480758],[54.412196,24.48071],[54.40871,24.480518],[54.408675,24.480497],[54.408729,24.4805],[54.408748,24.480462],[54.411811,24.480631],[54.412229,24.48042],[54.412161,24.480312],[54.412335,24.48022],[54.412309,24.480179],[54.412769,24.480204],[54.412838,24.480137],[54.412688,24.480009],[54.406176,24.479648],[54.405927,24.479779],[54.405983,24.479867],[54.405776,24.479976],[54.405813,24.480035],[54.405737,24.480075],[54.4058,24.480173],[54.405822,24.480175],[54.405905,24.480306],[54.406345,24.48033],[54.406304,24.480385],[54.406233,24.480433],[54.405748,24.480415]]]}},{"type":"Feature","properties":{},"geometry":{"type":"Polygon","coordinates":[[[54.405261,24.482119],[54.405287,24.48226],[54.405336,24.482344],[54.40537,24.482346],[54.405401,24.482409],[54.402291,24.482238],[54.401421,24.483154],[54.401422,24.483271],[54.401463,24.483334],[54.401638,24.483375],[54.405217,24.483572],[54.405318,24.483913],[54.404939,24.484017],[54.404994,24.484359],[54.408618,24.484558],[54.408584,24.484581],[54.408591,24.48459],[54.405017,24.484393],[54.404988,24.48452],[54.403751,24.484451],[54.40362,24.484898],[54.403526,24.485074],[54.40334,24.485265],[54.403951,24.4858],[54.40756,24.485999],[54.407605,24.486034],[54.409851,24.486158],[54.409916,24.486087],[54.410174,24.486101],[54.410504,24.486668],[54.41537,24.486936],[54.415729,24.486768],[54.415228,24.485887],[54.415267,24.485861],[54.415279,24.485788],[54.415269,24.485736],[54.415253,24.485714],[54.415116,24.485706],[54.415116,24.485692],[54.415227,24.48569],[54.415269,24.485663],[54.415299,24.48559],[54.415843,24.485372],[54.415669,24.485054],[54.414899,24.485011],[54.414699,24.484765],[54.411608,24.484595],[54.411609,24.484177],[54.41136,24.483458],[54.406983,24.483217],[54.406929,24.483115],[54.412613,24.483429],[54.412789,24.483333],[54.412499,24.48289],[54.413321,24.482935],[54.413511,24.482864],[54.413553,24.482733],[54.413155,24.482288],[54.412198,24.482235],[54.412242,24.482207],[54.413597,24.482281],[54.413612,24.482265],[54.418423,24.48253],[54.418417,24.482581],[54.419188,24.482638],[54.419183,24.482673],[54.418957,24.482661],[54.418939,24.482715],[54.418396,24.482685],[54.418382,24.482821],[54.418761,24.482851],[54.418759,24.482877],[54.418366,24.482861],[54.418361,24.482982],[54.419668,24.483054],[54.41966,24.483134],[54.420512,24.483199],[54.420507,24.483251],[54.423072,24.483401],[54.423078,24.48334],[54.42632,24.483518],[54.426338,24.483356],[54.425999,24.483325],[54.423093,24.483165],[54.423098,24.48313],[54.422789,24.483093],[54.422259,24.483064],[54.42226,24.483053],[54.422599,24.483072],[54.422632,24.482987],[54.423117,24.483014],[54.423134,24.482892],[54.422765,24.482853],[54.422767,24.482838],[54.426058,24.483019],[54.426082,24.482824],[54.425448,24.482774],[54.425451,24.482749],[54.425117,24.482719],[54.423177,24.482612],[54.423181,24.482591],[54.426097,24.482752],[54.426121,24.482547],[54.425489,24.482498],[54.425492,24.482478],[54.425161,24.482439],[54.422457,24.48229],[54.422468,24.482221],[54.423232,24.482259],[54.423252,24.482135],[54.422942,24.482094],[54.42241,24.482065],[54.422412,24.482051],[54.426503,24.482276],[54.426526,24.482113],[54.426189,24.482072],[54.422447,24.481867],[54.422448,24.481844],[54.422376,24.481834],[54.421991,24.481812],[54.421993,24.481793],[54.42114,24.481707],[54.421143,24.481684],[54.420824,24.481648],[54.418579,24.481524],[54.41856,24.481659],[54.418966,24.4817],[54.418544,24.481691],[54.41855,24.481831],[54.419844,24.48191],[54.419837,24.481968],[54.418529,24.481901],[54.41853,24.481923],[54.419291,24.481965],[54.419285,24.482011],[54.418801,24.481985],[54.418785,24.482055],[54.418879,24.482065],[54.418874,24.482105],[54.418494,24.482084],[54.418481,24.482171],[54.418284,24.482066],[54.417209,24.482007],[54.417022,24.481845],[54.411116,24.48152],[54.41096,24.481669],[54.410349,24.481635],[54.410188,24.481361],[54.404282,24.481036],[54.403673,24.48131],[54.403917,24.481584],[54.405754,24.481685],[54.405621,24.481752],[54.40558,24.481799],[54.405601,24.481854],[54.40566,24.481907],[54.405398,24.481892],[54.40529,24.481997],[54.405261,24.482119]],[[54.412371,24.482106],[54.412341,24.482104],[54.412322,24.482079],[54.412371,24.482106]],[[54.418869,24.482471],[54.41852,24.482452],[54.418535,24.482428],[54.418869,24.482471]],[[54.419232,24.482275],[54.419228,24.482308],[54.419496,24.48234],[54.418621,24.482294],[54.418644,24.482258],[54.418582,24.482224],[54.418798,24.482252],[54.419232,24.482275]]]}},{"type":"Feature","properties":{},"geometry":{"type":"Polygon","coordinates":[[[54.4093,24.490475],[54.409266,24.490395],[54.407021,24.490271],[54.406961,24.490292],[54.406989,24.490373],[54.409235,24.490497],[54.4093,24.490475]]]}},{"type":"Feature","properties":{},"geometry":{"type":"Polygon","coordinates":[[[54.406267,24.490754],[54.400362,24.490428],[54.400058,24.490467],[54.400098,24.490732],[54.406004,24.491058],[54.406308,24.491019],[54.406267,24.490754]]]}},{"type":"Feature","properties":{},"geometry":{"type":"Polygon","coordinates":[[[54.408642,24.492386],[54.406247,24.492254],[54.405376,24.492715],[54.405341,24.492999],[54.405586,24.493207],[54.400649,24.492935],[54.399918,24.49302],[54.399973,24.493406],[54.403365,24.493593],[54.403368,24.493617],[54.403273,24.493627],[54.403326,24.494059],[54.403286,24.494063],[54.403322,24.494353],[54.403666,24.494372],[54.403701,24.49439],[54.403858,24.494399],[54.404045,24.494498],[54.407965,24.494714],[54.408571,24.495082],[54.408544,24.495122],[54.406894,24.495031],[54.406809,24.495265],[54.40635,24.49524],[54.406305,24.495308],[54.406371,24.495344],[54.406547,24.495354],[54.406486,24.495406],[54.406596,24.495512],[54.406717,24.495519],[54.406395,24.495503],[54.406312,24.495545],[54.406365,24.495633],[54.406407,24.495635],[54.406361,24.495724],[54.406413,24.495746],[54.40627,24.495738],[54.406224,24.495803],[54.406251,24.495819],[54.406657,24.495841],[54.40663,24.495992],[54.40619,24.495968],[54.406167,24.495971],[54.406173,24.49601],[54.406202,24.496035],[54.406241,24.496042],[54.406617,24.496063],[54.406576,24.496145],[54.406327,24.496131],[54.406316,24.49615],[54.404485,24.49605],[54.404158,24.496949],[54.403928,24.497053],[54.404358,24.49798],[54.405145,24.498023],[54.405089,24.49808],[54.405094,24.498112],[54.404083,24.498057],[54.404069,24.498085],[54.404117,24.498103],[54.403978,24.498096],[54.403208,24.498413],[54.403016,24.498458],[54.402864,24.498563],[54.402757,24.498744],[54.40274,24.498873],[54.402759,24.498984],[54.402809,24.499041],[54.40277,24.499106],[54.402825,24.499141],[54.40285,24.499176],[54.402864,24.49922],[54.402856,24.499279],[54.403021,24.499304],[54.405371,24.499434],[54.405314,24.499464],[54.403484,24.499365],[54.403448,24.499406],[54.403154,24.499593],[54.403093,24.499605],[54.40308,24.499633],[54.403087,24.499668],[54.403154,24.499754],[54.403248,24.499802],[54.403348,24.499808],[54.403476,24.499943],[54.403581,24.500013],[54.403698,24.500065],[54.403823,24.500099],[54.404124,24.500122],[54.404135,24.500134],[54.404109,24.500161],[54.404113,24.500183],[54.404184,24.500229],[54.404483,24.500248],[54.404483,24.500286],[54.407477,24.500451],[54.407768,24.500429],[54.41015,24.50056],[54.410206,24.500555],[54.410254,24.500521],[54.410631,24.500535],[54.415519,24.500804],[54.415652,24.500802],[54.415777,24.500738],[54.415832,24.500621],[54.415882,24.500066],[54.415918,24.499836],[54.415884,24.499764],[54.415806,24.499705],[54.415241,24.499663],[54.415289,24.499491],[54.415318,24.499269],[54.416899,24.499354],[54.416898,24.499191],[54.417731,24.499237],[54.417849,24.499227],[54.418031,24.498998],[54.417925,24.498379],[54.417948,24.49837],[54.417716,24.497826],[54.417402,24.497711],[54.414759,24.497565],[54.415436,24.497243],[54.415339,24.49709],[54.417237,24.497195],[54.417348,24.497037],[54.417256,24.496984],[54.41501,24.49686],[54.414916,24.496993],[54.410766,24.496765],[54.410807,24.496661],[54.410444,24.496542],[54.409674,24.496499],[54.409615,24.496477],[54.414648,24.496754],[54.414739,24.496752],[54.414779,24.496737],[54.416085,24.496809],[54.416249,24.496706],[54.416168,24.496602],[54.416458,24.496617],[54.416681,24.496513],[54.41652,24.496323],[54.416297,24.49631],[54.416243,24.496263],[54.41113,24.495981],[54.410366,24.495556],[54.410467,24.495408],[54.415167,24.495667],[54.415527,24.495647],[54.41587,24.495554],[54.415774,24.495374],[54.41473,24.495316],[54.414642,24.495213],[54.414597,24.495082],[54.414615,24.494939],[54.414685,24.494812],[54.414797,24.494676],[54.414969,24.494563],[54.415446,24.494339],[54.415441,24.494153],[54.414161,24.494083],[54.414561,24.493832],[54.415022,24.493683],[54.415467,24.493565],[54.415438,24.493355],[54.409532,24.493029],[54.409064,24.493135],[54.408574,24.493299],[54.40846,24.493205],[54.408592,24.493212],[54.408722,24.493084],[54.408624,24.493003],[54.408472,24.492994],[54.40871,24.492775],[54.408537,24.492653],[54.40875,24.492554],[54.408642,24.492386]],[[54.410622,24.497944],[54.410474,24.497936],[54.410425,24.497838],[54.410623,24.497849],[54.410622,24.497944]],[[54.411433,24.497499],[54.411449,24.497541],[54.410985,24.497515],[54.410795,24.497563],[54.410461,24.497544],[54.410497,24.497455],[54.411433,24.497499]]]}},{"type":"Feature","properties":{},"geometry":{"type":"Polygon","coordinates":[[[54.407296,24.502929],[54.40724,24.502926],[54.407116,24.503077],[54.407179,24.503113],[54.409425,24.503237],[54.409555,24.50312],[54.409581,24.503118],[54.409649,24.503009],[54.40959,24.502994],[54.407345,24.502871],[54.407296,24.502929]]]}},{"type":"Feature","properties":{},"geometry":{"type":"Polygon","coordinates":[[[54.406917,24.503485],[54.409163,24.503608],[54.409243,24.503591],[54.409189,24.503468],[54.406943,24.503344],[54.40688,24.503364],[54.406917,24.503485]]]}},{"type":"Feature","properties":{},"geometry":{"type":"Polygon","coordinates":[[[54.409282,24.503772],[54.407036,24.503648],[54.406985,24.503805],[54.407074,24.503829],[54.40932,24.503953],[54.40938,24.503804],[54.409282,24.503772]]]}},{"type":"Feature","properties":{},"geometry":{"type":"Polygon","coordinates":[[[54.408478,24.504862],[54.408458,24.504791],[54.408769,24.504805],[54.408771,24.504663],[54.406525,24.504539],[54.406432,24.504537],[54.40643,24.504584],[54.406184,24.50457],[54.406088,24.504593],[54.406141,24.504759],[54.408387,24.504883],[54.408478,24.504862]]]}},{"type":"Feature","properties":{},"geometry":{"type":"Polygon","coordinates":[[[54.406689,24.505912],[54.405179,24.505828],[54.405064,24.506126],[54.405359,24.506221],[54.407166,24.50632],[54.407098,24.506391],[54.405066,24.506279],[54.404973,24.506527],[54.405252,24.506613],[54.410967,24.506928],[54.410958,24.506944],[54.41084,24.506944],[54.404948,24.50662],[54.404806,24.507019],[54.405062,24.507112],[54.405434,24.507132],[54.405346,24.507285],[54.404437,24.507235],[54.404404,24.507263],[54.404497,24.507354],[54.405282,24.507397],[54.404898,24.508066],[54.404993,24.508131],[54.40647,24.508212],[54.406572,24.508313],[54.406098,24.508287],[54.40598,24.508394],[54.406224,24.508636],[54.405842,24.508615],[54.405724,24.508722],[54.406121,24.509114],[54.406316,24.509125],[54.406344,24.509146],[54.407475,24.509214],[54.40717,24.509197],[54.407129,24.509238],[54.407203,24.5093],[54.40706,24.509435],[54.407083,24.509456],[54.405477,24.509367],[54.405462,24.509384],[54.405231,24.509371],[54.405105,24.509539],[54.405253,24.509684],[54.406717,24.509766],[54.407014,24.510038],[54.409715,24.510187],[54.409847,24.510306],[54.415754,24.510632],[54.416097,24.510319],[54.415912,24.510151],[54.413454,24.510016],[54.413487,24.509982],[54.413458,24.509955],[54.413579,24.509961],[54.413678,24.509921],[54.413629,24.509823],[54.41369,24.509827],[54.413806,24.509708],[54.413692,24.509597],[54.413919,24.509605],[54.413922,24.50948],[54.417383,24.509665],[54.417394,24.509309],[54.413947,24.50912],[54.413949,24.509082],[54.412394,24.508996],[54.412285,24.508888],[54.414964,24.509036],[54.415024,24.509],[54.415003,24.508971],[54.415065,24.508971],[54.415241,24.508868],[54.41518,24.508782],[54.415101,24.508777],[54.415064,24.508725],[54.412661,24.508593],[54.412273,24.508211],[54.411391,24.508163],[54.411425,24.508102],[54.415833,24.508345],[54.41588,24.508329],[54.416017,24.508324],[54.416092,24.508286],[54.416238,24.508181],[54.41622,24.508115],[54.416144,24.50811],[54.416111,24.508045],[54.415608,24.508017],[54.415599,24.507882],[54.415388,24.50767],[54.411767,24.50747],[54.411752,24.5074],[54.41673,24.507674],[54.416811,24.507652],[54.416829,24.50761],[54.416917,24.507514],[54.41695,24.507269],[54.416884,24.507237],[54.411165,24.506922],[54.411169,24.50691],[54.413243,24.507025],[54.413306,24.506958],[54.416494,24.507133],[54.41668,24.507117],[54.416704,24.507053],[54.416639,24.507033],[54.416654,24.50694],[54.416584,24.506901],[54.416452,24.506865],[54.413523,24.506704],[54.413378,24.506556],[54.411306,24.506442],[54.411358,24.506309],[54.415249,24.506524],[54.415379,24.506501],[54.415493,24.506439],[54.415578,24.506346],[54.415624,24.506233],[54.415625,24.506112],[54.415587,24.506006],[54.415513,24.505916],[54.415412,24.505851],[54.415294,24.505818],[54.412358,24.505656],[54.412251,24.505565],[54.406344,24.50524],[54.406113,24.505464],[54.405385,24.505424],[54.405291,24.505739],[54.405492,24.505789],[54.406614,24.505851],[54.406689,24.505912]]]}},{"type":"Feature","properties":{},"geometry":{"type":"Polygon","coordinates":[[[54.408961,24.510394],[54.408824,24.510271],[54.406429,24.510139],[54.406188,24.51034],[54.406084,24.510413],[54.405947,24.51048],[54.405819,24.510521],[54.405565,24.510545],[54.405328,24.510706],[54.405146,24.510891],[54.405193,24.51093],[54.405285,24.510962],[54.406953,24.511054],[54.406906,24.511079],[54.406651,24.511065],[54.406208,24.511313],[54.406171,24.511417],[54.406305,24.511805],[54.406327,24.511824],[54.405881,24.511799],[54.405455,24.511831],[54.405478,24.512082],[54.405511,24.512124],[54.411446,24.512453],[54.411483,24.512438],[54.411736,24.512452],[54.411789,24.512432],[54.411801,24.51238],[54.41179,24.51217],[54.412289,24.512197],[54.412373,24.512189],[54.414364,24.512298],[54.414857,24.512021],[54.414781,24.511909],[54.415099,24.511927],[54.415579,24.511661],[54.415362,24.511336],[54.414702,24.5113],[54.414839,24.511224],[54.415907,24.511283],[54.41614,24.511152],[54.416003,24.510951],[54.412496,24.510758],[54.412454,24.510698],[54.410208,24.510574],[54.410124,24.510627],[54.410096,24.510626],[54.410025,24.510666],[54.409155,24.510618],[54.409071,24.51065],[54.409049,24.51071],[54.408953,24.510705],[54.408914,24.510726],[54.408882,24.510682],[54.40892,24.510656],[54.408961,24.510394]]]}},{"type":"Feature","properties":{},"geometry":{"type":"Polygon","coordinates":[[[54.396883,24.510805],[54.40279,24.511131],[54.403046,24.510843],[54.402841,24.510693],[54.396934,24.510367],[54.396681,24.510653],[54.396883,24.510805]]]}},{"type":"Feature","properties":{},"geometry":{"type":"Polygon","coordinates":[[[54.41292,24.490888],[54.4106,24.490766],[54.410598,24.490812],[54.410416,24.490817],[54.410413,24.49103],[54.416319,24.491355],[54.416605,24.491358],[54.416606,24.491335],[54.418822,24.491457],[54.419301,24.491463],[54.419303,24.4913],[54.419019,24.491284],[54.419022,24.491135],[54.419317,24.491139],[54.419319,24.49097],[54.413413,24.490645],[54.412924,24.490639],[54.412922,24.490759],[54.411052,24.490661],[54.411051,24.490713],[54.412921,24.490816],[54.41292,24.490888]]]}},{"type":"Feature","properties":{},"geometry":{"type":"Polygon","coordinates":[[[54.408947,24.491294],[54.409008,24.491298],[54.409007,24.491323],[54.410453,24.491403],[54.410444,24.491622],[54.411397,24.491675],[54.411364,24.492099],[54.417766,24.492457],[54.417837,24.491548],[54.411435,24.491191],[54.411428,24.491275],[54.409272,24.491156],[54.409037,24.491149],[54.409036,24.491182],[54.408959,24.49118],[54.408947,24.491294]]]}},{"type":"Feature","properties":{},"geometry":{"type":"Polygon","coordinates":[[[54.408053,24.500954],[54.408025,24.501013],[54.408063,24.501044],[54.410309,24.501168],[54.41036,24.501095],[54.410392,24.501011],[54.408085,24.500876],[54.408054,24.500908],[54.408053,24.500954]]]}},{"type":"Feature","properties":{},"geometry":{"type":"Polygon","coordinates":[[[54.408681,24.501776],[54.408025,24.50174],[54.407737,24.502318],[54.407586,24.50231],[54.407515,24.502391],[54.407507,24.502438],[54.407843,24.502464],[54.408114,24.502577],[54.410919,24.502731],[54.410913,24.502838],[54.411615,24.502878],[54.411649,24.502947],[54.413042,24.503023],[54.413098,24.503119],[54.418712,24.503428],[54.418784,24.503408],[54.418828,24.503302],[54.419851,24.503353],[54.41985,24.503292],[54.419771,24.503287],[54.419772,24.503262],[54.418866,24.503212],[54.418876,24.503187],[54.419618,24.503226],[54.41962,24.503183],[54.418894,24.503143],[54.418945,24.502898],[54.419306,24.502918],[54.419654,24.502894],[54.419648,24.502834],[54.418964,24.502796],[54.418969,24.502768],[54.419242,24.502776],[54.419241,24.502751],[54.418975,24.502737],[54.418992,24.502644],[54.419746,24.502686],[54.419748,24.502616],[54.420154,24.502638],[54.420178,24.502613],[54.420131,24.502577],[54.420463,24.502595],[54.420665,24.502517],[54.420622,24.502424],[54.418475,24.502305],[54.418323,24.502148],[54.42316,24.502414],[54.423377,24.50221],[54.423146,24.50201],[54.41724,24.501685],[54.417179,24.501742],[54.412526,24.501486],[54.411982,24.501472],[54.411998,24.501563],[54.409605,24.501431],[54.408723,24.501471],[54.408681,24.501776]]]}},{"type":"Feature","properties":{},"geometry":{"type":"Polygon","coordinates":[[[54.415103,24.505009],[54.415251,24.505136],[54.415299,24.505138],[54.415313,24.505155],[54.417559,24.505279],[54.41758,24.505264],[54.421157,24.505461],[54.421335,24.505312],[54.421139,24.505151],[54.420743,24.505129],[54.420692,24.505087],[54.421535,24.505134],[54.421713,24.504985],[54.421517,24.504824],[54.420345,24.504759],[54.420415,24.5047],[54.420313,24.504617],[54.421236,24.504666],[54.421278,24.504632],[54.421718,24.504656],[54.421895,24.504507],[54.421699,24.504345],[54.417667,24.504124],[54.41766,24.504096],[54.415782,24.503993],[54.415627,24.503822],[54.40972,24.503497],[54.409576,24.503605],[54.409909,24.503972],[54.410228,24.503989],[54.410201,24.504126],[54.410373,24.504155],[54.409259,24.504094],[54.409054,24.504354],[54.409349,24.504692],[54.415103,24.505009]],[[54.41552,24.504715],[54.415355,24.50458],[54.415518,24.504589],[54.415451,24.504656],[54.41552,24.504715]]]}},{"type":"Feature","properties":{},"geometry":{"type":"Polygon","coordinates":[[[54.412829,24.491185],[54.412828,24.491224],[54.415119,24.491349],[54.415121,24.49131],[54.412829,24.491185]]]}},{"type":"Feature","properties":{},"geometry":{"type":"Polygon","coordinates":[[[54.411578,24.49238],[54.413951,24.492507],[54.413954,24.492419],[54.411581,24.492292],[54.411578,24.49238]]]}},{"type":"Feature","properties":{},"geometry":{"type":"Polygon","coordinates":[[[54.411972,24.492557],[54.4144,24.492682],[54.414401,24.492584],[54.411973,24.492459],[54.411972,24.492557]]]}},{"type":"Feature","properties":{},"geometry":{"type":"Polygon","coordinates":[[[54.417663,24.503585],[54.417661,24.503657],[54.415809,24.503559],[54.415813,24.503642],[54.417658,24.503743],[54.417657,24.503786],[54.419936,24.50391],[54.419943,24.503693],[54.417972,24.503585],[54.417974,24.503545],[54.415728,24.503421],[54.415635,24.503418],[54.415632,24.503473],[54.417663,24.503585]]]}},{"type":"Feature","properties":{},"geometry":{"type":"Polygon","coordinates":[[[54.418873,24.480042],[54.418867,24.480078],[54.418943,24.480088],[54.418942,24.480131],[54.421225,24.480255],[54.421227,24.480194],[54.421181,24.480192],[54.421184,24.480175],[54.418873,24.480042]]]}},{"type":"Feature","properties":{},"geometry":{"type":"Polygon","coordinates":[[[54.420562,24.480364],[54.420658,24.480369],[54.420658,24.480379],[54.423147,24.480512],[54.423149,24.480465],[54.42294,24.480454],[54.422942,24.480426],[54.422902,24.480423],[54.422905,24.48036],[54.420569,24.480232],[54.420562,24.480364]]]}},{"type":"Feature","properties":{},"geometry":{"type":"Polygon","coordinates":[[[54.422239,24.480952],[54.422175,24.480946],[54.419929,24.480822],[54.419923,24.480877],[54.422232,24.481006],[54.422239,24.480952]]]}},{"type":"Feature","properties":{},"geometry":{"type":"Polygon","coordinates":[[[54.42194,24.489389],[54.419694,24.489265],[54.41933,24.489268],[54.419331,24.489307],[54.421941,24.489442],[54.42194,24.489389]]]}},{"type":"Feature","properties":{},"geometry":{"type":"Polygon","coordinates":[[[54.419239,24.490277],[54.41924,24.490311],[54.421486,24.490434],[54.421683,24.490427],[54.421683,24.490414],[54.421908,24.490416],[54.421905,24.490296],[54.419659,24.490172],[54.419611,24.490173],[54.419612,24.490191],[54.419381,24.490183],[54.419386,24.490278],[54.419239,24.490277]]]}}]}