{"type":"FeatureCollection","features":[{"type":"Feature","properties":{},"geometry":{"type":"Polygon","coordinates":[[[54.390743,24.482598],[54.390764,24.482475],[54.39058,24.482459],[54.390563,24.482582],[54.390743,24.482598]]]}},{"type":"Feature","properties":{},"geometry":{"type":"Polygon","coordinates":[[[54.391075,24.482621],[54.391081,24.48261],[54.390988,24.482568],[54.390942,24.482565],[54.390825,24.482772],[54.390912,24.482816],[54.390952,24.482819],[54.390947,24.482828],[54.391028,24.482867],[54.391074,24.48287],[54.391195,24.482664],[54.391075,24.482621]]]}},{"type":"Feature","properties":{},"geometry":{"type":"Polygon","coordinates":[[[54.390518,24.482654],[54.390461,24.482735],[54.39071,24.482873],[54.390756,24.482876],[54.390811,24.482795],[54.390564,24.482657],[54.390518,24.482654]]]}},{"type":"Feature","properties":{},"geometry":{"type":"Polygon","coordinates":[[[54.391195,24.482925],[54.391241,24.482928],[54.391263,24.482892],[54.391405,24.482948],[54.391329,24.483078],[54.391102,24.482946],[54.391056,24.482942],[54.390997,24.483025],[54.391238,24.483168],[54.391276,24.48317],[54.391503,24.483283],[54.391549,24.483286],[54.391625,24.483163],[54.391536,24.483099],[54.391601,24.482992],[54.391713,24.483006],[54.391788,24.482886],[54.391555,24.482773],[54.391509,24.482769],[54.391493,24.482798],[54.391241,24.482684],[54.391195,24.48268],[54.391155,24.48275],[54.391256,24.482798],[54.391247,24.482816],[54.391264,24.482825],[54.391251,24.482849],[54.391191,24.482839],[54.39115,24.482902],[54.391195,24.482925]]]}},{"type":"Feature","properties":{},"geometry":{"type":"Polygon","coordinates":[[[54.390018,24.482897],[54.390108,24.482827],[54.390043,24.482758],[54.389997,24.482755],[54.389907,24.482825],[54.389972,24.482894],[54.390018,24.482897]]]}},{"type":"Feature","properties":{},"geometry":{"type":"Polygon","coordinates":[[[54.392207,24.483218],[54.392307,24.483246],[54.392365,24.483144],[54.392305,24.483117],[54.392327,24.48308],[54.39222,24.48303],[54.392174,24.483027],[54.392164,24.483044],[54.392088,24.483009],[54.392042,24.483006],[54.392022,24.483043],[54.392118,24.483089],[54.392167,24.483088],[54.392252,24.483127],[54.392207,24.483218]]]}},{"type":"Feature","properties":{},"geometry":{"type":"Polygon","coordinates":[[[54.392421,24.483358],[54.392522,24.483183],[54.392425,24.483138],[54.392379,24.483134],[54.392282,24.483312],[54.392375,24.483354],[54.392421,24.483358]]]}},{"type":"Feature","properties":{},"geometry":{"type":"Polygon","coordinates":[[[54.391532,24.483387],[54.391516,24.483417],[54.391612,24.483457],[54.391657,24.48346],[54.391673,24.48343],[54.391578,24.48339],[54.391532,24.483387]]]}},{"type":"Feature","properties":{},"geometry":{"type":"Polygon","coordinates":[[[54.391291,24.483686],[54.391346,24.483622],[54.391281,24.48357],[54.391324,24.483594],[54.39137,24.483597],[54.391454,24.483501],[54.39127,24.483362],[54.391224,24.483358],[54.391015,24.483564],[54.39122,24.483711],[54.391242,24.483712],[54.391186,24.48376],[54.391324,24.483896],[54.39137,24.483899],[54.391457,24.483824],[54.39132,24.483688],[54.391291,24.483686]]]}},{"type":"Feature","properties":{},"geometry":{"type":"Polygon","coordinates":[[[54.390771,24.484369],[54.39068,24.484447],[54.390799,24.484563],[54.390845,24.484566],[54.390936,24.484488],[54.390817,24.484372],[54.390771,24.484369]]]}},{"type":"Feature","properties":{},"geometry":{"type":"Polygon","coordinates":[[[54.392388,24.488966],[54.392607,24.489053],[54.392714,24.489126],[54.392886,24.489319],[54.392943,24.489323],[54.393259,24.489196],[54.393272,24.489275],[54.393329,24.489279],[54.39386,24.48921],[54.393807,24.488873],[54.39375,24.488869],[54.393212,24.48894],[54.393156,24.48891],[54.393101,24.48885],[54.393074,24.48879],[54.393068,24.488726],[54.393081,24.488662],[54.393114,24.488605],[54.393163,24.488558],[54.393239,24.488522],[54.393765,24.488476],[54.393707,24.487921],[54.392872,24.487985],[54.392909,24.488341],[54.392668,24.488639],[54.39254,24.488579],[54.392371,24.488538],[54.392314,24.488534],[54.392297,24.488616],[54.392215,24.488605],[54.392125,24.48894],[54.392388,24.488966]]]}},{"type":"Feature","properties":{},"geometry":{"type":"Polygon","coordinates":[[[54.392303,24.490933],[54.39236,24.490938],[54.392433,24.490874],[54.392505,24.490874],[54.39257,24.490997],[54.392627,24.491001],[54.393001,24.490952],[54.393301,24.49113],[54.393358,24.491134],[54.393418,24.491055],[54.393474,24.491116],[54.393566,24.49117],[54.393672,24.491195],[54.393753,24.491196],[54.393441,24.491575],[54.393494,24.491719],[54.39383,24.491951],[54.393861,24.491954],[54.395084,24.490485],[54.394913,24.490372],[54.394655,24.490384],[54.394497,24.490409],[54.394352,24.490468],[54.394087,24.49079],[54.394049,24.490707],[54.393976,24.490629],[54.39388,24.490576],[54.393782,24.490556],[54.393897,24.490498],[54.394035,24.490322],[54.393948,24.489818],[54.393557,24.489843],[54.393294,24.489694],[54.392995,24.489698],[54.392899,24.490086],[54.392856,24.490178],[54.392769,24.490284],[54.392729,24.490281],[54.392598,24.490361],[54.392349,24.490475],[54.392143,24.490511],[54.391974,24.490511],[54.391736,24.490465],[54.391721,24.490502],[54.391735,24.490577],[54.3917,24.4906],[54.391651,24.49071],[54.391724,24.490779],[54.391942,24.490822],[54.392303,24.490933]]]}},{"type":"Feature","properties":{},"geometry":{"type":"Polygon","coordinates":[[[54.392169,24.491164],[54.39221,24.49149],[54.392548,24.491463],[54.392534,24.491346],[54.392941,24.491303],[54.392915,24.491094],[54.392169,24.491164]]]}},{"type":"Feature","properties":{},"geometry":{"type":"Polygon","coordinates":[[[54.393036,24.491896],[54.392979,24.491535],[54.39246,24.491593],[54.392547,24.492146],[54.393009,24.492096],[54.393036,24.491896]]]}},{"type":"Feature","properties":{},"geometry":{"type":"Polygon","coordinates":[[[54.392854,24.492404],[54.392226,24.492479],[54.392288,24.492864],[54.392916,24.49279],[54.392854,24.492404]]]}},{"type":"Feature","properties":{},"geometry":{"type":"Polygon","coordinates":[[[54.390551,24.493042],[54.390739,24.492871],[54.390633,24.492775],[54.390587,24.492771],[54.390399,24.492942],[54.390505,24.493039],[54.390551,24.493042]]]}},{"type":"Feature","properties":{},"geometry":{"type":"Polygon","coordinates":[[[54.389311,24.493854],[54.389361,24.494209],[54.390216,24.494118],[54.390167,24.493764],[54.389311,24.493854]]]}},{"type":"Feature","properties":{},"geometry":{"type":"Polygon","coordinates":[[[54.392741,24.49608],[54.392787,24.496084],[54.392843,24.496041],[54.393702,24.495956],[54.393618,24.495319],[54.393572,24.495316],[54.392676,24.495443],[54.392741,24.49608]]]}},{"type":"Feature","properties":{},"geometry":{"type":"Polygon","coordinates":[[[54.390555,24.496347],[54.390552,24.496273],[54.390426,24.496272],[54.390422,24.496242],[54.390494,24.496235],[54.390479,24.496119],[54.390513,24.496116],[54.390514,24.496146],[54.390557,24.49615],[54.390568,24.496332],[54.390689,24.496332],[54.390676,24.496103],[54.390654,24.496101],[54.390673,24.496099],[54.390621,24.49568],[54.390109,24.495729],[54.390113,24.495837],[54.390241,24.495837],[54.390265,24.496028],[54.390147,24.496033],[54.390156,24.496107],[54.390173,24.496108],[54.390205,24.496364],[54.390555,24.496347]]]}},{"type":"Feature","properties":{},"geometry":{"type":"Polygon","coordinates":[[[54.391542,24.497024],[54.391542,24.497005],[54.391543,24.497018],[54.391589,24.497021],[54.391709,24.497016],[54.391707,24.496977],[54.391422,24.496985],[54.391421,24.497019],[54.391542,24.497024]]]}},{"type":"Feature","properties":{},"geometry":{"type":"Polygon","coordinates":[[[54.391607,24.49709],[54.391615,24.497128],[54.391716,24.497121],[54.391708,24.497084],[54.391607,24.49709]]]}},{"type":"Feature","properties":{},"geometry":{"type":"Polygon","coordinates":[[[54.391186,24.49705],[54.391184,24.497144],[54.39135,24.49715],[54.391355,24.497055],[54.391186,24.49705]]]}},{"type":"Feature","properties":{},"geometry":{"type":"Polygon","coordinates":[[[54.391232,24.497178],[54.39123,24.497241],[54.391389,24.497247],[54.39139,24.497184],[54.391232,24.497178]]]}},{"type":"Feature","properties":{},"geometry":{"type":"Polygon","coordinates":[[[54.391368,24.497883],[54.391404,24.498122],[54.391497,24.498179],[54.391956,24.498212],[54.392372,24.498193],[54.39234,24.497975],[54.391964,24.497849],[54.391505,24.497815],[54.391368,24.497883]]]}},{"type":"Feature","properties":{},"geometry":{"type":"Polygon","coordinates":[[[54.393401,24.498121],[54.393313,24.498116],[54.39331,24.498197],[54.393398,24.498201],[54.393401,24.498121]]]}},{"type":"Feature","properties":{},"geometry":{"type":"Polygon","coordinates":[[[54.389896,24.498215],[54.389941,24.498568],[54.39102,24.498465],[54.390975,24.498111],[54.389896,24.498215]]]}},{"type":"Feature","properties":{},"geometry":{"type":"Polygon","coordinates":[[[54.391623,24.500751],[54.39166,24.500999],[54.391967,24.500972],[54.391935,24.50073],[54.391623,24.500751]]]}},{"type":"Feature","properties":{},"geometry":{"type":"Polygon","coordinates":[[[54.390332,24.502529],[54.390406,24.5031],[54.39049,24.503106],[54.391241,24.503042],[54.391184,24.502528],[54.391503,24.502486],[54.391064,24.498849],[54.39098,24.498843],[54.389877,24.498968],[54.390312,24.502373],[54.389868,24.502417],[54.389887,24.502566],[54.389956,24.502571],[54.390332,24.502529]]]}},{"type":"Feature","properties":{},"geometry":{"type":"Polygon","coordinates":[[[54.392091,24.503633],[54.392099,24.503682],[54.392237,24.503673],[54.392229,24.503624],[54.392091,24.503633]]]}},{"type":"Feature","properties":{},"geometry":{"type":"Polygon","coordinates":[[[54.392463,24.503763],[54.392463,24.503812],[54.3926,24.503814],[54.3926,24.503765],[54.392463,24.503763]]]}},{"type":"Feature","properties":{},"geometry":{"type":"Polygon","coordinates":[[[54.392314,24.503732],[54.392105,24.503737],[54.392111,24.503839],[54.39232,24.503834],[54.392314,24.503732]]]}},{"type":"Feature","properties":{},"geometry":{"type":"Polygon","coordinates":[[[54.392347,24.503906],[54.392379,24.504127],[54.392636,24.504105],[54.392604,24.503884],[54.392347,24.503906]]]}},{"type":"Feature","properties":{},"geometry":{"type":"Polygon","coordinates":[[[54.392054,24.50394],[54.392065,24.504132],[54.392162,24.504133],[54.39215,24.503941],[54.392054,24.50394]]]}},{"type":"Feature","properties":{},"geometry":{"type":"Polygon","coordinates":[[[54.392164,24.503927],[54.392222,24.504432],[54.392375,24.504425],[54.392318,24.50392],[54.392164,24.503927]]]}},{"type":"Feature","properties":{},"geometry":{"type":"Polygon","coordinates":[[[54.39255,24.504404],[54.392543,24.504305],[54.392638,24.504288],[54.392626,24.504252],[54.39254,24.50426],[54.392534,24.504168],[54.392381,24.504171],[54.392397,24.504407],[54.39255,24.504404]]]}},{"type":"Feature","properties":{},"geometry":{"type":"Polygon","coordinates":[[[54.39209,24.504227],[54.392098,24.504395],[54.392193,24.504397],[54.392185,24.504229],[54.39209,24.504227]]]}},{"type":"Feature","properties":{},"geometry":{"type":"Polygon","coordinates":[[[54.392177,24.504496],[54.39221,24.504771],[54.392699,24.504731],[54.392666,24.504456],[54.392177,24.504496]]]}},{"type":"Feature","properties":{},"geometry":{"type":"Polygon","coordinates":[[[54.392173,24.504863],[54.392181,24.504943],[54.392282,24.504942],[54.392274,24.504862],[54.392173,24.504863]]]}},{"type":"Feature","properties":{},"geometry":{"type":"Polygon","coordinates":[[[54.392452,24.504825],[54.392482,24.505074],[54.392638,24.505066],[54.392609,24.504818],[54.392452,24.504825]]]}},{"type":"Feature","properties":{},"geometry":{"type":"Polygon","coordinates":[[[54.392319,24.505083],[54.392322,24.505193],[54.39248,24.505194],[54.392477,24.505084],[54.392319,24.505083]]]}},{"type":"Feature","properties":{},"geometry":{"type":"Polygon","coordinates":[[[54.392208,24.505104],[54.392211,24.505213],[54.392315,24.505216],[54.392312,24.505107],[54.392208,24.505104]]]}},{"type":"Feature","properties":{},"geometry":{"type":"Polygon","coordinates":[[[54.392522,24.505149],[54.392558,24.505648],[54.392819,24.505639],[54.392783,24.505139],[54.392522,24.505149]]]}},{"type":"Feature","properties":{},"geometry":{"type":"Polygon","coordinates":[[[54.389795,24.505218],[54.389842,24.505811],[54.390102,24.5058],[54.390039,24.505208],[54.389795,24.505218]]]}},{"type":"Feature","properties":{},"geometry":{"type":"Polygon","coordinates":[[[54.39177,24.50681],[54.391776,24.506856],[54.391911,24.50685],[54.391905,24.506804],[54.39177,24.50681]]]}},{"type":"Feature","properties":{},"geometry":{"type":"Polygon","coordinates":[[[54.391978,24.506869],[54.392001,24.506959],[54.392113,24.506949],[54.392101,24.5069],[54.392144,24.506891],[54.392134,24.506849],[54.391978,24.506869]]]}},{"type":"Feature","properties":{},"geometry":{"type":"Polygon","coordinates":[[[54.39188,24.506896],[54.391888,24.506957],[54.39197,24.506957],[54.391961,24.506896],[54.39188,24.506896]]]}},{"type":"Feature","properties":{},"geometry":{"type":"Polygon","coordinates":[[[54.39253,24.506794],[54.392556,24.507137],[54.392787,24.507128],[54.392761,24.506786],[54.39253,24.506794]]]}},{"type":"Feature","properties":{},"geometry":{"type":"Polygon","coordinates":[[[54.391814,24.507055],[54.391816,24.507144],[54.391988,24.507145],[54.391986,24.507056],[54.391814,24.507055]]]}},{"type":"Feature","properties":{},"geometry":{"type":"Polygon","coordinates":[[[54.392904,24.50716],[54.392911,24.507214],[54.393038,24.507209],[54.393031,24.507155],[54.392904,24.50716]]]}},{"type":"Feature","properties":{},"geometry":{"type":"Polygon","coordinates":[[[54.391531,24.507352],[54.391541,24.50749],[54.39199,24.507469],[54.39198,24.507331],[54.391531,24.507352]]]}},{"type":"Feature","properties":{},"geometry":{"type":"Polygon","coordinates":[[[54.391047,24.507429],[54.391046,24.50751],[54.391225,24.507515],[54.391226,24.507434],[54.391047,24.507429]]]}},{"type":"Feature","properties":{},"geometry":{"type":"Polygon","coordinates":[[[54.393262,24.508737],[54.393263,24.508703],[54.393104,24.508696],[54.393103,24.508708],[54.39297,24.508709],[54.39297,24.508739],[54.393262,24.508737]]]}},{"type":"Feature","properties":{},"geometry":{"type":"Polygon","coordinates":[[[54.393109,24.509781],[54.393137,24.50974],[54.393067,24.5097],[54.393021,24.509696],[54.392992,24.509738],[54.393063,24.509778],[54.393109,24.509781]]]}},{"type":"Feature","properties":{},"geometry":{"type":"Polygon","coordinates":[[[54.404697,24.481102],[54.40464,24.481125],[54.404658,24.48116],[54.404704,24.481163],[54.40476,24.481139],[54.404743,24.481105],[54.404697,24.481102]]]}},{"type":"Feature","properties":{},"geometry":{"type":"Polygon","coordinates":[[[54.403917,24.481584],[54.403962,24.481587],[54.404491,24.481317],[54.404328,24.481039],[54.404282,24.481036],[54.403673,24.48131],[54.403917,24.481584]]]}},{"type":"Feature","properties":{},"geometry":{"type":"Polygon","coordinates":[[[54.403095,24.483396],[54.403172,24.483401],[54.403097,24.483185],[54.403331,24.483052],[54.403155,24.482712],[54.402831,24.482275],[54.402754,24.48227],[54.40248,24.482381],[54.402439,24.482361],[54.402453,24.482248],[54.402291,24.482238],[54.401421,24.483154],[54.401422,24.483271],[54.401463,24.483334],[54.401714,24.48338],[54.401912,24.483295],[54.402227,24.48321],[54.402582,24.483219],[54.403095,24.483396]]]}},{"type":"Feature","properties":{},"geometry":{"type":"Polygon","coordinates":[[[54.404413,24.485277],[54.404518,24.485033],[54.404588,24.484813],[54.404585,24.484518],[54.403751,24.484451],[54.40362,24.484898],[54.403526,24.485074],[54.40334,24.485265],[54.403951,24.4858],[54.403997,24.485804],[54.404193,24.485613],[54.404413,24.485277]]]}},{"type":"Feature","properties":{},"geometry":{"type":"Polygon","coordinates":[[[54.400631,24.486302],[54.40032,24.486616],[54.400169,24.486792],[54.400636,24.487122],[54.4008,24.487162],[54.400912,24.48712],[54.401253,24.486366],[54.400789,24.486127],[54.400743,24.486123],[54.400631,24.486302]]]}},{"type":"Feature","properties":{},"geometry":{"type":"Polygon","coordinates":[[[54.404523,24.486658],[54.404175,24.486293],[54.404138,24.486268],[54.404085,24.486262],[54.403971,24.486254],[54.403234,24.486607],[54.403444,24.48716],[54.403478,24.487193],[54.40353,24.487207],[54.403645,24.487216],[54.403882,24.487132],[54.404236,24.486941],[54.404504,24.486745],[54.404532,24.486705],[54.404523,24.486658]],[[54.403987,24.48657],[54.404072,24.486675],[54.403718,24.486866],[54.403669,24.486729],[54.403987,24.48657]]]}},{"type":"Feature","properties":{},"geometry":{"type":"Polygon","coordinates":[[[54.395819,24.487228],[54.395707,24.487215],[54.395144,24.487174],[54.395019,24.487192],[54.39497,24.487235],[54.395012,24.487275],[54.394866,24.487404],[54.394906,24.48744],[54.394864,24.487477],[54.394986,24.48759],[54.395549,24.487632],[54.395932,24.48729],[54.3959,24.48726],[54.395819,24.487228]]]}},{"type":"Feature","properties":{},"geometry":{"type":"Polygon","coordinates":[[[54.394066,24.487813],[54.394198,24.487939],[54.394521,24.488303],[54.394567,24.488306],[54.394633,24.488255],[54.394793,24.488419],[54.395333,24.488458],[54.395374,24.488425],[54.395507,24.488434],[54.395724,24.488259],[54.395651,24.488184],[54.395748,24.488105],[54.395576,24.487928],[54.395082,24.487892],[54.394793,24.487476],[54.394666,24.487347],[54.39462,24.487343],[54.394591,24.487367],[54.394555,24.487364],[54.394369,24.487515],[54.394523,24.487663],[54.394449,24.487726],[54.394321,24.487603],[54.394275,24.4876],[54.394095,24.487756],[54.394113,24.487773],[54.394066,24.487813]]]}},{"type":"Feature","properties":{},"geometry":{"type":"Polygon","coordinates":[[[54.402926,24.489599],[54.402671,24.488139],[54.402334,24.488089],[54.401819,24.487985],[54.40119,24.487768],[54.400157,24.487307],[54.399589,24.486938],[54.399014,24.486506],[54.398968,24.486502],[54.397734,24.487851],[54.398874,24.488706],[54.400196,24.489399],[54.400966,24.489714],[54.401757,24.489883],[54.402646,24.489946],[54.402926,24.489599]]]}},{"type":"Feature","properties":{},"geometry":{"type":"Polygon","coordinates":[[[54.395253,24.488889],[54.395149,24.488882],[54.39514,24.488801],[54.394508,24.488755],[54.394327,24.488773],[54.394339,24.488873],[54.39419,24.488888],[54.394231,24.489235],[54.394387,24.489247],[54.394398,24.489338],[54.39503,24.489384],[54.395217,24.489365],[54.395203,24.489252],[54.395295,24.489243],[54.395253,24.488889]]]}},{"type":"Feature","properties":{},"geometry":{"type":"Polygon","coordinates":[[[54.395336,24.489619],[54.395232,24.489611],[54.395223,24.48953],[54.394592,24.489484],[54.39441,24.489501],[54.394421,24.489601],[54.394271,24.489615],[54.394312,24.489967],[54.394468,24.489978],[54.394481,24.490096],[54.395113,24.490142],[54.3953,24.490124],[54.395284,24.489979],[54.395376,24.48997],[54.395336,24.489619]]]}},{"type":"Feature","properties":{},"geometry":{"type":"Polygon","coordinates":[[[54.400448,24.490697],[54.400407,24.490432],[54.400058,24.490467],[54.400098,24.490732],[54.400448,24.490697]]]}},{"type":"Feature","properties":{},"geometry":{"type":"Polygon","coordinates":[[[54.395941,24.491088],[54.396142,24.490856],[54.395903,24.490684],[54.395387,24.490647],[54.395185,24.490879],[54.395424,24.49105],[54.395941,24.491088]]]}},{"type":"Feature","properties":{},"geometry":{"type":"Polygon","coordinates":[[[54.395186,24.491038],[54.395007,24.491243],[54.395249,24.491417],[54.395347,24.491424],[54.395386,24.491452],[54.395983,24.491496],[54.396084,24.491379],[54.395989,24.491311],[54.396032,24.491261],[54.395782,24.491082],[54.395186,24.491038]]]}},{"type":"Feature","properties":{},"geometry":{"type":"Polygon","coordinates":[[[54.395529,24.491518],[54.394932,24.491475],[54.394754,24.49168],[54.394995,24.491853],[54.395093,24.49186],[54.395132,24.491889],[54.395729,24.491932],[54.395831,24.491815],[54.395736,24.491747],[54.395779,24.491698],[54.395529,24.491518]]]}},{"type":"Feature","properties":{},"geometry":{"type":"Polygon","coordinates":[[[54.398498,24.491854],[54.398541,24.492176],[54.398713,24.492161],[54.39867,24.491844],[54.398498,24.491854]]]}},{"type":"Feature","properties":{},"geometry":{"type":"Polygon","coordinates":[[[54.394529,24.491865],[54.394395,24.492033],[54.394459,24.492075],[54.393984,24.49204],[54.393805,24.492246],[54.394047,24.492419],[54.394145,24.492426],[54.394184,24.492454],[54.394773,24.492497],[54.394875,24.492381],[54.394779,24.492312],[54.394822,24.492263],[54.3948,24.492247],[54.395173,24.492274],[54.395203,24.492235],[54.395341,24.492245],[54.395416,24.492151],[54.395341,24.492102],[54.395405,24.492021],[54.395251,24.49192],[54.394529,24.491865]]]}},{"type":"Feature","properties":{},"geometry":{"type":"Polygon","coordinates":[[[54.398753,24.492225],[54.398781,24.49246],[54.399141,24.492424],[54.399128,24.492323],[54.398892,24.492344],[54.398871,24.492219],[54.398753,24.492225]]]}},{"type":"Feature","properties":{},"geometry":{"type":"Polygon","coordinates":[[[54.398648,24.492228],[54.398525,24.492233],[54.39857,24.492562],[54.398692,24.492557],[54.398648,24.492228]]]}},{"type":"Feature","properties":{},"geometry":{"type":"Polygon","coordinates":[[[54.396043,24.492634],[54.396108,24.492336],[54.395653,24.492258],[54.395588,24.492557],[54.396043,24.492634]]]}},{"type":"Feature","properties":{},"geometry":{"type":"Polygon","coordinates":[[[54.399918,24.49302],[54.399973,24.493406],[54.400749,24.493324],[54.400695,24.492939],[54.399918,24.49302]]]}},{"type":"Feature","properties":{},"geometry":{"type":"Polygon","coordinates":[[[54.403286,24.494063],[54.403322,24.494353],[54.403628,24.49433],[54.403653,24.494365],[54.403701,24.49439],[54.403803,24.494397],[54.403831,24.494385],[54.404045,24.494498],[54.404091,24.494501],[54.404216,24.494306],[54.404666,24.494338],[54.404948,24.493894],[54.404865,24.49385],[54.404779,24.493844],[54.404807,24.493799],[54.404701,24.493743],[54.404501,24.493729],[54.404599,24.493574],[54.404573,24.49356],[54.404627,24.493475],[54.404464,24.493388],[54.404418,24.493385],[54.404374,24.493454],[54.404296,24.493434],[54.404047,24.493458],[54.403986,24.493563],[54.403919,24.493531],[54.403753,24.493539],[54.403749,24.493513],[54.403703,24.493509],[54.403359,24.493544],[54.403368,24.493617],[54.403273,24.493627],[54.403326,24.494059],[54.403286,24.494063]]]}},{"type":"Feature","properties":{},"geometry":{"type":"Polygon","coordinates":[[[54.393628,24.494486],[54.393566,24.494484],[54.393561,24.494445],[54.393515,24.494441],[54.393367,24.494459],[54.393371,24.494483],[54.39331,24.49449],[54.393345,24.49473],[54.393659,24.494702],[54.393628,24.494486]]]}},{"type":"Feature","properties":{},"geometry":{"type":"Polygon","coordinates":[[[54.393632,24.495242],[54.393739,24.496008],[54.39391,24.495997],[54.394115,24.495815],[54.394331,24.49579],[54.394246,24.49518],[54.393632,24.495242]]]}},{"type":"Feature","properties":{},"geometry":{"type":"Polygon","coordinates":[[[54.39431,24.497106],[54.39439,24.49739],[54.394641,24.497508],[54.394687,24.497511],[54.394815,24.497446],[54.394931,24.497351],[54.39492,24.497277],[54.394963,24.497214],[54.395043,24.497176],[54.395076,24.497117],[54.394588,24.496825],[54.394542,24.496821],[54.39431,24.497106]]]}},{"type":"Feature","properties":{},"geometry":{"type":"Polygon","coordinates":[[[54.405198,24.497166],[54.405497,24.497188],[54.40571,24.496679],[54.405508,24.496592],[54.405507,24.496399],[54.40458,24.496056],[54.404485,24.49605],[54.404158,24.496949],[54.403928,24.497053],[54.404358,24.49798],[54.404453,24.497986],[54.404667,24.497813],[54.404802,24.497823],[54.405063,24.497713],[54.404948,24.497488],[54.405198,24.497166]]]}},{"type":"Feature","properties":{},"geometry":{"type":"Polygon","coordinates":[[[54.404168,24.498109],[54.404181,24.498081],[54.404083,24.498057],[54.404069,24.498085],[54.404168,24.498109]]]}},{"type":"Feature","properties":{},"geometry":{"type":"Polygon","coordinates":[[[54.403984,24.498467],[54.404125,24.498383],[54.404207,24.498295],[54.40423,24.498243],[54.404211,24.498211],[54.404224,24.498196],[54.404138,24.498134],[54.404089,24.49813],[54.404035,24.4981],[54.403978,24.498096],[54.403208,24.498413],[54.403016,24.498458],[54.402864,24.498563],[54.402757,24.498744],[54.40274,24.498873],[54.402759,24.498984],[54.402809,24.499041],[54.40277,24.499106],[54.402825,24.499141],[54.40285,24.499176],[54.402864,24.49922],[54.402856,24.499279],[54.403021,24.499304],[54.404039,24.499378],[54.404185,24.499361],[54.404301,24.499319],[54.404353,24.499284],[54.404751,24.499313],[54.405024,24.499247],[54.405473,24.499279],[54.40557,24.499271],[54.405367,24.499437],[54.405053,24.499607],[54.404746,24.499696],[54.404512,24.499722],[54.4041,24.4997],[54.404072,24.499726],[54.404111,24.499771],[54.404093,24.499783],[54.404054,24.499716],[54.403969,24.499656],[54.404012,24.499631],[54.404009,24.499608],[54.40407,24.499599],[54.404093,24.499561],[54.404065,24.499496],[54.403979,24.49941],[54.403931,24.499396],[54.403484,24.499365],[54.403448,24.499406],[54.403154,24.499593],[54.403093,24.499605],[54.40308,24.499633],[54.403115,24.499713],[54.403206,24.499786],[54.403248,24.499802],[54.40335,24.49981],[54.403476,24.499943],[54.403581,24.500013],[54.403698,24.500065],[54.403823,24.500099],[54.404117,24.500115],[54.404135,24.500134],[54.404109,24.500161],[54.404113,24.500183],[54.404184,24.500229],[54.404483,24.500252],[54.404483,24.500286],[54.404544,24.50029],[54.404823,24.500271],[54.404983,24.500235],[54.405107,24.500244],[54.405591,24.500016],[54.405758,24.500028],[54.405761,24.50001],[54.405927,24.500009],[54.405981,24.499968],[54.405989,24.499904],[54.405905,24.499811],[54.405984,24.499748],[54.406227,24.499764],[54.406284,24.499715],[54.406322,24.499583],[54.406351,24.499582],[54.406359,24.499467],[54.406308,24.499463],[54.406282,24.499395],[54.406434,24.499142],[54.406535,24.498895],[54.40659,24.498607],[54.406606,24.498335],[54.406583,24.498111],[54.406505,24.497806],[54.405643,24.497652],[54.405791,24.497852],[54.405871,24.49802],[54.405922,24.498291],[54.40593,24.498508],[54.40592,24.498713],[54.405888,24.498845],[54.405854,24.498795],[54.405782,24.498763],[54.405525,24.498744],[54.405524,24.498518],[54.405719,24.498531],[54.405794,24.498488],[54.405818,24.498428],[54.405737,24.498096],[54.405688,24.498048],[54.405614,24.498031],[54.405209,24.498001],[54.405129,24.498028],[54.405089,24.49808],[54.4051,24.498143],[54.405086,24.498156],[54.405047,24.498153],[54.404875,24.498333],[54.404851,24.498402],[54.404855,24.498473],[54.40483,24.498577],[54.404772,24.498671],[54.404698,24.498736],[54.404569,24.498791],[54.40449,24.498798],[54.404327,24.498776],[54.404234,24.498809],[54.404127,24.498878],[54.404138,24.498888],[54.403496,24.498841],[54.403605,24.498705],[54.403711,24.498634],[54.403688,24.498583],[54.403984,24.498467]]]}},{"type":"Feature","properties":{},"geometry":{"type":"Polygon","coordinates":[[[54.396073,24.498517],[54.39607,24.498583],[54.396173,24.498588],[54.396175,24.498522],[54.396073,24.498517]]]}},{"type":"Feature","properties":{},"geometry":{"type":"Polygon","coordinates":[[[54.393466,24.49866],[54.393621,24.499665],[54.395416,24.499475],[54.395306,24.498667],[54.395182,24.498546],[54.393466,24.49866]]]}},{"type":"Feature","properties":{},"geometry":{"type":"Polygon","coordinates":[[[54.395419,24.499844],[54.395447,24.499997],[54.395608,24.499984],[54.39558,24.49983],[54.395419,24.499844]]]}},{"type":"Feature","properties":{},"geometry":{"type":"Polygon","coordinates":[[[54.395241,24.500009],[54.395264,24.500113],[54.395342,24.50011],[54.395319,24.500006],[54.395241,24.500009]]]}},{"type":"Feature","properties":{},"geometry":{"type":"Polygon","coordinates":[[[54.394962,24.500333],[54.394869,24.500337],[54.39489,24.500451],[54.394982,24.500447],[54.394962,24.500333]]]}},{"type":"Feature","properties":{},"geometry":{"type":"Polygon","coordinates":[[[54.394922,24.50055],[54.395064,24.501399],[54.395676,24.501324],[54.395534,24.500475],[54.394922,24.50055]]]}},{"type":"Feature","properties":{},"geometry":{"type":"Polygon","coordinates":[[[54.395661,24.501895],[54.395658,24.501997],[54.39579,24.502003],[54.395793,24.501901],[54.395661,24.501895]]]}},{"type":"Feature","properties":{},"geometry":{"type":"Polygon","coordinates":[[[54.395441,24.502211],[54.395492,24.502519],[54.39597,24.502464],[54.395919,24.502156],[54.395441,24.502211]]]}},{"type":"Feature","properties":{},"geometry":{"type":"Polygon","coordinates":[[[54.397401,24.504687],[54.397407,24.504788],[54.397525,24.504788],[54.397519,24.504687],[54.397401,24.504687]]]}},{"type":"Feature","properties":{},"geometry":{"type":"Polygon","coordinates":[[[54.393317,24.509272],[54.393434,24.509442],[54.393498,24.509435],[54.393505,24.509447],[54.393374,24.509514],[54.393366,24.509502],[54.393427,24.509476],[54.393379,24.509409],[54.393334,24.509406],[54.393287,24.509433],[54.393324,24.509483],[54.393096,24.509587],[54.393144,24.509669],[54.39321,24.509662],[54.393287,24.509787],[54.393333,24.509791],[54.393671,24.509619],[54.393659,24.5096],[54.393841,24.509507],[54.393623,24.509152],[54.393704,24.509152],[54.393701,24.509097],[54.393604,24.509096],[54.393606,24.509128],[54.393563,24.509125],[54.393369,24.509224],[54.393382,24.509246],[54.393317,24.509272]]]}},{"type":"Feature","properties":{},"geometry":{"type":"Polygon","coordinates":[[[54.393853,24.509371],[54.393818,24.509388],[54.393855,24.509448],[54.393901,24.509451],[54.393935,24.509433],[54.393899,24.509374],[54.393853,24.509371]]]}},{"type":"Feature","properties":{},"geometry":{"type":"Polygon","coordinates":[[[54.394018,24.509606],[54.393978,24.509629],[54.394026,24.509679],[54.394078,24.509774],[54.394103,24.509776],[54.394031,24.509807],[54.394077,24.509894],[54.394123,24.509897],[54.394219,24.509856],[54.394173,24.509769],[54.394144,24.509767],[54.394165,24.509755],[54.394104,24.509664],[54.394089,24.509663],[54.394064,24.509609],[54.394018,24.509606]]]}},{"type":"Feature","properties":{},"geometry":{"type":"Polygon","coordinates":[[[54.393869,24.509955],[54.393874,24.509991],[54.393962,24.509989],[54.393956,24.509953],[54.393869,24.509955]]]}},{"type":"Feature","properties":{},"geometry":{"type":"Polygon","coordinates":[[[54.393925,24.510137],[54.394241,24.510001],[54.394209,24.509942],[54.394163,24.509938],[54.393848,24.510074],[54.393879,24.510134],[54.393925,24.510137]]]}},{"type":"Feature","properties":{},"geometry":{"type":"Polygon","coordinates":[[[54.40637,24.480098],[54.406301,24.47999],[54.406476,24.479898],[54.406419,24.479809],[54.406373,24.479805],[54.406301,24.479843],[54.406295,24.479833],[54.406327,24.479816],[54.406222,24.479651],[54.406176,24.479648],[54.405927,24.479779],[54.405983,24.479867],[54.405776,24.479976],[54.405813,24.480035],[54.405737,24.480075],[54.4058,24.480173],[54.405822,24.480175],[54.405905,24.480306],[54.405951,24.480309],[54.40637,24.480098]]]}},{"type":"Feature","properties":{},"geometry":{"type":"Polygon","coordinates":[[[54.406789,24.480079],[54.406881,24.480003],[54.406817,24.479939],[54.406771,24.479935],[54.406679,24.480012],[54.406743,24.480076],[54.406789,24.480079]]]}},{"type":"Feature","properties":{},"geometry":{"type":"Polygon","coordinates":[[[54.406104,24.480529],[54.406136,24.480569],[54.406186,24.480569],[54.406214,24.480596],[54.40626,24.4806],[54.406278,24.480585],[54.406437,24.480741],[54.406483,24.480745],[54.406629,24.480622],[54.406455,24.480451],[54.40649,24.480454],[54.406525,24.480406],[54.406458,24.480366],[54.40653,24.48038],[54.406568,24.4803],[54.406449,24.480252],[54.406404,24.480249],[54.406366,24.480325],[54.406349,24.480324],[54.406304,24.480386],[54.406104,24.480529]],[[54.40627,24.480511],[54.406294,24.480492],[54.406308,24.480507],[54.406286,24.480525],[54.40627,24.480511]]]}},{"type":"Feature","properties":{},"geometry":{"type":"Polygon","coordinates":[[[54.405748,24.480415],[54.405672,24.480452],[54.405699,24.480497],[54.405745,24.4805],[54.405821,24.480463],[54.405793,24.480418],[54.405748,24.480415]]]}},{"type":"Feature","properties":{},"geometry":{"type":"Polygon","coordinates":[[[54.405267,24.480759],[54.405305,24.480731],[54.405345,24.480777],[54.405435,24.480788],[54.405554,24.480701],[54.405413,24.48054],[54.405367,24.480537],[54.405289,24.480594],[54.405219,24.480514],[54.405173,24.48051],[54.405053,24.480598],[54.405028,24.48057],[54.404982,24.480566],[54.404751,24.480736],[54.404947,24.480958],[54.404993,24.480962],[54.405048,24.480936],[54.405285,24.48078],[54.405267,24.480759]]]}},{"type":"Feature","properties":{},"geometry":{"type":"Polygon","coordinates":[[[54.405261,24.482119],[54.405287,24.48226],[54.405336,24.482344],[54.40537,24.482346],[54.405417,24.48244],[54.405761,24.482465],[54.405996,24.482349],[54.405966,24.482248],[54.405934,24.482245],[54.405923,24.482199],[54.406224,24.482221],[54.406465,24.482071],[54.406363,24.481961],[54.406573,24.481976],[54.4068,24.48183],[54.406588,24.481542],[54.406523,24.481431],[54.406178,24.481406],[54.406001,24.481509],[54.405923,24.481577],[54.405984,24.481649],[54.405846,24.481639],[54.405621,24.481752],[54.40558,24.481799],[54.405601,24.481854],[54.405666,24.481912],[54.405398,24.481892],[54.40529,24.481997],[54.405261,24.482119]]]}},{"type":"Feature","properties":{},"geometry":{"type":"Polygon","coordinates":[[[54.406708,24.483103],[54.406754,24.483107],[54.40693,24.483011],[54.406596,24.482502],[54.406569,24.4825],[54.406531,24.482449],[54.406485,24.482446],[54.40631,24.482553],[54.406318,24.482564],[54.406107,24.48267],[54.406143,24.482727],[54.406189,24.48273],[54.406394,24.482625],[54.406708,24.483103]]]}},{"type":"Feature","properties":{},"geometry":{"type":"Polygon","coordinates":[[[54.405455,24.483133],[54.405126,24.483265],[54.405318,24.483913],[54.404939,24.484017],[54.404994,24.484359],[54.405749,24.484373],[54.405749,24.483855],[54.405501,24.483136],[54.405455,24.483133]]]}},{"type":"Feature","properties":{},"geometry":{"type":"Polygon","coordinates":[[[54.405665,24.484876],[54.405789,24.484483],[54.405017,24.484393],[54.404939,24.484734],[54.405665,24.484876]]]}},{"type":"Feature","properties":{},"geometry":{"type":"Polygon","coordinates":[[[54.407088,24.485617],[54.407382,24.48533],[54.407308,24.485267],[54.407262,24.485263],[54.406967,24.48555],[54.407042,24.485614],[54.407088,24.485617]]]}},{"type":"Feature","properties":{},"geometry":{"type":"Polygon","coordinates":[[[54.406864,24.485675],[54.406905,24.485614],[54.4068,24.485555],[54.406754,24.485552],[54.406713,24.485613],[54.406818,24.485672],[54.406864,24.485675]]]}},{"type":"Feature","properties":{},"geometry":{"type":"Polygon","coordinates":[[[54.406077,24.487447],[54.405832,24.487429],[54.405686,24.487602],[54.405983,24.487822],[54.406228,24.48784],[54.406372,24.48766],[54.406077,24.487447]]]}},{"type":"Feature","properties":{},"geometry":{"type":"Polygon","coordinates":[[[54.407644,24.488284],[54.407364,24.487876],[54.407318,24.487873],[54.406497,24.488337],[54.406776,24.488745],[54.406822,24.488749],[54.407644,24.488284]]]}},{"type":"Feature","properties":{},"geometry":{"type":"Polygon","coordinates":[[[54.407021,24.490271],[54.406961,24.490292],[54.406989,24.490373],[54.407035,24.490376],[54.4071,24.490355],[54.407066,24.490274],[54.407021,24.490271]]]}},{"type":"Feature","properties":{},"geometry":{"type":"Polygon","coordinates":[[[54.406392,24.493092],[54.406522,24.492964],[54.406425,24.492882],[54.406379,24.492879],[54.406249,24.493007],[54.406346,24.493088],[54.406392,24.493092]]]}},{"type":"Feature","properties":{},"geometry":{"type":"Polygon","coordinates":[[[54.406247,24.492254],[54.405376,24.492715],[54.405341,24.492999],[54.4062,24.493728],[54.406249,24.493732],[54.406576,24.49346],[54.405999,24.492982],[54.406364,24.492646],[54.406191,24.492525],[54.406403,24.492425],[54.406296,24.492257],[54.406247,24.492254]]]}},{"type":"Feature","properties":{},"geometry":{"type":"Polygon","coordinates":[[[54.406417,24.495348],[54.406463,24.49528],[54.406396,24.495243],[54.40635,24.49524],[54.406305,24.495308],[54.406371,24.495344],[54.406417,24.495348]]]}},{"type":"Feature","properties":{},"geometry":{"type":"Polygon","coordinates":[[[54.406598,24.495288],[54.406472,24.495298],[54.406475,24.495319],[54.406645,24.49532],[54.406644,24.495292],[54.406598,24.495288]]]}},{"type":"Feature","properties":{},"geometry":{"type":"Polygon","coordinates":[[[54.406608,24.495344],[54.406562,24.495341],[54.406486,24.495406],[54.406596,24.495512],[54.406642,24.495516],[54.406718,24.49545],[54.406608,24.495344]]]}},{"type":"Feature","properties":{},"geometry":{"type":"Polygon","coordinates":[[[54.406592,24.495806],[54.406663,24.495668],[54.406531,24.495612],[54.406485,24.495609],[54.406473,24.495631],[54.406436,24.495624],[54.406494,24.495595],[54.406441,24.495507],[54.406395,24.495503],[54.406312,24.495545],[54.406365,24.495633],[54.406407,24.495636],[54.406361,24.495724],[54.406546,24.495803],[54.406592,24.495806]]]}},{"type":"Feature","properties":{},"geometry":{"type":"Polygon","coordinates":[[[54.406297,24.495822],[54.406343,24.495757],[54.40627,24.495738],[54.406224,24.495803],[54.406297,24.495822]]]}},{"type":"Feature","properties":{},"geometry":{"type":"Polygon","coordinates":[[[54.406167,24.495971],[54.406173,24.49601],[54.406202,24.496035],[54.406287,24.496046],[54.406285,24.496025],[54.406248,24.496011],[54.406236,24.495971],[54.406167,24.495971]]]}},{"type":"Feature","properties":{},"geometry":{"type":"Polygon","coordinates":[[[54.406327,24.496131],[54.406312,24.496158],[54.406385,24.496193],[54.406431,24.496196],[54.406446,24.496169],[54.406373,24.496135],[54.406327,24.496131]]]}},{"type":"Feature","properties":{},"geometry":{"type":"Polygon","coordinates":[[[54.405962,24.496854],[54.405897,24.496904],[54.405977,24.496993],[54.406023,24.496996],[54.40609,24.496948],[54.406008,24.496858],[54.405962,24.496854]]]}},{"type":"Feature","properties":{},"geometry":{"type":"Polygon","coordinates":[[[54.407816,24.497118],[54.40824,24.497171],[54.408378,24.496844],[54.408169,24.496773],[54.407858,24.496695],[54.407491,24.496658],[54.407484,24.496774],[54.407136,24.496768],[54.407135,24.496802],[54.407129,24.496766],[54.407014,24.496758],[54.406722,24.496827],[54.406805,24.497122],[54.40692,24.49713],[54.40717,24.497064],[54.407816,24.497118]]]}},{"type":"Feature","properties":{},"geometry":{"type":"Polygon","coordinates":[[[54.406656,24.496773],[54.406329,24.496853],[54.406432,24.497223],[54.406478,24.497226],[54.406786,24.497146],[54.406702,24.496776],[54.406656,24.496773]]]}},{"type":"Feature","properties":{},"geometry":{"type":"Polygon","coordinates":[[[54.4058,24.497287],[54.40574,24.497548],[54.406046,24.497598],[54.406059,24.49754],[54.406099,24.497543],[54.406134,24.497394],[54.406037,24.497379],[54.406053,24.49733],[54.4058,24.497287]]]}},{"type":"Feature","properties":{},"geometry":{"type":"Polygon","coordinates":[[[54.406432,24.504537],[54.406428,24.504679],[54.406569,24.504685],[54.406571,24.504542],[54.406432,24.504537]]]}},{"type":"Feature","properties":{},"geometry":{"type":"Polygon","coordinates":[[[54.406184,24.50457],[54.406088,24.504593],[54.406141,24.504759],[54.406279,24.504742],[54.40623,24.504574],[54.406184,24.50457]]]}},{"type":"Feature","properties":{},"geometry":{"type":"Polygon","coordinates":[[[54.407208,24.505584],[54.407095,24.505483],[54.406674,24.505453],[54.406657,24.50547],[54.40639,24.505243],[54.406344,24.50524],[54.406082,24.505495],[54.406364,24.505735],[54.40641,24.505738],[54.40644,24.505709],[54.406702,24.505922],[54.407122,24.505952],[54.407214,24.505847],[54.407249,24.505725],[54.407208,24.505584]]]}},{"type":"Feature","properties":{},"geometry":{"type":"Polygon","coordinates":[[[54.405538,24.505792],[54.405632,24.505477],[54.405385,24.505424],[54.405291,24.505739],[54.405538,24.505792]]]}},{"type":"Feature","properties":{},"geometry":{"type":"Polygon","coordinates":[[[54.405359,24.506221],[54.405405,24.506224],[54.40552,24.505927],[54.405225,24.505832],[54.405179,24.505828],[54.405064,24.506126],[54.405359,24.506221]]]}},{"type":"Feature","properties":{},"geometry":{"type":"Polygon","coordinates":[[[54.405298,24.506617],[54.405391,24.506369],[54.405066,24.506279],[54.404973,24.506527],[54.405298,24.506617]]]}},{"type":"Feature","properties":{},"geometry":{"type":"Polygon","coordinates":[[[54.405108,24.507115],[54.405283,24.506719],[54.404994,24.506623],[54.404948,24.50662],[54.404806,24.507019],[54.405062,24.507112],[54.405108,24.507115]]]}},{"type":"Feature","properties":{},"geometry":{"type":"Polygon","coordinates":[[[54.404437,24.507235],[54.404404,24.507263],[54.404497,24.507354],[54.404543,24.507357],[54.404576,24.507329],[54.404483,24.507238],[54.404437,24.507235]]]}},{"type":"Feature","properties":{},"geometry":{"type":"Polygon","coordinates":[[[54.406644,24.507341],[54.406601,24.50737],[54.406721,24.507521],[54.406767,24.507524],[54.40681,24.507496],[54.40669,24.507345],[54.406644,24.507341]]]}},{"type":"Feature","properties":{},"geometry":{"type":"Polygon","coordinates":[[[54.405529,24.506966],[54.404898,24.508066],[54.404993,24.508131],[54.405452,24.508164],[54.405815,24.508102],[54.406321,24.507192],[54.406314,24.507112],[54.406053,24.506989],[54.405593,24.506955],[54.405529,24.506966]]]}},{"type":"Feature","properties":{},"geometry":{"type":"Polygon","coordinates":[[[54.406367,24.507886],[54.406249,24.507993],[54.406645,24.508385],[54.407012,24.508412],[54.407124,24.508297],[54.406734,24.507913],[54.406367,24.507886]]]}},{"type":"Feature","properties":{},"geometry":{"type":"Polygon","coordinates":[[[54.406098,24.508287],[54.40598,24.508394],[54.406377,24.508786],[54.406744,24.508813],[54.406856,24.508699],[54.406466,24.508314],[54.406098,24.508287]]]}},{"type":"Feature","properties":{},"geometry":{"type":"Polygon","coordinates":[[[54.406403,24.509134],[54.406488,24.509141],[54.4066,24.509026],[54.406209,24.508641],[54.405842,24.508615],[54.405724,24.508722],[54.406121,24.509114],[54.406321,24.509129],[54.406344,24.509146],[54.406389,24.509149],[54.406403,24.509134]]]}},{"type":"Feature","properties":{},"geometry":{"type":"Polygon","coordinates":[[[54.405477,24.509367],[54.405458,24.509388],[54.405231,24.509371],[54.405105,24.509539],[54.405253,24.509684],[54.405781,24.509721],[54.405962,24.509459],[54.40584,24.509394],[54.405477,24.509367]]]}},{"type":"Feature","properties":{},"geometry":{"type":"Polygon","coordinates":[[[54.410443,24.479885],[54.410374,24.479952],[54.410524,24.48008],[54.41057,24.480084],[54.410639,24.480017],[54.410488,24.479888],[54.410443,24.479885]]]}},{"type":"Feature","properties":{},"geometry":{"type":"Polygon","coordinates":[[[54.407183,24.482071],[54.407041,24.482137],[54.407181,24.482327],[54.407302,24.482429],[54.407416,24.48261],[54.407798,24.482638],[54.407988,24.482567],[54.40803,24.482435],[54.407632,24.481991],[54.407249,24.481963],[54.407183,24.482071]]]}},{"type":"Feature","properties":{},"geometry":{"type":"Polygon","coordinates":[[[54.409307,24.482887],[54.409312,24.483001],[54.409454,24.483001],[54.409449,24.482887],[54.409307,24.482887]]]}},{"type":"Feature","properties":{},"geometry":{"type":"Polygon","coordinates":[[[54.408793,24.48444],[54.408584,24.484581],[54.408829,24.484883],[54.409074,24.484901],[54.409283,24.48476],[54.409038,24.484458],[54.408793,24.48444]]]}},{"type":"Feature","properties":{},"geometry":{"type":"Polygon","coordinates":[[[54.408579,24.484795],[54.408334,24.484777],[54.408129,24.484931],[54.408142,24.484996],[54.408361,24.485107],[54.408454,24.485114],[54.408489,24.48516],[54.408734,24.485177],[54.408847,24.485094],[54.408579,24.484795]]]}},{"type":"Feature","properties":{},"geometry":{"type":"Polygon","coordinates":[[[54.409009,24.485681],[54.409088,24.48562],[54.409047,24.485577],[54.409001,24.485574],[54.408922,24.485635],[54.408963,24.485678],[54.409009,24.485681]]]}},{"type":"Feature","properties":{},"geometry":{"type":"Polygon","coordinates":[[[54.407458,24.485687],[54.407698,24.485879],[54.407943,24.485897],[54.408134,24.485698],[54.408073,24.485649],[54.408031,24.485646],[54.407809,24.485463],[54.407564,24.485445],[54.407378,24.485639],[54.407438,24.485686],[54.407458,24.485687]]]}},{"type":"Feature","properties":{},"geometry":{"type":"Polygon","coordinates":[[[54.409397,24.485985],[54.409484,24.48606],[54.409724,24.486078],[54.409806,24.486054],[54.409889,24.48597],[54.409936,24.485892],[54.409965,24.485742],[54.410504,24.486668],[54.410604,24.486675],[54.410963,24.486508],[54.410462,24.485626],[54.410501,24.4856],[54.410513,24.485527],[54.410503,24.485475],[54.410487,24.485453],[54.41035,24.485451],[54.41035,24.485431],[54.410461,24.485429],[54.410503,24.485402],[54.410534,24.485329],[54.411077,24.485112],[54.410903,24.484793],[54.410804,24.484786],[54.409836,24.485253],[54.409822,24.485279],[54.409773,24.485251],[54.409673,24.485244],[54.409599,24.48533],[54.409423,24.4854],[54.409337,24.485483],[54.4093,24.485577],[54.409298,24.485763],[54.409317,24.485856],[54.409397,24.485985]]]}},{"type":"Feature","properties":{},"geometry":{"type":"Polygon","coordinates":[[[54.409129,24.485845],[54.409175,24.485849],[54.409234,24.485814],[54.409153,24.485698],[54.409208,24.485666],[54.409182,24.485629],[54.409136,24.485626],[54.409022,24.485692],[54.409129,24.485845]]]}},{"type":"Feature","properties":{},"geometry":{"type":"Polygon","coordinates":[[[54.407651,24.486037],[54.407745,24.485935],[54.407697,24.485898],[54.407651,24.485895],[54.407557,24.485997],[54.407605,24.486034],[54.407651,24.486037]]]}},{"type":"Feature","properties":{},"geometry":{"type":"Polygon","coordinates":[[[54.409293,24.487368],[54.409247,24.487364],[54.408884,24.487647],[54.408334,24.48801],[54.408637,24.488493],[54.408683,24.488497],[54.409557,24.488061],[54.409405,24.487788],[54.40936,24.487784],[54.408664,24.488173],[54.408636,24.488126],[54.409409,24.487693],[54.409293,24.487368]]]}},{"type":"Feature","properties":{},"geometry":{"type":"Polygon","coordinates":[[[54.410556,24.488405],[54.410422,24.488416],[54.410427,24.488464],[54.410138,24.488492],[54.410183,24.488928],[54.410696,24.488891],[54.410684,24.488771],[54.410951,24.488748],[54.410908,24.488333],[54.410551,24.488356],[54.410556,24.488405]]]}},{"type":"Feature","properties":{},"geometry":{"type":"Polygon","coordinates":[[[54.407768,24.488343],[54.407361,24.488562],[54.407644,24.488949],[54.40769,24.488952],[54.408066,24.488722],[54.407814,24.488346],[54.407768,24.488343]]]}},{"type":"Feature","properties":{},"geometry":{"type":"Polygon","coordinates":[[[54.407309,24.488565],[54.406903,24.488795],[54.407183,24.489203],[54.407229,24.489206],[54.407635,24.488976],[54.407355,24.488568],[54.407309,24.488565]]]}},{"type":"Feature","properties":{},"geometry":{"type":"Polygon","coordinates":[[[54.410216,24.489184],[54.410623,24.489154],[54.410674,24.489615],[54.410872,24.489605],[54.410808,24.489028],[54.410204,24.489076],[54.410216,24.489184]]]}},{"type":"Feature","properties":{},"geometry":{"type":"Polygon","coordinates":[[[54.409267,24.491265],[54.409314,24.491266],[54.409318,24.491159],[54.409037,24.491149],[54.409036,24.491182],[54.408959,24.49118],[54.408947,24.491294],[54.409008,24.491298],[54.409007,24.491323],[54.409265,24.491332],[54.409267,24.491265]]]}},{"type":"Feature","properties":{},"geometry":{"type":"Polygon","coordinates":[[[54.407294,24.494291],[54.407536,24.494453],[54.408571,24.495082],[54.40815,24.495702],[54.406951,24.495035],[54.406894,24.495031],[54.406715,24.495524],[54.406613,24.496087],[54.406559,24.496192],[54.406584,24.496272],[54.406631,24.496295],[54.407608,24.496366],[54.407735,24.496347],[54.407877,24.496279],[54.408207,24.49638],[54.408265,24.496384],[54.408321,24.496278],[54.408526,24.496384],[54.408672,24.496421],[54.409859,24.496511],[54.40995,24.496508],[54.410017,24.49648],[54.410036,24.496463],[54.41005,24.496401],[54.409974,24.496276],[54.40981,24.496154],[54.409661,24.496087],[54.409479,24.496042],[54.408544,24.495974],[54.408562,24.495929],[54.408306,24.49579],[54.408728,24.495169],[54.408961,24.495292],[54.409261,24.495341],[54.409453,24.495355],[54.409812,24.495336],[54.410155,24.495243],[54.410059,24.495062],[54.409925,24.495053],[54.40971,24.494569],[54.409611,24.494085],[54.409732,24.494027],[54.409726,24.493842],[54.409592,24.493832],[54.409583,24.493631],[54.409665,24.49358],[54.410126,24.493431],[54.410571,24.493313],[54.410542,24.493103],[54.409532,24.493029],[54.409064,24.493135],[54.408549,24.493307],[54.407982,24.493622],[54.407631,24.493885],[54.407294,24.494291]]]}},{"type":"Feature","properties":{},"geometry":{"type":"Polygon","coordinates":[[[54.409385,24.496689],[54.408847,24.49693],[54.408763,24.496896],[54.40838,24.496868],[54.408294,24.497078],[54.408709,24.497309],[54.409091,24.497337],[54.409912,24.496946],[54.409767,24.496717],[54.409385,24.496689]]]}},{"type":"Feature","properties":{},"geometry":{"type":"Polygon","coordinates":[[[54.408002,24.497236],[54.407959,24.497276],[54.408051,24.497341],[54.408096,24.497352],[54.408142,24.497355],[54.408197,24.497323],[54.408151,24.497269],[54.408002,24.497236]]]}},{"type":"Feature","properties":{},"geometry":{"type":"Polygon","coordinates":[[[54.409652,24.497964],[54.409402,24.497881],[54.409165,24.497863],[54.40899,24.49793],[54.408992,24.498391],[54.409229,24.498408],[54.40962,24.498341],[54.409652,24.497964]]]}},{"type":"Feature","properties":{},"geometry":{"type":"Polygon","coordinates":[[[54.408874,24.498774],[54.40896,24.498781],[54.40897,24.498614],[54.408852,24.4986],[54.408836,24.49866],[54.408874,24.498774]]]}},{"type":"Feature","properties":{},"geometry":{"type":"Polygon","coordinates":[[[54.40957,24.498778],[54.408993,24.498738],[54.409005,24.499092],[54.408919,24.499457],[54.409276,24.499552],[54.40941,24.499561],[54.409517,24.499176],[54.40957,24.498778]]]}},{"type":"Feature","properties":{},"geometry":{"type":"Polygon","coordinates":[[[54.409972,24.500299],[54.410021,24.499744],[54.410058,24.499514],[54.410024,24.499442],[54.409946,24.499383],[54.409787,24.499363],[54.409615,24.499373],[54.409548,24.499419],[54.409498,24.499556],[54.409349,24.50004],[54.4093,24.500253],[54.409341,24.500381],[54.409433,24.500448],[54.409613,24.500479],[54.409792,24.50048],[54.409917,24.500416],[54.409972,24.500299]]]}},{"type":"Feature","properties":{},"geometry":{"type":"Polygon","coordinates":[[[54.408085,24.500876],[54.408054,24.500908],[54.408053,24.500954],[54.408025,24.501013],[54.408063,24.501044],[54.408109,24.501048],[54.40816,24.500974],[54.408193,24.50089],[54.408085,24.500876]]]}},{"type":"Feature","properties":{},"geometry":{"type":"Polygon","coordinates":[[[54.409651,24.501434],[54.408723,24.501471],[54.408679,24.501799],[54.408752,24.50195],[54.409066,24.501966],[54.409385,24.501956],[54.409476,24.501925],[54.409591,24.501854],[54.40963,24.50175],[54.409656,24.501603],[54.409651,24.501434]]]}},{"type":"Feature","properties":{},"geometry":{"type":"Polygon","coordinates":[[[54.408025,24.50174],[54.407696,24.502403],[54.408114,24.502577],[54.40816,24.50258],[54.408341,24.502103],[54.408468,24.501861],[54.408025,24.50174]]]}},{"type":"Feature","properties":{},"geometry":{"type":"Polygon","coordinates":[[[54.407515,24.502391],[54.407507,24.502438],[54.407597,24.502451],[54.407653,24.502392],[54.407694,24.502317],[54.407586,24.50231],[54.407515,24.502391]]]}},{"type":"Feature","properties":{},"geometry":{"type":"Polygon","coordinates":[[[54.407292,24.502935],[54.40724,24.502926],[54.407116,24.503077],[54.407179,24.503113],[54.407225,24.503116],[54.407356,24.502999],[54.407381,24.502997],[54.407449,24.502889],[54.407345,24.502871],[54.407292,24.502935]]]}},{"type":"Feature","properties":{},"geometry":{"type":"Polygon","coordinates":[[[54.406943,24.503344],[54.40688,24.503364],[54.406917,24.503485],[54.407043,24.503471],[54.406989,24.503348],[54.406943,24.503344]]]}},{"type":"Feature","properties":{},"geometry":{"type":"Polygon","coordinates":[[[54.411037,24.504231],[54.411068,24.504073],[54.410596,24.503995],[54.410305,24.503973],[54.410416,24.50389],[54.410084,24.503524],[54.40972,24.503497],[54.409576,24.503605],[54.409909,24.503972],[54.410227,24.503995],[54.410201,24.504126],[54.410673,24.504204],[54.411037,24.504231]]]}},{"type":"Feature","properties":{},"geometry":{"type":"Polygon","coordinates":[[[54.40712,24.503832],[54.40718,24.503683],[54.407036,24.503648],[54.406985,24.503805],[54.40712,24.503832]]]}},{"type":"Feature","properties":{},"geometry":{"type":"Polygon","coordinates":[[[54.409259,24.504094],[54.409054,24.504354],[54.409349,24.504692],[54.409884,24.504731],[54.410146,24.504432],[54.409795,24.504133],[54.409259,24.504094]]]}},{"type":"Feature","properties":{},"geometry":{"type":"Polygon","coordinates":[[[54.408079,24.505846],[54.408074,24.505745],[54.407866,24.505725],[54.407868,24.505818],[54.408079,24.505846]]]}},{"type":"Feature","properties":{},"geometry":{"type":"Polygon","coordinates":[[[54.409518,24.506179],[54.409633,24.506117],[54.409718,24.506024],[54.409763,24.505911],[54.409765,24.50579],[54.409726,24.505684],[54.409652,24.505594],[54.409552,24.505529],[54.409434,24.505496],[54.409265,24.505495],[54.409148,24.505532],[54.40905,24.505601],[54.408981,24.505693],[54.408947,24.505801],[54.408954,24.505922],[54.409005,24.506033],[54.409094,24.506123],[54.409211,24.50618],[54.409388,24.506202],[54.409518,24.506179]]]}},{"type":"Feature","properties":{},"geometry":{"type":"Polygon","coordinates":[[[54.407028,24.506464],[54.407336,24.506699],[54.407853,24.506737],[54.408145,24.506429],[54.407988,24.506269],[54.407472,24.506231],[54.407244,24.506239],[54.407028,24.506464]]]}},{"type":"Feature","properties":{},"geometry":{"type":"Polygon","coordinates":[[[54.407268,24.507342],[54.40737,24.507253],[54.406955,24.506864],[54.406919,24.506861],[54.406822,24.506949],[54.406855,24.506983],[54.406749,24.507074],[54.406783,24.507111],[54.406677,24.507196],[54.407019,24.507514],[54.407056,24.507517],[54.407156,24.50743],[54.407139,24.507413],[54.407228,24.507337],[54.407268,24.507342]]]}},{"type":"Feature","properties":{},"geometry":{"type":"Polygon","coordinates":[[[54.409738,24.50756],[54.409527,24.507348],[54.409481,24.507344],[54.409287,24.507513],[54.409648,24.507874],[54.409694,24.507878],[54.409755,24.507836],[54.409738,24.50756]]]}},{"type":"Feature","properties":{},"geometry":{"type":"Polygon","coordinates":[[[54.407171,24.507807],[54.407217,24.507811],[54.407247,24.507778],[54.407213,24.507752],[54.407167,24.507749],[54.407137,24.507782],[54.407171,24.507807]]]}},{"type":"Feature","properties":{},"geometry":{"type":"Polygon","coordinates":[[[54.410359,24.507793],[54.410286,24.507795],[54.41025,24.507723],[54.410122,24.507721],[54.40999,24.507756],[54.409856,24.507859],[54.409825,24.507938],[54.409854,24.50798],[54.409927,24.508019],[54.410156,24.508002],[54.410378,24.507859],[54.410359,24.507793]]]}},{"type":"Feature","properties":{},"geometry":{"type":"Polygon","coordinates":[[[54.40888,24.50792],[54.408846,24.507921],[54.408851,24.508027],[54.408936,24.508029],[54.408935,24.507998],[54.408964,24.507997],[54.408971,24.507859],[54.408877,24.507857],[54.40888,24.50792]]]}},{"type":"Feature","properties":{},"geometry":{"type":"Polygon","coordinates":[[[54.409277,24.508236],[54.409366,24.508162],[54.409324,24.508119],[54.409278,24.508116],[54.409189,24.50819],[54.409231,24.508233],[54.409277,24.508236]]]}},{"type":"Feature","properties":{},"geometry":{"type":"Polygon","coordinates":[[[54.409103,24.508714],[54.409163,24.508678],[54.409143,24.508649],[54.409204,24.508649],[54.40938,24.508546],[54.409319,24.50846],[54.409273,24.508456],[54.409251,24.508469],[54.409203,24.508403],[54.409158,24.5084],[54.409014,24.508484],[54.409061,24.50855],[54.408987,24.508608],[54.409005,24.508634],[54.408969,24.508655],[54.409,24.508698],[54.409049,24.508699],[54.409103,24.508714]]]}},{"type":"Feature","properties":{},"geometry":{"type":"Polygon","coordinates":[[[54.407596,24.508894],[54.407661,24.508844],[54.407633,24.508815],[54.407587,24.508811],[54.407523,24.508861],[54.40755,24.50889],[54.407596,24.508894]]]}},{"type":"Feature","properties":{},"geometry":{"type":"Polygon","coordinates":[[[54.408151,24.509528],[54.408267,24.50941],[54.407905,24.509077],[54.407857,24.509073],[54.407754,24.508972],[54.407708,24.508969],[54.407656,24.509013],[54.407707,24.509062],[54.407538,24.50905],[54.407416,24.509159],[54.407784,24.509501],[54.408151,24.509528]]]}},{"type":"Feature","properties":{},"geometry":{"type":"Polygon","coordinates":[[[54.407814,24.50982],[54.407948,24.509684],[54.407568,24.509327],[54.407301,24.509307],[54.40732,24.509288],[54.407215,24.509201],[54.40717,24.509197],[54.407129,24.509238],[54.407203,24.5093],[54.40706,24.509435],[54.407446,24.509794],[54.407814,24.50982]]]}},{"type":"Feature","properties":{},"geometry":{"type":"Polygon","coordinates":[[[54.406811,24.509574],[54.406652,24.509706],[54.407014,24.510038],[54.407382,24.510065],[54.407547,24.509948],[54.407178,24.509601],[54.406811,24.509574]]]}},{"type":"Feature","properties":{},"geometry":{"type":"Polygon","coordinates":[[[54.409893,24.51031],[54.410236,24.509997],[54.410051,24.509829],[54.410005,24.509826],[54.409662,24.510138],[54.409847,24.510306],[54.409893,24.51031]]]}},{"type":"Feature","properties":{},"geometry":{"type":"Polygon","coordinates":[[[54.411321,24.481841],[54.411222,24.481936],[54.411307,24.482009],[54.411353,24.482012],[54.41153,24.481842],[54.411162,24.481523],[54.411116,24.48152],[54.410943,24.481686],[54.411024,24.481756],[54.41107,24.481759],[54.411147,24.481686],[54.411198,24.48173],[54.411169,24.481758],[54.411214,24.481796],[54.411266,24.481793],[54.411321,24.481841]]]}},{"type":"Feature","properties":{},"geometry":{"type":"Polygon","coordinates":[[[54.410906,24.481767],[54.410876,24.481795],[54.410916,24.481829],[54.410962,24.481833],[54.410991,24.481804],[54.410952,24.48177],[54.410906,24.481767]]]}},{"type":"Feature","properties":{},"geometry":{"type":"Polygon","coordinates":[[[54.412563,24.482207],[54.412608,24.482211],[54.412784,24.481936],[54.412424,24.481745],[54.412378,24.481741],[54.412202,24.482016],[54.412563,24.482207]]]}},{"type":"Feature","properties":{},"geometry":{"type":"Polygon","coordinates":[[[54.411397,24.482161],[54.411476,24.482081],[54.411444,24.482055],[54.411398,24.482052],[54.41132,24.482132],[54.411351,24.482158],[54.411397,24.482161]]]}},{"type":"Feature","properties":{},"geometry":{"type":"Polygon","coordinates":[[[54.410832,24.485218],[54.410723,24.485276],[54.410774,24.485354],[54.41082,24.485357],[54.410928,24.485299],[54.410878,24.485221],[54.410832,24.485218]]]}},{"type":"Feature","properties":{},"geometry":{"type":"Polygon","coordinates":[[[54.41141,24.485664],[54.411514,24.485623],[54.4115,24.485592],[54.411454,24.485589],[54.41135,24.48563],[54.411365,24.485661],[54.41141,24.485664]]]}},{"type":"Feature","properties":{},"geometry":{"type":"Polygon","coordinates":[[[54.411432,24.48566],[54.411375,24.485678],[54.411414,24.485776],[54.411459,24.485779],[54.411517,24.48576],[54.411478,24.485663],[54.411432,24.48566]]]}},{"type":"Feature","properties":{},"geometry":{"type":"Polygon","coordinates":[[[54.413107,24.487233],[54.413184,24.487452],[54.413446,24.487446],[54.413434,24.487199],[54.413283,24.487199],[54.413284,24.487227],[54.413107,24.487233]]]}},{"type":"Feature","properties":{},"geometry":{"type":"Polygon","coordinates":[[[54.413245,24.487464],[54.413256,24.48771],[54.41357,24.487703],[54.413567,24.487625],[54.413534,24.487622],[54.41353,24.487533],[54.413562,24.487531],[54.413559,24.487458],[54.413245,24.487464]]]}},{"type":"Feature","properties":{},"geometry":{"type":"Polygon","coordinates":[[[54.413092,24.487544],[54.413046,24.487541],[54.412959,24.487562],[54.413014,24.487751],[54.413059,24.487755],[54.413146,24.487734],[54.413092,24.487544]]]}},{"type":"Feature","properties":{},"geometry":{"type":"Polygon","coordinates":[[[54.415613,24.487685],[54.415615,24.487729],[54.41572,24.487729],[54.415717,24.487685],[54.415613,24.487685]]]}},{"type":"Feature","properties":{},"geometry":{"type":"Polygon","coordinates":[[[54.413519,24.487893],[54.413522,24.487954],[54.413636,24.487955],[54.413633,24.487894],[54.413519,24.487893]]]}},{"type":"Feature","properties":{},"geometry":{"type":"Polygon","coordinates":[[[54.415702,24.487945],[54.415703,24.48797],[54.415797,24.487972],[54.415791,24.487769],[54.415123,24.487771],[54.415123,24.487815],[54.415187,24.487819],[54.415187,24.488213],[54.415416,24.488216],[54.415415,24.487965],[54.415665,24.487965],[54.415665,24.487944],[54.415702,24.487945]]]}},{"type":"Feature","properties":{},"geometry":{"type":"Polygon","coordinates":[[[54.414839,24.488231],[54.414836,24.488326],[54.415014,24.488333],[54.415018,24.488238],[54.414839,24.488231]]]}},{"type":"Feature","properties":{},"geometry":{"type":"Polygon","coordinates":[[[54.415482,24.488399],[54.415481,24.488334],[54.415614,24.488334],[54.415612,24.488295],[54.415472,24.488296],[54.415473,24.488316],[54.415318,24.488314],[54.415319,24.488397],[54.415482,24.488399]]]}},{"type":"Feature","properties":{},"geometry":{"type":"Polygon","coordinates":[[[54.415601,24.488338],[54.415602,24.488387],[54.415742,24.488388],[54.415741,24.48834],[54.415601,24.488338]]]}},{"type":"Feature","properties":{},"geometry":{"type":"Polygon","coordinates":[[[54.414852,24.488358],[54.414856,24.488478],[54.415025,24.488478],[54.415022,24.488359],[54.414852,24.488358]]]}},{"type":"Feature","properties":{},"geometry":{"type":"Polygon","coordinates":[[[54.415412,24.488438],[54.415411,24.488484],[54.415477,24.488488],[54.415478,24.488441],[54.415412,24.488438]]]}},{"type":"Feature","properties":{},"geometry":{"type":"Polygon","coordinates":[[[54.415463,24.488644],[54.415465,24.488693],[54.415591,24.488694],[54.415589,24.488645],[54.415463,24.488644]]]}},{"type":"Feature","properties":{},"geometry":{"type":"Polygon","coordinates":[[[54.411174,24.48887],[54.411147,24.488931],[54.411198,24.488999],[54.411312,24.489],[54.411433,24.489161],[54.411262,24.489253],[54.411314,24.489336],[54.41136,24.489339],[54.412027,24.488969],[54.412063,24.489038],[54.411491,24.489354],[54.411585,24.489507],[54.411659,24.4895],[54.411713,24.489593],[54.411972,24.489642],[54.411955,24.489719],[54.412166,24.489759],[54.412331,24.489131],[54.412457,24.489133],[54.412504,24.489111],[54.412803,24.48968],[54.412848,24.489683],[54.413002,24.489604],[54.412969,24.489553],[54.413182,24.489458],[54.413237,24.489335],[54.413307,24.489351],[54.413351,24.489176],[54.412701,24.48896],[54.412705,24.488904],[54.412926,24.488941],[54.413535,24.488851],[54.413491,24.488559],[54.412898,24.488621],[54.412863,24.488591],[54.412817,24.488588],[54.412708,24.488645],[54.412641,24.488588],[54.412718,24.488548],[54.412604,24.488401],[54.412738,24.487984],[54.412875,24.488042],[54.412969,24.488101],[54.413015,24.488104],[54.41315,24.487957],[54.412791,24.487762],[54.412562,24.487721],[54.412242,24.487705],[54.412264,24.487925],[54.412415,24.487937],[54.412429,24.487908],[54.412477,24.487913],[54.412339,24.488484],[54.412309,24.488489],[54.412027,24.487987],[54.412229,24.487947],[54.412203,24.487712],[54.412157,24.487708],[54.411868,24.487782],[54.411582,24.487957],[54.411414,24.48813],[54.411571,24.488241],[54.411617,24.488244],[54.411804,24.488091],[54.412028,24.488474],[54.411942,24.488719],[54.41126,24.488509],[54.411214,24.488505],[54.411171,24.4886],[54.411356,24.488668],[54.411319,24.488851],[54.411174,24.48887]],[[54.411796,24.489354],[54.411964,24.489259],[54.411962,24.489302],[54.412063,24.489323],[54.412027,24.489498],[54.41188,24.489468],[54.411796,24.489354]],[[54.412873,24.489259],[54.41291,24.489159],[54.413063,24.489207],[54.413016,24.489333],[54.412925,24.489376],[54.412873,24.489259]]]}},{"type":"Feature","properties":{},"geometry":{"type":"Polygon","coordinates":[[[54.410835,24.489739],[54.410839,24.489782],[54.410934,24.489782],[54.41093,24.489739],[54.410835,24.489739]]]}},{"type":"Feature","properties":{},"geometry":{"type":"Polygon","coordinates":[[[54.410451,24.489493],[54.410256,24.489504],[54.410326,24.49009],[54.410931,24.490038],[54.410916,24.48991],[54.410555,24.489938],[54.410502,24.489927],[54.410451,24.489493]]]}},{"type":"Feature","properties":{},"geometry":{"type":"Polygon","coordinates":[[[54.412544,24.489948],[54.412428,24.489949],[54.412432,24.490011],[54.412548,24.490011],[54.412544,24.489948]]]}},{"type":"Feature","properties":{},"geometry":{"type":"Polygon","coordinates":[[[54.411052,24.490661],[54.411051,24.490713],[54.411193,24.490718],[54.411194,24.490665],[54.411052,24.490661]]]}},{"type":"Feature","properties":{},"geometry":{"type":"Polygon","coordinates":[[[54.411155,24.490795],[54.411155,24.490888],[54.41127,24.490891],[54.41127,24.490798],[54.411155,24.490795]]]}},{"type":"Feature","properties":{},"geometry":{"type":"Polygon","coordinates":[[[54.413459,24.490649],[54.412924,24.490639],[54.412916,24.491132],[54.413441,24.491142],[54.413443,24.490978],[54.413159,24.490972],[54.413161,24.490813],[54.413456,24.490817],[54.413459,24.490649]]]}},{"type":"Feature","properties":{},"geometry":{"type":"Polygon","coordinates":[[[54.410416,24.490817],[54.410413,24.49103],[54.410745,24.491036],[54.410752,24.490769],[54.4106,24.490766],[54.410598,24.490812],[54.410416,24.490817]]]}},{"type":"Feature","properties":{},"geometry":{"type":"Polygon","coordinates":[[[54.411147,24.490894],[54.411148,24.490951],[54.411269,24.490953],[54.411267,24.490896],[54.411147,24.490894]]]}},{"type":"Feature","properties":{},"geometry":{"type":"Polygon","coordinates":[[[54.412829,24.491185],[54.412828,24.491224],[54.412919,24.491229],[54.412921,24.49119],[54.412829,24.491185]]]}},{"type":"Feature","properties":{},"geometry":{"type":"Polygon","coordinates":[[[54.411268,24.491429],[54.411185,24.491424],[54.411181,24.491501],[54.411264,24.491506],[54.411268,24.491429]]]}},{"type":"Feature","properties":{},"geometry":{"type":"Polygon","coordinates":[[[54.410457,24.491298],[54.410444,24.491622],[54.410862,24.491639],[54.410876,24.491314],[54.410457,24.491298]]]}},{"type":"Feature","properties":{},"geometry":{"type":"Polygon","coordinates":[[[54.411435,24.491191],[54.411364,24.492099],[54.411906,24.492135],[54.411977,24.491226],[54.411435,24.491191]]]}},{"type":"Feature","properties":{},"geometry":{"type":"Polygon","coordinates":[[[54.412108,24.491697],[54.412107,24.491726],[54.412231,24.491732],[54.412232,24.491703],[54.412108,24.491697]]]}},{"type":"Feature","properties":{},"geometry":{"type":"Polygon","coordinates":[[[54.411581,24.492292],[54.411578,24.49238],[54.411752,24.492387],[54.411754,24.492299],[54.411581,24.492292]]]}},{"type":"Feature","properties":{},"geometry":{"type":"Polygon","coordinates":[[[54.411973,24.492459],[54.411972,24.492557],[54.4122,24.492562],[54.412201,24.492464],[54.411973,24.492459]]]}},{"type":"Feature","properties":{},"geometry":{"type":"Polygon","coordinates":[[[54.410337,24.495938],[54.410046,24.496169],[54.41015,24.496288],[54.410069,24.496343],[54.410179,24.496484],[54.410485,24.496506],[54.410649,24.496403],[54.410564,24.496293],[54.410858,24.496315],[54.411081,24.49621],[54.41092,24.49602],[54.410692,24.496003],[54.410643,24.49596],[54.410337,24.495938]]]}},{"type":"Feature","properties":{},"geometry":{"type":"Polygon","coordinates":[[[54.414992,24.497071],[54.415038,24.497075],[54.415149,24.496917],[54.415056,24.496863],[54.41501,24.49686],[54.4149,24.497017],[54.414992,24.497071]]]}},{"type":"Feature","properties":{},"geometry":{"type":"Polygon","coordinates":[[[54.411989,24.498905],[54.412171,24.498676],[54.412065,24.498057],[54.412087,24.498048],[54.411856,24.497504],[54.411542,24.497389],[54.411496,24.497386],[54.411403,24.497422],[54.411699,24.498182],[54.411825,24.498912],[54.411989,24.498905]]]}},{"type":"Feature","properties":{},"geometry":{"type":"Polygon","coordinates":[[[54.410624,24.497708],[54.41061,24.498871],[54.410748,24.499018],[54.411038,24.499032],[54.411031,24.497518],[54.410985,24.497515],[54.410798,24.49756],[54.410624,24.497708]]]}},{"type":"Feature","properties":{},"geometry":{"type":"Polygon","coordinates":[[[54.410436,24.501607],[54.410335,24.501603],[54.410333,24.501852],[54.410778,24.501878],[54.410776,24.501816],[54.410912,24.501816],[54.410918,24.501591],[54.410886,24.501589],[54.410888,24.501548],[54.410437,24.50152],[54.410436,24.501607]]]}},{"type":"Feature","properties":{},"geometry":{"type":"Polygon","coordinates":[[[54.413013,24.502973],[54.413098,24.503119],[54.413213,24.503127],[54.413284,24.503108],[54.413405,24.502817],[54.413494,24.502336],[54.413014,24.502041],[54.412855,24.50189],[54.412769,24.501777],[54.412689,24.501633],[54.412641,24.501494],[54.411982,24.501472],[54.412018,24.501673],[54.412065,24.501807],[54.412137,24.50199],[54.412222,24.502147],[54.412374,24.502354],[54.412629,24.502656],[54.412874,24.50282],[54.413013,24.502973]]]}},{"type":"Feature","properties":{},"geometry":{"type":"Polygon","coordinates":[[[54.411529,24.502276],[54.411457,24.502349],[54.41167,24.502522],[54.411716,24.502525],[54.411788,24.502452],[54.411575,24.502279],[54.411529,24.502276]]]}},{"type":"Feature","properties":{},"geometry":{"type":"Polygon","coordinates":[[[54.410947,24.502245],[54.410913,24.502838],[54.411402,24.502868],[54.411399,24.502706],[54.41127,24.502682],[54.411201,24.502631],[54.411195,24.502251],[54.410947,24.502245]]]}},{"type":"Feature","properties":{},"geometry":{"type":"Polygon","coordinates":[[[54.411463,24.502535],[54.41146,24.502658],[54.411555,24.502662],[54.411558,24.502539],[54.411463,24.502535]]]}},{"type":"Feature","properties":{},"geometry":{"type":"Polygon","coordinates":[[[54.411796,24.502509],[54.411694,24.502566],[54.411855,24.502805],[54.411901,24.502808],[54.412003,24.502751],[54.411842,24.502512],[54.411796,24.502509]]]}},{"type":"Feature","properties":{},"geometry":{"type":"Polygon","coordinates":[[[54.411657,24.50276],[54.411573,24.502795],[54.411649,24.502947],[54.411695,24.50295],[54.411779,24.502915],[54.411703,24.502763],[54.411657,24.50276]]]}},{"type":"Feature","properties":{},"geometry":{"type":"Polygon","coordinates":[[[54.415116,24.504336],[54.415221,24.504247],[54.41533,24.504341],[54.415575,24.504359],[54.415711,24.504245],[54.415811,24.504331],[54.415968,24.504342],[54.416145,24.504193],[54.415949,24.504032],[54.415792,24.50402],[54.415727,24.504084],[54.415686,24.504036],[54.41564,24.504033],[54.415584,24.504072],[54.415556,24.504049],[54.415311,24.504031],[54.415217,24.504124],[54.415097,24.504025],[54.414826,24.504005],[54.414667,24.504163],[54.414844,24.504316],[54.415116,24.504336]],[[54.415661,24.504135],[54.415717,24.504095],[54.415669,24.504142],[54.415661,24.504135]]]}},{"type":"Feature","properties":{},"geometry":{"type":"Polygon","coordinates":[[[54.414675,24.504549],[54.414852,24.5044],[54.414656,24.504239],[54.414312,24.504214],[54.414153,24.504371],[54.414331,24.504524],[54.414675,24.504549]]]}},{"type":"Feature","properties":{},"geometry":{"type":"Polygon","coordinates":[[[54.414935,24.504996],[54.415112,24.504848],[54.414916,24.504686],[54.414671,24.504668],[54.414513,24.504826],[54.41469,24.504979],[54.414935,24.504996]]]}},{"type":"Feature","properties":{},"geometry":{"type":"Polygon","coordinates":[[[54.410819,24.506795],[54.410843,24.506731],[54.410778,24.506711],[54.410793,24.506618],[54.410724,24.506579],[54.410546,24.50654],[54.410371,24.50656],[54.410298,24.506611],[54.410298,24.506661],[54.410335,24.50673],[54.410383,24.506739],[54.410502,24.506803],[54.410634,24.506811],[54.410819,24.506795]]]}},{"type":"Feature","properties":{},"geometry":{"type":"Polygon","coordinates":[[[54.411089,24.506947],[54.411023,24.506915],[54.410977,24.506911],[54.41095,24.506958],[54.410847,24.506938],[54.410793,24.506994],[54.410732,24.507106],[54.410726,24.507266],[54.410769,24.50734],[54.410869,24.507352],[54.41095,24.50733],[54.410968,24.507288],[54.411056,24.507192],[54.411089,24.506947]]]}},{"type":"Feature","properties":{},"geometry":{"type":"Polygon","coordinates":[[[54.411143,24.508709],[54.411146,24.508611],[54.410813,24.508596],[54.410809,24.508696],[54.411143,24.508709]]]}},{"type":"Feature","properties":{},"geometry":{"type":"Polygon","coordinates":[[[54.41158,24.508954],[54.411571,24.509162],[54.41174,24.50917],[54.411749,24.508961],[54.41158,24.508954]]]}},{"type":"Feature","properties":{},"geometry":{"type":"Polygon","coordinates":[[[54.410698,24.509064],[54.4107,24.509161],[54.410808,24.509163],[54.410806,24.509067],[54.410698,24.509064]]]}},{"type":"Feature","properties":{},"geometry":{"type":"Polygon","coordinates":[[[54.411522,24.509344],[54.411533,24.508987],[54.411248,24.508984],[54.411234,24.509309],[54.411307,24.509314],[54.411307,24.509336],[54.411522,24.509344]]]}},{"type":"Feature","properties":{},"geometry":{"type":"Polygon","coordinates":[[[54.411123,24.509147],[54.411122,24.509219],[54.411216,24.509223],[54.411217,24.509151],[54.411123,24.509147]]]}},{"type":"Feature","properties":{},"geometry":{"type":"Polygon","coordinates":[[[54.41156,24.509263],[54.411555,24.50948],[54.411719,24.509485],[54.411723,24.509268],[54.41156,24.509263]]]}},{"type":"Feature","properties":{},"geometry":{"type":"Polygon","coordinates":[[[54.411494,24.509526],[54.411491,24.509436],[54.410723,24.509449],[54.410727,24.509544],[54.411494,24.509526]]]}},{"type":"Feature","properties":{},"geometry":{"type":"Polygon","coordinates":[[[54.411355,24.509641],[54.411256,24.509681],[54.411333,24.509838],[54.411379,24.509841],[54.411478,24.509801],[54.411401,24.509644],[54.411355,24.509641]]]}},{"type":"Feature","properties":{},"geometry":{"type":"Polygon","coordinates":[[[54.418529,24.481901],[54.41853,24.481923],[54.41862,24.481924],[54.418619,24.481902],[54.418529,24.481901]]]}},{"type":"Feature","properties":{},"geometry":{"type":"Polygon","coordinates":[[[54.418811,24.482458],[54.41883,24.482325],[54.41846,24.482285],[54.418442,24.482417],[54.418811,24.482458]]]}},{"type":"Feature","properties":{},"geometry":{"type":"Polygon","coordinates":[[[54.418789,24.482617],[54.418805,24.482483],[54.418434,24.482447],[54.418417,24.482581],[54.418789,24.482617]]]}},{"type":"Feature","properties":{},"geometry":{"type":"Polygon","coordinates":[[[54.418754,24.482852],[54.418767,24.482716],[54.418396,24.482685],[54.418382,24.482821],[54.418754,24.482852]]]}},{"type":"Feature","properties":{},"geometry":{"type":"Polygon","coordinates":[[[54.418366,24.482861],[54.418361,24.482982],[54.418732,24.482999],[54.418738,24.482877],[54.418366,24.482861]]]}},{"type":"Feature","properties":{},"geometry":{"type":"Polygon","coordinates":[[[54.417238,24.487724],[54.417239,24.487769],[54.41737,24.487772],[54.41737,24.487727],[54.417238,24.487724]]]}},{"type":"Feature","properties":{},"geometry":{"type":"Polygon","coordinates":[[[54.415855,24.487746],[54.415853,24.48779],[54.415931,24.487795],[54.415933,24.487751],[54.415855,24.487746]]]}},{"type":"Feature","properties":{},"geometry":{"type":"Polygon","coordinates":[[[54.415997,24.487765],[54.415996,24.487795],[54.416148,24.487802],[54.416149,24.487772],[54.415997,24.487765]]]}},{"type":"Feature","properties":{},"geometry":{"type":"Polygon","coordinates":[[[54.415997,24.487814],[54.416006,24.487944],[54.416308,24.487934],[54.4163,24.487804],[54.415997,24.487814]]]}},{"type":"Feature","properties":{},"geometry":{"type":"Polygon","coordinates":[[[54.416008,24.487961],[54.41601,24.488017],[54.416291,24.488014],[54.41629,24.487958],[54.416008,24.487961]]]}},{"type":"Feature","properties":{},"geometry":{"type":"Polygon","coordinates":[[[54.416335,24.488024],[54.416351,24.488306],[54.416476,24.488306],[54.416479,24.488365],[54.416572,24.488366],[54.416547,24.488235],[54.416796,24.488244],[54.416792,24.488151],[54.416649,24.488149],[54.416649,24.488138],[54.416715,24.488137],[54.416711,24.488045],[54.41664,24.488043],[54.41664,24.488023],[54.416712,24.488023],[54.416711,24.487975],[54.416443,24.487975],[54.416442,24.488022],[54.416335,24.488024]],[[54.416468,24.488138],[54.416467,24.488123],[54.416615,24.488127],[54.416468,24.488138]]]}},{"type":"Feature","properties":{},"geometry":{"type":"Polygon","coordinates":[[[54.415648,24.488202],[54.415652,24.488313],[54.41576,24.488315],[54.415756,24.488203],[54.415648,24.488202]]]}},{"type":"Feature","properties":{},"geometry":{"type":"Polygon","coordinates":[[[54.416706,24.488248],[54.416706,24.488305],[54.416794,24.488308],[54.416794,24.488252],[54.416706,24.488248]]]}},{"type":"Feature","properties":{},"geometry":{"type":"Polygon","coordinates":[[[54.4166,24.488263],[54.416596,24.488328],[54.416696,24.488334],[54.4167,24.488269],[54.4166,24.488263]]]}},{"type":"Feature","properties":{},"geometry":{"type":"Polygon","coordinates":[[[54.416573,24.488497],[54.416574,24.488424],[54.416394,24.488418],[54.416395,24.488391],[54.41632,24.488388],[54.416322,24.48828],[54.416236,24.488277],[54.416234,24.488366],[54.416232,24.488352],[54.416146,24.488352],[54.41615,24.488389],[54.416233,24.488389],[54.416232,24.488489],[54.416573,24.488497]]]}},{"type":"Feature","properties":{},"geometry":{"type":"Polygon","coordinates":[[[54.416695,24.488368],[54.416694,24.488407],[54.416769,24.488411],[54.41677,24.488372],[54.416695,24.488368]]]}},{"type":"Feature","properties":{},"geometry":{"type":"Polygon","coordinates":[[[54.416652,24.488434],[54.416649,24.488477],[54.41674,24.488483],[54.416742,24.488439],[54.416652,24.488434]]]}},{"type":"Feature","properties":{},"geometry":{"type":"Polygon","coordinates":[[[54.416223,24.488882],[54.416227,24.488989],[54.416303,24.488991],[54.416298,24.488884],[54.416223,24.488882]]]}},{"type":"Feature","properties":{},"geometry":{"type":"Polygon","coordinates":[[[54.415999,24.488841],[54.416006,24.489041],[54.416111,24.489043],[54.416104,24.488843],[54.415999,24.488841]]]}},{"type":"Feature","properties":{},"geometry":{"type":"Polygon","coordinates":[[[54.41562,24.488852],[54.415624,24.489052],[54.415728,24.489054],[54.415725,24.488854],[54.41562,24.488852]]]}},{"type":"Feature","properties":{},"geometry":{"type":"Polygon","coordinates":[[[54.415922,24.489142],[54.415919,24.489098],[54.415719,24.489105],[54.415722,24.489146],[54.415922,24.489142]]]}},{"type":"Feature","properties":{},"geometry":{"type":"Polygon","coordinates":[[[54.415881,24.489174],[54.415784,24.489169],[54.415782,24.48925],[54.415878,24.489254],[54.415881,24.489174]]]}},{"type":"Feature","properties":{},"geometry":{"type":"Polygon","coordinates":[[[54.415416,24.489523],[54.415421,24.489677],[54.416338,24.489658],[54.416336,24.489589],[54.416315,24.489588],[54.416313,24.489505],[54.415416,24.489523]]]}},{"type":"Feature","properties":{},"geometry":{"type":"Polygon","coordinates":[[[54.41724,24.501685],[54.417163,24.501757],[54.41722,24.501818],[54.417181,24.501902],[54.417059,24.501949],[54.417254,24.502089],[54.4173,24.502093],[54.417516,24.501889],[54.417286,24.501689],[54.41724,24.501685]]]}},{"type":"Feature","properties":{},"geometry":{"type":"Polygon","coordinates":[[[54.416805,24.501887],[54.41682,24.501934],[54.416911,24.501926],[54.416896,24.501879],[54.416805,24.501887]]]}},{"type":"Feature","properties":{},"geometry":{"type":"Polygon","coordinates":[[[54.416804,24.501968],[54.416803,24.501919],[54.416572,24.501928],[54.416574,24.501975],[54.416804,24.501968]]]}},{"type":"Feature","properties":{},"geometry":{"type":"Polygon","coordinates":[[[54.41759,24.502323],[54.417548,24.502351],[54.417577,24.502387],[54.417623,24.502391],[54.417665,24.502363],[54.417636,24.502326],[54.41759,24.502323]]]}},{"type":"Feature","properties":{},"geometry":{"type":"Polygon","coordinates":[[[54.417885,24.502453],[54.417861,24.502478],[54.417908,24.502514],[54.417954,24.502518],[54.417978,24.502492],[54.417931,24.502456],[54.417885,24.502453]]]}},{"type":"Feature","properties":{},"geometry":{"type":"Polygon","coordinates":[[[54.415501,24.502417],[54.415496,24.502476],[54.415568,24.502481],[54.415572,24.502422],[54.415501,24.502417]]]}},{"type":"Feature","properties":{},"geometry":{"type":"Polygon","coordinates":[[[54.417421,24.502442],[54.417421,24.502556],[54.417546,24.502565],[54.41755,24.502445],[54.417421,24.502442]]]}},{"type":"Feature","properties":{},"geometry":{"type":"Polygon","coordinates":[[[54.416892,24.50263],[54.416893,24.502654],[54.417042,24.502655],[54.417041,24.502631],[54.416892,24.50263]]]}},{"type":"Feature","properties":{},"geometry":{"type":"MultiPolygon","coordinates":[[[[54.415514,24.502607],[54.41539,24.502607],[54.415392,24.50264],[54.415438,24.502644],[54.415515,24.50264],[54.415514,24.502607]]],[[[54.415395,24.502643],[54.415395,24.502682],[54.415512,24.502685],[54.415512,24.502647],[54.415438,24.502644],[54.415395,24.502643]]]]}},{"type":"Feature","properties":{},"geometry":{"type":"Polygon","coordinates":[[[54.417348,24.502789],[54.417346,24.502745],[54.417349,24.502775],[54.417454,24.502774],[54.417448,24.502714],[54.4171,24.502719],[54.416945,24.502702],[54.416942,24.502762],[54.417059,24.502769],[54.41706,24.502794],[54.417348,24.502789]]]}},{"type":"Feature","properties":{},"geometry":{"type":"Polygon","coordinates":[[[54.41566,24.502816],[54.415664,24.502788],[54.415565,24.502779],[54.415561,24.502807],[54.41566,24.502816]]]}},{"type":"Feature","properties":{},"geometry":{"type":"Polygon","coordinates":[[[54.415396,24.502784],[54.415403,24.502838],[54.415511,24.502835],[54.415504,24.502781],[54.415396,24.502784]]]}},{"type":"Feature","properties":{},"geometry":{"type":"Polygon","coordinates":[[[54.415689,24.502779],[54.415685,24.502856],[54.415857,24.502865],[54.415861,24.502787],[54.415689,24.502779]]]}},{"type":"Feature","properties":{},"geometry":{"type":"Polygon","coordinates":[[[54.415439,24.50285],[54.415447,24.502901],[54.415551,24.502896],[54.415542,24.502846],[54.415439,24.50285]]]}},{"type":"Feature","properties":{},"geometry":{"type":"Polygon","coordinates":[[[54.417267,24.503056],[54.417265,24.503098],[54.417418,24.503105],[54.41742,24.503063],[54.417267,24.503056]]]}},{"type":"Feature","properties":{},"geometry":{"type":"Polygon","coordinates":[[[54.417651,24.503232],[54.41765,24.503171],[54.417571,24.503169],[54.417572,24.503142],[54.417465,24.503137],[54.417461,24.503227],[54.417651,24.503232]]]}},{"type":"Feature","properties":{},"geometry":{"type":"Polygon","coordinates":[[[54.415635,24.503418],[54.415632,24.503473],[54.415772,24.50348],[54.415774,24.503425],[54.415635,24.503418]]]}},{"type":"Feature","properties":{},"geometry":{"type":"Polygon","coordinates":[[[54.415809,24.503559],[54.415813,24.503642],[54.415901,24.503644],[54.415898,24.503561],[54.415809,24.503559]]]}},{"type":"Feature","properties":{},"geometry":{"type":"Polygon","coordinates":[[[54.417664,24.503569],[54.417657,24.503786],[54.417736,24.50379],[54.417743,24.503573],[54.417664,24.503569]]]}},{"type":"Feature","properties":{},"geometry":{"type":"Polygon","coordinates":[[[54.415356,24.503984],[54.415365,24.504022],[54.41547,24.504013],[54.41546,24.503976],[54.415356,24.503984]]]}},{"type":"Feature","properties":{},"geometry":{"type":"Polygon","coordinates":[[[54.415441,24.504421],[54.415396,24.504457],[54.415445,24.504508],[54.415491,24.504511],[54.415536,24.504476],[54.415487,24.504425],[54.415441,24.504421]]]}},{"type":"Feature","properties":{},"geometry":{"type":"Polygon","coordinates":[[[54.415816,24.504822],[54.415994,24.504674],[54.415798,24.504512],[54.41561,24.504498],[54.415451,24.504656],[54.415629,24.504809],[54.415816,24.504822]]]}},{"type":"Feature","properties":{},"geometry":{"type":"Polygon","coordinates":[[[54.415784,24.50493],[54.415737,24.504966],[54.415794,24.505027],[54.41584,24.50503],[54.415887,24.504994],[54.41583,24.504933],[54.415784,24.50493]]]}},{"type":"Feature","properties":{},"geometry":{"type":"Polygon","coordinates":[[[54.415446,24.504841],[54.415232,24.504826],[54.415073,24.504983],[54.415251,24.505136],[54.415359,24.505159],[54.415378,24.505145],[54.415465,24.505151],[54.415642,24.505003],[54.415446,24.504841]]]}},{"type":"Feature","properties":{},"geometry":{"type":"Polygon","coordinates":[[[54.418984,24.480055],[54.418873,24.480042],[54.418867,24.480078],[54.418943,24.480088],[54.418942,24.480131],[54.419025,24.480135],[54.419027,24.480074],[54.418982,24.480071],[54.418984,24.480055]]]}},{"type":"Feature","properties":{},"geometry":{"type":"Polygon","coordinates":[[[54.420703,24.480302],[54.420706,24.48024],[54.420569,24.480232],[54.420562,24.480364],[54.420947,24.480392],[54.420949,24.480345],[54.420741,24.480336],[54.420742,24.480305],[54.420703,24.480302]]]}},{"type":"Feature","properties":{},"geometry":{"type":"Polygon","coordinates":[[[54.420033,24.480886],[54.420039,24.480832],[54.419929,24.480822],[54.419923,24.480877],[54.420033,24.480886]]]}},{"type":"Feature","properties":{},"geometry":{"type":"Polygon","coordinates":[[[54.418925,24.481699],[54.418944,24.481564],[54.418579,24.481524],[54.41856,24.481659],[54.418925,24.481699]]]}},{"type":"Feature","properties":{},"geometry":{"type":"Polygon","coordinates":[[[54.419346,24.481787],[54.419368,24.481633],[54.418982,24.481589],[54.41896,24.481742],[54.419346,24.481787]]]}},{"type":"Feature","properties":{},"geometry":{"type":"Polygon","coordinates":[[[54.419774,24.48181],[54.419794,24.481673],[54.419421,24.481631],[54.419401,24.481768],[54.419774,24.48181]]]}},{"type":"Feature","properties":{},"geometry":{"type":"Polygon","coordinates":[[[54.42007,24.481706],[54.420064,24.481769],[54.420246,24.481775],[54.420248,24.481724],[54.42007,24.481706]]]}},{"type":"Feature","properties":{},"geometry":{"type":"Polygon","coordinates":[[[54.418544,24.481691],[54.41855,24.481831],[54.418779,24.481828],[54.418775,24.481746],[54.41872,24.481743],[54.418718,24.481689],[54.418544,24.481691]]]}},{"type":"Feature","properties":{},"geometry":{"type":"Polygon","coordinates":[[[54.418901,24.481859],[54.418914,24.481779],[54.418826,24.48177],[54.418813,24.48185],[54.418901,24.481859]]]}},{"type":"Feature","properties":{},"geometry":{"type":"Polygon","coordinates":[[[54.420643,24.481954],[54.420666,24.481791],[54.420283,24.481748],[54.42026,24.481911],[54.420643,24.481954]]]}},{"type":"Feature","properties":{},"geometry":{"type":"Polygon","coordinates":[[[54.420715,24.481813],[54.420707,24.481946],[54.421078,24.481966],[54.421086,24.481833],[54.420715,24.481813]]]}},{"type":"Feature","properties":{},"geometry":{"type":"Polygon","coordinates":[[[54.420201,24.482027],[54.420217,24.481892],[54.419851,24.481856],[54.419834,24.481991],[54.420201,24.482027]]]}},{"type":"Feature","properties":{},"geometry":{"type":"Polygon","coordinates":[[[54.421033,24.482138],[54.421053,24.482015],[54.420697,24.48197],[54.420677,24.482093],[54.421033,24.482138]]]}},{"type":"Feature","properties":{},"geometry":{"type":"Polygon","coordinates":[[[54.419645,24.48212],[54.419664,24.481989],[54.419294,24.481947],[54.419275,24.482078],[54.419645,24.48212]]]}},{"type":"Feature","properties":{},"geometry":{"type":"Polygon","coordinates":[[[54.418867,24.482065],[54.418883,24.481994],[54.418801,24.481985],[54.418785,24.482055],[54.418867,24.482065]]]}},{"type":"Feature","properties":{},"geometry":{"type":"Polygon","coordinates":[[[54.42049,24.482113],[54.420514,24.482023],[54.420378,24.481999],[54.420353,24.482089],[54.42049,24.482113]]]}},{"type":"Feature","properties":{},"geometry":{"type":"Polygon","coordinates":[[[54.419632,24.482156],[54.419255,24.482114],[54.419228,24.482308],[54.419561,24.482348],[54.419372,24.482333],[54.419365,24.482406],[54.419551,24.482424],[54.419212,24.482394],[54.419192,24.482579],[54.419571,24.482612],[54.419576,24.48257],[54.419644,24.482575],[54.419678,24.482241],[54.41987,24.482264],[54.419855,24.482394],[54.420237,24.48243],[54.420261,24.482225],[54.419879,24.482189],[54.419874,24.482224],[54.419682,24.482201],[54.419683,24.482189],[54.419768,24.482198],[54.419771,24.482181],[54.419846,24.482182],[54.419846,24.482134],[54.419747,24.482121],[54.419883,24.482119],[54.419881,24.482023],[54.419674,24.482022],[54.419676,24.482113],[54.419661,24.482112],[54.419648,24.482182],[54.419629,24.482181],[54.419632,24.482156]]]}},{"type":"Feature","properties":{},"geometry":{"type":"Polygon","coordinates":[[[54.419242,24.482147],[54.419252,24.482067],[54.418884,24.482029],[54.418874,24.482108],[54.419242,24.482147]]]}},{"type":"Feature","properties":{},"geometry":{"type":"Polygon","coordinates":[[[54.420253,24.482198],[54.420274,24.482068],[54.419907,24.482023],[54.419887,24.482154],[54.420253,24.482198]]]}},{"type":"Feature","properties":{},"geometry":{"type":"Polygon","coordinates":[[[54.418843,24.482255],[54.418863,24.482128],[54.418494,24.482084],[54.418475,24.482211],[54.418843,24.482255]]]}},{"type":"Feature","properties":{},"geometry":{"type":"Polygon","coordinates":[[[54.420623,24.482327],[54.420634,24.482265],[54.42027,24.482219],[54.42026,24.482281],[54.420623,24.482327]]]}},{"type":"Feature","properties":{},"geometry":{"type":"Polygon","coordinates":[[[54.421,24.482364],[54.421013,24.482244],[54.420657,24.482212],[54.420643,24.482332],[54.421,24.482364]]]}},{"type":"Feature","properties":{},"geometry":{"type":"Polygon","coordinates":[[[54.420607,24.482482],[54.420626,24.48235],[54.420258,24.482308],[54.420239,24.48244],[54.420607,24.482482]]]}},{"type":"Feature","properties":{},"geometry":{"type":"Polygon","coordinates":[[[54.420972,24.482529],[54.420991,24.482407],[54.420635,24.482364],[54.420616,24.482487],[54.420972,24.482529]]]}},{"type":"Feature","properties":{},"geometry":{"type":"Polygon","coordinates":[[[54.419188,24.48251],[54.419209,24.482376],[54.418842,24.482331],[54.418821,24.482465],[54.419188,24.48251]]]}},{"type":"Feature","properties":{},"geometry":{"type":"Polygon","coordinates":[[[54.419173,24.482599],[54.419182,24.48254],[54.418814,24.482496],[54.418805,24.482555],[54.419173,24.482599]]]}},{"type":"Feature","properties":{},"geometry":{"type":"Polygon","coordinates":[[[54.420201,24.482671],[54.420222,24.482502],[54.41984,24.482465],[54.419816,24.482661],[54.420191,24.482697],[54.420186,24.482738],[54.42056,24.482774],[54.420568,24.482707],[54.420201,24.482671]]]}},{"type":"Feature","properties":{},"geometry":{"type":"Polygon","coordinates":[[[54.420577,24.482679],[54.420591,24.482548],[54.420223,24.482516],[54.420209,24.482647],[54.420577,24.482679]]]}},{"type":"Feature","properties":{},"geometry":{"type":"Polygon","coordinates":[[[54.420606,24.482548],[54.420587,24.482694],[54.420941,24.482731],[54.420962,24.482585],[54.420606,24.482548]]]}},{"type":"Feature","properties":{},"geometry":{"type":"Polygon","coordinates":[[[54.41954,24.482794],[54.41956,24.482662],[54.419191,24.482619],[54.419171,24.48275],[54.41954,24.482794]]]}},{"type":"Feature","properties":{},"geometry":{"type":"Polygon","coordinates":[[[54.419072,24.482777],[54.4191,24.482691],[54.418957,24.482661],[54.418929,24.482747],[54.419072,24.482777]]]}},{"type":"Feature","properties":{},"geometry":{"type":"Polygon","coordinates":[[[54.420149,24.482873],[54.420169,24.482741],[54.419802,24.482698],[54.419782,24.48283],[54.420149,24.482873]]]}},{"type":"Feature","properties":{},"geometry":{"type":"Polygon","coordinates":[[[54.420917,24.482894],[54.420934,24.482772],[54.420578,24.482733],[54.420561,24.482854],[54.420917,24.482894]]]}},{"type":"Feature","properties":{},"geometry":{"type":"Polygon","coordinates":[[[54.4204,24.482952],[54.420434,24.482861],[54.4203,24.48283],[54.420265,24.48292],[54.4204,24.482952]]]}},{"type":"Feature","properties":{},"geometry":{"type":"Polygon","coordinates":[[[54.418895,24.482854],[54.418897,24.482821],[54.418763,24.482813],[54.418757,24.482922],[54.418864,24.482929],[54.418857,24.482995],[54.419235,24.483028],[54.419246,24.482929],[54.419597,24.482965],[54.419613,24.482832],[54.419245,24.482795],[54.419233,24.482884],[54.418895,24.482854]]]}},{"type":"Feature","properties":{},"geometry":{"type":"Polygon","coordinates":[[[54.420049,24.483024],[54.420067,24.482889],[54.4197,24.48285],[54.419682,24.482985],[54.420049,24.483024]]]}},{"type":"Feature","properties":{},"geometry":{"type":"Polygon","coordinates":[[[54.420881,24.48313],[54.420898,24.48301],[54.420544,24.48297],[54.420527,24.48309],[54.420881,24.48313]]]}},{"type":"Feature","properties":{},"geometry":{"type":"Polygon","coordinates":[[[54.42003,24.483166],[54.420043,24.483046],[54.419673,24.483014],[54.41966,24.483134],[54.42003,24.483166]]]}},{"type":"Feature","properties":{},"geometry":{"type":"Polygon","coordinates":[[[54.42046,24.483197],[54.420478,24.483035],[54.420094,24.483],[54.420075,24.483162],[54.42046,24.483197]]]}},{"type":"Feature","properties":{},"geometry":{"type":"Polygon","coordinates":[[[54.420872,24.483281],[54.420885,24.483153],[54.42052,24.483123],[54.420507,24.483251],[54.420872,24.483281]]]}},{"type":"Feature","properties":{},"geometry":{"type":"Polygon","coordinates":[[[54.419482,24.489262],[54.419484,24.489303],[54.419588,24.489304],[54.419585,24.489262],[54.419482,24.489262]]]}},{"type":"Feature","properties":{},"geometry":{"type":"Polygon","coordinates":[[[54.41933,24.489268],[54.419331,24.489307],[54.419479,24.489307],[54.419477,24.489268],[54.41933,24.489268]]]}},{"type":"Feature","properties":{},"geometry":{"type":"Polygon","coordinates":[[[54.419591,24.489266],[54.419592,24.48932],[54.419741,24.489322],[54.41974,24.489268],[54.419591,24.489266]]]}},{"type":"Feature","properties":{},"geometry":{"type":"Polygon","coordinates":[[[54.418987,24.489305],[54.418994,24.489429],[54.419129,24.489429],[54.419123,24.489304],[54.418987,24.489305]]]}},{"type":"Feature","properties":{},"geometry":{"type":"Polygon","coordinates":[[[54.419557,24.489378],[54.419554,24.489481],[54.419704,24.489487],[54.419707,24.489384],[54.419557,24.489378]]]}},{"type":"Feature","properties":{},"geometry":{"type":"Polygon","coordinates":[[[54.419157,24.48954],[54.419166,24.489612],[54.419238,24.489612],[54.419229,24.48954],[54.419157,24.48954]]]}},{"type":"Feature","properties":{},"geometry":{"type":"Polygon","coordinates":[[[54.419563,24.489776],[54.419564,24.489821],[54.419731,24.489822],[54.419729,24.489777],[54.419563,24.489776]]]}},{"type":"Feature","properties":{},"geometry":{"type":"Polygon","coordinates":[[[54.419708,24.490296],[54.419705,24.490176],[54.419611,24.490173],[54.419613,24.490253],[54.419571,24.490258],[54.419579,24.490298],[54.419708,24.490296]]]}},{"type":"Feature","properties":{},"geometry":{"type":"Polygon","coordinates":[[[54.419381,24.490183],[54.419387,24.490305],[54.419484,24.490306],[54.419478,24.490185],[54.419381,24.490183]]]}},{"type":"Feature","properties":{},"geometry":{"type":"Polygon","coordinates":[[[54.419239,24.490277],[54.41924,24.490311],[54.419361,24.490312],[54.41936,24.490278],[54.419239,24.490277]]]}},{"type":"Feature","properties":{},"geometry":{"type":"Polygon","coordinates":[[[54.418376,24.5023],[54.418174,24.502378],[54.418218,24.502471],[54.418264,24.502475],[54.418466,24.502396],[54.418422,24.502303],[54.418376,24.5023]]]}}]}