{"type":"FeatureCollection","features":[{"type":"Feature","properties":{},"geometry":{"type":"Polygon","coordinates":[[[54.390697,24.482594],[54.390718,24.482472],[54.39058,24.482459],[54.390554,24.48251],[54.390537,24.482633],[54.390671,24.482645],[54.390697,24.482594]]]}},{"type":"Feature","properties":{},"geometry":{"type":"Polygon","coordinates":[[[54.391035,24.482607],[54.390942,24.482565],[54.390799,24.482823],[54.390885,24.482867],[54.391035,24.482607]]]}},{"type":"Feature","properties":{},"geometry":{"type":"Polygon","coordinates":[[[54.391149,24.48266],[54.391062,24.48262],[54.39092,24.482879],[54.391001,24.482918],[54.391149,24.48266]]]}},{"type":"Feature","properties":{},"geometry":{"type":"Polygon","coordinates":[[[54.390518,24.482654],[54.390434,24.482786],[54.390683,24.482924],[54.390765,24.482792],[54.390518,24.482654]]]}},{"type":"Feature","properties":{},"geometry":{"type":"Polygon","coordinates":[[[54.391128,24.482801],[54.39123,24.482849],[54.391191,24.482839],[54.391124,24.482953],[54.391169,24.482976],[54.391229,24.482871],[54.391208,24.48293],[54.391356,24.482997],[54.391462,24.482801],[54.391195,24.48268],[54.391128,24.482801]]]}},{"type":"Feature","properties":{},"geometry":{"type":"Polygon","coordinates":[[[54.390062,24.482824],[54.389997,24.482755],[54.389907,24.482825],[54.389881,24.482876],[54.389946,24.482945],[54.390036,24.482875],[54.390062,24.482824]]]}},{"type":"Feature","properties":{},"geometry":{"type":"Polygon","coordinates":[[[54.391641,24.483054],[54.391742,24.482883],[54.391509,24.482769],[54.391248,24.483221],[54.391476,24.483333],[54.39158,24.48316],[54.391493,24.483098],[54.391538,24.483024],[54.391584,24.483048],[54.391594,24.48303],[54.391641,24.483054]]]}},{"type":"Feature","properties":{},"geometry":{"type":"Polygon","coordinates":[[[54.392042,24.483006],[54.391995,24.483094],[54.392091,24.48314],[54.392141,24.483051],[54.392042,24.483006]]]}},{"type":"Feature","properties":{},"geometry":{"type":"Polygon","coordinates":[[[54.391056,24.482942],[54.390971,24.483076],[54.391211,24.483219],[54.391302,24.483085],[54.391056,24.482942]]]}},{"type":"Feature","properties":{},"geometry":{"type":"Polygon","coordinates":[[[54.392225,24.483178],[54.392281,24.483077],[54.392174,24.483027],[54.392119,24.483129],[54.392225,24.483178]]]}},{"type":"Feature","properties":{},"geometry":{"type":"Polygon","coordinates":[[[54.392319,24.48314],[54.392267,24.483114],[54.39218,24.483269],[54.392234,24.483294],[54.392319,24.48314]]]}},{"type":"Feature","properties":{},"geometry":{"type":"Polygon","coordinates":[[[54.392476,24.48318],[54.392379,24.483134],[54.392255,24.483363],[54.392348,24.483405],[54.392476,24.48318]]]}},{"type":"Feature","properties":{},"geometry":{"type":"Polygon","coordinates":[[[54.391585,24.483508],[54.391627,24.483427],[54.391532,24.483387],[54.39149,24.483468],[54.391585,24.483508]]]}},{"type":"Feature","properties":{},"geometry":{"type":"Polygon","coordinates":[[[54.391274,24.483685],[54.391221,24.483731],[54.391381,24.483549],[54.391408,24.483498],[54.391224,24.483358],[54.391015,24.483564],[54.390988,24.483615],[54.391189,24.483758],[54.39116,24.483811],[54.391298,24.483947],[54.391385,24.483871],[54.391411,24.48382],[54.391274,24.483685]]]}},{"type":"Feature","properties":{},"geometry":{"type":"Polygon","coordinates":[[[54.390771,24.484369],[54.39068,24.484447],[54.390653,24.484498],[54.390772,24.484614],[54.390864,24.484536],[54.39089,24.484485],[54.390771,24.484369]]]}},{"type":"Feature","properties":{},"geometry":{"type":"Polygon","coordinates":[[[54.392354,24.489029],[54.392574,24.489117],[54.392681,24.48919],[54.392853,24.489382],[54.393222,24.489235],[54.393239,24.489339],[54.39377,24.48927],[54.393803,24.489206],[54.39375,24.488869],[54.393172,24.488945],[54.393098,24.488906],[54.393043,24.488846],[54.393017,24.488786],[54.39301,24.488722],[54.393023,24.488665],[54.393073,24.488618],[54.393148,24.488582],[54.393674,24.488536],[54.393708,24.488472],[54.393649,24.487917],[54.392872,24.487985],[54.392839,24.488048],[54.392874,24.488385],[54.392655,24.488656],[54.392483,24.488575],[54.392314,24.488534],[54.392276,24.488621],[54.392215,24.488605],[54.392182,24.488669],[54.392091,24.489004],[54.392354,24.489029]]]}},{"type":"Feature","properties":{},"geometry":{"type":"Polygon","coordinates":[[[54.392269,24.490997],[54.392342,24.490934],[54.39247,24.490934],[54.392536,24.491061],[54.392951,24.491007],[54.393267,24.491193],[54.393369,24.491053],[54.393451,24.491158],[54.393544,24.491212],[54.39365,24.491237],[54.393722,24.491234],[54.393423,24.491609],[54.393476,24.491753],[54.393812,24.491985],[54.395053,24.490483],[54.394882,24.49037],[54.394497,24.490409],[54.394745,24.489924],[54.394704,24.489573],[54.394603,24.489582],[54.394592,24.489484],[54.39451,24.489491],[54.394664,24.489197],[54.394637,24.488975],[54.394656,24.488994],[54.394873,24.488818],[54.395185,24.488219],[54.395148,24.488182],[54.395209,24.488065],[54.395033,24.487884],[54.39537,24.487249],[54.395338,24.487219],[54.395256,24.487186],[54.395144,24.487174],[54.395019,24.487192],[54.39497,24.487235],[54.394795,24.487542],[54.394747,24.487473],[54.39462,24.487343],[54.394572,24.487382],[54.394555,24.487364],[54.394369,24.487515],[54.394342,24.487566],[54.394476,24.487702],[54.394421,24.487749],[54.394275,24.4876],[54.394095,24.487756],[54.39404,24.487864],[54.394171,24.48799],[54.394494,24.488354],[54.394585,24.488283],[54.394271,24.488879],[54.39419,24.488888],[54.393824,24.489589],[54.393852,24.489817],[54.393513,24.489847],[54.393237,24.48969],[54.392995,24.489698],[54.392962,24.489761],[54.392871,24.490129],[54.392835,24.490207],[54.392767,24.490289],[54.392729,24.490281],[54.392598,24.490361],[54.392349,24.490475],[54.392143,24.490511],[54.391935,24.490511],[54.391736,24.490465],[54.391687,24.490565],[54.391696,24.490608],[54.391618,24.490774],[54.39169,24.490843],[54.391909,24.490885],[54.392269,24.490997]],[[54.393842,24.490574],[54.393796,24.490564],[54.393917,24.490417],[54.393942,24.490631],[54.393842,24.490574]],[[54.394051,24.490037],[54.39396,24.490212],[54.393911,24.489932],[54.394019,24.489921],[54.394033,24.490039],[54.394051,24.490037]],[[54.394011,24.490704],[54.393974,24.490665],[54.394099,24.490653],[54.394112,24.49076],[54.394056,24.490827],[54.394011,24.490704]]]}},{"type":"Feature","properties":{},"geometry":{"type":"Polygon","coordinates":[[[54.392142,24.491215],[54.392183,24.491541],[54.392476,24.491511],[54.392502,24.49146],[54.392494,24.49139],[54.392869,24.491351],[54.392896,24.4913],[54.392869,24.491091],[54.392169,24.491164],[54.392142,24.491215]]]}},{"type":"Feature","properties":{},"geometry":{"type":"Polygon","coordinates":[[[54.392963,24.492093],[54.39299,24.491892],[54.392934,24.491532],[54.39246,24.491593],[54.392434,24.491644],[54.39252,24.492197],[54.392936,24.492143],[54.392963,24.492093]]]}},{"type":"Feature","properties":{},"geometry":{"type":"Polygon","coordinates":[[[54.39287,24.492786],[54.392808,24.492401],[54.392226,24.492479],[54.392199,24.49253],[54.392262,24.492915],[54.392844,24.492837],[54.39287,24.492786]]]}},{"type":"Feature","properties":{},"geometry":{"type":"Polygon","coordinates":[[[54.390693,24.492868],[54.390587,24.492771],[54.390399,24.492942],[54.390372,24.492993],[54.390478,24.493089],[54.390666,24.492919],[54.390693,24.492868]]]}},{"type":"Feature","properties":{},"geometry":{"type":"Polygon","coordinates":[[[54.390121,24.493761],[54.389311,24.493854],[54.389285,24.493905],[54.389334,24.494259],[54.390144,24.494166],[54.39017,24.494115],[54.390121,24.493761]]]}},{"type":"Feature","properties":{},"geometry":{"type":"Polygon","coordinates":[[[54.392714,24.496131],[54.39277,24.496089],[54.39363,24.496004],[54.393656,24.495953],[54.393572,24.495316],[54.392676,24.495443],[54.392649,24.495494],[54.392714,24.496131]]]}},{"type":"Feature","properties":{},"geometry":{"type":"Polygon","coordinates":[[[54.390147,24.496156],[54.390178,24.496414],[54.390365,24.496391],[54.390482,24.496395],[54.390509,24.496344],[54.390506,24.49627],[54.390426,24.496272],[54.390448,24.496231],[54.390439,24.496163],[54.390485,24.496159],[54.390488,24.496197],[54.390531,24.496195],[54.390541,24.496383],[54.390616,24.496379],[54.390643,24.496328],[54.39063,24.496099],[54.390576,24.495677],[54.390109,24.495729],[54.390082,24.49578],[54.390087,24.495888],[54.390205,24.495884],[54.390212,24.495869],[54.390237,24.496073],[54.390224,24.496025],[54.390147,24.496033],[54.390121,24.496083],[54.39013,24.496158],[54.390147,24.496156]]]}},{"type":"Feature","properties":{},"geometry":{"type":"Polygon","coordinates":[[[54.391661,24.496974],[54.391541,24.496979],[54.391514,24.497029],[54.391516,24.497068],[54.391637,24.497063],[54.391663,24.497013],[54.391661,24.496974]]]}},{"type":"Feature","properties":{},"geometry":{"type":"Polygon","coordinates":[[[54.391497,24.496987],[54.391422,24.496985],[54.391394,24.49707],[54.391469,24.497072],[54.391497,24.496987]]]}},{"type":"Feature","properties":{},"geometry":{"type":"Polygon","coordinates":[[[54.391662,24.49708],[54.391607,24.49709],[54.391581,24.497141],[54.391589,24.497178],[54.391643,24.497169],[54.39167,24.497118],[54.391662,24.49708]]]}},{"type":"Feature","properties":{},"geometry":{"type":"Polygon","coordinates":[[[54.391205,24.497229],[54.391203,24.497292],[54.391316,24.497295],[54.391343,24.497244],[54.391345,24.497181],[54.391286,24.497179],[54.391308,24.497125],[54.391309,24.497052],[54.391186,24.49705],[54.391159,24.497101],[54.391157,24.497195],[54.391222,24.497196],[54.391205,24.497229]]]}},{"type":"Feature","properties":{},"geometry":{"type":"Polygon","coordinates":[[[54.393355,24.498117],[54.393313,24.498116],[54.393286,24.498167],[54.393284,24.498248],[54.393325,24.498249],[54.393352,24.498198],[54.393355,24.498117]]]}},{"type":"Feature","properties":{},"geometry":{"type":"Polygon","coordinates":[[[54.391505,24.497815],[54.391368,24.497883],[54.391102,24.498392],[54.391138,24.498632],[54.391231,24.498688],[54.391647,24.498669],[54.391913,24.49816],[54.391881,24.497941],[54.391505,24.497815]]]}},{"type":"Feature","properties":{},"geometry":{"type":"Polygon","coordinates":[[[54.390929,24.498107],[54.389896,24.498215],[54.38987,24.498266],[54.389914,24.498619],[54.390947,24.498512],[54.390974,24.498461],[54.390929,24.498107]]]}},{"type":"Feature","properties":{},"geometry":{"type":"Polygon","coordinates":[[[54.391889,24.500727],[54.391623,24.500751],[54.391597,24.500802],[54.391634,24.50105],[54.391895,24.50102],[54.391921,24.500969],[54.391889,24.500727]]]}},{"type":"Feature","properties":{},"geometry":{"type":"Polygon","coordinates":[[[54.39028,24.502594],[54.390357,24.503193],[54.391108,24.503129],[54.391157,24.503036],[54.39111,24.502608],[54.39137,24.502573],[54.391418,24.50248],[54.39098,24.498843],[54.389877,24.498968],[54.389828,24.499061],[54.390252,24.502379],[54.389868,24.502417],[54.389828,24.502493],[54.389847,24.502643],[54.39028,24.502594]]]}},{"type":"Feature","properties":{},"geometry":{"type":"Polygon","coordinates":[[[54.392073,24.503733],[54.392165,24.503721],[54.392191,24.50367],[54.392183,24.503621],[54.392091,24.503633],[54.392065,24.503684],[54.392073,24.503733]]]}},{"type":"Feature","properties":{},"geometry":{"type":"Polygon","coordinates":[[[54.392554,24.503762],[54.392463,24.503763],[54.392436,24.503814],[54.392437,24.503863],[54.392528,24.503862],[54.392554,24.503811],[54.392554,24.503762]]]}},{"type":"Feature","properties":{},"geometry":{"type":"Polygon","coordinates":[[[54.392274,24.503831],[54.392268,24.503729],[54.392105,24.503737],[54.392078,24.503788],[54.392084,24.50389],[54.392248,24.503882],[54.392274,24.503831]]]}},{"type":"Feature","properties":{},"geometry":{"type":"Polygon","coordinates":[[[54.392371,24.504458],[54.392477,24.504452],[54.392504,24.504401],[54.392501,24.504354],[54.392565,24.504336],[54.392592,24.504285],[54.39258,24.504249],[54.392511,24.504268],[54.392497,24.504296],[54.392488,24.504165],[54.392435,24.504168],[54.392563,24.504153],[54.39259,24.504102],[54.392558,24.503881],[54.392347,24.503906],[54.392321,24.503957],[54.392353,24.504178],[54.392379,24.504175],[54.392354,24.504222],[54.392371,24.504458]]]}},{"type":"Feature","properties":{},"geometry":{"type":"Polygon","coordinates":[[[54.392104,24.503938],[54.392054,24.50394],[54.392027,24.503991],[54.392038,24.504183],[54.392089,24.504181],[54.392116,24.50413],[54.392104,24.503938]]]}},{"type":"Feature","properties":{},"geometry":{"type":"Polygon","coordinates":[[[54.392272,24.503917],[54.392164,24.503927],[54.392138,24.503978],[54.392195,24.504483],[54.392303,24.504472],[54.392329,24.504421],[54.392272,24.503917]]]}},{"type":"Feature","properties":{},"geometry":{"type":"Polygon","coordinates":[[[54.392139,24.504225],[54.39209,24.504227],[54.392063,24.504278],[54.392071,24.504446],[54.392121,24.504444],[54.392147,24.504393],[54.392139,24.504225]]]}},{"type":"Feature","properties":{},"geometry":{"type":"Polygon","coordinates":[[[54.39262,24.504452],[54.392177,24.504496],[54.392151,24.504547],[54.392184,24.504822],[54.392626,24.504778],[54.392653,24.504727],[54.39262,24.504452]]]}},{"type":"Feature","properties":{},"geometry":{"type":"Polygon","coordinates":[[[54.392228,24.504858],[54.392173,24.504863],[54.392146,24.504914],[54.392154,24.504994],[54.392209,24.504989],[54.392236,24.504938],[54.392228,24.504858]]]}},{"type":"Feature","properties":{},"geometry":{"type":"Polygon","coordinates":[[[54.392563,24.504815],[54.392452,24.504825],[54.392426,24.504876],[54.392455,24.505125],[54.392565,24.505114],[54.392592,24.505063],[54.392563,24.504815]]]}},{"type":"Feature","properties":{},"geometry":{"type":"Polygon","coordinates":[[[54.392431,24.505081],[54.392319,24.505083],[54.392292,24.505134],[54.392295,24.505244],[54.392408,24.505242],[54.392434,24.505191],[54.392431,24.505081]]]}},{"type":"Feature","properties":{},"geometry":{"type":"Polygon","coordinates":[[[54.392266,24.505103],[54.392208,24.505104],[54.392182,24.505155],[54.392185,24.505264],[54.392242,24.505263],[54.392269,24.505212],[54.392266,24.505103]]]}},{"type":"Feature","properties":{},"geometry":{"type":"Polygon","coordinates":[[[54.392737,24.505136],[54.392522,24.505149],[54.392496,24.5052],[54.392531,24.505699],[54.392746,24.505687],[54.392773,24.505636],[54.392737,24.505136]]]}},{"type":"Feature","properties":{},"geometry":{"type":"Polygon","coordinates":[[[54.389993,24.505205],[54.389795,24.505218],[54.389768,24.505269],[54.389815,24.505862],[54.39003,24.505848],[54.390056,24.505797],[54.390029,24.505456],[54.390013,24.505457],[54.389993,24.505205]]]}},{"type":"Feature","properties":{},"geometry":{"type":"Polygon","coordinates":[[[54.391859,24.506801],[54.39177,24.50681],[54.391744,24.506861],[54.39175,24.506907],[54.391839,24.506897],[54.391865,24.506847],[54.391859,24.506801]]]}},{"type":"Feature","properties":{},"geometry":{"type":"Polygon","coordinates":[[[54.392098,24.506888],[54.392088,24.506846],[54.391978,24.506869],[54.391952,24.50692],[54.391974,24.50701],[54.392041,24.506996],[54.392098,24.506888]]]}},{"type":"Feature","properties":{},"geometry":{"type":"Polygon","coordinates":[[[54.391916,24.506892],[54.39188,24.506896],[54.391853,24.506947],[54.391861,24.507008],[54.391897,24.507004],[54.391924,24.506953],[54.391916,24.506892]]]}},{"type":"Feature","properties":{},"geometry":{"type":"Polygon","coordinates":[[[54.392715,24.506783],[54.39253,24.506794],[54.392503,24.506845],[54.39253,24.507188],[54.392715,24.507176],[54.392741,24.507125],[54.392715,24.506783]]]}},{"type":"Feature","properties":{},"geometry":{"type":"Polygon","coordinates":[[[54.39194,24.507053],[54.391814,24.507055],[54.391787,24.507106],[54.391789,24.507195],[54.391915,24.507193],[54.391942,24.507142],[54.39194,24.507053]]]}},{"type":"Feature","properties":{},"geometry":{"type":"Polygon","coordinates":[[[54.392985,24.507152],[54.392904,24.50716],[54.392877,24.507211],[54.392884,24.507265],[54.392965,24.507256],[54.392992,24.507205],[54.392985,24.507152]]]}},{"type":"Feature","properties":{},"geometry":{"type":"Polygon","coordinates":[[[54.391934,24.507327],[54.391531,24.507352],[54.391504,24.507403],[54.391514,24.507541],[54.391918,24.507517],[54.391944,24.507466],[54.391934,24.507327]]]}},{"type":"Feature","properties":{},"geometry":{"type":"Polygon","coordinates":[[[54.39118,24.507431],[54.391047,24.507429],[54.39102,24.50748],[54.391019,24.507561],[54.391152,24.507562],[54.391179,24.507511],[54.39118,24.507431]]]}},{"type":"Feature","properties":{},"geometry":{"type":"Polygon","coordinates":[[[54.393076,24.508759],[54.393076,24.508781],[54.393189,24.508785],[54.393217,24.5087],[54.393104,24.508696],[54.393088,24.508726],[54.393088,24.508707],[54.39297,24.508709],[54.392943,24.50876],[54.392944,24.50879],[54.393062,24.508788],[54.393076,24.508759]]]}},{"type":"Feature","properties":{},"geometry":{"type":"Polygon","coordinates":[[[54.393021,24.509696],[54.392966,24.509789],[54.393037,24.509829],[54.393091,24.509737],[54.393021,24.509696]]]}},{"type":"Feature","properties":{},"geometry":{"type":"Polygon","coordinates":[[[54.404418,24.481364],[54.404445,24.481313],[54.404282,24.481036],[54.403673,24.48131],[54.403646,24.481361],[54.40389,24.481634],[54.404418,24.481364]]]}},{"type":"Feature","properties":{},"geometry":{"type":"Polygon","coordinates":[[[54.403038,24.483229],[54.40321,24.483131],[54.403255,24.483046],[54.403079,24.482706],[54.402754,24.48227],[54.402445,24.482395],[54.402362,24.482355],[54.402377,24.482242],[54.402291,24.482238],[54.401421,24.483154],[54.401377,24.483239],[54.401377,24.483356],[54.401419,24.483419],[54.401593,24.48346],[54.401792,24.483375],[54.402106,24.48329],[54.402526,24.4833],[54.403051,24.483481],[54.403095,24.483396],[54.403038,24.483229]]]}},{"type":"Feature","properties":{},"geometry":{"type":"Polygon","coordinates":[[[54.403313,24.485316],[54.403925,24.485851],[54.404121,24.48566],[54.404219,24.485524],[54.404367,24.485274],[54.404472,24.48503],[54.404542,24.48481],[54.40454,24.484515],[54.403751,24.484451],[54.403724,24.484502],[54.403594,24.484947],[54.403526,24.485074],[54.40334,24.485265],[54.403313,24.485316]]]}},{"type":"Feature","properties":{},"geometry":{"type":"Polygon","coordinates":[[[54.400631,24.486302],[54.40032,24.486616],[54.400169,24.486792],[54.400142,24.486843],[54.400609,24.487173],[54.400727,24.487209],[54.40084,24.487168],[54.401207,24.486363],[54.400743,24.486123],[54.400631,24.486302]]]}},{"type":"Feature","properties":{},"geometry":{"type":"Polygon","coordinates":[[[54.404408,24.486649],[54.40406,24.486285],[54.404023,24.48626],[54.403971,24.486254],[54.403234,24.486607],[54.403168,24.486735],[54.403377,24.487287],[54.403411,24.487321],[54.403463,24.487335],[54.403701,24.487251],[54.404055,24.48706],[54.404323,24.486864],[54.404417,24.486697],[54.404408,24.486649]],[[54.403956,24.486741],[54.403623,24.486912],[54.403584,24.486804],[54.40388,24.486648],[54.403956,24.486741]]]}},{"type":"Feature","properties":{},"geometry":{"type":"Polygon","coordinates":[[[54.40288,24.489596],[54.402625,24.488136],[54.402288,24.488086],[54.401773,24.487981],[54.401144,24.487765],[54.400111,24.487303],[54.399543,24.486934],[54.398968,24.486502],[54.397734,24.487851],[54.397707,24.487902],[54.398847,24.488757],[54.400169,24.48945],[54.400939,24.489764],[54.40173,24.489934],[54.402574,24.489994],[54.402854,24.489647],[54.40288,24.489596]]]}},{"type":"Feature","properties":{},"geometry":{"type":"Polygon","coordinates":[[[54.400376,24.490744],[54.400402,24.490694],[54.400362,24.490428],[54.400058,24.490467],[54.400031,24.490518],[54.400072,24.490783],[54.400376,24.490744]]]}},{"type":"Feature","properties":{},"geometry":{"type":"Polygon","coordinates":[[[54.394623,24.491927],[54.394529,24.491865],[54.394395,24.492033],[54.394249,24.492312],[54.394203,24.492278],[54.394233,24.49222],[54.393984,24.49204],[54.393805,24.492246],[54.393464,24.4929],[54.393706,24.493073],[54.393739,24.493034],[54.393843,24.493108],[54.393944,24.492992],[54.394091,24.492711],[54.394135,24.492741],[54.394107,24.492796],[54.394242,24.492885],[54.394315,24.492793],[54.394411,24.492856],[54.394486,24.492762],[54.394624,24.492497],[54.39465,24.492516],[54.394684,24.492477],[54.394787,24.492551],[54.394888,24.492434],[54.395077,24.492073],[54.395142,24.491998],[54.395487,24.491335],[54.395405,24.491276],[54.395435,24.491218],[54.395422,24.491209],[54.395626,24.490818],[54.395387,24.490647],[54.395185,24.490879],[54.394819,24.491605],[54.394754,24.49168],[54.394623,24.491927]]]}},{"type":"Feature","properties":{},"geometry":{"type":"Polygon","coordinates":[[[54.398624,24.49184],[54.398498,24.491854],[54.398472,24.491905],[54.398514,24.492227],[54.39864,24.492209],[54.398667,24.492158],[54.398624,24.49184]]]}},{"type":"Feature","properties":{},"geometry":{"type":"Polygon","coordinates":[[[54.399095,24.49242],[54.399082,24.49232],[54.398848,24.492349],[54.398825,24.492216],[54.398753,24.492225],[54.398726,24.492276],[54.398754,24.492511],[54.399069,24.492471],[54.399095,24.49242]]]}},{"type":"Feature","properties":{},"geometry":{"type":"Polygon","coordinates":[[[54.398602,24.492224],[54.398525,24.492233],[54.398499,24.492284],[54.398544,24.492613],[54.39862,24.492604],[54.398647,24.492553],[54.398602,24.492224]]]}},{"type":"Feature","properties":{},"geometry":{"type":"Polygon","coordinates":[[[54.396062,24.492332],[54.395653,24.492258],[54.395627,24.492309],[54.395561,24.492608],[54.39597,24.492682],[54.395997,24.492631],[54.396062,24.492332]]]}},{"type":"Feature","properties":{},"geometry":{"type":"Polygon","coordinates":[[[54.400649,24.492935],[54.399918,24.49302],[54.399892,24.493071],[54.399946,24.493457],[54.400677,24.493372],[54.400704,24.493321],[54.400649,24.492935]]]}},{"type":"Feature","properties":{},"geometry":{"type":"Polygon","coordinates":[[[54.403079,24.49495],[54.403082,24.49498],[54.403181,24.49497],[54.403486,24.494384],[54.403596,24.494373],[54.403626,24.494416],[54.403693,24.494442],[54.403527,24.49476],[54.403634,24.494816],[54.403648,24.494793],[54.403711,24.494826],[54.403677,24.49489],[54.403759,24.494934],[54.404158,24.494329],[54.404185,24.494278],[54.404159,24.494265],[54.404348,24.493903],[54.404527,24.493622],[54.404554,24.493571],[54.404531,24.493559],[54.404581,24.493471],[54.404418,24.493385],[54.404364,24.49347],[54.404296,24.493434],[54.404047,24.493458],[54.403978,24.493577],[54.403873,24.493527],[54.403708,24.493544],[54.403703,24.493509],[54.403359,24.493544],[54.403332,24.493595],[54.403335,24.49362],[54.403273,24.493627],[54.403247,24.493678],[54.403261,24.493791],[54.402833,24.494611],[54.402884,24.49503],[54.403003,24.495018],[54.403037,24.494954],[54.403079,24.49495]]]}},{"type":"Feature","properties":{},"geometry":{"type":"Polygon","coordinates":[[[54.393522,24.49449],[54.393515,24.494441],[54.393367,24.494459],[54.393353,24.494485],[54.39331,24.49449],[54.393283,24.494541],[54.393318,24.494781],[54.393587,24.494749],[54.393613,24.494698],[54.393582,24.494482],[54.393522,24.49449]]]}},{"type":"Feature","properties":{},"geometry":{"type":"Polygon","coordinates":[[[54.394043,24.495862],[54.394259,24.495837],[54.394285,24.495786],[54.3942,24.495176],[54.393632,24.495242],[54.393606,24.495293],[54.393713,24.496059],[54.393837,24.496045],[54.394043,24.495862]]]}},{"type":"Feature","properties":{},"geometry":{"type":"Polygon","coordinates":[[[54.402707,24.498839],[54.402691,24.498968],[54.40271,24.499079],[54.402756,24.499132],[54.402181,24.500236],[54.402236,24.500271],[54.402261,24.500306],[54.402274,24.50035],[54.402267,24.500409],[54.402432,24.500434],[54.402578,24.500417],[54.402694,24.500375],[54.402822,24.500287],[54.402893,24.500203],[54.402963,24.500253],[54.403026,24.500265],[54.403058,24.500222],[54.403348,24.500068],[54.40336,24.500045],[54.403391,24.500045],[54.403414,24.500027],[54.403531,24.500108],[54.403648,24.500161],[54.40383,24.5002],[54.403842,24.500219],[54.403825,24.500251],[54.403838,24.500574],[54.403867,24.500576],[54.403884,24.500594],[54.40387,24.500651],[54.40394,24.500696],[54.404056,24.500697],[54.404092,24.500682],[54.404109,24.500655],[54.404353,24.500188],[54.404328,24.500137],[54.404329,24.499891],[54.404383,24.499936],[54.404452,24.499941],[54.404448,24.500286],[54.404382,24.500412],[54.404421,24.500434],[54.404386,24.500548],[54.404412,24.500642],[54.404473,24.500661],[54.40456,24.500625],[54.40463,24.500564],[54.404654,24.500579],[54.404735,24.50049],[54.404828,24.500312],[54.404908,24.500294],[54.405014,24.500378],[54.405002,24.500423],[54.405123,24.500445],[54.405135,24.500421],[54.405243,24.500433],[54.405293,24.500425],[54.405347,24.500385],[54.405484,24.500123],[54.405564,24.50018],[54.405625,24.500163],[54.405649,24.500132],[54.405766,24.499908],[54.405892,24.499807],[54.406219,24.499415],[54.406373,24.499138],[54.406474,24.49889],[54.406529,24.498602],[54.406545,24.49833],[54.406522,24.498107],[54.406444,24.497802],[54.405643,24.497652],[54.405608,24.49772],[54.405755,24.49792],[54.405836,24.498088],[54.405887,24.498359],[54.405884,24.498781],[54.405848,24.49893],[54.405713,24.499138],[54.405491,24.499342],[54.405367,24.499437],[54.405053,24.499607],[54.40489,24.499654],[54.405115,24.499223],[54.405202,24.499153],[54.405309,24.498996],[54.40544,24.498736],[54.405445,24.498549],[54.405429,24.498461],[54.405388,24.498458],[54.405412,24.498398],[54.405332,24.498066],[54.405283,24.498019],[54.405209,24.498001],[54.405129,24.498028],[54.40505,24.498155],[54.404875,24.498333],[54.404801,24.498497],[54.404805,24.498568],[54.404787,24.498647],[54.404698,24.498736],[54.404569,24.498791],[54.404451,24.498802],[54.404327,24.498776],[54.404234,24.498809],[54.404127,24.498878],[54.404091,24.498947],[54.404065,24.498942],[54.404006,24.498969],[54.40397,24.499012],[54.403735,24.499462],[54.403724,24.499542],[54.403758,24.499613],[54.403781,24.499623],[54.403688,24.499633],[54.403604,24.499671],[54.403666,24.499552],[54.403667,24.499509],[54.403644,24.499465],[54.403558,24.499379],[54.40351,24.499365],[54.403464,24.499375],[54.403442,24.49941],[54.403249,24.499532],[54.403515,24.499023],[54.403464,24.498982],[54.403434,24.49893],[54.40343,24.498866],[54.403459,24.498827],[54.403514,24.498765],[54.40362,24.498694],[54.40365,24.498624],[54.403893,24.498527],[54.404034,24.498443],[54.404116,24.498355],[54.404161,24.498264],[54.404338,24.498189],[54.404458,24.497959],[54.404543,24.49789],[54.404742,24.497653],[54.404772,24.497664],[54.404837,24.497541],[54.405196,24.497058],[54.405413,24.496686],[54.405411,24.496392],[54.404485,24.49605],[54.404429,24.496156],[54.404138,24.496958],[54.403928,24.497053],[54.403873,24.497159],[54.403995,24.497422],[54.40388,24.497702],[54.403969,24.497732],[54.403878,24.497907],[54.403974,24.498097],[54.403208,24.498413],[54.403016,24.498458],[54.402864,24.498563],[54.402707,24.498839]],[[54.404197,24.4997],[54.404225,24.49967],[54.404374,24.499387],[54.404488,24.49939],[54.404308,24.499736],[54.404197,24.4997]],[[54.404071,24.499725],[54.404022,24.49982],[54.403997,24.499749],[54.403944,24.499691],[54.404071,24.499725]]]}},{"type":"Feature","properties":{},"geometry":{"type":"Polygon","coordinates":[[[54.394542,24.496821],[54.39431,24.497106],[54.394283,24.497157],[54.394364,24.497441],[54.394615,24.497559],[54.394742,24.497493],[54.394859,24.497399],[54.394885,24.497348],[54.394876,24.497284],[54.394891,24.497262],[54.39497,24.497223],[54.39503,24.497114],[54.394542,24.496821]]]}},{"type":"Feature","properties":{},"geometry":{"type":"Polygon","coordinates":[[[54.396129,24.498519],[54.396073,24.498517],[54.396046,24.498568],[54.396044,24.498634],[54.3961,24.498636],[54.396127,24.498585],[54.396129,24.498519]]]}},{"type":"Feature","properties":{},"geometry":{"type":"Polygon","coordinates":[[[54.393466,24.49866],[54.393439,24.498711],[54.393595,24.499716],[54.395343,24.499522],[54.39537,24.499471],[54.39526,24.498664],[54.395136,24.498542],[54.393466,24.49866]]]}},{"type":"Feature","properties":{},"geometry":{"type":"Polygon","coordinates":[[[54.395534,24.499827],[54.395419,24.499844],[54.395393,24.499895],[54.395421,24.500048],[54.395536,24.500031],[54.395562,24.49998],[54.395534,24.499827]]]}},{"type":"Feature","properties":{},"geometry":{"type":"Polygon","coordinates":[[[54.395273,24.500002],[54.395241,24.500009],[54.395214,24.500059],[54.395237,24.500164],[54.39527,24.500158],[54.395296,24.500107],[54.395273,24.500002]]]}},{"type":"Feature","properties":{},"geometry":{"type":"Polygon","coordinates":[[[54.394937,24.500444],[54.394916,24.50033],[54.394869,24.500337],[54.394842,24.500387],[54.394863,24.500502],[54.39491,24.500495],[54.394937,24.500444]]]}},{"type":"Feature","properties":{},"geometry":{"type":"Polygon","coordinates":[[[54.395488,24.500472],[54.394922,24.50055],[54.394896,24.500601],[54.395037,24.50145],[54.395603,24.501371],[54.39563,24.50132],[54.395488,24.500472]]]}},{"type":"Feature","properties":{},"geometry":{"type":"Polygon","coordinates":[[[54.395747,24.501897],[54.395661,24.501895],[54.395635,24.501946],[54.395631,24.502048],[54.395717,24.502051],[54.395744,24.502],[54.395747,24.501897]]]}},{"type":"Feature","properties":{},"geometry":{"type":"Polygon","coordinates":[[[54.395873,24.502153],[54.395441,24.502211],[54.395415,24.502262],[54.395465,24.50257],[54.395897,24.502512],[54.395924,24.502461],[54.395873,24.502153]]]}},{"type":"Feature","properties":{},"geometry":{"type":"Polygon","coordinates":[[[54.397473,24.504684],[54.397401,24.504687],[54.397375,24.504738],[54.39738,24.504839],[54.397453,24.504836],[54.397479,24.504785],[54.397473,24.504684]]]}},{"type":"Feature","properties":{},"geometry":{"type":"Polygon","coordinates":[[[54.393354,24.509251],[54.393317,24.509272],[54.393291,24.509323],[54.393408,24.509493],[54.393461,24.50947],[54.393352,24.509525],[54.393382,24.509472],[54.393334,24.509406],[54.393287,24.509433],[54.393261,24.509484],[54.393273,24.509501],[54.393096,24.509587],[54.393069,24.509638],[54.393117,24.509719],[54.393167,24.509686],[54.393261,24.509838],[54.393598,24.509667],[54.393617,24.509632],[54.393768,24.509555],[54.393795,24.509504],[54.393609,24.509201],[54.393631,24.5092],[54.393658,24.509149],[54.393655,24.509094],[54.393604,24.509096],[54.393578,24.509149],[54.393563,24.509125],[54.393369,24.509224],[54.393354,24.509251]]]}},{"type":"Feature","properties":{},"geometry":{"type":"Polygon","coordinates":[[[54.393853,24.509371],[54.393818,24.509388],[54.393792,24.509439],[54.393828,24.509499],[54.393863,24.509481],[54.393889,24.50943],[54.393853,24.509371]]]}},{"type":"Feature","properties":{},"geometry":{"type":"Polygon","coordinates":[[[54.393978,24.509629],[54.393951,24.50968],[54.393985,24.509729],[54.393997,24.509721],[54.393991,24.509734],[54.394038,24.509804],[54.394005,24.509858],[54.39405,24.509945],[54.394146,24.509903],[54.394173,24.509852],[54.394128,24.509765],[54.394107,24.509774],[54.394119,24.509751],[54.394058,24.50966],[54.394045,24.509668],[54.394052,24.509655],[54.394018,24.509606],[54.393978,24.509629]]]}},{"type":"Feature","properties":{},"geometry":{"type":"Polygon","coordinates":[[[54.393911,24.50995],[54.393869,24.509955],[54.393842,24.510006],[54.393848,24.510042],[54.39389,24.510036],[54.393916,24.509985],[54.393911,24.50995]]]}},{"type":"Feature","properties":{},"geometry":{"type":"Polygon","coordinates":[[[54.394195,24.509998],[54.394163,24.509938],[54.393848,24.510074],[54.393822,24.510125],[54.393853,24.510185],[54.394168,24.510049],[54.394195,24.509998]]]}},{"type":"Feature","properties":{},"geometry":{"type":"Polygon","coordinates":[[[54.406297,24.480146],[54.406324,24.480095],[54.406273,24.480015],[54.406403,24.479946],[54.40643,24.479895],[54.406373,24.479805],[54.406268,24.479861],[54.406281,24.479812],[54.406176,24.479648],[54.405927,24.479779],[54.4059,24.47983],[54.405939,24.47989],[54.405776,24.479976],[54.405749,24.480027],[54.405769,24.480058],[54.405737,24.480075],[54.40571,24.480126],[54.405773,24.480224],[54.405789,24.480216],[54.405879,24.480357],[54.406297,24.480146]]]}},{"type":"Feature","properties":{},"geometry":{"type":"Polygon","coordinates":[[[54.406836,24.48],[54.406771,24.479935],[54.406679,24.480012],[54.406652,24.480063],[54.406716,24.480127],[54.406809,24.480051],[54.406836,24.48]]]}},{"type":"Feature","properties":{},"geometry":{"type":"Polygon","coordinates":[[[54.406361,24.480332],[54.406349,24.480324],[54.406299,24.480393],[54.406291,24.480385],[54.406104,24.480529],[54.406077,24.48058],[54.406109,24.48062],[54.406151,24.480592],[54.406144,24.480605],[54.406188,24.480647],[54.406228,24.480613],[54.40641,24.480792],[54.406556,24.480669],[54.406583,24.480618],[54.406437,24.480475],[54.406523,24.480297],[54.406404,24.480249],[54.406361,24.480332]],[[54.406242,24.480518],[54.406266,24.480542],[54.406263,24.480544],[54.406242,24.480518]]]}},{"type":"Feature","properties":{},"geometry":{"type":"Polygon","coordinates":[[[54.405748,24.480415],[54.405672,24.480452],[54.405646,24.480503],[54.405673,24.480548],[54.405748,24.480511],[54.405775,24.48046],[54.405748,24.480415]]]}},{"type":"Feature","properties":{},"geometry":{"type":"Polygon","coordinates":[[[54.405258,24.48076],[54.405319,24.480828],[54.405342,24.480811],[54.405362,24.480835],[54.405481,24.480748],[54.405508,24.480697],[54.405367,24.480537],[54.405263,24.480613],[54.405173,24.48051],[54.405027,24.480617],[54.404982,24.480566],[54.404751,24.480736],[54.404724,24.480787],[54.404921,24.481009],[54.405093,24.480898],[54.405102,24.480908],[54.405212,24.480828],[54.405258,24.48076]]]}},{"type":"Feature","properties":{},"geometry":{"type":"Polygon","coordinates":[[[54.404631,24.481211],[54.404687,24.481187],[54.404714,24.481136],[54.404697,24.481102],[54.40464,24.481125],[54.404614,24.481176],[54.404631,24.481211]]]}},{"type":"Feature","properties":{},"geometry":{"type":"Polygon","coordinates":[[[54.405062,24.482502],[54.405088,24.482642],[54.405137,24.482726],[54.405164,24.482716],[54.405218,24.482822],[54.405452,24.482707],[54.405585,24.482452],[54.405615,24.482519],[54.405681,24.482579],[54.405921,24.482429],[54.405988,24.482301],[54.406029,24.482334],[54.406256,24.482187],[54.406456,24.481804],[54.406244,24.481517],[54.406178,24.481406],[54.406001,24.481509],[54.405923,24.481577],[54.405867,24.481684],[54.405846,24.481639],[54.405621,24.481752],[54.40558,24.481799],[54.405492,24.481968],[54.405398,24.481892],[54.40529,24.481997],[54.405091,24.48238],[54.405062,24.482502]]]}},{"type":"Feature","properties":{},"geometry":{"type":"Polygon","coordinates":[[[54.406857,24.483059],[54.406884,24.483008],[54.40655,24.482498],[54.406516,24.482517],[54.406525,24.4825],[54.406485,24.482446],[54.406302,24.48257],[54.406107,24.48267],[54.40608,24.48272],[54.406116,24.482778],[54.406323,24.482672],[54.406348,24.482643],[54.406681,24.483154],[54.406857,24.483059]]]}},{"type":"Feature","properties":{},"geometry":{"type":"Polygon","coordinates":[[[54.405592,24.484924],[54.405619,24.484873],[54.405743,24.48448],[54.405188,24.484413],[54.405676,24.484421],[54.405703,24.48437],[54.405703,24.483852],[54.405455,24.483133],[54.405126,24.483265],[54.4051,24.483316],[54.405279,24.483923],[54.404939,24.484017],[54.404912,24.484068],[54.404967,24.48441],[54.405008,24.48441],[54.404913,24.484785],[54.405592,24.484924]]]}},{"type":"Feature","properties":{},"geometry":{"type":"Polygon","coordinates":[[[54.406859,24.48561],[54.406754,24.485552],[54.406686,24.485664],[54.406791,24.485722],[54.406859,24.48561]]]}},{"type":"Feature","properties":{},"geometry":{"type":"Polygon","coordinates":[[[54.406127,24.487642],[54.405832,24.487429],[54.405686,24.487602],[54.405544,24.487874],[54.405841,24.488094],[54.405985,24.487914],[54.406127,24.487642]]]}},{"type":"Feature","properties":{},"geometry":{"type":"Polygon","coordinates":[[[54.407571,24.488332],[54.407598,24.488281],[54.407318,24.487873],[54.406497,24.488337],[54.40647,24.488388],[54.40675,24.488796],[54.407571,24.488332]]]}},{"type":"Feature","properties":{},"geometry":{"type":"Polygon","coordinates":[[[54.407021,24.490271],[54.406961,24.490292],[54.406934,24.490343],[54.406962,24.490424],[54.407028,24.490403],[54.407054,24.490352],[54.407021,24.490271]]]}},{"type":"Feature","properties":{},"geometry":{"type":"Polygon","coordinates":[[[54.406476,24.49296],[54.406379,24.492879],[54.406249,24.493007],[54.406223,24.493058],[54.40632,24.493139],[54.406449,24.493011],[54.406476,24.49296]]]}},{"type":"Feature","properties":{},"geometry":{"type":"Polygon","coordinates":[[[54.406355,24.492421],[54.406247,24.492254],[54.405376,24.492715],[54.405348,24.492769],[54.405313,24.493054],[54.406172,24.493783],[54.406499,24.493511],[54.406527,24.493456],[54.405967,24.492992],[54.406286,24.492697],[54.406315,24.492642],[54.406177,24.492546],[54.406326,24.492476],[54.406355,24.492421]]]}},{"type":"Feature","properties":{},"geometry":{"type":"Polygon","coordinates":[[[54.406417,24.495276],[54.40635,24.49524],[54.406278,24.495359],[54.406345,24.495395],[54.406417,24.495276]]]}},{"type":"Feature","properties":{},"geometry":{"type":"Polygon","coordinates":[[[54.40646,24.495457],[54.406569,24.495563],[54.406646,24.495498],[54.406672,24.495447],[54.406579,24.495356],[54.406598,24.495288],[54.406472,24.495298],[54.406448,24.49537],[54.40653,24.495368],[54.406486,24.495406],[54.40646,24.495457]]]}},{"type":"Feature","properties":{},"geometry":{"type":"Polygon","coordinates":[[[54.406335,24.495775],[54.406519,24.495854],[54.406617,24.495665],[54.406485,24.495609],[54.406466,24.495645],[54.406429,24.495628],[54.406448,24.495591],[54.406395,24.495503],[54.406312,24.495545],[54.406285,24.495596],[54.406338,24.495684],[54.406397,24.495655],[54.406335,24.495775]]]}},{"type":"Feature","properties":{},"geometry":{"type":"Polygon","coordinates":[[[54.406297,24.495754],[54.40627,24.495738],[54.406198,24.495854],[54.406224,24.49587],[54.406297,24.495754]]]}},{"type":"Feature","properties":{},"geometry":{"type":"Polygon","coordinates":[[[54.406176,24.496086],[54.406214,24.496093],[54.406241,24.496042],[54.406239,24.496021],[54.406202,24.496007],[54.40619,24.495968],[54.406167,24.495971],[54.40614,24.496022],[54.406146,24.496061],[54.406176,24.496086]]]}},{"type":"Feature","properties":{},"geometry":{"type":"Polygon","coordinates":[[[54.406327,24.496131],[54.406285,24.496209],[54.406358,24.496244],[54.4064,24.496166],[54.406327,24.496131]]]}},{"type":"Feature","properties":{},"geometry":{"type":"Polygon","coordinates":[[[54.40619,24.497341],[54.406297,24.497307],[54.406399,24.49725],[54.406405,24.497274],[54.406714,24.497193],[54.40672,24.497182],[54.406739,24.497249],[54.407001,24.49718],[54.407055,24.497076],[54.407051,24.497209],[54.407266,24.497229],[54.407344,24.497081],[54.407376,24.496766],[54.407136,24.496768],[54.407059,24.496917],[54.407057,24.496995],[54.407014,24.496758],[54.406722,24.496827],[54.406685,24.496898],[54.406676,24.496859],[54.407027,24.496186],[54.407141,24.496271],[54.407791,24.496327],[54.407971,24.496381],[54.407802,24.496705],[54.407491,24.496658],[54.407413,24.496806],[54.40739,24.497232],[54.407521,24.497245],[54.407514,24.497342],[54.407542,24.497389],[54.407632,24.497486],[54.407774,24.497576],[54.407962,24.49765],[54.408095,24.497669],[54.408186,24.497667],[54.408253,24.497639],[54.408275,24.497615],[54.408487,24.497733],[54.409308,24.497343],[54.40953,24.496918],[54.409385,24.496689],[54.408698,24.496996],[54.408615,24.496963],[54.408918,24.496381],[54.408932,24.496347],[54.408922,24.496284],[54.408856,24.496195],[54.408758,24.496113],[54.408628,24.49604],[54.408481,24.495984],[54.408504,24.495925],[54.408268,24.495797],[54.408569,24.495354],[54.40885,24.495505],[54.40915,24.495554],[54.40951,24.495534],[54.409853,24.495442],[54.409964,24.495229],[54.409867,24.495048],[54.409653,24.494565],[54.40954,24.494014],[54.409518,24.493451],[54.409564,24.493205],[54.409532,24.493029],[54.409064,24.493135],[54.408549,24.493307],[54.407982,24.493622],[54.407631,24.493885],[54.407357,24.494208],[54.407294,24.494291],[54.406906,24.495037],[54.406894,24.495031],[54.406732,24.495371],[54.406755,24.495386],[54.406682,24.495588],[54.406583,24.496134],[54.406021,24.497207],[54.406013,24.497274],[54.406057,24.497336],[54.40619,24.497341]],[[54.408136,24.495723],[54.407253,24.495231],[54.407574,24.494939],[54.407881,24.494747],[54.408379,24.49505],[54.408421,24.49517],[54.40847,24.495231],[54.408136,24.495723]]]}},{"type":"Feature","properties":{},"geometry":{"type":"Polygon","coordinates":[[[54.405962,24.496854],[54.405897,24.496904],[54.405871,24.496955],[54.40595,24.497044],[54.406017,24.496996],[54.406044,24.496945],[54.405962,24.496854]]]}},{"type":"Feature","properties":{},"geometry":{"type":"Polygon","coordinates":[[[54.405774,24.497338],[54.405713,24.497599],[54.405974,24.497645],[54.406002,24.497585],[54.406027,24.49759],[54.406053,24.497539],[54.406089,24.497391],[54.405991,24.497375],[54.406007,24.497326],[54.4058,24.497287],[54.405774,24.497338]]]}},{"type":"Feature","properties":{},"geometry":{"type":"Polygon","coordinates":[[[54.406525,24.504539],[54.406432,24.504537],[54.406405,24.504588],[54.406401,24.50473],[54.406497,24.504732],[54.406523,24.504681],[54.406525,24.504539]]]}},{"type":"Feature","properties":{},"geometry":{"type":"Polygon","coordinates":[[[54.406184,24.50457],[54.406088,24.504593],[54.406062,24.504643],[54.406115,24.50481],[54.406206,24.50479],[54.406233,24.504739],[54.406184,24.50457]]]}},{"type":"Feature","properties":{},"geometry":{"type":"Polygon","coordinates":[[[54.406787,24.505553],[54.406674,24.505453],[54.406604,24.505522],[54.406626,24.50548],[54.406344,24.50524],[54.406082,24.505495],[54.406056,24.505546],[54.406338,24.505786],[54.406475,24.505653],[54.406428,24.5057],[54.406184,24.506167],[54.406458,24.506389],[54.406549,24.506284],[54.406793,24.505817],[54.406828,24.505695],[54.406787,24.505553]]]}},{"type":"Feature","properties":{},"geometry":{"type":"Polygon","coordinates":[[[54.405586,24.505474],[54.405385,24.505424],[54.405264,24.50579],[54.405466,24.50584],[54.405586,24.505474]]]}},{"type":"Feature","properties":{},"geometry":{"type":"Polygon","coordinates":[[[54.405475,24.505923],[54.405179,24.505828],[54.405037,24.506177],[54.405332,24.506272],[54.405475,24.505923]]]}},{"type":"Feature","properties":{},"geometry":{"type":"Polygon","coordinates":[[[54.405345,24.506365],[54.405066,24.506279],[54.404947,24.506578],[54.405225,24.506664],[54.405345,24.506365]]]}},{"type":"Feature","properties":{},"geometry":{"type":"Polygon","coordinates":[[[54.405237,24.506716],[54.404948,24.50662],[54.404779,24.50707],[54.405035,24.507162],[54.405237,24.506716]]]}},{"type":"Feature","properties":{},"geometry":{"type":"Polygon","coordinates":[[[54.404437,24.507235],[54.404377,24.507314],[54.40447,24.507405],[54.40453,24.507326],[54.404437,24.507235]]]}},{"type":"Feature","properties":{},"geometry":{"type":"Polygon","coordinates":[[[54.406644,24.507341],[54.406601,24.50737],[54.406574,24.507421],[54.406694,24.507572],[54.406737,24.507543],[54.406764,24.507492],[54.406644,24.507341]]]}},{"type":"Feature","properties":{},"geometry":{"type":"Polygon","coordinates":[[[54.404898,24.508066],[54.404632,24.508576],[54.404727,24.50864],[54.40509,24.508578],[54.405596,24.507668],[54.405862,24.507159],[54.405855,24.507079],[54.405593,24.506955],[54.405529,24.506966],[54.404898,24.508066]]]}},{"type":"Feature","properties":{},"geometry":{"type":"Polygon","coordinates":[[[54.405724,24.508722],[54.405512,24.50913],[54.405908,24.509522],[54.40602,24.509407],[54.406142,24.509173],[54.406164,24.509194],[54.406238,24.509119],[54.406231,24.509132],[54.406317,24.509196],[54.406358,24.509152],[54.406384,24.509101],[54.406299,24.509036],[54.406428,24.508788],[54.406544,24.508678],[54.406757,24.508271],[54.406367,24.507886],[54.406249,24.507993],[54.406093,24.508292],[54.40598,24.508394],[54.405858,24.50863],[54.405842,24.508615],[54.405724,24.508722]]]}},{"type":"Feature","properties":{},"geometry":{"type":"Polygon","coordinates":[[[54.405105,24.509539],[54.404894,24.509943],[54.405043,24.510087],[54.405106,24.51003],[54.405207,24.510098],[54.405388,24.509836],[54.405598,24.509432],[54.405477,24.509367],[54.405383,24.509473],[54.405231,24.509371],[54.405105,24.509539]]]}},{"type":"Feature","properties":{},"geometry":{"type":"Polygon","coordinates":[[[54.410443,24.479885],[54.410374,24.479952],[54.410347,24.480003],[54.410497,24.480131],[54.410566,24.480065],[54.410593,24.480014],[54.410443,24.479885]]]}},{"type":"Feature","properties":{},"geometry":{"type":"Polygon","coordinates":[[[54.40682,24.482562],[54.40696,24.482752],[54.40708,24.482854],[54.407194,24.483035],[54.407384,24.482963],[54.407605,24.482539],[54.407647,24.482408],[54.407249,24.481963],[54.407183,24.482071],[54.407041,24.482137],[54.40682,24.482562]]]}},{"type":"Feature","properties":{},"geometry":{"type":"Polygon","coordinates":[[[54.409403,24.482883],[54.409307,24.482887],[54.40928,24.482938],[54.409285,24.483052],[54.409381,24.483049],[54.409408,24.482998],[54.409403,24.482883]]]}},{"type":"Feature","properties":{},"geometry":{"type":"Polygon","coordinates":[[[54.408793,24.48444],[54.408584,24.484581],[54.408442,24.484853],[54.408687,24.485155],[54.408897,24.485014],[54.409038,24.484742],[54.408793,24.48444]]]}},{"type":"Feature","properties":{},"geometry":{"type":"Polygon","coordinates":[[[54.407987,24.485203],[54.408,24.485268],[54.408219,24.485379],[54.408281,24.485344],[54.408347,24.485431],[54.408461,24.485348],[54.408602,24.485076],[54.408334,24.484777],[54.408129,24.484931],[54.407987,24.485203]]]}},{"type":"Feature","properties":{},"geometry":{"type":"Polygon","coordinates":[[[54.407336,24.485327],[54.407262,24.485263],[54.406967,24.48555],[54.406941,24.485601],[54.407015,24.485665],[54.40731,24.485378],[54.407336,24.485327]]]}},{"type":"Feature","properties":{},"geometry":{"type":"Polygon","coordinates":[[[54.409042,24.485617],[54.409001,24.485574],[54.408922,24.485635],[54.408896,24.485686],[54.408936,24.485729],[54.409015,24.485668],[54.409042,24.485617]]]}},{"type":"Feature","properties":{},"geometry":{"type":"Polygon","coordinates":[[[54.409339,24.486096],[54.409427,24.486171],[54.409567,24.486181],[54.409649,24.486157],[54.409732,24.486074],[54.409779,24.485996],[54.409837,24.485885],[54.409865,24.485781],[54.410447,24.486779],[54.410806,24.486611],[54.410863,24.4865],[54.410376,24.485643],[54.410402,24.485593],[54.410413,24.48552],[54.410404,24.485468],[54.410376,24.485447],[54.410386,24.485429],[54.410712,24.485298],[54.410697,24.485327],[54.410747,24.485405],[54.410856,24.485347],[54.410882,24.485296],[54.410848,24.485244],[54.41092,24.485215],[54.410978,24.485104],[54.410804,24.484786],[54.409836,24.485253],[54.409801,24.485318],[54.409673,24.485244],[54.409599,24.48533],[54.409423,24.4854],[54.409337,24.485483],[54.409243,24.485687],[54.409241,24.485874],[54.40926,24.485967],[54.409339,24.486096]]]}},{"type":"Feature","properties":{},"geometry":{"type":"Polygon","coordinates":[[[54.409022,24.485692],[54.408995,24.485743],[54.409102,24.485896],[54.409161,24.485862],[54.409188,24.485811],[54.409124,24.48572],[54.409162,24.485662],[54.409136,24.485626],[54.409022,24.485692]]]}},{"type":"Feature","properties":{},"geometry":{"type":"Polygon","coordinates":[[[54.407809,24.485647],[54.407564,24.485445],[54.407378,24.485639],[54.407236,24.48591],[54.407296,24.485958],[54.407312,24.485941],[54.407314,24.485957],[54.407557,24.486151],[54.407748,24.485952],[54.407889,24.48568],[54.407828,24.485631],[54.407809,24.485647]]]}},{"type":"Feature","properties":{},"geometry":{"type":"Polygon","coordinates":[[[54.409363,24.48769],[54.409247,24.487364],[54.408884,24.487647],[54.408334,24.48801],[54.408308,24.488061],[54.40861,24.488544],[54.409484,24.488108],[54.409511,24.488057],[54.40936,24.487784],[54.408633,24.48819],[54.408606,24.48815],[54.409337,24.487741],[54.409363,24.48769]]]}},{"type":"Feature","properties":{},"geometry":{"type":"Polygon","coordinates":[[[54.410551,24.488356],[54.410524,24.488407],[54.410422,24.488416],[54.410395,24.488467],[54.410138,24.488492],[54.410111,24.488543],[54.410156,24.488979],[54.410624,24.488938],[54.41065,24.488887],[54.410643,24.488816],[54.410879,24.488796],[54.410905,24.488745],[54.410862,24.48833],[54.410551,24.488356]]]}},{"type":"Feature","properties":{},"geometry":{"type":"Polygon","coordinates":[[[54.407156,24.489254],[54.407562,24.489024],[54.407589,24.488973],[54.407453,24.488774],[54.407618,24.489],[54.407994,24.48877],[54.40802,24.488719],[54.407768,24.488343],[54.407361,24.488562],[54.407338,24.488606],[54.407309,24.488565],[54.406903,24.488795],[54.406877,24.488846],[54.407156,24.489254]]]}},{"type":"Feature","properties":{},"geometry":{"type":"Polygon","coordinates":[[[54.409242,24.491314],[54.409268,24.491263],[54.409272,24.491156],[54.409037,24.491149],[54.40902,24.491182],[54.408959,24.49118],[54.408932,24.491231],[54.40892,24.491345],[54.408982,24.491347],[54.408981,24.491374],[54.409193,24.49138],[54.40922,24.491313],[54.409242,24.491314]]]}},{"type":"Feature","properties":{},"geometry":{"type":"Polygon","coordinates":[[[54.410614,24.495998],[54.410488,24.496072],[54.410337,24.495938],[54.410046,24.496169],[54.409869,24.496509],[54.40994,24.49659],[54.409892,24.496683],[54.410001,24.496824],[54.410166,24.49672],[54.410278,24.496505],[54.410374,24.496632],[54.410598,24.496527],[54.410775,24.496187],[54.410614,24.495998]]]}},{"type":"Feature","properties":{},"geometry":{"type":"Polygon","coordinates":[[[54.409245,24.498587],[54.409383,24.498324],[54.409415,24.497947],[54.409165,24.497863],[54.40899,24.49793],[54.408853,24.498193],[54.408855,24.4986],[54.408809,24.498711],[54.408847,24.498825],[54.408887,24.498829],[54.408914,24.498778],[54.408924,24.498642],[54.409245,24.498587]]]}},{"type":"Feature","properties":{},"geometry":{"type":"Polygon","coordinates":[[[54.408927,24.499242],[54.408841,24.499606],[54.409198,24.499701],[54.409276,24.499552],[54.409382,24.499166],[54.409435,24.498769],[54.408993,24.498738],[54.408915,24.498888],[54.408927,24.499242]]]}},{"type":"Feature","properties":{},"geometry":{"type":"Polygon","coordinates":[[[54.409926,24.500296],[54.409975,24.49974],[54.410012,24.49951],[54.409978,24.499439],[54.4099,24.49938],[54.409787,24.499363],[54.409615,24.499373],[54.409548,24.499419],[54.409521,24.49947],[54.409322,24.500091],[54.409273,24.500304],[54.409315,24.500432],[54.409406,24.500499],[54.409586,24.50053],[54.409719,24.500527],[54.409844,24.500463],[54.409926,24.500296]]]}},{"type":"Feature","properties":{},"geometry":{"type":"Polygon","coordinates":[[[54.408028,24.500959],[54.408026,24.501005],[54.407998,24.501063],[54.408037,24.501095],[54.408088,24.501022],[54.408147,24.500887],[54.408085,24.500876],[54.408028,24.500959]]]}},{"type":"Feature","properties":{},"geometry":{"type":"Polygon","coordinates":[[[54.409605,24.501431],[54.408723,24.501471],[54.408697,24.501522],[54.408676,24.501626],[54.408652,24.50185],[54.408725,24.502001],[54.408994,24.502013],[54.409312,24.502004],[54.409404,24.501973],[54.409518,24.501902],[54.409584,24.501746],[54.40961,24.501599],[54.409605,24.501431]]]}},{"type":"Feature","properties":{},"geometry":{"type":"Polygon","coordinates":[[[54.40767,24.502454],[54.408088,24.502628],[54.408157,24.502479],[54.408295,24.5021],[54.408422,24.501858],[54.408025,24.50174],[54.40767,24.502454]]]}},{"type":"Feature","properties":{},"geometry":{"type":"Polygon","coordinates":[[[54.407515,24.502391],[54.40748,24.502489],[54.407525,24.502499],[54.407581,24.50244],[54.407648,24.502313],[54.407586,24.50231],[54.407515,24.502391]]]}},{"type":"Feature","properties":{},"geometry":{"type":"Polygon","coordinates":[[[54.407275,24.502956],[54.40724,24.502926],[54.407089,24.503128],[54.407152,24.503164],[54.407283,24.503047],[54.407309,24.503045],[54.407403,24.502885],[54.407345,24.502871],[54.407275,24.502956]]]}},{"type":"Feature","properties":{},"geometry":{"type":"Polygon","coordinates":[[[54.406943,24.503344],[54.40688,24.503364],[54.406853,24.503414],[54.406891,24.503536],[54.40697,24.503519],[54.406997,24.503468],[54.406943,24.503344]]]}},{"type":"Feature","properties":{},"geometry":{"type":"Polygon","coordinates":[[[54.407134,24.50368],[54.407036,24.503648],[54.406958,24.503856],[54.407047,24.50388],[54.407134,24.50368]]]}},{"type":"Feature","properties":{},"geometry":{"type":"Polygon","coordinates":[[[54.409843,24.504267],[54.410053,24.503863],[54.40972,24.503497],[54.409576,24.503605],[54.409366,24.504009],[54.409698,24.504375],[54.409843,24.504267]]]}},{"type":"Feature","properties":{},"geometry":{"type":"Polygon","coordinates":[[[54.409259,24.504094],[54.409054,24.504354],[54.408744,24.504949],[54.409039,24.505286],[54.4093,24.504988],[54.40961,24.504393],[54.409259,24.504094]]]}},{"type":"Feature","properties":{},"geometry":{"type":"Polygon","coordinates":[[[54.408028,24.505741],[54.407866,24.505725],[54.40784,24.505776],[54.407841,24.505869],[54.408006,24.505893],[54.408033,24.505842],[54.408028,24.505741]]]}},{"type":"Feature","properties":{},"geometry":{"type":"Polygon","coordinates":[[[54.409446,24.506226],[54.40956,24.506165],[54.409645,24.506072],[54.409717,24.505908],[54.409719,24.505787],[54.40968,24.50568],[54.409606,24.50559],[54.409506,24.505526],[54.409388,24.505493],[54.409265,24.505495],[54.409148,24.505532],[54.40905,24.505601],[54.408955,24.505744],[54.408921,24.505852],[54.408927,24.505973],[54.408978,24.506084],[54.409067,24.506174],[54.409184,24.506231],[54.409315,24.506249],[54.409446,24.506226]]]}},{"type":"Feature","properties":{},"geometry":{"type":"Polygon","coordinates":[[[54.406655,24.507237],[54.406998,24.507555],[54.407098,24.507468],[54.407114,24.507422],[54.407187,24.507361],[54.40721,24.507381],[54.407312,24.507292],[54.407333,24.507251],[54.407188,24.507114],[54.40733,24.506964],[54.407629,24.506391],[54.407472,24.506231],[54.407244,24.506239],[54.407028,24.506464],[54.406729,24.507037],[54.406762,24.507062],[54.406727,24.507115],[54.406749,24.507138],[54.406677,24.507196],[54.406655,24.507237]]]}},{"type":"Feature","properties":{},"geometry":{"type":"Polygon","coordinates":[[[54.409709,24.507832],[54.409692,24.507556],[54.409481,24.507344],[54.409287,24.507513],[54.409261,24.507564],[54.409621,24.507925],[54.409683,24.507883],[54.409709,24.507832]]]}},{"type":"Feature","properties":{},"geometry":{"type":"Polygon","coordinates":[[[54.407201,24.507774],[54.407167,24.507749],[54.40711,24.507833],[54.407145,24.507858],[54.407201,24.507774]]]}},{"type":"Feature","properties":{},"geometry":{"type":"Polygon","coordinates":[[[54.410305,24.507906],[54.410332,24.507855],[54.410313,24.507789],[54.410247,24.507805],[54.410204,24.507719],[54.410122,24.507721],[54.40999,24.507756],[54.409856,24.507859],[54.409798,24.507989],[54.409828,24.508031],[54.4099,24.50807],[54.409946,24.508055],[54.410083,24.508049],[54.410159,24.508011],[54.410305,24.507906]]]}},{"type":"Feature","properties":{},"geometry":{"type":"Polygon","coordinates":[[[54.408925,24.507856],[54.408877,24.507857],[54.40882,24.507972],[54.408825,24.508078],[54.408864,24.508076],[54.408892,24.508045],[54.408918,24.507994],[54.408925,24.507856]]]}},{"type":"Feature","properties":{},"geometry":{"type":"Polygon","coordinates":[[[54.40932,24.508159],[54.409278,24.508116],[54.409189,24.50819],[54.409162,24.508241],[54.409205,24.508284],[54.409294,24.508209],[54.40932,24.508159]]]}},{"type":"Feature","properties":{},"geometry":{"type":"Polygon","coordinates":[[[54.40903,24.508761],[54.409091,24.508726],[54.409117,24.508676],[54.409132,24.508697],[54.409307,24.508593],[54.409334,24.508542],[54.409273,24.508456],[54.40922,24.508487],[54.409158,24.5084],[54.409014,24.508484],[54.408987,24.508535],[54.40902,24.508581],[54.408987,24.508608],[54.408943,24.508706],[54.408973,24.508749],[54.409007,24.508729],[54.40903,24.508761]]]}},{"type":"Feature","properties":{},"geometry":{"type":"Polygon","coordinates":[[[54.407523,24.508941],[54.407588,24.508892],[54.407615,24.508841],[54.407587,24.508811],[54.407523,24.508861],[54.407496,24.508912],[54.407523,24.508941]]]}},{"type":"Feature","properties":{},"geometry":{"type":"Polygon","coordinates":[[[54.407708,24.508969],[54.407656,24.509013],[54.40763,24.509064],[54.407786,24.509217],[54.407837,24.509173],[54.407864,24.509122],[54.407708,24.508969]]]}},{"type":"Feature","properties":{},"geometry":{"type":"Polygon","coordinates":[[[54.407099,24.510076],[54.407234,24.510201],[54.407368,24.510065],[54.407489,24.509833],[54.407571,24.509909],[54.407687,24.509791],[54.4079,24.509383],[54.407538,24.50905],[54.407416,24.509159],[54.407296,24.509389],[54.407243,24.50934],[54.407274,24.509285],[54.40717,24.509197],[54.407102,24.509289],[54.407161,24.509338],[54.40706,24.509435],[54.406929,24.509685],[54.406811,24.509574],[54.406652,24.509706],[54.406439,24.510114],[54.406802,24.510446],[54.406967,24.510329],[54.407099,24.510076]]]}},{"type":"Feature","properties":{},"geometry":{"type":"Polygon","coordinates":[[[54.41019,24.509994],[54.410005,24.509826],[54.409662,24.510138],[54.409635,24.510189],[54.40982,24.510357],[54.410164,24.510045],[54.41019,24.509994]]]}},{"type":"Feature","properties":{},"geometry":{"type":"Polygon","coordinates":[[[54.411196,24.481986],[54.41128,24.48206],[54.411458,24.48189],[54.411484,24.481839],[54.411116,24.48152],[54.410943,24.481686],[54.410916,24.481737],[54.410997,24.481807],[54.411094,24.481714],[54.411162,24.481773],[54.411143,24.481809],[54.411187,24.481847],[54.411214,24.481822],[54.411281,24.48188],[54.411222,24.481936],[54.411196,24.481986]]]}},{"type":"Feature","properties":{},"geometry":{"type":"Polygon","coordinates":[[[54.410906,24.481767],[54.41085,24.481846],[54.410889,24.48188],[54.410945,24.481801],[54.410906,24.481767]]]}},{"type":"Feature","properties":{},"geometry":{"type":"Polygon","coordinates":[[[54.412739,24.481932],[54.412378,24.481741],[54.412175,24.482067],[54.412536,24.482258],[54.412739,24.481932]]]}},{"type":"Feature","properties":{},"geometry":{"type":"Polygon","coordinates":[[[54.41143,24.482077],[54.411398,24.482052],[54.41132,24.482132],[54.411293,24.482183],[54.411325,24.482208],[54.411403,24.482128],[54.41143,24.482077]]]}},{"type":"Feature","properties":{},"geometry":{"type":"Polygon","coordinates":[[[54.411454,24.485589],[54.41135,24.48563],[54.411323,24.485681],[54.411338,24.485712],[54.411363,24.485702],[54.411349,24.485729],[54.411387,24.485827],[54.411444,24.485808],[54.411471,24.485757],[54.411437,24.485673],[54.411468,24.48562],[54.411454,24.485589]]]}},{"type":"Feature","properties":{},"geometry":{"type":"Polygon","coordinates":[[[54.413488,24.487622],[54.413486,24.487579],[54.413516,24.487528],[54.413513,24.487454],[54.413391,24.487459],[54.413388,24.487195],[54.413283,24.487199],[54.413268,24.487227],[54.413107,24.487233],[54.413081,24.487284],[54.413158,24.487503],[54.413226,24.4875],[54.413229,24.487761],[54.413498,24.487751],[54.413524,24.4877],[54.413521,24.487621],[54.413488,24.487622]]]}},{"type":"Feature","properties":{},"geometry":{"type":"Polygon","coordinates":[[[54.4131,24.487731],[54.413046,24.487541],[54.412959,24.487562],[54.412932,24.487613],[54.412987,24.487802],[54.413074,24.487781],[54.4131,24.487731]]]}},{"type":"Feature","properties":{},"geometry":{"type":"Polygon","coordinates":[[[54.413587,24.48789],[54.413519,24.487893],[54.413492,24.487944],[54.413495,24.488005],[54.413563,24.488003],[54.41359,24.487952],[54.413587,24.48789]]]}},{"type":"Feature","properties":{},"geometry":{"type":"Polygon","coordinates":[[[54.415676,24.487991],[54.415677,24.488021],[54.415725,24.488019],[54.415751,24.487968],[54.415745,24.487766],[54.415652,24.487768],[54.415674,24.487726],[54.415671,24.487682],[54.415613,24.487685],[54.415586,24.487736],[54.415588,24.487771],[54.415123,24.487771],[54.415096,24.487822],[54.415096,24.487866],[54.41516,24.487866],[54.415161,24.488264],[54.415343,24.488264],[54.41537,24.488213],[54.41537,24.488012],[54.415592,24.488012],[54.415608,24.487982],[54.415609,24.487993],[54.415676,24.487991]],[[54.415619,24.487778],[54.415625,24.487778],[54.415619,24.48779],[54.415619,24.487778]]]}},{"type":"Feature","properties":{},"geometry":{"type":"Polygon","coordinates":[[[54.414829,24.488529],[54.414953,24.488526],[54.414979,24.488475],[54.414976,24.488355],[54.414955,24.488356],[54.414972,24.488235],[54.414839,24.488231],[54.414813,24.488282],[54.414809,24.488377],[54.414842,24.488378],[54.414826,24.488409],[54.414829,24.488529]]]}},{"type":"Feature","properties":{},"geometry":{"type":"Polygon","coordinates":[[[54.415566,24.488292],[54.415472,24.488296],[54.415446,24.488347],[54.415447,24.488385],[54.415541,24.488381],[54.415568,24.48833],[54.415566,24.488292]]]}},{"type":"Feature","properties":{},"geometry":{"type":"Polygon","coordinates":[[[54.415385,24.488535],[54.415405,24.488535],[54.415431,24.488484],[54.415432,24.488438],[54.415414,24.488438],[54.415436,24.488396],[54.415435,24.488313],[54.415318,24.488314],[54.415291,24.488365],[54.415292,24.488448],[54.415408,24.488447],[54.415386,24.488489],[54.415385,24.488535]]]}},{"type":"Feature","properties":{},"geometry":{"type":"Polygon","coordinates":[[[54.415543,24.488642],[54.415463,24.488644],[54.415436,24.488695],[54.415438,24.488744],[54.415519,24.488741],[54.415545,24.48869],[54.415543,24.488642]]]}},{"type":"Feature","properties":{},"geometry":{"type":"Polygon","coordinates":[[[54.411174,24.48887],[54.41112,24.488982],[54.411171,24.48905],[54.411282,24.489046],[54.411387,24.489186],[54.411262,24.489253],[54.411235,24.489304],[54.411287,24.489387],[54.411989,24.488997],[54.412022,24.489061],[54.411491,24.489354],[54.411464,24.489405],[54.411558,24.489558],[54.411622,24.489534],[54.411686,24.489644],[54.411946,24.489693],[54.411929,24.48977],[54.412094,24.489806],[54.41212,24.489755],[54.412272,24.489179],[54.412385,24.489181],[54.412466,24.489142],[54.412776,24.489731],[54.412929,24.489651],[54.412956,24.4896],[54.412943,24.48958],[54.413109,24.489506],[54.413174,24.489369],[54.413235,24.489399],[54.413261,24.489348],[54.413305,24.489173],[54.412655,24.488951],[54.412854,24.488989],[54.413462,24.488899],[54.413489,24.488848],[54.413445,24.488556],[54.412861,24.488626],[54.412817,24.488588],[54.412683,24.488658],[54.412623,24.488608],[54.412646,24.488596],[54.412673,24.488545],[54.412558,24.488398],[54.412679,24.488023],[54.412848,24.488093],[54.412942,24.488152],[54.413077,24.488004],[54.413104,24.487954],[54.412745,24.487759],[54.412516,24.487718],[54.412242,24.487705],[54.412216,24.487756],[54.412238,24.487976],[54.412342,24.487985],[54.412358,24.487955],[54.41245,24.487964],[54.412324,24.488486],[54.412268,24.488496],[54.412004,24.488024],[54.412156,24.487995],[54.412183,24.487944],[54.412157,24.487708],[54.411868,24.487782],[54.411582,24.487957],[54.411414,24.48813],[54.411387,24.488181],[54.411544,24.488292],[54.411762,24.488115],[54.412001,24.488524],[54.411931,24.488726],[54.411214,24.488505],[54.411144,24.488651],[54.411329,24.488719],[54.411302,24.488854],[54.411174,24.48887]],[[54.412036,24.489374],[54.412011,24.489501],[54.411834,24.489464],[54.411769,24.489376],[54.411939,24.489279],[54.411935,24.489353],[54.412036,24.489374]],[[54.413037,24.489258],[54.413007,24.489337],[54.412888,24.489394],[54.412827,24.489256],[54.412848,24.489199],[54.413037,24.489258]]]}},{"type":"Feature","properties":{},"geometry":{"type":"Polygon","coordinates":[[[54.410595,24.489197],[54.410648,24.489666],[54.410799,24.489652],[54.410826,24.489601],[54.410762,24.489025],[54.410204,24.489076],[54.410178,24.489127],[54.41019,24.489235],[54.410595,24.489197]]]}},{"type":"Feature","properties":{},"geometry":{"type":"Polygon","coordinates":[[[54.410884,24.489736],[54.410835,24.489739],[54.410809,24.48979],[54.410812,24.489833],[54.410861,24.489829],[54.410888,24.489778],[54.410884,24.489736]]]}},{"type":"Feature","properties":{},"geometry":{"type":"Polygon","coordinates":[[[54.410299,24.490141],[54.410858,24.490086],[54.410885,24.490035],[54.41087,24.489907],[54.41051,24.489942],[54.410508,24.489927],[54.410457,24.489932],[54.410405,24.48949],[54.410256,24.489504],[54.41023,24.489555],[54.410299,24.490141]]]}},{"type":"Feature","properties":{},"geometry":{"type":"Polygon","coordinates":[[[54.412498,24.489945],[54.412428,24.489949],[54.412402,24.49],[54.412406,24.490062],[54.412475,24.490058],[54.412502,24.490007],[54.412498,24.489945]]]}},{"type":"Feature","properties":{},"geometry":{"type":"Polygon","coordinates":[[[54.411147,24.490714],[54.411148,24.490662],[54.411052,24.490661],[54.411025,24.490712],[54.411024,24.490764],[54.411121,24.490765],[54.411147,24.490714]]]}},{"type":"Feature","properties":{},"geometry":{"type":"Polygon","coordinates":[[[54.411196,24.491],[54.411223,24.490949],[54.411224,24.490795],[54.411155,24.490795],[54.411128,24.490846],[54.411121,24.491002],[54.411196,24.491]]]}},{"type":"Feature","properties":{},"geometry":{"type":"Polygon","coordinates":[[[54.412897,24.49069],[54.41289,24.491183],[54.413368,24.491189],[54.413395,24.491138],[54.413397,24.490975],[54.413113,24.490971],[54.413115,24.490861],[54.413384,24.490865],[54.413411,24.490814],[54.413413,24.490645],[54.412924,24.490639],[54.412897,24.49069]]]}},{"type":"Feature","properties":{},"geometry":{"type":"Polygon","coordinates":[[[54.410389,24.490868],[54.410386,24.491081],[54.410673,24.491084],[54.410699,24.491033],[54.410706,24.490766],[54.4106,24.490766],[54.410575,24.490813],[54.410416,24.490817],[54.410389,24.490868]]]}},{"type":"Feature","properties":{},"geometry":{"type":"Polygon","coordinates":[[[54.412875,24.491187],[54.412829,24.491185],[54.412803,24.491236],[54.412801,24.491275],[54.412847,24.491277],[54.412874,24.491226],[54.412875,24.491187]]]}},{"type":"Feature","properties":{},"geometry":{"type":"Polygon","coordinates":[[[54.411222,24.491426],[54.411185,24.491424],[54.411158,24.491475],[54.411154,24.491552],[54.411192,24.491554],[54.411219,24.491503],[54.411222,24.491426]]]}},{"type":"Feature","properties":{},"geometry":{"type":"Polygon","coordinates":[[[54.410816,24.491635],[54.41083,24.491311],[54.410457,24.491298],[54.410431,24.491349],[54.410417,24.491673],[54.410789,24.491686],[54.410816,24.491635]]]}},{"type":"Feature","properties":{},"geometry":{"type":"Polygon","coordinates":[[[54.411931,24.491223],[54.411435,24.491191],[54.411408,24.491241],[54.411337,24.49215],[54.411833,24.492183],[54.41186,24.492132],[54.411931,24.491223]]]}},{"type":"Feature","properties":{},"geometry":{"type":"Polygon","coordinates":[[[54.412158,24.491779],[54.412186,24.491699],[54.412108,24.491697],[54.412081,24.491777],[54.412158,24.491779]]]}},{"type":"Feature","properties":{},"geometry":{"type":"Polygon","coordinates":[[[54.411709,24.492296],[54.411581,24.492292],[54.411555,24.492343],[54.411552,24.492431],[54.411679,24.492434],[54.411706,24.492383],[54.411709,24.492296]]]}},{"type":"Feature","properties":{},"geometry":{"type":"Polygon","coordinates":[[[54.412155,24.492461],[54.411973,24.492459],[54.411946,24.49251],[54.411945,24.492608],[54.412128,24.492609],[54.412154,24.492558],[54.412155,24.492461]]]}},{"type":"Feature","properties":{},"geometry":{"type":"Polygon","coordinates":[[[54.415103,24.496914],[54.41501,24.49686],[54.414873,24.497068],[54.414965,24.497122],[54.415103,24.496914]]]}},{"type":"Feature","properties":{},"geometry":{"type":"Polygon","coordinates":[[[54.412023,24.498079],[54.412041,24.498045],[54.41181,24.4975],[54.411496,24.497386],[54.411403,24.497422],[54.411376,24.497473],[54.411672,24.498233],[54.411798,24.498963],[54.411916,24.498953],[54.412125,24.498673],[54.412023,24.498079]]]}},{"type":"Feature","properties":{},"geometry":{"type":"Polygon","coordinates":[[[54.410624,24.497708],[54.410598,24.497759],[54.410584,24.498922],[54.410722,24.499068],[54.410966,24.49908],[54.410993,24.499029],[54.410985,24.497515],[54.410798,24.49756],[54.410624,24.497708]]]}},{"type":"Feature","properties":{},"geometry":{"type":"Polygon","coordinates":[[[54.410544,24.501523],[54.410437,24.50152],[54.410393,24.501606],[54.410335,24.501603],[54.410136,24.501985],[54.410134,24.502234],[54.410234,24.502236],[54.410267,24.502173],[54.410369,24.502173],[54.410568,24.501791],[54.410573,24.501566],[54.410542,24.501564],[54.410544,24.501523]]]}},{"type":"Feature","properties":{},"geometry":{"type":"Polygon","coordinates":[[[54.41329,24.502809],[54.413379,24.502328],[54.412899,24.502033],[54.412741,24.501881],[54.412655,24.501769],[54.412574,24.501625],[54.412526,24.501486],[54.411982,24.501472],[54.411915,24.5016],[54.411951,24.5018],[54.412071,24.502117],[54.412155,24.502274],[54.412307,24.502482],[54.412563,24.502783],[54.412808,24.502948],[54.412946,24.5031],[54.413031,24.503246],[54.413103,24.503227],[54.41329,24.502809]]]}},{"type":"Feature","properties":{},"geometry":{"type":"Polygon","coordinates":[[[54.411529,24.502276],[54.411457,24.502349],[54.41143,24.5024],[54.411644,24.502573],[54.411715,24.5025],[54.411742,24.502449],[54.411529,24.502276]]]}},{"type":"Feature","properties":{},"geometry":{"type":"Polygon","coordinates":[[[54.411329,24.502915],[54.411356,24.502864],[54.411354,24.502702],[54.411224,24.502679],[54.411155,24.502628],[54.411149,24.502248],[54.410947,24.502245],[54.410921,24.502295],[54.410886,24.502889],[54.411329,24.502915]]]}},{"type":"Feature","properties":{},"geometry":{"type":"Polygon","coordinates":[[[54.411512,24.502535],[54.411463,24.502535],[54.411436,24.502585],[54.411433,24.502709],[54.411483,24.50271],[54.411509,24.502659],[54.411512,24.502535]]]}},{"type":"Feature","properties":{},"geometry":{"type":"Polygon","coordinates":[[[54.411796,24.502509],[54.411694,24.502566],[54.411667,24.502617],[54.411828,24.502856],[54.411931,24.502799],[54.411957,24.502748],[54.411796,24.502509]]]}},{"type":"Feature","properties":{},"geometry":{"type":"Polygon","coordinates":[[[54.411657,24.50276],[54.411573,24.502795],[54.411546,24.502846],[54.411622,24.502998],[54.411707,24.502962],[54.411733,24.502911],[54.411657,24.50276]]]}},{"type":"Feature","properties":{},"geometry":{"type":"Polygon","coordinates":[[[54.414826,24.504005],[54.414667,24.504163],[54.41451,24.504464],[54.414687,24.504617],[54.414864,24.504469],[54.415022,24.504167],[54.414826,24.504005]]]}},{"type":"Feature","properties":{},"geometry":{"type":"Polygon","coordinates":[[[54.415425,24.504124],[54.415448,24.50408],[54.41541,24.504035],[54.415424,24.504009],[54.415415,24.503972],[54.415356,24.503984],[54.415332,24.504049],[54.415311,24.504031],[54.415152,24.504188],[54.415011,24.50446],[54.415188,24.504613],[54.415366,24.504464],[54.415507,24.504192],[54.415425,24.504124]],[[54.415368,24.504078],[54.415357,24.504069],[54.415375,24.504065],[54.415368,24.504078]]]}},{"type":"Feature","properties":{},"geometry":{"type":"Polygon","coordinates":[[[54.410705,24.504046],[54.410233,24.503968],[54.410022,24.504372],[54.409991,24.50453],[54.410463,24.504608],[54.410673,24.504204],[54.410705,24.504046]]]}},{"type":"Feature","properties":{},"geometry":{"type":"Polygon","coordinates":[[[54.414312,24.504214],[54.414153,24.504371],[54.413954,24.504753],[54.414131,24.504906],[54.414309,24.504758],[54.414508,24.504375],[54.414312,24.504214]]]}},{"type":"Feature","properties":{},"geometry":{"type":"Polygon","coordinates":[[[54.414671,24.504668],[54.414513,24.504826],[54.414371,24.505097],[54.414548,24.50525],[54.414726,24.505102],[54.414868,24.50483],[54.414671,24.504668]]]}},{"type":"Feature","properties":{},"geometry":{"type":"Polygon","coordinates":[[[54.41535,24.505161],[54.415428,24.504987],[54.415232,24.504826],[54.415073,24.504983],[54.414949,24.505221],[54.415127,24.505374],[54.415304,24.505225],[54.41535,24.505161]]]}},{"type":"Feature","properties":{},"geometry":{"type":"Polygon","coordinates":[[[54.410747,24.506843],[54.410773,24.506792],[54.410797,24.506728],[54.410732,24.506708],[54.410747,24.506615],[54.410678,24.506576],[54.410546,24.50654],[54.410371,24.50656],[54.410298,24.506611],[54.410272,24.506662],[54.410271,24.506712],[54.410309,24.50678],[54.410357,24.50679],[54.410475,24.506853],[54.410561,24.506859],[54.410747,24.506843]]]}},{"type":"Feature","properties":{},"geometry":{"type":"Polygon","coordinates":[[[54.41103,24.507113],[54.411043,24.506943],[54.410977,24.506911],[54.410945,24.506966],[54.410847,24.506938],[54.410793,24.506994],[54.410706,24.507157],[54.4107,24.507317],[54.410743,24.507391],[54.410796,24.507399],[54.410877,24.507377],[54.410904,24.507326],[54.410984,24.50724],[54.41103,24.507113]]]}},{"type":"Feature","properties":{},"geometry":{"type":"Polygon","coordinates":[[[54.410964,24.508601],[54.410813,24.508596],[54.410786,24.508647],[54.410782,24.508747],[54.410934,24.508752],[54.410944,24.508732],[54.410944,24.508753],[54.411071,24.508757],[54.411097,24.508706],[54.4111,24.508608],[54.410973,24.508605],[54.410963,24.508624],[54.410964,24.508601]]]}},{"type":"Feature","properties":{},"geometry":{"type":"Polygon","coordinates":[[[54.411703,24.508958],[54.41158,24.508954],[54.411553,24.509005],[54.411545,24.509213],[54.411668,24.509217],[54.411694,24.509167],[54.411703,24.508958]]]}},{"type":"Feature","properties":{},"geometry":{"type":"Polygon","coordinates":[[[54.41076,24.509063],[54.410698,24.509064],[54.410672,24.509115],[54.410674,24.509212],[54.410735,24.509211],[54.410762,24.50916],[54.41076,24.509063]]]}},{"type":"Feature","properties":{},"geometry":{"type":"Polygon","coordinates":[[[54.41128,24.509387],[54.41145,24.509391],[54.411477,24.50934],[54.411487,24.508984],[54.411317,24.50898],[54.4113,24.509012],[54.411302,24.508986],[54.411248,24.508984],[54.411221,24.509035],[54.411207,24.50936],[54.411261,24.509362],[54.411282,24.509322],[54.41128,24.509387]]]}},{"type":"Feature","properties":{},"geometry":{"type":"Polygon","coordinates":[[[54.411171,24.509148],[54.411123,24.509147],[54.411096,24.509198],[54.411095,24.50927],[54.411143,24.509271],[54.41117,24.50922],[54.411171,24.509148]]]}},{"type":"Feature","properties":{},"geometry":{"type":"Polygon","coordinates":[[[54.411678,24.509265],[54.41156,24.509263],[54.411533,24.509314],[54.411529,24.509531],[54.411647,24.509533],[54.411673,24.509482],[54.411678,24.509265]]]}},{"type":"Feature","properties":{},"geometry":{"type":"Polygon","coordinates":[[[54.4107,24.509594],[54.411026,24.509585],[54.411037,24.509563],[54.411038,24.509583],[54.411421,24.509574],[54.411448,24.509523],[54.411445,24.509433],[54.411062,24.509442],[54.41105,24.509465],[54.411049,24.50944],[54.410723,24.509449],[54.410697,24.5095],[54.4107,24.509594]]]}},{"type":"Feature","properties":{},"geometry":{"type":"Polygon","coordinates":[[[54.411355,24.509641],[54.411256,24.509681],[54.41123,24.509732],[54.411307,24.509889],[54.411405,24.509849],[54.411432,24.509798],[54.411355,24.509641]]]}},{"type":"Feature","properties":{},"geometry":{"type":"Polygon","coordinates":[[[54.418573,24.481898],[54.418529,24.481901],[54.418504,24.481974],[54.418548,24.481971],[54.418573,24.481898]]]}},{"type":"Feature","properties":{},"geometry":{"type":"Polygon","coordinates":[[[54.418784,24.482322],[54.41846,24.482285],[54.418434,24.482336],[54.418391,24.482632],[54.418717,24.482665],[54.418743,24.482614],[54.418784,24.482322]]]}},{"type":"Feature","properties":{},"geometry":{"type":"Polygon","coordinates":[[[54.418334,24.483033],[54.418659,24.483046],[54.418686,24.482995],[54.418722,24.482713],[54.418396,24.482685],[54.418369,24.482736],[54.41836,24.482872],[54.41834,24.482912],[54.418334,24.483033]]]}},{"type":"Feature","properties":{},"geometry":{"type":"Polygon","coordinates":[[[54.417324,24.487723],[54.417238,24.487724],[54.417212,24.487775],[54.417212,24.48782],[54.417298,24.48782],[54.417325,24.487769],[54.417324,24.487723]]]}},{"type":"Feature","properties":{},"geometry":{"type":"Polygon","coordinates":[[[54.415887,24.487747],[54.415855,24.487746],[54.415828,24.487797],[54.415827,24.487841],[54.415859,24.487842],[54.415885,24.487791],[54.415887,24.487747]]]}},{"type":"Feature","properties":{},"geometry":{"type":"Polygon","coordinates":[[[54.416244,24.487966],[54.416262,24.487931],[54.416254,24.487801],[54.416097,24.487809],[54.416103,24.487769],[54.415997,24.487765],[54.415971,24.487816],[54.415979,24.487995],[54.41599,24.487995],[54.415983,24.488068],[54.416219,24.488061],[54.416245,24.48801],[54.416244,24.487966]]]}},{"type":"Feature","properties":{},"geometry":{"type":"Polygon","coordinates":[[[54.416335,24.488024],[54.416309,24.488075],[54.416325,24.488357],[54.416449,24.488352],[54.416452,24.488416],[54.416499,24.488414],[54.416526,24.488363],[54.416522,24.488295],[54.416505,24.488295],[54.416504,24.488284],[54.416554,24.488277],[54.416565,24.488255],[54.416564,24.488294],[54.416583,24.488294],[54.416569,24.488378],[54.416624,24.488381],[54.416676,24.488255],[54.416679,24.488355],[54.416722,24.488355],[54.416749,24.488305],[54.416746,24.488148],[54.416701,24.488149],[54.416683,24.488183],[54.416684,24.488149],[54.416661,24.488149],[54.416665,24.487971],[54.416611,24.487972],[54.416595,24.488004],[54.416595,24.487977],[54.416443,24.487975],[54.416416,24.488029],[54.416335,24.488024]],[[54.416593,24.488078],[54.416594,24.488072],[54.416597,24.488072],[54.416593,24.488078]]]}},{"type":"Feature","properties":{},"geometry":{"type":"Polygon","coordinates":[[[54.415576,24.488438],[54.41567,24.488436],[54.415714,24.488311],[54.41571,24.4882],[54.415648,24.488202],[54.415621,24.488253],[54.415624,24.488337],[54.415601,24.488338],[54.415575,24.488389],[54.415576,24.488438]]]}},{"type":"Feature","properties":{},"geometry":{"type":"Polygon","coordinates":[[[54.416187,24.488349],[54.416146,24.488352],[54.416119,24.488403],[54.416123,24.48844],[54.416164,24.488436],[54.41619,24.488385],[54.416187,24.488349]]]}},{"type":"Feature","properties":{},"geometry":{"type":"Polygon","coordinates":[[[54.416623,24.488528],[54.416667,24.48853],[54.416723,24.488408],[54.416725,24.488369],[54.416695,24.488368],[54.416668,24.488434],[54.416652,24.488434],[54.416625,24.488485],[54.416623,24.488528]]]}},{"type":"Feature","properties":{},"geometry":{"type":"Polygon","coordinates":[[[54.416205,24.48854],[54.4165,24.488544],[54.416527,24.488493],[54.416528,24.48842],[54.416348,24.488417],[54.416349,24.488388],[54.416274,24.488387],[54.416276,24.488277],[54.416236,24.488277],[54.416209,24.488327],[54.416205,24.48854]]]}},{"type":"Feature","properties":{},"geometry":{"type":"Polygon","coordinates":[[[54.416252,24.488881],[54.416223,24.488882],[54.416196,24.488933],[54.416201,24.48904],[54.41623,24.489039],[54.416257,24.488988],[54.416252,24.488881]]]}},{"type":"Feature","properties":{},"geometry":{"type":"Polygon","coordinates":[[[54.416058,24.48884],[54.415999,24.488841],[54.415973,24.488892],[54.41598,24.489092],[54.416038,24.489091],[54.416065,24.48904],[54.416058,24.48884]]]}},{"type":"Feature","properties":{},"geometry":{"type":"Polygon","coordinates":[[[54.415679,24.488851],[54.41562,24.488852],[54.415593,24.488903],[54.415597,24.489103],[54.415656,24.489102],[54.415683,24.489051],[54.415679,24.488851]]]}},{"type":"Feature","properties":{},"geometry":{"type":"Polygon","coordinates":[[[54.415876,24.489139],[54.415873,24.489095],[54.415719,24.489105],[54.415693,24.489156],[54.415695,24.489197],[54.41575,24.489185],[54.415771,24.489194],[54.415755,24.489301],[54.415806,24.489302],[54.415833,24.489251],[54.415834,24.48919],[54.41585,24.48919],[54.415876,24.489139]]]}},{"type":"Feature","properties":{},"geometry":{"type":"Polygon","coordinates":[[[54.416267,24.489502],[54.415416,24.489523],[54.415389,24.489574],[54.415394,24.489728],[54.416265,24.489706],[54.416292,24.489655],[54.41629,24.489586],[54.416269,24.489586],[54.416267,24.489502]]]}},{"type":"Feature","properties":{},"geometry":{"type":"Polygon","coordinates":[[[54.417193,24.501869],[54.417177,24.501903],[54.417059,24.501949],[54.417032,24.502],[54.417227,24.50214],[54.417444,24.501936],[54.41747,24.501885],[54.41724,24.501685],[54.417163,24.501757],[54.417136,24.501808],[54.417193,24.501869]]]}},{"type":"Feature","properties":{},"geometry":{"type":"Polygon","coordinates":[[[54.416794,24.501985],[54.416838,24.501974],[54.416865,24.501923],[54.41685,24.501875],[54.416805,24.501887],[54.416779,24.501938],[54.416794,24.501985]]]}},{"type":"Feature","properties":{},"geometry":{"type":"Polygon","coordinates":[[[54.416547,24.502026],[54.416643,24.502022],[54.416656,24.501998],[54.416656,24.502016],[54.416731,24.502015],[54.416758,24.501965],[54.416757,24.501916],[54.416682,24.501917],[54.416669,24.501942],[54.416668,24.501925],[54.416572,24.501928],[54.416545,24.501979],[54.416547,24.502026]]]}},{"type":"Feature","properties":{},"geometry":{"type":"Polygon","coordinates":[[[54.41759,24.502323],[54.417548,24.502351],[54.417521,24.502402],[54.417551,24.502438],[54.417593,24.50241],[54.417619,24.50236],[54.41759,24.502323]]]}},{"type":"Feature","properties":{},"geometry":{"type":"Polygon","coordinates":[[[54.417885,24.502453],[54.417835,24.502529],[54.417881,24.502565],[54.417932,24.502489],[54.417885,24.502453]]]}},{"type":"Feature","properties":{},"geometry":{"type":"Polygon","coordinates":[[[54.415526,24.502419],[54.415501,24.502417],[54.415474,24.502468],[54.41547,24.502527],[54.415495,24.502529],[54.415522,24.502478],[54.415526,24.502419]]]}},{"type":"Feature","properties":{},"geometry":{"type":"Polygon","coordinates":[[[54.417504,24.502442],[54.417421,24.502442],[54.417394,24.502493],[54.417394,24.502607],[54.417473,24.502613],[54.4175,24.502562],[54.417504,24.502442]]]}},{"type":"Feature","properties":{},"geometry":{"type":"Polygon","coordinates":[[[54.416915,24.502813],[54.417025,24.502818],[54.417032,24.502805],[54.417034,24.502845],[54.417276,24.502836],[54.417302,24.502785],[54.417299,24.502712],[54.417053,24.502728],[54.417054,24.502707],[54.416962,24.502703],[54.416996,24.502652],[54.416995,24.502628],[54.416892,24.50263],[54.416866,24.502705],[54.416944,24.502703],[54.416918,24.502753],[54.416915,24.502813]]]}},{"type":"Feature","properties":{},"geometry":{"type":"Polygon","coordinates":[[[54.415468,24.502603],[54.41539,24.502607],[54.415363,24.502658],[54.415368,24.502732],[54.415439,24.502733],[54.415466,24.502682],[54.415468,24.502603]]]}},{"type":"Feature","properties":{},"geometry":{"type":"Polygon","coordinates":[[[54.417402,24.50271],[54.417344,24.502715],[54.417317,24.502766],[54.417323,24.502826],[54.417381,24.502822],[54.417408,24.502771],[54.417402,24.50271]]]}},{"type":"Feature","properties":{},"geometry":{"type":"Polygon","coordinates":[[[54.415588,24.502863],[54.415618,24.502785],[54.415565,24.502779],[54.415535,24.502858],[54.415588,24.502863]]]}},{"type":"Feature","properties":{},"geometry":{"type":"Polygon","coordinates":[[[54.415458,24.502778],[54.415396,24.502784],[54.415369,24.502835],[54.415376,24.502889],[54.415421,24.502885],[54.41542,24.502952],[54.415478,24.502944],[54.415505,24.502893],[54.415497,24.502843],[54.415457,24.502848],[54.415458,24.502778]]]}},{"type":"Feature","properties":{},"geometry":{"type":"Polygon","coordinates":[[[54.415815,24.502783],[54.415689,24.502779],[54.415662,24.502829],[54.415659,24.502907],[54.415785,24.502912],[54.415811,24.502861],[54.415815,24.502783]]]}},{"type":"Feature","properties":{},"geometry":{"type":"Polygon","coordinates":[[[54.417238,24.503149],[54.417346,24.503153],[54.417372,24.503102],[54.417374,24.50306],[54.417267,24.503056],[54.41724,24.503107],[54.417238,24.503149]]]}},{"type":"Feature","properties":{},"geometry":{"type":"Polygon","coordinates":[[[54.417526,24.503139],[54.417465,24.503137],[54.417438,24.503188],[54.417435,24.503278],[54.417496,24.50328],[54.417523,24.503229],[54.417526,24.503139]]]}},{"type":"Feature","properties":{},"geometry":{"type":"Polygon","coordinates":[[[54.417604,24.503168],[54.417556,24.503169],[54.417529,24.50322],[54.41753,24.503281],[54.417578,24.50328],[54.417605,24.503229],[54.417604,24.503168]]]}},{"type":"Feature","properties":{},"geometry":{"type":"Polygon","coordinates":[[[54.415728,24.503421],[54.415635,24.503418],[54.415608,24.503469],[54.415606,24.503524],[54.415699,24.503528],[54.415726,24.503477],[54.415728,24.503421]]]}},{"type":"Feature","properties":{},"geometry":{"type":"Polygon","coordinates":[[[54.415852,24.503558],[54.415809,24.503559],[54.415783,24.50361],[54.415786,24.503693],[54.415829,24.503691],[54.415855,24.50364],[54.415852,24.503558]]]}},{"type":"Feature","properties":{},"geometry":{"type":"Polygon","coordinates":[[[54.417698,24.50357],[54.417664,24.503569],[54.417637,24.50362],[54.41763,24.503837],[54.417664,24.503838],[54.41769,24.503787],[54.417698,24.50357]]]}},{"type":"Feature","properties":{},"geometry":{"type":"Polygon","coordinates":[[[54.415683,24.504083],[54.41564,24.504033],[54.415568,24.504083],[54.415542,24.504134],[54.415585,24.504185],[54.415657,24.504134],[54.415683,24.504083]]]}},{"type":"Feature","properties":{},"geometry":{"type":"Polygon","coordinates":[[[54.41572,24.504505],[54.415898,24.504356],[54.415988,24.504182],[54.415792,24.50402],[54.415633,24.504178],[54.415543,24.504352],[54.41572,24.504505]]]}},{"type":"Feature","properties":{},"geometry":{"type":"Polygon","coordinates":[[[54.415441,24.504421],[54.415396,24.504457],[54.41537,24.504508],[54.415419,24.504559],[54.415463,24.504523],[54.41549,24.504472],[54.415441,24.504421]]]}},{"type":"Feature","properties":{},"geometry":{"type":"Polygon","coordinates":[[[54.41561,24.504498],[54.415451,24.504656],[54.415343,24.504864],[54.41552,24.505017],[54.415698,24.504868],[54.415806,24.50466],[54.41561,24.504498]]]}},{"type":"Feature","properties":{},"geometry":{"type":"Polygon","coordinates":[[[54.415784,24.50493],[54.415737,24.504966],[54.415711,24.505017],[54.415768,24.505078],[54.415814,24.505041],[54.415841,24.50499],[54.415784,24.50493]]]}},{"type":"Feature","properties":{},"geometry":{"type":"Polygon","coordinates":[[[54.418906,24.480138],[54.418939,24.480052],[54.418873,24.480042],[54.41884,24.480129],[54.418906,24.480138]]]}},{"type":"Feature","properties":{},"geometry":{"type":"Polygon","coordinates":[[[54.418981,24.480071],[54.418944,24.48007],[54.418917,24.480121],[54.418915,24.480182],[54.418953,24.480183],[54.41898,24.480132],[54.418981,24.480071]]]}},{"type":"Feature","properties":{},"geometry":{"type":"Polygon","coordinates":[[[54.420656,24.480311],[54.42066,24.480236],[54.420569,24.480232],[54.420542,24.480283],[54.420535,24.480415],[54.420626,24.480419],[54.420632,24.480408],[54.420631,24.48043],[54.420875,24.480439],[54.420901,24.480388],[54.420903,24.480342],[54.420695,24.480334],[54.420696,24.480302],[54.420656,24.480311]]]}},{"type":"Feature","properties":{},"geometry":{"type":"Polygon","coordinates":[[[54.419993,24.480828],[54.419929,24.480822],[54.419903,24.480873],[54.419897,24.480928],[54.41996,24.480934],[54.419987,24.480883],[54.419993,24.480828]]]}},{"type":"Feature","properties":{},"geometry":{"type":"Polygon","coordinates":[[[54.418523,24.481882],[54.418707,24.481875],[54.418733,24.481824],[54.41873,24.481743],[54.418675,24.481744],[54.418674,24.481726],[54.418853,24.481746],[54.41888,24.481695],[54.418898,24.481561],[54.418579,24.481524],[54.418552,24.481575],[54.418517,24.481742],[54.418523,24.481882]]]}},{"type":"Feature","properties":{},"geometry":{"type":"Polygon","coordinates":[[[54.419322,24.48163],[54.418982,24.481589],[54.418956,24.48164],[54.418933,24.481793],[54.419273,24.481834],[54.4193,24.481784],[54.419322,24.48163]]]}},{"type":"Feature","properties":{},"geometry":{"type":"Polygon","coordinates":[[[54.419748,24.48167],[54.419421,24.481631],[54.419394,24.481682],[54.419375,24.481819],[54.419702,24.481858],[54.419728,24.481807],[54.419748,24.48167]]]}},{"type":"Feature","properties":{},"geometry":{"type":"Polygon","coordinates":[[[54.420129,24.481727],[54.420131,24.481711],[54.42007,24.481706],[54.420043,24.481757],[54.420037,24.48182],[54.420098,24.481825],[54.420105,24.481811],[54.420173,24.481823],[54.4202,24.481772],[54.420202,24.48172],[54.420129,24.481727]]]}},{"type":"Feature","properties":{},"geometry":{"type":"Polygon","coordinates":[[[54.418868,24.481775],[54.418826,24.48177],[54.418799,24.481821],[54.418786,24.481901],[54.418828,24.481906],[54.418855,24.481855],[54.418868,24.481775]]]}},{"type":"Feature","properties":{},"geometry":{"type":"Polygon","coordinates":[[[54.420621,24.481788],[54.420283,24.481748],[54.420256,24.481799],[54.420233,24.481962],[54.42057,24.482002],[54.420597,24.481951],[54.420621,24.481788]]]}},{"type":"Feature","properties":{},"geometry":{"type":"Polygon","coordinates":[[[54.42065,24.482144],[54.42096,24.482186],[54.421032,24.481962],[54.42104,24.48183],[54.420715,24.481813],[54.420689,24.481864],[54.42065,24.482144]]]}},{"type":"Feature","properties":{},"geometry":{"type":"Polygon","coordinates":[[[54.419649,24.482135],[54.419631,24.482181],[54.419583,24.482177],[54.419618,24.481986],[54.419294,24.481947],[54.419267,24.481998],[54.419201,24.482359],[54.41935,24.482377],[54.419344,24.482406],[54.419212,24.482394],[54.419185,24.482445],[54.419165,24.48263],[54.419185,24.482632],[54.419165,24.48267],[54.419145,24.482801],[54.419235,24.482813],[54.419218,24.482846],[54.419201,24.482978],[54.419524,24.483012],[54.419551,24.482961],[54.419568,24.482829],[54.419479,24.48282],[54.419514,24.482659],[54.4195,24.482657],[54.41952,24.482618],[54.419571,24.482623],[54.419598,24.482572],[54.419632,24.482236],[54.419643,24.482238],[54.419637,24.482291],[54.419688,24.482289],[54.419705,24.482256],[54.419697,24.482291],[54.41981,24.482312],[54.419845,24.482224],[54.419783,24.482212],[54.419837,24.482116],[54.419835,24.482045],[54.419892,24.482051],[54.419828,24.482445],[54.420165,24.482478],[54.420191,24.482427],[54.420215,24.482222],[54.420194,24.48222],[54.420228,24.482064],[54.42014,24.482053],[54.420171,24.481889],[54.419851,24.481856],[54.419824,24.481907],[54.41981,24.48202],[54.419674,24.482022],[54.419647,24.482073],[54.419649,24.482135]],[[54.419713,24.482212],[54.41972,24.482199],[54.41972,24.482226],[54.419714,24.482237],[54.419713,24.482212]]]}},{"type":"Feature","properties":{},"geometry":{"type":"Polygon","coordinates":[[[54.418837,24.481991],[54.418801,24.481985],[54.418759,24.482106],[54.418795,24.482113],[54.418837,24.481991]]]}},{"type":"Feature","properties":{},"geometry":{"type":"Polygon","coordinates":[[[54.420468,24.48202],[54.420378,24.481999],[54.420326,24.48214],[54.420417,24.48216],[54.420468,24.48202]]]}},{"type":"Feature","properties":{},"geometry":{"type":"Polygon","coordinates":[[[54.419207,24.482064],[54.418884,24.482029],[54.418857,24.48208],[54.418847,24.482159],[54.419169,24.482194],[54.419196,24.482143],[54.419207,24.482064]]]}},{"type":"Feature","properties":{},"geometry":{"type":"Polygon","coordinates":[[[54.418817,24.482124],[54.418494,24.482084],[54.418468,24.482135],[54.418449,24.482262],[54.418771,24.482302],[54.418798,24.482252],[54.418817,24.482124]]]}},{"type":"Feature","properties":{},"geometry":{"type":"Polygon","coordinates":[[[54.420213,24.482491],[54.420534,24.48253],[54.420561,24.482479],[54.42058,24.482347],[54.420566,24.482345],[54.420588,24.482262],[54.42027,24.482219],[54.420244,24.48227],[54.420233,24.482332],[54.420245,24.482333],[54.420213,24.482491]]]}},{"type":"Feature","properties":{},"geometry":{"type":"Polygon","coordinates":[[[54.420589,24.482537],[54.4209,24.482577],[54.420926,24.482526],[54.420945,24.482404],[54.420932,24.482402],[54.420954,24.482361],[54.420967,24.48224],[54.420657,24.482212],[54.42063,24.482262],[54.420624,24.482384],[54.420589,24.482537]]]}},{"type":"Feature","properties":{},"geometry":{"type":"Polygon","coordinates":[[[54.419163,24.482372],[54.418842,24.482331],[54.418816,24.482382],[54.418778,24.482606],[54.4191,24.482647],[54.419127,24.482596],[54.419127,24.482536],[54.419163,24.482372]]]}},{"type":"Feature","properties":{},"geometry":{"type":"Polygon","coordinates":[[[54.419633,24.483185],[54.419958,24.483214],[54.419984,24.483163],[54.420017,24.482913],[54.420077,24.482921],[54.420103,24.48287],[54.420122,24.482745],[54.420152,24.482694],[54.420176,24.482499],[54.41984,24.482465],[54.419813,24.482516],[54.419794,24.482712],[54.419775,24.482749],[54.419759,24.482857],[54.4197,24.48285],[54.419673,24.482901],[54.419633,24.483185]]]}},{"type":"Feature","properties":{},"geometry":{"type":"Polygon","coordinates":[[[54.420488,24.482822],[54.420514,24.482771],[54.420545,24.482545],[54.420223,24.482516],[54.420197,24.482567],[54.420159,24.482789],[54.420488,24.482822]]]}},{"type":"Feature","properties":{},"geometry":{"type":"Polygon","coordinates":[[[54.420888,24.482769],[54.420874,24.482767],[54.420895,24.482727],[54.420916,24.482582],[54.420606,24.482548],[54.420579,24.482599],[54.42056,24.482745],[54.420571,24.482746],[54.420551,24.482784],[54.420534,24.482905],[54.420844,24.482941],[54.420871,24.48289],[54.420888,24.482769]]]}},{"type":"Feature","properties":{},"geometry":{"type":"Polygon","coordinates":[[[54.419055,24.482687],[54.418957,24.482661],[54.418902,24.482798],[54.419,24.482824],[54.419055,24.482687]]]}},{"type":"Feature","properties":{},"geometry":{"type":"Polygon","coordinates":[[[54.420388,24.482858],[54.4203,24.48283],[54.420239,24.482971],[54.420327,24.482999],[54.420388,24.482858]]]}},{"type":"Feature","properties":{},"geometry":{"type":"Polygon","coordinates":[[[54.418851,24.482817],[54.418763,24.482813],[54.418737,24.482864],[54.41873,24.482973],[54.418818,24.482978],[54.418843,24.48293],[54.418831,24.483046],[54.419163,24.483076],[54.419189,24.483025],[54.419205,24.482882],[54.418873,24.482852],[54.418846,24.482903],[54.418851,24.482817]]]}},{"type":"Feature","properties":{},"geometry":{"type":"Polygon","coordinates":[[[54.42048,24.483302],[54.4208,24.483329],[54.420826,24.483278],[54.420839,24.483149],[54.420824,24.483148],[54.420852,24.483007],[54.420544,24.48297],[54.420517,24.483021],[54.4205,24.483141],[54.42051,24.483142],[54.420493,24.483174],[54.42048,24.483302]]]}},{"type":"Feature","properties":{},"geometry":{"type":"Polygon","coordinates":[[[54.420432,24.483032],[54.420094,24.483],[54.420067,24.483051],[54.420049,24.483213],[54.420387,24.483244],[54.420414,24.483194],[54.420432,24.483032]]]}},{"type":"Feature","properties":{},"geometry":{"type":"Polygon","coordinates":[[[54.41954,24.489259],[54.419482,24.489262],[54.419456,24.489313],[54.419458,24.489354],[54.419515,24.489351],[54.419542,24.4893],[54.41954,24.489259]]]}},{"type":"Feature","properties":{},"geometry":{"type":"Polygon","coordinates":[[[54.419432,24.489265],[54.41933,24.489268],[54.419303,24.489319],[54.419305,24.489358],[54.419406,24.489354],[54.419433,24.489303],[54.419432,24.489265]]]}},{"type":"Feature","properties":{},"geometry":{"type":"Polygon","coordinates":[[[54.419694,24.489265],[54.419591,24.489266],[54.419564,24.489317],[54.419565,24.489371],[54.419669,24.48937],[54.419695,24.489319],[54.419694,24.489265]]]}},{"type":"Feature","properties":{},"geometry":{"type":"Polygon","coordinates":[[[54.419077,24.489301],[54.418987,24.489305],[54.418961,24.489356],[54.418967,24.48948],[54.419056,24.489476],[54.419083,24.489425],[54.419077,24.489301]]]}},{"type":"Feature","properties":{},"geometry":{"type":"Polygon","coordinates":[[[54.419661,24.489381],[54.419557,24.489378],[54.41953,24.489429],[54.419527,24.489532],[54.419632,24.489534],[54.419658,24.489483],[54.419661,24.489381]]]}},{"type":"Feature","properties":{},"geometry":{"type":"Polygon","coordinates":[[[54.419183,24.489537],[54.419157,24.48954],[54.41913,24.489591],[54.41914,24.489663],[54.419166,24.48966],[54.419193,24.489609],[54.419183,24.489537]]]}},{"type":"Feature","properties":{},"geometry":{"type":"Polygon","coordinates":[[[54.419684,24.489774],[54.419563,24.489776],[54.419536,24.489827],[54.419537,24.489872],[54.419658,24.48987],[54.419685,24.489819],[54.419684,24.489774]]]}},{"type":"Feature","properties":{},"geometry":{"type":"Polygon","coordinates":[[[54.419552,24.490349],[54.419636,24.490344],[54.419662,24.490293],[54.419659,24.490172],[54.419611,24.490173],[54.419585,24.490224],[54.419585,24.490255],[54.419571,24.490258],[54.419545,24.490308],[54.419552,24.490349]]]}},{"type":"Feature","properties":{},"geometry":{"type":"Polygon","coordinates":[[[54.419432,24.490181],[54.419381,24.490183],[54.419355,24.490234],[54.41936,24.490356],[54.419411,24.490354],[54.419438,24.490303],[54.419432,24.490181]]]}},{"type":"Feature","properties":{},"geometry":{"type":"Polygon","coordinates":[[[54.419314,24.490275],[54.419239,24.490277],[54.419212,24.490328],[54.419214,24.490362],[54.419289,24.49036],[54.419315,24.490309],[54.419314,24.490275]]]}},{"type":"Feature","properties":{},"geometry":{"type":"Polygon","coordinates":[[[54.418376,24.5023],[54.418174,24.502378],[54.418148,24.502429],[54.418191,24.502522],[54.418393,24.502444],[54.41842,24.502393],[54.418376,24.5023]]]}}]}